0171102340999992008033116204+53133+009350FM-15+0061ETGQ V0202801N00211021001CN0112651N1+01501+00101999999ADDGA1021+014401999GA2041+021001999GA3071+069001999GF107991999999999999999999MA1101801999999REMMET070METAR ETGQ 311620Z 28004KT 9999 FEW048 SCT070 BKN230 15/01 Q1018 BLU/;
0171102340999992008033117204+53133+009350FM-15+0061ETGQ V0202501N00151024001CN0112651N1+01401+00201999999ADDGA1021+014401999GA2041+024001999GA3071+069001999GF107991999999999999999999MA1101901999999REMMET070METAR ETGQ 311720Z 25003KT 9999 FEW048 SCT080 BKN230 14/02 Q1019 BLU/;
0171102340999992008033118204+53133+009350FM-15+0061ETGQ V0209999C00001027001CN0112651N1+01301+00201999999ADDGA1021+014401999GA2041+027001999GA3071+069001999GF107991999999999999999999MA1102001999999REMMET070METAR ETGQ 311820Z 00000KT 9999 FEW048 SCT090 BKN230 13/02 Q1020 BLU/;
0076102340999992008040104204+53133+009350FM-15+0061ETGQ V0202301N001012200019N0112651N1+00401+00201999999ADDMA1102301999999REMMET049METAR ETGQ 010420Z 23002KT 9999 04/02 Q1023 BLU/;
0076102340999992008040105204+53133+009350FM-15+0061ETGQ V0209999C000012200019N0112651N1+00301+00201999999ADDMA1102401999999REMMET049METAR ETGQ 010520Z 00000KT 9999 03/02 Q1024 BLU/;
0076102340999992008040106204+53133+009350FM-15+0061ETGQ V0209999C000012200019N0112651N1+00501+00201999999ADDMA1102401999999REMMET049METAR ETGQ 010620Z 00000KT 9999 05/02 Q1024 BLU/;
0125102340999992008040107204+53133+009350FM-15+0061ETGQ V0202601N001012200019N0112651N1+00601+00301999999ADDGA1021+075001999GF102991999999999999999999MA1102401999999REMMET056METAR ETGQ 010720Z 26002KT 9999 FEW250 06/03 Q1024 BLU/;
0125102340999992008040108204+53133+009350FM-15+0061ETGQ V0209999C000012200019N0112651N1+00901+00401999999ADDGA1021+075001999GF102991999999999999999999MA1102401999999REMMET056METAR ETGQ 010820Z 00000KT 9999 FEW250 09/04 Q1024 BLU/;
0125102340999992008040109204+53133+009350FM-15+0061ETGQ V0202301N001012200019N0112651N1+01201+00401999999ADDGA1021+009001999GF102991999999999999999999MA1102301999999REMMET056METAR ETGQ 010920Z 23002KT 9999 FEW030 12/04 Q1023 BLU/;
0148102340999992008040110204+53133+009350FM-15+0061ETGQ V0202401N002610750019N0112651N1+01501+00301999999ADDGA1021+012001999GA2071+075001999GF107991999999999999999999MA1102201999999REMMET063METAR ETGQ 011020Z 24005KT 9999 FEW040 BKN250 15/03 Q1022 BLU/;
0148102340999992008040111204+53133+009350FM-15+0061ETGQ V0202401N004110750019N0112651N1+01401+00101999999ADDGA1021+012001999GA2071+075001999GF107991999999999999999999MA1102201999999REMMET063METAR ETGQ 011120Z 24008KT 9999 FEW040 BKN250 14/01 Q1022 BLU/;
0148102340999992008040112204+53133+009350FM-15+0061ETGQ V0202401N003610600019N0112651N1+01601+00301999999ADDGA1021+012001999GA2071+060001999GF107991999999999999999999MA1102101999999REMMET063METAR ETGQ 011220Z 24007KT 9999 FEW040 BKN200 16/03 Q1021 BLU/;
0170102340999992008040113204+53133+009350FM-15+0061ETGQ V0202201N00361039001CN0112651N1+01601+00201999999ADDGA1021+012001999GA2041+039001999GA3071+054001999GF107991999999999999999999MA1102001999999REMMET069METAR ETGQ 011320Z 22007KT 9999 FEW040 SCT130 BKN180 16/02 Q1020 BLU;
0170102340999992008040114204+53133+009350FM-15+0061ETGQ V0202201N00361036001CN0112651N1+01501+00201999999ADDGA1021+012001999GA2041+036001999GA3071+054001999GF107991999999999999999999MA1101901999999REMMET069METAR ETGQ 011420Z 22007KT 9999 FEW040 SCT120 BKN180 15/02 Q1019 BLU;
0147102340999992008040115204+53133+009350FM-15+0061ETGQ V0202201N003610300019N0112651N1+01501+00201999999ADDGA1041+015001999GA2081+030001999GF108991999999999999999999MA1101901999999REMMET062METAR ETGQ 011520Z 22007KT 9999 SCT050 OVC100 15/02 Q1019 BLU;
0169102340999992008040116204+53133+009350FM-15+0061ETGQ V0202601N004110150019N0112651N1+01301+00301999999ADDGA1021+009001999GA2081+015001999GF108991999999999999999999MA1101901999999MW1161OC100931REMMET070METAR ETGQ 011620Z 26008G18KT 9999 VCSH FEW030 OVC050 13/03 Q1019 BLU;
0175102340999992008040117204+53133+009350FM-15+0061ETGQ V0202601N004610150019N0112651N1+01301+00401999999ADDGA1021+009001999GA2071+015001999GA3071+030001999GF107991999999999999999999MA1102001999999REMMET074METAR ETGQ 011720Z 26009KT 9999 FEW030 BKN050 BKN100 13/04 Q1020 RERA BLU;
0170102340999992008040118204+53133+009350FM-15+0061ETGQ V0202501N003610105019N0112651N1+01201+00501999999ADDGA1021+003001999GA2071+010501999GA3071+015001999GF107991999999999999999999MA1102001999999REMMET069METAR ETGQ 011820Z 25007KT 9999 FEW010 BKN035 BKN050 12/05 Q1020 BLU;
0124102340999992008040204204+53133+009350FM-15+0061ETGQ V0202501N002110180019N0112651N1+00901+00501999999ADDGA1071+018001999GF107991999999999999999999MA1102001999999REMMET055METAR ETGQ 020420Z 25004KT 9999 BKN060 09/05 Q1020 BLU;
0170102340999992008040205204+53133+009350FM-15+0061ETGQ V0202601N002110141019N0112651N1+00901+00401999999ADDGA1021+009901999GA2071+014101999GA3071+024001999GF107991999999999999999999MA1102001999999REMMET069METAR ETGQ 020520Z 26004KT 9999 FEW033 BKN047 BKN080 09/04 Q1020 BLU;
0181102340999992008040206204+53133+009350FM-15+0061ETGQ V0202701N002610120019N0112651N1+00901+00401999999ADDGA1021+009001999GA2071+012001999GA3081+024001999GF108991999999999999999999MA1102001999999MW1161REMMET074METAR ETGQ 020620Z 27005KT 9999 VCSH FEW030 BKN040 OVC080 09/04 Q1020 BLU;
0152102340999992008040207204+53133+009350FM-15+0061ETGQ V0202601N002610120019N0112651N1+00901+00401999999ADDGA1041+009001999GA2081+012001999GF108991999999999999999999MA1102001999999REMMET067METAR ETGQ 020720Z 26005KT 9999 SCT030 OVC040 09/04 Q1020 RERA BLU;
0147102340999992008040208204+53133+009350FM-15+0061ETGQ V0202801N003610120019N0112651N1+01001+00301999999ADDGA1041+009001999GA2081+012001999GF108991999999999999999999MA1102101999999REMMET062METAR ETGQ 020820Z 28007KT 9999 SCT030 OVC040 10/03 Q1021 BLU;
0147102340999992008040209204+53133+009350FM-15+0061ETGQ V0203101N004610120019N0112651N1+01001+00301999999ADDGA1041+009001999GA2071+012001999GF107991999999999999999999MA1102101999999REMMET062METAR ETGQ 020920Z 31009KT 9999 SCT030 BKN040 10/03 Q1021 BLU;
0147102340999992008040210204+53133+009350FM-15+0061ETGQ V0203101N003610135019N0112651N1+01001+00301999999ADDGA1041+010501999GA2071+013501999GF107991999999999999999999MA1102101999999REMMET062METAR ETGQ 021020Z 31007KT 9999 SCT035 BKN045 10/03 Q1021 BLU;
0147102340999992008040211204+53133+009350FM-15+0061ETGQ V0203201N003610135019N0112651N1+01101+00301999999ADDGA1041+010501999GA2071+013501999GF107991999999999999999999MA1102101999999REMMET062METAR ETGQ 021120Z 32007KT 9999 SCT035 BKN045 11/03 Q1021 BLU;
0124102340999992008040213204+53133+009350FM-15+0061ETGQ V0203001N002610114019N0112651N1+01001+00301999999ADDGA1071+011401999GF107991999999999999999999MA1102101999999REMMET055METAR ETGQ 021320Z 30005KT 9999 BKN038 10/03 Q1021 BLU;
0124102340999992008040214204+53133+009350FM-15+0061ETGQ V0203101N003610120019N0112651N1+01101+00301999999ADDGA1071+012001999GF107991999999999999999999MA1102101999999REMMET055METAR ETGQ 021420Z 31007KT 9999 BKN040 11/03 Q1021 BLU;
0124102340999992008040215204+53133+009350FM-15+0061ETGQ V0203101N002610123019N0112651N1+01101+00301999999ADDGA1071+012301999GF107991999999999999999999MA1102101999999REMMET055METAR ETGQ 021520Z 31005KT 9999 BKN041 11/03 Q1021 BLU;
0124102340999992008040216204+53133+009350FM-15+0061ETGQ V0203201N004110120019N0112651N1+01101+00301999999ADDGA1071+012001999GF107991999999999999999999MA1102101999999REMMET055METAR ETGQ 021620Z 32008KT 9999 BKN040 11/03 Q1021 BLU;
0124102340999992008040217204+53133+009350FM-15+0061ETGQ V0203201N005110123019N0112651N1+01001+00301999999ADDGA1071+012301999GF107991999999999999999999MA1102101999999REMMET055METAR ETGQ 021720Z 32010KT 9999 BKN041 10/03 Q1021 BLU;
0147102340999992008040218204+53133+009350FM-15+0061ETGQ V0203201N006210090019N0112651N1+01001+00301999999ADDGA1071+009001999GA2071+015001999GF107991999999999999999999MA1102101999999REMMET062METAR ETGQ 021820Z 32012KT 9999 BKN030 BKN050 10/03 Q1021 BLU;
0147102340999992008040304204+53133+009350FM-15+0061ETGQ V0203201N004110111019N0112651N1+00601+00301999999ADDGA1021+006001999GA2071+011101999GF107991999999999999999999MA1102201999999REMMET062METAR ETGQ 030420Z 32008KT 9999 FEW020 BKN037 06/03 Q1022 BLU;
0134102340999992008040305204+53133+009350FM-15+0061ETGQ V0203001N003110039019N0080001N1+00601+00301999999ADDGA1081+003901999GF108991999999999999999999MA1102201999999MW1511REMMET059METAR ETGQ 030520Z 30006KT 8000 -DZ OVC013 06/03 Q1022 GRN;
0142102340999992008040306204+53133+009350FM-15+0061ETGQ V0203101N003110042019N0080001N1+00601+00401999999ADDGA1081+004201999GF108991999999999999999999MA1102201999999MW1511MW2611REMMET061METAR ETGQ 030620Z 31006KT 8000 -DZRA OVC014 06/04 Q1022 GRN;
0147102340999992008040307204+53133+009350FM-15+0061ETGQ V0203101N003110048019N0112651N1+00601+00401999999ADDGA1021+003001999GA2071+004801999GF107991999999999999999999MA1102301999999REMMET062METAR ETGQ 030720Z 31006KT 9999 FEW010 BKN016 06/04 Q1023 WHT;
0124102340999992008040308204+53133+009350FM-15+0061ETGQ V0203201N002610042019N0112651N1+00701+00401999999ADDGA1071+004201999GF107991999999999999999999MA1102401999999REMMET055METAR ETGQ 030820Z 32005KT 9999 BKN014 07/04 Q1024 GRN;
0147102340999992008040309204+53133+009350FM-15+0061ETGQ V0203201N003110150019N0112651N1+00701+00401999999ADDGA1041+006001999GA2071+015001999GF107991999999999999999999MA1102401999999REMMET062METAR ETGQ 030920Z 32006KT 9999 SCT020 BKN050 07/04 Q1024 BLU;
0159102340999992008040310204+53133+009350FM-15+0061ETGQ V0200101N004110075019N0112651N1+00801+00401999999ADDGA1021+006001999GA2071+007501999GF107991999999999999999999MA1102401999999MW1801REMMET068METAR ETGQ 031020Z 01008KT 9999 -SHRA FEW020 BKN025 08/04 Q1024 BLU;
0147102340999992008040311204+53133+009350FM-15+0061ETGQ V0203201N004610105019N0112651N1+00901+00401999999ADDGA1041+006001999GA2071+010501999GF107991999999999999999999MA1102401999999REMMET062METAR ETGQ 031120Z 32009KT 9999 SCT020 BKN035 09/04 Q1024 BLU;
0173102340999992008040312204+53133+009350FM-15+0061ETGQ V0203301N00571009001CN0112651N1+00801+00401999999ADDGA1021+006001999GA2041+009001021GA3071+013501999GF107991999999999999999999MA1102511999999REMMET072METAR ETGQ 031220Z 33011KT 9999 FEW020 SCT030TCU BKN045 08/04 Q1025 BLU;
0170102340999992008040313204+53133+009350FM-15+0061ETGQ V0203501N00361009001CN0112651N1+00901+00401999999ADDGA1021+006001999GA2041+009001999GA3071+015001999GF107991999999999999999999MA1102511999999REMMET069METAR ETGQ 031320Z 35007KT 9999 FEW020 SCT030 BKN050 09/04 Q1025 BLU;
0170102340999992008040314204+53133+009350FM-15+0061ETGQ V0203301N00311009001CN0112651N1+00801+00401999999ADDGA1021+006001999GA2041+009001999GA3071+015001999GF107991999999999999999999MA1102511999999REMMET069METAR ETGQ 031420Z 33006KT 9999 FEW020 SCT030 BKN050 08/04 Q1025 BLU;
0170102340999992008040315204+53133+009350FM-15+0061ETGQ V0203401N00411009001CN0112651N1+00901+00401999999ADDGA1021+006001999GA2041+009001999GA3071+018001999GF107991999999999999999999MA1102511999999REMMET069METAR ETGQ 031520Z 34008KT 9999 FEW020 SCT030 BKN060 09/04 Q1025 BLU;
0170102340999992008040316204+53133+009350FM-15+0061ETGQ V0203301N00411010501CN0112651N1+00901+00401999999ADDGA1021+006601999GA2041+010501999GA3071+018001999GF107991999999999999999999MA1102611999999REMMET069METAR ETGQ 031620Z 33008KT 9999 FEW022 SCT035 BKN060 09/04 Q1026 BLU;
0170102340999992008040317204+53133+009350FM-15+0061ETGQ V0203501N00311010501CN0112651N1+00801+00401999999ADDGA1021+007501999GA2041+010501999GA3071+018001999GF107991999999999999999999MA1102611999999REMMET069METAR ETGQ 031720Z 35006KT 9999 FEW025 SCT035 BKN060 08/04 Q1026 BLU;
0147102340999992008040318204+53133+009350FM-15+0061ETGQ V0203201N003110180019N0112651N1+00801+00401999999ADDGA1041+007201999GA2071+018001999GF107991999999999999999999MA1102711999999REMMET062METAR ETGQ 031820Z 32006KT 9999 SCT024 BKN060 08/04 Q1027 BLU;
0124102340999992008040404204+53133+009350FM-15+0061ETGQ V0209999C000010036019N0112651N1+00601+00401999999ADDGA1071+003601999GF107991999999999999999999MA1102911999999REMMET055METAR ETGQ 040420Z 00000KT 9999 BKN012 06/04 Q1029 GRN;
0124102340999992008040405204+53133+009350FM-15+0061ETGQ V0209999C000010066019N0112651N1+00601+00401999999ADDGA1081+006601999GF108991999999999999999999MA1102911999999REMMET055METAR ETGQ 040520Z 00000KT 9999 OVC022 06/04 Q1029 WHT;
0124102340999992008040406204+53133+009350FM-15+0061ETGQ V0203201N000510039019N0112651N1+00601+00401999999ADDGA1071+003901999GF107991999999999999999999MA1102911999999REMMET055METAR ETGQ 040620Z 32001KT 9999 BKN013 06/04 Q1029 GRN;
0147102340999992008040408204+53133+009350FM-15+0061ETGQ V0209999V000510141019N0112651N1+00701+00301999999ADDGA1041+004501999GA2071+014101999GF107991999999999999999999MA1102911999999REMMET062METAR ETGQ 040820Z VRB01KT 9999 SCT015 BKN047 07/03 Q1029 BLU;
0124102340999992008040409204+53133+009350FM-15+0061ETGQ V0202001N001510081019N0112651N1+00801+00301999999ADDGA1071+008101999GF107991999999999999999999MA1102911999999REMMET055METAR ETGQ 040920Z 20003KT 9999 BKN027 08/03 Q1029 BLU;
0124102340999992008040410204+53133+009350FM-15+0061ETGQ V0202001N001510072019N0112651N1+00901+00301999999ADDGA1071+007201999GF107991999999999999999999MA1102811999999REMMET055METAR ETGQ 041020Z 20003KT 9999 BKN024 09/03 Q1028 WHT;
0124102340999992008040411204+53133+009350FM-15+0061ETGQ V0202101N001010072019N0112651N1+00901+00301999999ADDGA1071+007201999GF107991999999999999999999MA1102811999999REMMET055METAR ETGQ 041120Z 21002KT 9999 BKN024 09/03 Q1028 WHT;
0147102340999992008040412204+53133+009350FM-15+0061ETGQ V0203301N001510300019N0112651N1+01001+00401999999ADDGA1041+008101999GA2071+030001999GF107991999999999999999999MA1102711999999REMMET062METAR ETGQ 041220Z 33003KT 9999 SCT027 BKN100 10/04 Q1027 BLU;
0147102340999992008040413204+53133+009350FM-15+0061ETGQ V0203301N002110300019N0112651N1+01201+00201999999ADDGA1041+009001999GA2071+030001999GF107991999999999999999999MA1102611999999REMMET062METAR ETGQ 041320Z 33004KT 9999 SCT030 BKN100 12/02 Q1026 BLU;
0147102340999992008040414204+53133+009350FM-15+0061ETGQ V0203501N004110270019N0112651N1+01101+00201999999ADDGA1041+010501999GA2071+027001999GF107991999999999999999999MA1102511999999REMMET062METAR ETGQ 041420Z 35008KT 9999 SCT035 BKN090 11/02 Q1025 BLU;
0147102340999992008040415204+53133+009350FM-15+0061ETGQ V0200101N003110240019N0112651N1+01001+00301999999ADDGA1041+009001999GA2071+024001999GF107991999999999999999999MA1102511999999REMMET062METAR ETGQ 041520Z 01006KT 9999 SCT030 BKN080 10/03 Q1025 BLU;
0147102340999992008040416204+53133+009350FM-15+0061ETGQ V0209999V000510090019N0112651N1+01001+00301999999ADDGA1071+009001999GA2071+024001999GF107991999999999999999999MA1102401999999REMMET062METAR ETGQ 041620Z VRB01KT 9999 BKN030 BKN080 10/03 Q1024 BLU;
0147102340999992008040417204+53133+009350FM-15+0061ETGQ V0203101N001010105019N0112651N1+01001+00401999999ADDGA1071+010501999GA2071+024001999GF107991999999999999999999MA1102301999999REMMET062METAR ETGQ 041720Z 31002KT 9999 BKN035 BKN080 10/04 Q1023 BLU;
0147102340999992008040418204+53133+009350FM-15+0061ETGQ V0209999C000010120019N0112651N1+01001+00401999999ADDGA1021+010501999GA2071+012001999GF107991999999999999999999MA1102301999999REMMET062METAR ETGQ 041820Z 00000KT 9999 FEW035 BKN040 10/04 Q1023 BLU;
0134102340999992008040704204+53133+009350FM-15+0061ETGQ V0209999C000010003019N0050001N1+00001+00001999999ADDGA1071+000301999GF107991999999999999999999MA1099701999999MW1711REMMET059METAR ETGQ 070420Z 00000KT 5000 -SN BKN001 00/00 Q0997 RED;
0143102340999992008040705204+53133+009350FM-15+0061ETGQ V0203201N000510009019N0030001N1+00001+00001999999ADDGA1081+000901999GF108991999999999999999999MA1099801999999MW1101MW2711REMMET062METAR ETGQ 070520Z 32001KT 3000 -SN BR OVC003 00/00 Q0998 YLO;
0143102340999992008040706204+53133+009350FM-15+0061ETGQ V0209999C000010012019N0030001N1+00001+00001999999ADDGA1081+001201999GF108991999999999999999999MA1099801999999MW1101MW2711REMMET062METAR ETGQ 070620Z 00000KT 3000 -SN BR OVC004 00/00 Q0998 YLO;
0148102340999992008040707204+53133+009350FM-15+0061ETGQ V0209999V000510015019N0030001N1+00101+00101999999ADDGA1081+001501999GF108991999999999999999999MA1099901999999MW1101MW2711REMMET067METAR ETGQ 070720Z VRB01KT 3000 -SN BR OVC005 01/01 Q0999 RESN YLO;
0171102340999992008040708204+53133+009350FM-15+0061ETGQ V0202501N001510021019N0030001N1+00101+00101999999ADDGA1041+001501999GA2081+002101999GF108991999999999999999999MA1100001999999MW1101MW2711REMMET074METAR ETGQ 070820Z 25003KT 3000 -SN BR SCT005 OVC007 01/01 Q1000 RESN YLO;
0157102340999992008040709204+53133+009350FM-15+0061ETGQ V0202301N002610033019N0060001N1+00201+00101999999ADDGA1021+001801999GA2081+003301999GF108991999999999999999999MA1100001999999MW1511REMMET066METAR ETGQ 070920Z 23005KT 6000 -DZ FEW006 OVC011 02/01 Q1000 GRN;
0165102340999992008040710204+53133+009350FM-15+0061ETGQ V0202401N002610036019N0060001N1+00201+00101999999ADDGA1021+003001999GA2081+003601999GF108991999999999999999999MA1100101999999MW1611MW2711REMMET068METAR ETGQ 071020Z 24005KT 6000 -RASN FEW010 OVC012 02/01 Q1001 GRN;
0165102340999992008040711204+53133+009350FM-15+0061ETGQ V0202501N002610033019N0060001N1+00201+00101999999ADDGA1021+002101999GA2081+003301999GF108991999999999999999999MA1100201999999MW1611MW2711REMMET068METAR ETGQ 071120Z 25005KT 6000 -RASN FEW007 OVC011 02/01 Q1002 GRN;
0165102340999992008040712204+53133+009350FM-15+0061ETGQ V0202401N002110129019N0112651N1+00301+00201999999ADDGA1021+006001999GA2071+012901999GF107991999999999999999999MA1100311999999MW1611MW2711REMMET068METAR ETGQ 071220Z 24004KT 9999 -RASN FEW020 BKN043 03/02 Q1003 BLU;
0134102340999992008040713204+53133+009350FM-15+0061ETGQ V0202201N002610075019N0080001N1+00301+00201999999ADDGA1071+007501999GF107991999999999999999999MA1100411999999MW1611REMMET059METAR ETGQ 071320Z 22005KT 8000 -RA BKN025 03/02 Q1004 BLU;
0157102340999992008040714204+53133+009350FM-15+0061ETGQ V0202101N004110114019N0112651N1+00401+00101999999ADDGA1021+005401999GA2071+011401999GF107991999999999999999999MA1100411999999MW1611REMMET066METAR ETGQ 071420Z 21008KT 9999 -RA FEW018 BKN038 04/01 Q1004 BLU;
0147102340999992008040715204+53133+009350FM-15+0061ETGQ V0202101N003610150019N0112651N1+00401+00201999999ADDGA1021+005401999GA2071+015001999GF107991999999999999999999MA1100511999999REMMET062METAR ETGQ 071520Z 21007KT 9999 FEW018 BKN050 04/02 Q1005 BLU;
0125102340999992008040716204+53133+009350FM-15+0061ETGQ V0202201N004112200019N0112651N1+00401+00101999999ADDGA1041+015001999GF104991999999999999999999MA1100511999999REMMET056METAR ETGQ 071620Z 22008KT 9999 SCT050 04/01 Q1005 BLU/;
0124102340999992008040717204+53133+009350FM-15+0061ETGQ V0202101N003610135019N0112651N1+00401+00101999999ADDGA1071+013501999GF107991999999999999999999MA1100611999999REMMET055METAR ETGQ 071720Z 21007KT 9999 BKN045 04/01 Q1006 BLU;
0124102340999992008040718204+53133+009350FM-15+0061ETGQ V0209999V000510135019N0112651N1+00301+00101999999ADDGA1071+013501999GF107991999999999999999999MA1100711999999REMMET055METAR ETGQ 071820Z VRB01KT 9999 BKN045 03/01 Q1007 BLU;
0134102340999992008040804204+53133+009350FM-15+0061ETGQ V0209999V000510012019N0040001N1+00001+00001999999ADDGA1081+001201999GF108991999999999999999999MA1100711999999MW1101REMMET059METAR ETGQ 080420Z VRB01KT 4000 BR OVC004 00/M00 Q1007 YLO;
0134102340999992008040805204+53133+009350FM-15+0061ETGQ V0201901N000510012019N0040001N1+00001+00001999999ADDGA1081+001201999GF108991999999999999999999MA1100711999999MW1101REMMET059METAR ETGQ 080520Z 19001KT 4000 BR OVC004 00/M00 Q1007 YLO;
0134102340999992008040806204+53133+009350FM-15+0061ETGQ V0209999V000510015019N0040001N1+00101+00001999999ADDGA1081+001501999GF108991999999999999999999MA1100711999999MW1101REMMET059METAR ETGQ 080620Z VRB01KT 4000 BR OVC005 01/M00 Q1007 YLO;
0134102340999992008040807204+53133+009350FM-15+0061ETGQ V0201201N002110018019N0050001N1+00101-00101999999ADDGA1081+001801999GF108991999999999999999999MA1100711999999MW1101REMMET059METAR ETGQ 080720Z 12004KT 5000 BR OVC006 01/M01 Q1007 YLO;
0125102340999992008040808204+53133+009350FM-15+0061ETGQ V0201001N000510021019N0070001N1+00101-00101999999ADDGA1081+002101999GF108991999999999999999999MA1100711999999REMMET056METAR ETGQ 080820Z 10001KT 7000 OVC007 01/M01 Q1007 GRN;
0125102340999992008040809204+53133+009350FM-15+0061ETGQ V0209999V000510036019N0080001N1+00301+00001999999ADDGA1071+003601999GF107991999999999999999999MA1100711999999REMMET056METAR ETGQ 080920Z VRB01KT 8000 BKN012 03/M00 Q1007 GRN;
0124102340999992008040810204+53133+009350FM-15+0061ETGQ V0201801N002110042019N0080001N1+00301+00001999999ADDGA1071+004201999GF107991999999999999999999MA1100711999999REMMET055METAR ETGQ 081020Z 18004KT 8000 BKN014 03/00 Q1007 GRN;
0125102340999992008040811204+53133+009350FM-15+0061ETGQ V0200901N002110042019N0080001N1+00401+00001999999ADDGA1071+004201999GF107991999999999999999999MA1100611999999REMMET056METAR ETGQ 081120Z 09004KT 8000 BKN014 04/M00 Q1006 GRN;
0124102340999992008040812204+53133+009350FM-15+0061ETGQ V0201101N002110063019N0112651N1+00601+00101999999ADDGA1071+006301999GF107991999999999999999999MA1100611999999REMMET055METAR ETGQ 081220Z 11004KT 9999 BKN021 06/01 Q1006 WHT;
0147102340999992008040814204+53133+009350FM-15+0061ETGQ V0200501N002110390019N0112651N1+00601+00001999999ADDGA1041+006901999GA2071+039001999GF107991999999999999999999MA1100511999999REMMET062METAR ETGQ 081420Z 05004KT 9999 SCT023 BKN130 06/00 Q1005 BLU;
0147102340999992008040817204+53133+009350FM-15+0061ETGQ V0200701N001510390019N0112651N1+00701+00001999999ADDGA1021+006901999GA2071+039001999GF107991999999999999999999MA1100411999999REMMET062METAR ETGQ 081720Z 07003KT 9999 FEW023 BKN130 07/00 Q1004 BLU;
0124102340999992008040818204+53133+009350FM-15+0061ETGQ V0200301N000510360019N0112651N1+00701+00101999999ADDGA1071+036001999GF107991999999999999999999MA1100411999999REMMET055METAR ETGQ 081820Z 03001KT 9999 BKN120 07/01 Q1004 BLU;
0124102340999992008040904204+53133+009350FM-15+0061ETGQ V0202201N000510240019N0080001N1+00301+00201999999ADDGA1071+024001999GF107991999999999999999999MA1100001999999REMMET055METAR ETGQ 090420Z 22001KT 8000 BKN080 03/02 Q1000 BLU;
0147102340999992008040905204+53133+009350FM-15+0061ETGQ V0209999C000010330019N0080001N1+00301+00201999999ADDGA1041+021001999GA2071+033001999GF107991999999999999999999MA1100001999999REMMET062METAR ETGQ 090520Z 00000KT 8000 SCT070 BKN110 03/02 Q1000 BLU;
0124102340999992008040906204+53133+009350FM-15+0061ETGQ V0202401N001010210019N0080001N1+00301+00201999999ADDGA1071+021001999GF107991999999999999999999MA1100001999999REMMET055METAR ETGQ 090620Z 24002KT 8000 BKN070 03/02 Q1000 BLU;
0147102340999992008040907204+53133+009350FM-15+0061ETGQ V0203401N000510540019N0080001N1+00401+00201999999ADDGA1021+003001999GA2071+054001999GF107991999999999999999999MA1100001999999REMMET062METAR ETGQ 090720Z 34001KT 8000 FEW010 BKN180 04/02 Q1000 BLU;
0124102340999992008040908204+53133+009350FM-15+0061ETGQ V0203101N000510240019N0080001N1+00501+00301999999ADDGA1071+024001999GF107991999999999999999999MA1100001999999REMMET055METAR ETGQ 090820Z 31001KT 8000 BKN080 05/03 Q1000 BLU;
0147102340999992008040909204+53133+009350FM-15+0061ETGQ V0209999V000510300019N0080001N1+00701+00201999999ADDGA1021+006001999GA2071+030001999GF107991999999999999999999MA1100001999999REMMET062METAR ETGQ 090920Z VRB01KT 8000 FEW020 BKN100 07/02 Q1000 BLU;
0147102340999992008040910204+53133+009350FM-15+0061ETGQ V0203201N001010240019N0080001N1+00701+00201999999ADDGA1021+018001999GA2071+024001999GF107991999999999999999999MA1099901999999REMMET062METAR ETGQ 091020Z 32002KT 8000 FEW060 BKN080 07/02 Q0999 BLU;
0124102340999992008040911204+53133+009350FM-15+0061ETGQ V0209999V001010120019N0112651N1+00901+00201999999ADDGA1071+012001999GF107991999999999999999999MA1099801999999REMMET055METAR ETGQ 091120Z VRB02KT 9999 BKN040 09/02 Q0998 BLU;
0124102340999992008040912204+53133+009350FM-15+0061ETGQ V0200501N002110150019N0112651N1+01001+00001999999ADDGA1071+015001999GF107991999999999999999999MA1099701999999REMMET055METAR ETGQ 091220Z 05004KT 9999 BKN050 10/00 Q0997 BLU;
0134102340999992008040913204+53133+009350FM-15+0061ETGQ V0200801N002610072019N0112651N1+00901+00101999999ADDGA1071+007201999GF107991999999999999999999MA1099701999999MW1611REMMET059METAR ETGQ 091320Z 08005KT 9999 -RA BKN024 09/01 Q0997 WHT;
0134102340999992008040914204+53133+009350FM-15+0061ETGQ V0201001N002610111019N0112651N1+00901+00201999999ADDGA1071+011101999GF107991999999999999999999MA1099701999999MW1611REMMET059METAR ETGQ 091420Z 10005KT 9999 -RA BKN037 09/02 Q0997 BLU;
0134102340999992008040915204+53133+009350FM-15+0061ETGQ V0200701N002110087019N0112651N1+00801+00301999999ADDGA1071+008701999GF107991999999999999999999MA1099701999999MW1611REMMET059METAR ETGQ 091520Z 07004KT 9999 -RA BKN029 08/03 Q0997 BLU;
0134102340999992008040916204+53133+009350FM-15+0061ETGQ V0200701N001010075019N0112651N1+00701+00401999999ADDGA1071+007501999GF107991999999999999999999MA1099701999999MW1611REMMET059METAR ETGQ 091620Z 07002KT 9999 -RA BKN025 07/04 Q0997 BLU;
0134102340999992008040917204+53133+009350FM-15+0061ETGQ V0209999C000010072019N0112651N1+00701+00401999999ADDGA1071+007201999GF107991999999999999999999MA1099701999999MW1611REMMET059METAR ETGQ 091720Z 00000KT 9999 -RA BKN024 07/04 Q0997 WHT;
0157102340999992008040918204+53133+009350FM-15+0061ETGQ V0203601N001510072019N0080001N1+00601+00401999999ADDGA1041+004501999GA2071+007201999GF107991999999999999999999MA1099701999999MW1611REMMET066METAR ETGQ 091820Z 36003KT 8000 -RA SCT015 BKN024 06/04 Q0997 WHT;
0147102340999992008041004204+53133+009350FM-15+0061ETGQ V0209999C000010360019N0080001N1+00401+00301999999ADDGA1041+018001999GA2071+036001999GF107991999999999999999999MA1099801999999REMMET062METAR ETGQ 100420Z 00000KT 8000 SCT060 BKN120 04/03 Q0998 BLU;
0124102340999992008041005204+53133+009350FM-15+0061ETGQ V0200601N001510180019N0080001N1+00401+00301999999ADDGA1071+018001999GF107991999999999999999999MA1099801999999REMMET055METAR ETGQ 100520Z 06003KT 8000 BKN060 04/03 Q0998 BLU;
0147102340999992008041006204+53133+009350FM-15+0061ETGQ V0209999C000010150019N0060001N1+00501+00301999999ADDGA1071+015001999GA2071+036001999GF107991999999999999999999MA1099901999999REMMET062METAR ETGQ 100620Z 00000KT 6000 BKN050 BKN120 05/03 Q0999 WHT;
0147102340999992008041007204+53133+009350FM-15+0061ETGQ V0209999C000010150019N0060001N1+00501+00301999999ADDGA1041+004201999GA2071+015001999GF107991999999999999999999MA1099901999999REMMET062METAR ETGQ 100720Z 00000KT 6000 SCT014 BKN050 05/03 Q0999 WHT;
0147102340999992008041008204+53133+009350FM-15+0061ETGQ V0203401N001510360019N0080001N1+00601+00301999999ADDGA1021+004501999GA2071+036001999GF107991999999999999999999MA1099901999999REMMET062METAR ETGQ 100820Z 34003KT 8000 FEW015 BKN120 06/03 Q0999 BLU;
0170102340999992008041009204+53133+009350FM-15+0061ETGQ V0203301N00211018001CN0112651N1+00701+00301999999ADDGA1021+005401999GA2041+018001999GA3071+036001999GF107991999999999999999999MA1099901999999REMMET069METAR ETGQ 100920Z 33004KT 9999 FEW018 SCT060 BKN120 07/03 Q0999 BLU;
0170102340999992008041010204+53133+009350FM-15+0061ETGQ V0200201N00151018001CN0112651N1+00801+00201999999ADDGA1021+007501999GA2041+018001999GA3071+036001999GF107991999999999999999999MA1099901999999REMMET069METAR ETGQ 101020Z 02003KT 9999 FEW025 SCT060 BKN120 08/02 Q0999 BLU;
0147102340999992008041011204+53133+009350FM-15+0061ETGQ V0203401N002610360019N0112651N1+00901+00201999999ADDGA1021+009001999GA2071+036001999GF107991999999999999999999MA1099901999999REMMET062METAR ETGQ 101120Z 34005KT 9999 FEW030 BKN120 09/02 Q0999 BLU;
0124102340999992008041012204+53133+009350FM-15+0061ETGQ V0203501N001510123019N0112651N1+01001+00001999999ADDGA1071+012301999GF107991999999999999999999MA1099901999999REMMET055METAR ETGQ 101220Z 35003KT 9999 BKN041 10/00 Q0999 BLU;
0147102340999992008041013204+53133+009350FM-15+0061ETGQ V0201701N001510240019N0112651N1+01101+00001999999ADDGA1021+012001999GA2071+024001999GF107991999999999999999999MA1099901999999REMMET062METAR ETGQ 101320Z 17003KT 9999 FEW040 BKN080 11/00 Q0999 BLU;
0124102340999992008041014204+53133+009350FM-15+0061ETGQ V0200501N001510129019N0112651N1+01101+00101999999ADDGA1071+012901999GF107991999999999999999999MA1099801999999REMMET055METAR ETGQ 101420Z 05003KT 9999 BKN043 11/01 Q0998 BLU;
0124102340999992008041015204+53133+009350FM-15+0061ETGQ V0200801N002110135019N0112651N1+01101+00201999999ADDGA1071+013501999GF107991999999999999999999MA1099801999999REMMET055METAR ETGQ 101520Z 08004KT 9999 BKN045 11/02 Q0998 BLU;
0124102340999992008041016204+53133+009350FM-15+0061ETGQ V0209999V001010150019N0112651N1+01101+00101999999ADDGA1071+015001999GF107991999999999999999999MA1099801999999REMMET055METAR ETGQ 101620Z VRB02KT 9999 BKN050 11/01 Q0998 BLU;
0124102340999992008041017204+53133+009350FM-15+0061ETGQ V0201301N002110150019N0112651N1+01001+00301999999ADDGA1071+015001999GF107991999999999999999999MA1099801999999REMMET055METAR ETGQ 101720Z 13004KT 9999 BKN050 10/03 Q0998 BLU;
0124102340999992008041018204+53133+009350FM-15+0061ETGQ V0201101N002110150019N0112651N1+00901+00301999999ADDGA1071+015001999GF107991999999999999999999MA1099801999999REMMET055METAR ETGQ 101820Z 11004KT 9999 BKN050 09/03 Q0998 BLU;
0157102340999992008041104204+53133+009350FM-15+0061ETGQ V0203201N000510114019N0080001N1+00601+00401999999ADDGA1021+004501999GA2081+011401999GF108991999999999999999999MA1099801999999MW1611REMMET066METAR ETGQ 110420Z 32001KT 8000 -RA FEW015 OVC038 06/04 Q0998 BLU;
0157102340999992008041105204+53133+009350FM-15+0061ETGQ V0209999C000010045019N0080001N1+00601+00401999999ADDGA1071+004501999GA2081+011401999GF108991999999999999999999MA1099801999999MW1611REMMET066METAR ETGQ 110520Z 00000KT 8000 -RA BKN015 OVC038 06/04 Q0998 WHT;
0147102340999992008041106204+53133+009350FM-15+0061ETGQ V0209999C000010105019N0060001N1+00601+00401999999ADDGA1041+004501999GA2081+010501999GF108991999999999999999999MA1099801999999REMMET062METAR ETGQ 110620Z 00000KT 6000 SCT015 OVC035 06/04 Q0998 WHT;
0147102340999992008041107204+53133+009350FM-15+0061ETGQ V0203101N000510084019N0060001N1+00601+00501999999ADDGA1041+004501999GA2081+008401999GF108991999999999999999999MA1099801999999REMMET062METAR ETGQ 110720Z 31001KT 6000 SCT015 OVC028 06/05 Q0998 WHT;
0147102340999992008041108204+53133+009350FM-15+0061ETGQ V0209999C000010081019N0080001N1+00701+00401999999ADDGA1021+003601999GA2081+008101999GF108991999999999999999999MA1099801999999REMMET062METAR ETGQ 110820Z 00000KT 8000 FEW012 OVC027 07/04 Q0998 BLU;
0147102340999992008041109204+53133+009350FM-15+0061ETGQ V0200101N001510096019N0112651N1+00801+00501999999ADDGA1021+004501999GA2071+009601999GF107991999999999999999999MA1099801999999REMMET062METAR ETGQ 110920Z 01003KT 9999 FEW015 BKN032 08/05 Q0998 BLU;
0147102340999992008041110204+53133+009350FM-15+0061ETGQ V0202901N001510102019N0112651N1+00901+00501999999ADDGA1021+006001999GA2071+010201999GF107991999999999999999999MA1099801999999REMMET062METAR ETGQ 111020Z 29003KT 9999 FEW020 BKN034 09/05 Q0998 BLU;
0147102340999992008041111204+53133+009350FM-15+0061ETGQ V0203501N001510126019N0112651N1+01001+00501999999ADDGA1021+006601999GA2071+012601999GF107991999999999999999999MA1099801999999REMMET062METAR ETGQ 111120Z 35003KT 9999 FEW022 BKN042 10/05 Q0998 BLU;
0124102340999992008041112204+53133+009350FM-15+0061ETGQ V0203101N002110099019N0112651N1+01001+00401999999ADDGA1071+009901999GF107991999999999999999999MA1099801999999REMMET055METAR ETGQ 111220Z 31004KT 9999 BKN033 10/04 Q0998 BLU;
0124102340999992008041113204+53133+009350FM-15+0061ETGQ V0202901N001010102019N0112651N1+01001+00401999999ADDGA1071+010201999GF107991999999999999999999MA1099801999999REMMET055METAR ETGQ 111320Z 29002KT 9999 BKN034 10/04 Q0998 BLU;
0147102340999992008041114204+53133+009350FM-15+0061ETGQ V0203601N002110099019N0112651N1+01001+00401999999ADDGA1021+006001999GA2071+009901999GF107991999999999999999999MA1099901999999REMMET062METAR ETGQ 111420Z 36004KT 9999 FEW020 BKN033 10/04 Q0999 BLU;
0157102340999992008041115204+53133+009350FM-15+0061ETGQ V0202201N001010105019N0112651N1+00901+00601999999ADDGA1021+006001999GA2071+010501999GF107991999999999999999999MA1100001999999MW1611REMMET066METAR ETGQ 111520Z 22002KT 9999 -RA FEW020 BKN035 09/06 Q1000 BLU;
0157102340999992008041116204+53133+009350FM-15+0061ETGQ V0202201N001010105019N0090001N1+00901+00601999999ADDGA1021+006001999GA2071+010501999GF107991999999999999999999MA1100001999999MW1611REMMET066METAR ETGQ 111620Z 22002KT 9000 -RA FEW020 BKN035 09/06 Q1000 BLU;
0147102340999992008041117204+53133+009350FM-15+0061ETGQ V0201801N001010120019N0112651N1+00901+00601999999ADDGA1021+006001999GA2071+012001999GF107991999999999999999999MA1100101999999REMMET062METAR ETGQ 111720Z 18002KT 9999 FEW020 BKN040 09/06 Q1001 BLU;
0147102340999992008041118204+53133+009350FM-15+0061ETGQ V0202201N001510360019N0080001N1+00901+00601999999ADDGA1041+012001999GA2071+036001999GF107991999999999999999999MA1100201999999REMMET062METAR ETGQ 111820Z 22003KT 8000 SCT040 BKN120 09/06 Q1002 BLU;
0124102340999992008041404204+53133+009350FM-15+0061ETGQ V0201601N001510096019N0112651N1+00801+00701999999ADDGA1071+009601999GF107991999999999999999999MA1100911999999REMMET055METAR ETGQ 140420Z 16003KT 9999 BKN032 08/07 Q1009 BLU;
0124102340999992008041405204+53133+009350FM-15+0061ETGQ V0209999C000010078019N0112651N1+00801+00701999999ADDGA1071+007801999GF107991999999999999999999MA1100911999999REMMET055METAR ETGQ 140520Z 00000KT 9999 BKN026 08/07 Q1009 BLU;
0147102340999992008041406204+53133+009350FM-15+0061ETGQ V0201501N002110096019N0112651N1+00801+00701999999ADDGA1021+007201999GA2071+009601999GF107991999999999999999999MA1100911999999REMMET062METAR ETGQ 140620Z 15004KT 9999 FEW024 BKN032 08/07 Q1009 BLU;
0147102340999992008041407204+53133+009350FM-15+0061ETGQ V0201501N002110360019N0112651N1+00901+00701999999ADDGA1041+007501999GA2071+036001999GF107991999999999999999999MA1100911999999REMMET062METAR ETGQ 140720Z 15004KT 9999 SCT025 BKN120 09/07 Q1009 BLU;
0147102340999992008041408204+53133+009350FM-15+0061ETGQ V0202201N003610099019N0112651N1+00901+00401999999ADDGA1021+006001999GA2071+009901999GF107991999999999999999999MA1100911999999REMMET062METAR ETGQ 140820Z 22007KT 9999 FEW020 BKN033 09/04 Q1009 BLU;
0147102340999992008041409204+53133+009350FM-15+0061ETGQ V0202001N003110123019N0112651N1+00901+00401999999ADDGA1021+006901999GA2071+012301999GF107991999999999999999999MA1100911999999REMMET062METAR ETGQ 140920Z 20006KT 9999 FEW023 BKN041 09/04 Q1009 BLU;
0147102340999992008041410204+53133+009350FM-15+0061ETGQ V0202501N002610102019N0112651N1+00801+00401999999ADDGA1021+000301999GA2071+010201999GF107991999999999999999999MA1101021999999REMMET062METAR ETGQ 141020Z 25005KT 9999 FEW001 BKN034 08/04 Q1010 BLU;
0157102340999992008041411204+53133+009350FM-15+0061ETGQ V0202501N002610117019N0112651N1+00801+00501999999ADDGA1021+006001999GA2071+011701999GF107991999999999999999999MA1101081999999MW1611REMMET066METAR ETGQ 141120Z 25005KT 9999 -RA FEW020 BKN039 08/05 Q1011 BLU;
0147102340999992008041412204+53133+009350FM-15+0061ETGQ V0202801N003110075019N0112651N1+00701+00501999999ADDGA1041+005401999GA2071+007501999GF107991999999999999999999MA1101081999999REMMET062METAR ETGQ 141220Z 28006KT 9999 SCT018 BKN025 07/05 Q1011 BLU;
0147102340999992008041413204+53133+009350FM-15+0061ETGQ V0203001N003610060019N0112651N1+00801+00501999999ADDGA1021+004501999GA2071+006001999GF107991999999999999999999MA1101191999999REMMET062METAR ETGQ 141320Z 30007KT 9999 FEW015 BKN020 08/05 Q1012 WHT;
0147102340999992008041414204+53133+009350FM-15+0061ETGQ V0202801N003110075019N0112651N1+00701+00501999999ADDGA1041+006001999GA2071+007501999GF107991999999999999999999MA1101291999999REMMET062METAR ETGQ 141420Z 28006KT 9999 SCT020 BKN025 07/05 Q1013 BLU;
0147102340999992008041415204+53133+009350FM-15+0061ETGQ V0202901N002110066019N0112651N1+00801+00501999999ADDGA1041+004801999GA2071+006601999GF107991999999999999999999MA1101291999999REMMET062METAR ETGQ 141520Z 29004KT 9999 SCT016 BKN022 08/05 Q1013 WHT;
0157102340999992008041416204+53133+009350FM-15+0061ETGQ V0203001N001510060019N0112651N1+00701+00601999999ADDGA1041+005101999GA2071+006001999GF107991999999999999999999MA1101391999999MW1611REMMET066METAR ETGQ 141620Z 30003KT 9999 -RA SCT017 BKN020 07/06 Q1014 WHT;
0157102340999992008041417204+53133+009350FM-15+0061ETGQ V0202901N002610075019N0080001N1+00701+00601999999ADDGA1041+006001999GA2081+007501999GF108991999999999999999999MA1101391999999MW1611REMMET066METAR ETGQ 141720Z 29005KT 8000 -RA SCT020 OVC025 07/06 Q1014 BLU;
0180102340999992008041418204+53133+009350FM-15+0061ETGQ V0202901N002110069019N0060001N1+00701+00601999999ADDGA1021+003601999GA2071+006901999GA3081+012001999GF108991999999999999999999MA1101491999999MW1611REMMET073METAR ETGQ 141820Z 29004KT 6000 -RA FEW012 BKN023 OVC040 07/06 Q1015 WHT;
0133102340999992008041504204+53133+009350FM-15+0061ETGQ V0203001N002110069019N0050001N1+00601+00401999999ADDGA1081+006901999GF108991999999999999999999MA1101801999999MW1101REMMET058METAR ETGQ 150420Z 30004KT 5000 BR OVC023 06/04 Q1018 WHT;
0156102340999992008041505204+53133+009350FM-15+0061ETGQ V0203101N002110180019N0050001N1+00601+00401999999ADDGA1041+006001999GA2081+018001999GF108991999999999999999999MA1101801999999MW1101REMMET065METAR ETGQ 150520Z 31004KT 5000 BR SCT020 OVC060 06/04 Q1018 WHT;
0148102340999992008041506204+53133+009350FM-15+0061ETGQ V0203001N002112200019N0080001N1+00601+00401999999ADDGA1021+006001999GA2041+030001999GF104991999999999999999999MA1101901999999REMMET063METAR ETGQ 150620Z 30004KT 8000 FEW020 SCT100 06/04 Q1019 BLU/;
0148102340999992008041507204+53133+009350FM-15+0061ETGQ V0203001N002112200019N0112651N1+00701+00401999999ADDGA1041+004501999GA2041+030001999GF104991999999999999999999MA1101901999999REMMET063METAR ETGQ 150720Z 30004KT 9999 SCT015 SCT100 07/04 Q1019 BLU/;
0125102340999992008041508204+53133+009350FM-15+0061ETGQ V0203101N003112200019N0112651N1+00701+00301999999ADDGA1041+006601999GF104991999999999999999999MA1102001999999REMMET056METAR ETGQ 150820Z 31006KT 9999 SCT022 07/03 Q1020 BLU/;
0124102340999992008041509204+53133+009350FM-15+0061ETGQ V0203101N002610132019N0112651N1+00701+00201999999ADDGA1071+013201999GF107991999999999999999999MA1102001999999REMMET055METAR ETGQ 150920Z 31005KT 9999 BKN044 07/02 Q1020 BLU;
0147102340999992008041510204+53133+009350FM-15+0061ETGQ V0203201N002610150019N0112651N1+00801+00201999999ADDGA1021+012001999GA2071+015001999GF107991999999999999999999MA1102001999999REMMET062METAR ETGQ 151020Z 32005KT 9999 FEW040 BKN050 08/02 Q1020 BLU;
0147102340999992008041511204+53133+009350FM-15+0061ETGQ V0203401N003110180019N0112651N1+00801+00201999999ADDGA1041+010501999GA2071+018001999GF107991999999999999999999MA1102001999999REMMET062METAR ETGQ 151120Z 34006KT 9999 SCT035 BKN060 08/02 Q1020 BLU;
0124102340999992008041512204+53133+009350FM-15+0061ETGQ V0202601N001510120019N0112651N1+01001+00101999999ADDGA1071+012001999GF107991999999999999999999MA1102001999999REMMET055METAR ETGQ 151220Z 26003KT 9999 BKN040 10/01 Q1020 BLU;
0162102340999992008041513204+53133+009350FM-15+0061ETGQ V0202801N004110066019N0112651N1+00701+00301999999ADDGA1021+004501021GA2071+006601999GF107991999999999999999999MA1102001999999MW1801REMMET071METAR ETGQ 151320Z 28008KT 9999 -SHRA FEW015TCU BKN022 07/03 Q1020 WHT;
0124102340999992008041514204+53133+009350FM-15+0061ETGQ V0200401N002110090019N0112651N1+00801+00401999999ADDGA1071+009001999GF107991999999999999999999MA1102001999999REMMET055METAR ETGQ 151420Z 04004KT 9999 BKN030 08/04 Q1020 BLU;
0162102340999992008041515204+53133+009350FM-15+0061ETGQ V0200501N002110060019N0112651N1+00601+00401999999ADDGA1021+004501021GA2071+006001999GF107991999999999999999999MA1102101999999MW1801REMMET071METAR ETGQ 151520Z 05004KT 9999 -SHRA FEW015TCU BKN020 06/04 Q1021 WHT;
0151102340999992008041516204+53133+009350FM-15+0061ETGQ V0202301N000512200019N0112651N1+00701+00501999999ADDGA1041+006001021GA2041+012001999GF104991999999999999999999MA1102101999999REMMET066METAR ETGQ 151620Z 23001KT 9999 SCT020TCU SCT040 07/05 Q1021 BLU/;
0162102340999992008041517204+53133+009350FM-15+0061ETGQ V0203401N001510120019N0112651N1+00501+00301999999ADDGA1041+005401021GA2071+012001999GF107991999999999999999999MA1102201999999MW1801REMMET071METAR ETGQ 151720Z 34003KT 9999 -SHRA SCT018TCU BKN040 05/03 Q1022 BLU;
0170102340999992008041518204+53133+009350FM-15+0061ETGQ V0209999C00001009901CN0112651N1+00501+00301999999ADDGA1021+007201999GA2041+009901999GA3071+030001999GF107991999999999999999999MA1102201999999REMMET069METAR ETGQ 151820Z 00000KT 9999 FEW024 SCT033 BKN100 05/03 Q1022 BLU;
0133102340999992008041604204+53133+009350FM-15+0061ETGQ V0203301N000510018019N0030001N1+00201+00201999999ADDGA1081+001801999GF108991999999999999999999MA1102201999999MW1101REMMET058METAR ETGQ 160420Z 33001KT 3000 BR OVC006 02/02 Q1022 YLO;
0133102340999992008041605204+53133+009350FM-15+0061ETGQ V0200401N001010018019N0030001N1+00201+00201999999ADDGA1081+001801999GF108991999999999999999999MA1102201999999MW1101REMMET058METAR ETGQ 160520Z 04002KT 3000 BR OVC006 02/02 Q1022 YLO;
0133102340999992008041606204+53133+009350FM-15+0061ETGQ V0209999C000010018019N0030001N1+00301+00201999999ADDGA1081+001801999GF108991999999999999999999MA1102201999999MW1101REMMET058METAR ETGQ 160620Z 00000KT 3000 BR OVC006 03/02 Q1022 YLO;
0133102340999992008041607204+53133+009350FM-15+0061ETGQ V0203301N002110021019N0030001N1+00301+00201999999ADDGA1081+002101999GF108991999999999999999999MA1102201999999MW1101REMMET058METAR ETGQ 160720Z 33004KT 3000 BR OVC007 03/02 Q1022 YLO;
0133102340999992008041608204+53133+009350FM-15+0061ETGQ V0203201N002110027019N0050001N1+00301+00201999999ADDGA1081+002701999GF108991999999999999999999MA1102201999999MW1101REMMET058METAR ETGQ 160820Z 32004KT 5000 BR OVC009 03/02 Q1022 GRN;
0124102340999992008041609204+53133+009350FM-15+0061ETGQ V0203301N001510045019N0080001N1+00501+00201999999ADDGA1071+004501999GF107991999999999999999999MA1102201999999REMMET055METAR ETGQ 160920Z 33003KT 8000 BKN015 05/02 Q1022 WHT;
0124102340999992008041610204+53133+009350FM-15+0061ETGQ V0203501N002610066019N0112651N1+00601+00201999999ADDGA1071+006601999GF107991999999999999999999MA1102101999999REMMET055METAR ETGQ 161020Z 35005KT 9999 BKN022 06/02 Q1021 WHT;
0124102340999992008041611204+53133+009350FM-15+0061ETGQ V0203501N004110075019N0112651N1+00701+00101999999ADDGA1071+007501999GF107991999999999999999999MA1102101999999REMMET055METAR ETGQ 161120Z 35008KT 9999 BKN025 07/01 Q1021 BLU;
0124102340999992008041612204+53133+009350FM-15+0061ETGQ V0203201N003110090019N0112651N1+00801+00101999999ADDGA1071+009001999GF107991999999999999999999MA1102001999999REMMET055METAR ETGQ 161220Z 32006KT 9999 BKN030 08/01 Q1020 BLU;
0125102340999992008041613204+53133+009350FM-15+0061ETGQ V0203001N002610120019N0112651N1+00901-00201999999ADDGA1071+012001999GF107991999999999999999999MA1101901999999REMMET056METAR ETGQ 161320Z 30005KT 9999 BKN040 09/M02 Q1019 BLU;
0125102340999992008041614204+53133+009350FM-15+0061ETGQ V0203101N003110180019N0112651N1+01001-00301999999ADDGA1071+018001999GF107991999999999999999999MA1101801999999REMMET056METAR ETGQ 161420Z 31006KT 9999 BKN060 10/M03 Q1018 BLU;
0125102340999992008041615204+53133+009350FM-15+0061ETGQ V0203601N003610180019N0112651N1+01001-00501999999ADDGA1071+018001999GF107991999999999999999999MA1101691999999REMMET056METAR ETGQ 161520Z 36007KT 9999 BKN060 10/M05 Q1017 BLU;
0126102340999992008041616204+53133+009350FM-15+0061ETGQ V0203401N003612200019N0112651N1+01001-00201999999ADDGA1041+018001999GF104991999999999999999999MA1101691999999REMMET057METAR ETGQ 161620Z 34007KT 9999 SCT060 10/M02 Q1017 BLU/;
0126102340999992008041617204+53133+009350FM-15+0061ETGQ V0203501N004112200019N0112651N1+00901-00401999999ADDGA1021+018001999GF102991999999999999999999MA1101591999999REMMET057METAR ETGQ 161720Z 35008KT 9999 FEW060 09/M04 Q1016 BLU/;
0126102340999992008041618204+53133+009350FM-15+0061ETGQ V0203401N003112200019N0112651N1+00801-00301999999ADDGA1041+018001999GF104991999999999999999999MA1101591999999REMMET057METAR ETGQ 161820Z 34006KT 9999 SCT060 08/M03 Q1016 BLU/;
0127102340999992008041704204+53133+009350FM-15+0061ETGQ V0209999C000012200019N0112651N1-00101-00201999999ADDGA1021+018001999GF102991999999999999999999MA1101291999999REMMET058METAR ETGQ 170420Z 00000KT 9999 FEW060 M01/M02 Q1013 BLU/;
0127102340999992008041705204+53133+009350FM-15+0061ETGQ V0209999C000012200019N0112651N1+00001-00101999999ADDGA1041+018001999GF104991999999999999999999MA1101191999999REMMET058METAR ETGQ 170520Z 00000KT 9999 SCT060 M00/M01 Q1012 BLU/;
0126102340999992008041706204+53133+009350FM-15+0061ETGQ V0209999C000012200019N0112651N1+00101-00101999999ADDGA1041+018001999GF104991999999999999999999MA1101191999999REMMET057METAR ETGQ 170620Z 00000KT 9999 SCT060 01/M01 Q1012 BLU/;
0126102340999992008041707204+53133+009350FM-15+0061ETGQ V0203401N001012200019N0112651N1+00201-00101999999ADDGA1021+018001999GF102991999999999999999999MA1101081999999REMMET057METAR ETGQ 170720Z 34002KT 9999 FEW060 02/M01 Q1011 BLU/;
0126102340999992008041708204+53133+009350FM-15+0061ETGQ V0209999V001012200019N0112651N1+00501+00001999999ADDGA1021+018001999GF102991999999999999999999MA1101081999999REMMET057METAR ETGQ 170820Z VRB02KT 9999 FEW060 05/M00 Q1011 BLU/;
0125102340999992008041709204+53133+009350FM-15+0061ETGQ V0203401N001512200019N0112651N1+00701+00001999999ADDGA1041+008401999GF104991999999999999999999MA1101021999999REMMET056METAR ETGQ 170920Z 34003KT 9999 SCT028 07/00 Q1010 BLU/;
0126102340999992008041710204+53133+009350FM-15+0061ETGQ V0201001N003612200019N0112651N1+01001-00301999999ADDGA1041+015001999GF104991999999999999999999MA1100911999999REMMET057METAR ETGQ 171020Z 10007KT 9999 SCT050 10/M03 Q1009 BLU/;
0125102340999992008041711204+53133+009350FM-15+0061ETGQ V0200501N003110180019N0112651N1+01001-00501999999ADDGA1071+018001999GF107991999999999999999999MA1100811999999REMMET056METAR ETGQ 171120Z 05006KT 9999 BKN060 10/M05 Q1008 BLU;
0125102340999992008041712204+53133+009350FM-15+0061ETGQ V0200901N003110180019N0112651N1+01001-00301999999ADDGA1071+018001999GF107991999999999999999999MA1100711999999REMMET056METAR ETGQ 171220Z 09006KT 9999 BKN060 10/M03 Q1007 BLU;
0148102340999992008041713204+53133+009350FM-15+0061ETGQ V0201201N003610210019N0112651N1+01001-00301999999ADDGA1021+015001999GA2071+021001999GF107991999999999999999999MA1100611999999REMMET063METAR ETGQ 171320Z 12007KT 9999 FEW050 BKN070 10/M03 Q1006 BLU;
0148102340999992008041714204+53133+009350FM-15+0061ETGQ V0201401N002610180019N0112651N1+01101-00201999999ADDGA1021+015001999GA2071+018001999GF107991999999999999999999MA1100511999999REMMET063METAR ETGQ 171420Z 14005KT 9999 FEW050 BKN060 11/M02 Q1005 BLU;
0126102340999992008041715204+53133+009350FM-15+0061ETGQ V0200901N003112200019N0112651N1+01201-00201999999ADDGA1041+018001999GF104991999999999999999999MA1100511999999REMMET057METAR ETGQ 171520Z 09006KT 9999 SCT060 12/M02 Q1005 BLU/;
0126102340999992008041716204+53133+009350FM-15+0061ETGQ V0200901N003112200019N0112651N1+01101-00201999999ADDGA1041+018001999GF104991999999999999999999MA1100411999999REMMET057METAR ETGQ 171620Z 09006KT 9999 SCT060 11/M02 Q1004 BLU/;
0149102340999992008041717204+53133+009350FM-15+0061ETGQ V0201201N002110750019N0112651N1+01101-00201999999ADDGA1021+015001999GA2071+075001999GF107991999999999999999999MA1100411999999REMMET064METAR ETGQ 171720Z 12004KT 9999 FEW050 BKN250 11/M02 Q1004 BLU/;
0149102340999992008041718204+53133+009350FM-15+0061ETGQ V0201001N002110660019N0112651N1+01001-00201999999ADDGA1021+015001999GA2071+066001999GF107991999999999999999999MA1100411999999REMMET064METAR ETGQ 171820Z 10004KT 9999 FEW050 BKN220 10/M02 Q1004 BLU/;
0124102340999992008041804204+53133+009350FM-15+0061ETGQ V0209999C000010270019N0112651N1+00301+00101999999ADDGA1071+027001999GF107991999999999999999999MA1100201999999REMMET055METAR ETGQ 180420Z 00000KT 9999 BKN090 03/01 Q1002 BLU;
0147102340999992008041805204+53133+009350FM-15+0061ETGQ V0201001N001510300019N0112651N1+00501+00001999999ADDGA1041+024001999GA2071+030001999GF107991999999999999999999MA1100201999999REMMET062METAR ETGQ 180520Z 10003KT 9999 SCT080 BKN100 05/00 Q1002 BLU;
0124102340999992008041806204+53133+009350FM-15+0061ETGQ V0201001N002610240019N0112651N1+00501+00001999999ADDGA1071+024001999GF107991999999999999999999MA1100201999999REMMET055METAR ETGQ 180620Z 10005KT 9999 BKN080 05/00 Q1002 BLU;
0124102340999992008041807204+53133+009350FM-15+0061ETGQ V0200801N003110210019N0112651N1+00601+00101999999ADDGA1071+021001999GF107991999999999999999999MA1100201999999REMMET055METAR ETGQ 180720Z 08006KT 9999 BKN070 06/01 Q1002 BLU;
0147102340999992008041808204+53133+009350FM-15+0061ETGQ V0201001N003110360019N0112651N1+00801+00101999999ADDGA1041+018001999GA2071+036001999GF107991999999999999999999MA1100101999999REMMET062METAR ETGQ 180820Z 10006KT 9999 SCT060 BKN120 08/01 Q1001 BLU;
0147102340999992008041809204+53133+009350FM-15+0061ETGQ V0201001N002110330019N0112651N1+00901+00101999999ADDGA1041+018001999GA2071+033001999GF107991999999999999999999MA1100101999999REMMET062METAR ETGQ 180920Z 10004KT 9999 SCT060 BKN110 09/01 Q1001 BLU;
0148102340999992008041810204+53133+009350FM-15+0061ETGQ V0200901N002610690019N0112651N1+01101+00201999999ADDGA1041+021001999GA2071+069001999GF107991999999999999999999MA1100001999999REMMET063METAR ETGQ 181020Z 09005KT 9999 SCT070 BKN230 11/02 Q1000 BLU/;
0171102340999992008041811204+53133+009350FM-15+0061ETGQ V0201201N00261030001CN0112651N1+01201+00201999999ADDGA1021+021001999GA2041+030001999GA3071+060001999GF107991999999999999999999MA1099901999999REMMET070METAR ETGQ 181120Z 12005KT 9999 FEW070 SCT100 BKN200 12/02 Q0999 BLU/;
0124102340999992008041812204+53133+009350FM-15+0061ETGQ V0201301N003610330019N0112651N1+01301+00101999999ADDGA1071+033001999GF107991999999999999999999MA1099901999999REMMET055METAR ETGQ 181220Z 13007KT 9999 BKN110 13/01 Q0999 BLU;
0125102340999992008041813204+53133+009350FM-15+0061ETGQ V0201101N004110300019N0112651N1+01501+00001999999ADDGA1071+030001999GF107991999999999999999999MA1099801999999REMMET056METAR ETGQ 181320Z 11008KT 9999 BKN100 15/M00 Q0998 BLU;
0125102340999992008041814204+53133+009350FM-15+0061ETGQ V0201001N003610270019N0112651N1+01401+00001999999ADDGA1071+027001999GF107991999999999999999999MA1099801999999REMMET056METAR ETGQ 181420Z 10007KT 9999 BKN090 14/M00 Q0998 BLU;
0148102340999992008041815204+53133+009350FM-15+0061ETGQ V0200801N003612200019N0112651N1+01501+00001999999ADDGA1021+030001999GA2041+060001999GF104991999999999999999999MA1099701999999REMMET063METAR ETGQ 181520Z 08007KT 9999 FEW100 SCT200 15/00 Q0997 BLU/;
0125102340999992008041816204+53133+009350FM-15+0061ETGQ V0200501N004112200019N0112651N1+01401+00101999999ADDGA1021+033001999GF102991999999999999999999MA1099701999999REMMET056METAR ETGQ 181620Z 05008KT 9999 FEW110 14/01 Q0997 BLU/;
0125102340999992008041817204+53133+009350FM-15+0061ETGQ V0200701N003612200019N0112651N1+01301+00101999999ADDGA1021+033001999GF102991999999999999999999MA1099591999999REMMET056METAR ETGQ 181720Z 07007KT 9999 FEW110 13/01 Q0996 BLU/;
0148102340999992008041818204+53133+009350FM-15+0061ETGQ V0200801N003112200019N0112651N1+01201+00101999999ADDGA1041+033001999GA2041+072001999GF104991999999999999999999MA1099591999999REMMET063METAR ETGQ 181820Z 08006KT 9999 SCT110 SCT240 12/01 Q0996 BLU/;
0125102340999992008042104204+53133+009350FM-15+0061ETGQ V0209999C000012200019N0112651N1+00701+00401999999ADDGA1041+075001999GF104991999999999999999999MA1100311999999REMMET056METAR ETGQ 210420Z 00000KT 9999 SCT250 07/04 Q1003 BLU/;
0125102340999992008042105204+53133+009350FM-15+0061ETGQ V0201301N002110750019N0112651N1+00801+00501999999ADDGA1071+075001999GF107991999999999999999999MA1100311999999REMMET056METAR ETGQ 210520Z 13004KT 9999 BKN250 08/05 Q1003 BLU/;
0125102340999992008042106204+53133+009350FM-15+0061ETGQ V0201001N002612200019N0112651N1+00901+00501999999ADDGA1041+075001999GF104991999999999999999999MA1100311999999REMMET056METAR ETGQ 210620Z 10005KT 9999 SCT250 09/05 Q1003 BLU/;
0125102340999992008042107204+53133+009350FM-15+0061ETGQ V0201001N002610750019N0112651N1+01001+00501999999ADDGA1071+075001999GF107991999999999999999999MA1100311999999REMMET056METAR ETGQ 210720Z 10005KT 9999 BKN250 10/05 Q1003 BLU/;
0148102340999992008042108204+53133+009350FM-15+0061ETGQ V0201001N003110840019N0112651N1+01101+00501999999ADDGA1021+042001999GA2071+084001999GF107991999999999999999999MA1100201999999REMMET063METAR ETGQ 210820Z 10006KT 9999 FEW140 BKN280 11/05 Q1002 BLU/;
0148102340999992008042109204+53133+009350FM-15+0061ETGQ V0200701N002110750019N0112651N1+01301+00601999999ADDGA1041+042001999GA2071+075001999GF107991999999999999999999MA1100201999999REMMET063METAR ETGQ 210920Z 07004KT 9999 SCT140 BKN250 13/06 Q1002 BLU/;
0148102340999992008042110204+53133+009350FM-15+0061ETGQ V0200601N002110750019N0112651N1+01401+00601999999ADDGA1041+039001999GA2071+075001999GF107991999999999999999999MA1100101999999REMMET063METAR ETGQ 211020Z 06004KT 9999 SCT130 BKN250 14/06 Q1001 BLU/;
0148102340999992008042111204+53133+009350FM-15+0061ETGQ V0201001N003110750019N0112651N1+01601+00601999999ADDGA1041+039001999GA2071+075001999GF107991999999999999999999MA1100101999999REMMET063METAR ETGQ 211120Z 10006KT 9999 SCT130 BKN250 16/06 Q1001 BLU/;
0125102340999992008042112204+53133+009350FM-15+0061ETGQ V0200801N002610750019N0112651N1+01601+00601999999ADDGA1071+075001999GF107991999999999999999999MA1100001999999REMMET056METAR ETGQ 211220Z 08005KT 9999 BKN250 16/06 Q1000 BLU/;
0125102340999992008042113204+53133+009350FM-15+0061ETGQ V0200801N003110750019N0112651N1+01601+00601999999ADDGA1071+075001999GF107991999999999999999999MA1100101999999REMMET056METAR ETGQ 211320Z 08006KT 9999 BKN250 16/06 Q1001 BLU/;
0124102340999992008042114204+53133+009350FM-15+0061ETGQ V0200701N004110150019N0112651N1+01701+00601999999ADDGA1071+015001999GF107991999999999999999999MA1100001999999REMMET055METAR ETGQ 211420Z 07008KT 9999 BKN050 17/06 Q1000 BLU;
0124102340999992008042115204+53133+009350FM-15+0061ETGQ V0200901N004110138019N0112651N1+01701+00601999999ADDGA1071+013801999GF107991999999999999999999MA1100001999999REMMET055METAR ETGQ 211520Z 09008KT 9999 BKN046 17/06 Q1000 BLU;
0124102340999992008042116204+53133+009350FM-15+0061ETGQ V0200801N003110144019N0112651N1+01601+00601999999ADDGA1071+014401999GF107991999999999999999999MA1100101999999REMMET055METAR ETGQ 211620Z 08006KT 9999 BKN048 16/06 Q1001 BLU;
0147102340999992008042117204+53133+009350FM-15+0061ETGQ V0200901N001510150019N0112651N1+01601+00701999999ADDGA1071+015001999GA2081+042001999GF108991999999999999999999MA1100101999999REMMET062METAR ETGQ 211720Z 09003KT 9999 BKN050 OVC140 16/07 Q1001 BLU;
0147102340999992008042118204+53133+009350FM-15+0061ETGQ V0200601N002610150019N0112651N1+01501+00601999999ADDGA1071+015001999GA2081+036001999GF108991999999999999999999MA1100101999999REMMET062METAR ETGQ 211820Z 06005KT 9999 BKN050 OVC120 15/06 Q1001 BLU;
0124102340999992008042204204+53133+009350FM-15+0061ETGQ V0203201N002110240019N0112651N1+01001+00501999999ADDGA1071+024001999GF107991999999999999999999MA1100311999999REMMET055METAR ETGQ 220420Z 32004KT 9999 BKN080 10/05 Q1003 BLU;
0124102340999992008042205204+53133+009350FM-15+0061ETGQ V0203301N002110240019N0112651N1+01001+00501999999ADDGA1071+024001999GF107991999999999999999999MA1100411999999REMMET055METAR ETGQ 220520Z 33004KT 9999 BKN080 10/05 Q1004 BLU;
0124102340999992008042206204+53133+009350FM-15+0061ETGQ V0203101N002110096019N0112651N1+01001+00601999999ADDGA1071+009601999GF107991999999999999999999MA1100411999999REMMET055METAR ETGQ 220620Z 31004KT 9999 BKN032 10/06 Q1004 BLU;
0124102340999992008042207204+53133+009350FM-15+0061ETGQ V0203201N002110093019N0112651N1+01101+00601999999ADDGA1071+009301999GF107991999999999999999999MA1100511999999REMMET055METAR ETGQ 220720Z 32004KT 9999 BKN031 11/06 Q1005 BLU;
0124102340999992008042208204+53133+009350FM-15+0061ETGQ V0203501N002610093019N0112651N1+01201+00601999999ADDGA1071+009301999GF107991999999999999999999MA1100511999999REMMET055METAR ETGQ 220820Z 35005KT 9999 BKN031 12/06 Q1005 BLU;
0124102340999992008042209204+53133+009350FM-15+0061ETGQ V0203601N002610090019N0112651N1+01301+00601999999ADDGA1071+009001999GF107991999999999999999999MA1100611999999REMMET055METAR ETGQ 220920Z 36005KT 9999 BKN030 13/06 Q1006 BLU;
0124102340999992008042210204+53133+009350FM-15+0061ETGQ V0200701N002110090019N0112651N1+01301+00601999999ADDGA1071+009001999GF107991999999999999999999MA1100711999999REMMET055METAR ETGQ 221020Z 07004KT 9999 BKN030 13/06 Q1007 BLU;
0124102340999992008042211204+53133+009350FM-15+0061ETGQ V0200401N001510090019N0112651N1+01301+00601999999ADDGA1071+009001999GF107991999999999999999999MA1100711999999REMMET055METAR ETGQ 221120Z 04003KT 9999 BKN030 13/06 Q1007 BLU;
0147102340999992008042212204+53133+009350FM-15+0061ETGQ V0200401N002110099019N0112651N1+01301+00601999999ADDGA1021+006001999GA2071+009901999GF107991999999999999999999MA1100811999999REMMET062METAR ETGQ 221220Z 04004KT 9999 FEW020 BKN033 13/06 Q1008 BLU;
0170102340999992008042213204+53133+009350FM-15+0061ETGQ V0200201N001510087019N0112651N1+01401+00601999999ADDGA1021+006001999GA2071+008701999GA3071+015001999GF107991999999999999999999MA1100911999999REMMET069METAR ETGQ 221320Z 02003KT 9999 FEW020 BKN029 BKN050 14/06 Q1009 BLU;
0147102340999992008042214204+53133+009350FM-15+0061ETGQ V0200401N001510090019N0112651N1+01401+00601999999ADDGA1071+009001999GA2071+015001999GF107991999999999999999999MA1100911999999REMMET062METAR ETGQ 221420Z 04003KT 9999 BKN030 BKN050 14/06 Q1009 BLU;
0124102340999992008042215204+53133+009350FM-15+0061ETGQ V0200301N001010099019N0112651N1+01401+00601999999ADDGA1071+009901999GF107991999999999999999999MA1101021999999REMMET055METAR ETGQ 221520Z 03002KT 9999 BKN033 14/06 Q1010 BLU;
0147102340999992008042216204+53133+009350FM-15+0061ETGQ V0201001N003610210019N0112651N1+01401+00601999999ADDGA1041+012001999GA2071+021001999GF107991999999999999999999MA1101021999999REMMET062METAR ETGQ 221620Z 10007KT 9999 SCT040 BKN070 14/06 Q1010 BLU;
0147102340999992008042217204+53133+009350FM-15+0061ETGQ V0200801N002610210019N0112651N1+01301+00501999999ADDGA1041+011401999GA2071+021001999GF107991999999999999999999MA1101081999999REMMET062METAR ETGQ 221720Z 08005KT 9999 SCT038 BKN070 13/05 Q1011 BLU;
0147102340999992008042218204+53133+009350FM-15+0061ETGQ V0201001N001510120019N0112651N1+01301+00501999999ADDGA1071+012001999GA2071+033001999GF107991999999999999999999MA1101191999999REMMET062METAR ETGQ 221820Z 10003KT 9999 BKN040 BKN110 13/05 Q1012 BLU;
0125102340999992008042304204+53133+009350FM-15+0061ETGQ V0209999C000012200019N0080001N1+00601+00501999999ADDGA1021+042001999GF102991999999999999999999MA1101591999999REMMET056METAR ETGQ 230420Z 00000KT 8000 FEW140 06/05 Q1016 BLU/;
0125102340999992008042305204+53133+009350FM-15+0061ETGQ V0202401N000512200019N0080001N1+00601+00501999999ADDGA1021+036001999GF102991999999999999999999MA1101691999999REMMET056METAR ETGQ 230520Z 24001KT 8000 FEW120 06/05 Q1017 BLU/;
0125102340999992008042306204+53133+009350FM-15+0061ETGQ V0209999C000012200019N0080001N1+00701+00601999999ADDGA1021+021001999GF102991999999999999999999MA1101691999999REMMET056METAR ETGQ 230620Z 00000KT 8000 FEW070 07/06 Q1017 BLU/;
0125102340999992008042307204+53133+009350FM-15+0061ETGQ V0209999C000012200019N0090001N1+00901+00601999999ADDGA1021+060001999GF102991999999999999999999MA1101801999999REMMET056METAR ETGQ 230720Z 00000KT 9000 FEW200 09/06 Q1018 BLU/;
0125102340999992008042308204+53133+009350FM-15+0061ETGQ V0209999C000012200019N0112651N1+01301+00701999999ADDGA1021+063001999GF102991999999999999999999MA1101801999999REMMET056METAR ETGQ 230820Z 00000KT 9999 FEW210 13/07 Q1018 BLU/;
0125102340999992008042309204+53133+009350FM-15+0061ETGQ V0201701N001512200019N0112651N1+01601+00601999999ADDGA1021+012001999GF102991999999999999999999MA1101801999999REMMET056METAR ETGQ 230920Z 17003KT 9999 FEW040 16/06 Q1018 BLU/;
0125102340999992008042310204+53133+009350FM-15+0061ETGQ V0201301N002112200019N0112651N1+01701+00501999999ADDGA1021+015001999GF102991999999999999999999MA1101801999999REMMET056METAR ETGQ 231020Z 13004KT 9999 FEW050 17/05 Q1018 BLU/;
0147102340999992008042311204+53133+009350FM-15+0061ETGQ V0201801N002610210019N0112651N1+01801+00301999999ADDGA1041+015001999GA2071+021001999GF107991999999999999999999MA1101801999999REMMET062METAR ETGQ 231120Z 18005KT 9999 SCT050 BKN070 18/03 Q1018 BLU;
0147102340999992008042312204+53133+009350FM-15+0061ETGQ V0201601N002110240019N0112651N1+01801+00301999999ADDGA1041+015001999GA2071+024001999GF107991999999999999999999MA1101801999999REMMET062METAR ETGQ 231220Z 16004KT 9999 SCT050 BKN080 18/03 Q1018 BLU;
0148102340999992008042313204+53133+009350FM-15+0061ETGQ V0201201N002612200019N0112651N1+01701+00301999999ADDGA1041+018001999GA2041+024001999GF104991999999999999999999MA1101801999999REMMET063METAR ETGQ 231320Z 12005KT 9999 SCT060 SCT080 17/03 Q1018 BLU/;
0148102340999992008042314204+53133+009350FM-15+0061ETGQ V0201301N002612200019N0112651N1+01801+00301999999ADDGA1041+015001999GA2041+024001999GF104991999999999999999999MA1101801999999REMMET063METAR ETGQ 231420Z 13005KT 9999 SCT050 SCT080 18/03 Q1018 BLU/;
0125102340999992008042315204+53133+009350FM-15+0061ETGQ V0201301N002612200019N0112651N1+01901+00301999999ADDGA1041+015001999GF104991999999999999999999MA1101801999999REMMET056METAR ETGQ 231520Z 13005KT 9999 SCT050 19/03 Q1018 BLU/;
0125102340999992008042316204+53133+009350FM-15+0061ETGQ V0201901N002112200019N0112651N1+01801+00301999999ADDGA1041+015001999GF104991999999999999999999MA1101801999999REMMET056METAR ETGQ 231620Z 19004KT 9999 SCT050 18/03 Q1018 BLU/;
0125102340999992008042317204+53133+009350FM-15+0061ETGQ V0202001N002112200019N0112651N1+01801+00301999999ADDGA1041+015001999GF104991999999999999999999MA1101801999999REMMET056METAR ETGQ 231720Z 20004KT 9999 SCT050 18/03 Q1018 BLU/;
0148102340999992008042318204+53133+009350FM-15+0061ETGQ V0201701N001510900019N0112651N1+01701+00401999999ADDGA1041+015001999GA2071+090001999GF107991999999999999999999MA1101801999999REMMET063METAR ETGQ 231820Z 17003KT 9999 SCT050 BKN300 17/04 Q1018 BLU/;
0124102340999992008042404204+53133+009350FM-15+0061ETGQ V0202401N000510066019N0112651N1+01101+01001999999ADDGA1081+006601999GF108991999999999999999999MA1102101999999REMMET055METAR ETGQ 240420Z 24001KT 9999 OVC022 11/10 Q1021 WHT;
0156102340999992008042405204+53133+009350FM-15+0061ETGQ V0202401N001010210019N0050001N1+01101+01001999999ADDGA1021+006001999GA2071+021001999GF107991999999999999999999MA1102201999999MW1101REMMET065METAR ETGQ 240520Z 24002KT 5000 BR FEW020 BKN070 11/10 Q1022 WHT;
0133102340999992008042406204+53133+009350FM-15+0061ETGQ V0209999C000010048019N0050001N1+01101+01001999999ADDGA1071+004801999GF107991999999999999999999MA1102301999999MW1101REMMET058METAR ETGQ 240620Z 00000KT 5000 BR BKN016 11/10 Q1023 WHT;
0124102340999992008042407204+53133+009350FM-15+0061ETGQ V0202801N000510093019N0080001N1+01201+01101999999ADDGA1071+009301999GF107991999999999999999999MA1102301999999REMMET055METAR ETGQ 240720Z 28001KT 8000 BKN031 12/11 Q1023 BLU;
0125102340999992008042408204+53133+009350FM-15+0061ETGQ V0203101N001012200019N0112651N1+01301+00801999999ADDGA1041+006001999GF104991999999999999999999MA1102301999999REMMET056METAR ETGQ 240820Z 31002KT 9999 SCT020 13/08 Q1023 BLU/;
0148102340999992008042409204+53133+009350FM-15+0061ETGQ V0209999V000512200019N0112651N1+01401+00801999999ADDGA1041+006001999GA2041+018001999GF104991999999999999999999MA1102301999999REMMET063METAR ETGQ 240920Z VRB01KT 9999 SCT020 SCT060 14/08 Q1023 BLU/;
0125102340999992008042410204+53133+009350FM-15+0061ETGQ V0202001N001012200019N0112651N1+01601+00701999999ADDGA1041+010801999GF104991999999999999999999MA1102301999999REMMET056METAR ETGQ 241020Z 20002KT 9999 SCT036 16/07 Q1023 BLU/;
0125102340999992008042411204+53133+009350FM-15+0061ETGQ V0203001N001512200019N0112651N1+01701+00601999999ADDGA1041+013201999GF104991999999999999999999MA1102301999999REMMET056METAR ETGQ 241120Z 30003KT 9999 SCT044 17/06 Q1023 BLU/;
0124102340999992008042412204+53133+009350FM-15+0061ETGQ V0202701N001510210019N0112651N1+01701+00501999999ADDGA1071+021001999GF107991999999999999999999MA1102301999999REMMET055METAR ETGQ 241220Z 27003KT 9999 BKN070 17/05 Q1023 BLU;
0147102340999992008042413204+53133+009350FM-15+0061ETGQ V0203001N002110210019N0112651N1+01701+00601999999ADDGA1041+015001999GA2071+021001999GF107991999999999999999999MA1102301999999REMMET062METAR ETGQ 241320Z 30004KT 9999 SCT050 BKN070 17/06 Q1023 BLU;
0147102340999992008042414204+53133+009350FM-15+0061ETGQ V0202601N001510210019N0112651N1+01701+00501999999ADDGA1041+015001999GA2071+021001999GF107991999999999999999999MA1102201999999REMMET062METAR ETGQ 241420Z 26003KT 9999 SCT050 BKN070 17/05 Q1022 BLU;
0170102340999992008042415204+53133+009350FM-15+0061ETGQ V0209999V00051018001CN0112651N1+01801+00401999999ADDGA1021+015001999GA2041+018001999GA3071+024001999GF107991999999999999999999MA1102201999999REMMET069METAR ETGQ 241520Z VRB01KT 9999 FEW050 SCT060 BKN080 18/04 Q1022 BLU;
0170102340999992008042416204+53133+009350FM-15+0061ETGQ V0203201N001510240019N0112651N1+01701+00501999999ADDGA1021+015001999GA2071+024001999GA3071+084001999GF107991999999999999999999MA1102201999999REMMET069METAR ETGQ 241620Z 32003KT 9999 FEW050 BKN080 BKN280 17/05 Q1022 BLU;
0171102340999992008042417204+53133+009350FM-15+0061ETGQ V0202201N00151018001CN0112651N1+01701+00401999999ADDGA1021+015001999GA2041+018001999GA3071+084001999GF107991999999999999999999MA1102201999999REMMET070METAR ETGQ 241720Z 22003KT 9999 FEW050 SCT060 BKN280 17/04 Q1022 BLU/;
0171102340999992008042418204+53133+009350FM-15+0061ETGQ V0202301N00211027001CN0112651N1+01601+00401999999ADDGA1021+015001999GA2041+027001999GA3071+084001999GF107991999999999999999999MA1102201999999REMMET070METAR ETGQ 241820Z 23004KT 9999 FEW050 SCT090 BKN280 16/04 Q1022 BLU/;
0148102340999992008042504204+53133+009350FM-15+0061ETGQ V0202401N001512200019N0112651N1+00801+00501999999ADDGA1021+011701999GA2041+090001999GF104991999999999999999999MA1102611999999REMMET063METAR ETGQ 250420Z 24003KT 9999 FEW039 SCT300 08/05 Q1026 BLU/;
0148102340999992008042505204+53133+009350FM-15+0061ETGQ V0209999C000010900019N0112651N1+00801+00601999999ADDGA1021+013201999GA2071+090001999GF107991999999999999999999MA1102711999999REMMET063METAR ETGQ 250520Z 00000KT 9999 FEW044 BKN300 08/06 Q1027 BLU/;
0124102340999992008042506204+53133+009350FM-15+0061ETGQ V0209999V000510081019N0112651N1+01001+00601999999ADDGA1071+008101999GF107991999999999999999999MA1102711999999REMMET055METAR ETGQ 250620Z VRB01KT 9999 BKN027 10/06 Q1027 BLU;
0148102340999992008042507204+53133+009350FM-15+0061ETGQ V0209999V001010630019N0112651N1+01201+00701999999ADDGA1021+006001999GA2071+063001999GF107991999999999999999999MA1102711999999REMMET063METAR ETGQ 250720Z VRB02KT 9999 FEW020 BKN210 12/07 Q1027 BLU/;
0148102340999992008042508204+53133+009350FM-15+0061ETGQ V0209999V000510630019N0112651N1+01201+00601999999ADDGA1041+007501999GA2071+063001999GF107991999999999999999999MA1102811999999REMMET063METAR ETGQ 250820Z VRB01KT 9999 SCT025 BKN210 12/06 Q1028 BLU/;
0147102340999992008042509204+53133+009350FM-15+0061ETGQ V0202401N002610102019N0112651N1+01201+00701999999ADDGA1021+008401999GA2071+010201999GF107991999999999999999999MA1102811999999REMMET062METAR ETGQ 250920Z 24005KT 9999 FEW028 BKN034 12/07 Q1028 BLU;
0159102340999992008042510204+53133+009350FM-15+0061ETGQ V0202401N002610150019N0112651N1+01201+00701999999ADDGA1041+009601999GA2071+015001999GF107991999999999999999999MA1102811999999MW1801REMMET068METAR ETGQ 251020Z 24005KT 9999 -SHRA SCT032 BKN050 12/07 Q1028 BLU;
0136102340999992008042511204+53133+009350FM-15+0061ETGQ V0201001N000510144019N0090001N1+01201+00801999999ADDGA1071+014401999GF107991999999999999999999MA1102811999999MW1801REMMET061METAR ETGQ 251120Z 10001KT 9000 -SHRA BKN048 12/08 Q1028 BLU;
0124102340999992008042512204+53133+009350FM-15+0061ETGQ V0202801N001510135019N0112651N1+01401+00701999999ADDGA1071+013501999GF107991999999999999999999MA1102811999999REMMET055METAR ETGQ 251220Z 28003KT 9999 BKN045 14/07 Q1028 BLU;
0124102340999992008042513204+53133+009350FM-15+0061ETGQ V0203001N001510150019N0112651N1+01501+00501999999ADDGA1071+015001999GF107991999999999999999999MA1102811999999REMMET055METAR ETGQ 251320Z 30003KT 9999 BKN050 15/05 Q1028 BLU;
0125102340999992008042515204+53133+009350FM-15+0061ETGQ V0203101N003112200019N0112651N1+01601+00401999999ADDGA1041+015001999GF104991999999999999999999MA1102711999999REMMET056METAR ETGQ 251520Z 31006KT 9999 SCT050 16/04 Q1027 BLU/;
0148102340999992008042517204+53133+009350FM-15+0061ETGQ V0203001N002610630019N0112651N1+01501+00401999999ADDGA1021+015001999GA2071+063001999GF107991999999999999999999MA1102711999999REMMET063METAR ETGQ 251720Z 30005KT 9999 FEW050 BKN210 15/04 Q1027 BLU/;
0148102340999992008042518204+53133+009350FM-15+0061ETGQ V0203101N002110600019N0112651N1+01401+00301999999ADDGA1021+015001999GA2071+060001999GF107991999999999999999999MA1102811999999REMMET063METAR ETGQ 251820Z 31004KT 9999 FEW050 BKN200 14/03 Q1028 BLU/;
0124102340999992008042804204+53133+009350FM-15+0061ETGQ V0209999V001010390019N0112651N1+01101+00701999999ADDGA1071+039001999GF107991999999999999999999MA1100911999999REMMET055METAR ETGQ 280420Z VRB02KT 9999 BKN130 11/07 Q1009 BLU;
0148102340999992008042805204+53133+009350FM-15+0061ETGQ V0201001N000510660019N0112651N1+01201+00701999999ADDGA1041+036001999GA2071+066001999GF107991999999999999999999MA1100911999999REMMET063METAR ETGQ 280520Z 10001KT 9999 SCT120 BKN220 12/07 Q1009 BLU/;
0147102340999992008042806204+53133+009350FM-15+0061ETGQ V0201501N001510270019N0112651N1+01301+00701999999ADDGA1071+027001999GA2071+066001999GF107991999999999999999999MA1100811999999REMMET062METAR ETGQ 280620Z 15003KT 9999 BKN090 BKN220 13/07 Q1008 BLU;
0148102340999992008042807204+53133+009350FM-15+0061ETGQ V0209999C000012200019N0112651N1+01501+00801999999ADDGA1021+015001999GA2041+039001999GF104991999999999999999999MA1100911999999REMMET063METAR ETGQ 280720Z 00000KT 9999 FEW050 SCT130 15/08 Q1009 BLU/;
0148102340999992008042808204+53133+009350FM-15+0061ETGQ V0209999C000012200019N0112651N1+01801+00901999999ADDGA1021+012001999GA2041+024001999GF104991999999999999999999MA1100811999999REMMET063METAR ETGQ 280820Z 00000KT 9999 FEW040 SCT080 18/09 Q1008 BLU/;
0147102340999992008042809204+53133+009350FM-15+0061ETGQ V0202101N002610180019N0112651N1+01801+01001999999ADDGA1021+009601999GA2071+018001999GF107991999999999999999999MA1100711999999REMMET062METAR ETGQ 280920Z 21005KT 9999 FEW032 BKN060 18/10 Q1007 BLU;
0147102340999992008042810204+53133+009350FM-15+0061ETGQ V0202401N002610240019N0112651N1+01901+01001999999ADDGA1041+012001999GA2071+024001999GF107991999999999999999999MA1100711999999REMMET062METAR ETGQ 281020Z 24005KT 9999 SCT040 BKN080 19/10 Q1007 BLU;
0157102340999992008042811204+53133+009350FM-15+0061ETGQ V0202601N002610180019N0112651N1+01601+01101999999ADDGA1041+009001999GA2071+018001999GF107991999999999999999999MA1100711999999MW1611REMMET066METAR ETGQ 281120Z 26005KT 9999 -RA SCT030 BKN060 16/11 Q1007 BLU;
0157102340999992008042812204+53133+009350FM-15+0061ETGQ V0209999V001010180019N0112651N1+01401+01201999999ADDGA1041+006001999GA2081+018001999GF108991999999999999999999MA1100711999999MW1611REMMET066METAR ETGQ 281220Z VRB02KT 9999 -RA SCT020 OVC060 14/12 Q1007 BLU;
0180102340999992008042813204+53133+009350FM-15+0061ETGQ V0201801N00051012001CN0112651N1+01501+01201999999ADDGA1021+005401999GA2041+012001999GA3071+018001999GF107991999999999999999999MA1100711999999MW1611REMMET073METAR ETGQ 281320Z 18001KT 9999 -RA FEW018 SCT040 BKN060 15/12 Q1007 BLU;
0147102340999992008042814204+53133+009350FM-15+0061ETGQ V0209999C000010060019N0112651N1+01601+01201999999ADDGA1071+006001999GA2071+012001999GF107991999999999999999999MA1100611999999REMMET062METAR ETGQ 281420Z 00000KT 9999 BKN020 BKN040 16/12 Q1006 WHT;
0157102340999992008042815204+53133+009350FM-15+0061ETGQ V0203001N004110045019N0080001N1+01301+01001999999ADDGA1041+003001999GA2071+004501999GF107991999999999999999999MA1100711999999MW1611REMMET066METAR ETGQ 281520Z 30008KT 8000 -RA SCT010 BKN015 13/10 Q1007 WHT;
0147102340999992008042816204+53133+009350FM-15+0061ETGQ V0203501N002110120019N0112651N1+01101+00901999999ADDGA1041+007501999GA2071+012001999GF107991999999999999999999MA1100711999999REMMET062METAR ETGQ 281620Z 35004KT 9999 SCT025 BKN040 11/09 Q1007 BLU;
0157102340999992008042817204+53133+009350FM-15+0061ETGQ V0203401N002110180019N0112651N1+01101+00801999999ADDGA1041+006001999GA2071+018001999GF107991999999999999999999MA1100711999999MW1611REMMET066METAR ETGQ 281720Z 34004KT 9999 -RA SCT020 BKN060 11/08 Q1007 BLU;
0170102340999992008042818204+53133+009350FM-15+0061ETGQ V0209999C00001018001CN0112651N1+01101+00901999999ADDGA1021+006001999GA2041+018001999GA3071+027001999GF107991999999999999999999MA1100611999999REMMET069METAR ETGQ 281820Z 00000KT 9999 FEW020 SCT060 BKN090 11/09 Q1006 BLU;
0147102340999992008042904204+53133+009350FM-15+0061ETGQ V0201701N002110102019N0112651N1+01001+00801999999ADDGA1021+005401999GA2071+010201999GF107991999999999999999999MA1100511999999REMMET062METAR ETGQ 290420Z 17004KT 9999 FEW018 BKN034 10/08 Q1005 BLU;
0147102340999992008042905204+53133+009350FM-15+0061ETGQ V0201801N001010120019N0112651N1+01001+00801999999ADDGA1021+006001999GA2071+012001999GF107991999999999999999999MA1100511999999REMMET062METAR ETGQ 290520Z 18002KT 9999 FEW020 BKN040 10/08 Q1005 BLU;
0147102340999992008042906204+53133+009350FM-15+0061ETGQ V0201101N002110126019N0112651N1+01001+00701999999ADDGA1021+006001999GA2071+012601999GF107991999999999999999999MA1100511999999REMMET062METAR ETGQ 290620Z 11004KT 9999 FEW020 BKN042 10/07 Q1005 BLU;
0124102340999992008042907204+53133+009350FM-15+0061ETGQ V0202001N003110081019N0112651N1+01201+00701999999ADDGA1071+008101999GF107991999999999999999999MA1100611999999REMMET055METAR ETGQ 290720Z 20006KT 9999 BKN027 12/07 Q1006 BLU;
0147102340999992008042908204+53133+009350FM-15+0061ETGQ V0201901N002610150019N0112651N1+01201+00601999999ADDGA1021+006001999GA2071+015001999GF107991999999999999999999MA1100611999999REMMET062METAR ETGQ 290820Z 19005KT 9999 FEW020 BKN050 12/06 Q1006 BLU;
0147102340999992008042909204+53133+009350FM-15+0061ETGQ V0202301N002610150019N0112651N1+01201+00601999999ADDGA1041+006301999GA2071+015001999GF107991999999999999999999MA1100611999999REMMET062METAR ETGQ 290920Z 23005KT 9999 SCT021 BKN050 12/06 Q1006 BLU;
0147102340999992008042910204+53133+009350FM-15+0061ETGQ V0202501N002610150019N0112651N1+01301+00401999999ADDGA1021+006001999GA2071+015001999GF107991999999999999999999MA1100511999999REMMET062METAR ETGQ 291020Z 25005KT 9999 FEW020 BKN050 13/04 Q1005 BLU;
0125102340999992008042911204+53133+009350FM-15+0061ETGQ V0202201N003612200019N0112651N1+01401+00301999999ADDGA1041+012001999GF104991999999999999999999MA1100511999999REMMET056METAR ETGQ 291120Z 22007KT 9999 SCT040 14/03 Q1005 BLU/;
0148102340999992008042912204+53133+009350FM-15+0061ETGQ V0202301N003112200019N0112651N1+01501+00301999999ADDGA1041+013501999GA2041+060001999GF104991999999999999999999MA1100511999999REMMET063METAR ETGQ 291220Z 23006KT 9999 SCT045 SCT200 15/03 Q1005 BLU/;
0147102340999992008042913204+53133+009350FM-15+0061ETGQ V0202301N003110540019N0112651N1+01601+00201999999ADDGA1041+015001999GA2071+054001999GF107991999999999999999999MA1100411999999REMMET062METAR ETGQ 291320Z 23006KT 9999 SCT050 BKN180 16/02 Q1004 BLU;
0148102340999992008042914204+53133+009350FM-15+0061ETGQ V0202501N003112200019N0112651N1+01601+00301999999ADDGA1041+018001999GA2041+054001999GF104991999999999999999999MA1100411999999REMMET063METAR ETGQ 291420Z 25006KT 9999 SCT060 SCT180 16/03 Q1004 BLU/;
0148102340999992008042915204+53133+009350FM-15+0061ETGQ V0202001N003112200019N0112651N1+01601+00201999999ADDGA1041+018001999GA2041+054001999GF104991999999999999999999MA1100311999999REMMET063METAR ETGQ 291520Z 20006KT 9999 SCT060 SCT180 16/02 Q1003 BLU/;
0148102340999992008042916204+53133+009350FM-15+0061ETGQ V0202101N004112200019N0112651N1+01601+00201999999ADDGA1041+021001999GA2041+054001999GF104991999999999999999999MA1100311999999REMMET063METAR ETGQ 291620Z 21008KT 9999 SCT070 SCT180 16/02 Q1003 BLU/;
0148102340999992008042917204+53133+009350FM-15+0061ETGQ V0201901N002612200019N0112651N1+01601+00201999999ADDGA1041+021001999GA2041+054001999GF104991999999999999999999MA1100311999999REMMET063METAR ETGQ 291720Z 19005KT 9999 SCT070 SCT180 16/02 Q1003 BLU/;
0125102340999992008042918204+53133+009350FM-15+0061ETGQ V0201701N001512200019N0112651N1+01501+00201999999ADDGA1021+018001999GF102991999999999999999999MA1100311999999REMMET056METAR ETGQ 291820Z 17003KT 9999 FEW060 15/02 Q1003 BLU/;
0124102340999992008043004204+53133+009350FM-15+0061ETGQ V0201301N002610270019N0112651N1+01001+00301999999ADDGA1071+027001999GF107991999999999999999999MA1100001999999REMMET055METAR ETGQ 300420Z 13005KT 9999 BKN090 10/03 Q1000 BLU;
0124102340999992008043006204+53133+009350FM-15+0061ETGQ V0201001N002110270019N0112651N1+01101+00401999999ADDGA1071+027001999GF107991999999999999999999MA1100001999999REMMET055METAR ETGQ 300620Z 10004KT 9999 BKN090 11/04 Q1000 BLU;
0124102340999992008043007204+53133+009350FM-15+0061ETGQ V0201201N001510300019N0112651N1+01201+00401999999ADDGA1071+030001999GF107991999999999999999999MA1099901999999REMMET055METAR ETGQ 300720Z 12003KT 9999 BKN100 12/04 Q0999 BLU;
0148102340999992008043008204+53133+009350FM-15+0061ETGQ V0201501N003612200019N0112651N1+01501+00501999999ADDGA1041+030001999GA2041+054001999GF104991999999999999999999MA1099901999999REMMET063METAR ETGQ 300820Z 15007KT 9999 SCT100 SCT180 15/05 Q0999 BLU/;
0124102340999992008043009204+53133+009350FM-15+0061ETGQ V0201601N004110300019N0112651N1+01701+00401999999ADDGA1071+030001999GF107991999999999999999999MA1099901999999REMMET055METAR ETGQ 300920Z 16008KT 9999 BKN100 17/04 Q0999 BLU;
0147102340999992008043010204+53133+009350FM-15+0061ETGQ V0201601N004110300019N0112651N1+01701+00501999999ADDGA1021+013501999GA2071+030001999GF107991999999999999999999MA1100001999999REMMET062METAR ETGQ 301020Z 16008KT 9999 FEW045 BKN100 17/05 Q1000 BLU;
0158102340999992008043011204+53133+009350FM-15+0061ETGQ V0202201N004110390019N0112651N1+01701+00401999999ADDGA1021+015001999GA2071+039001999GF107991999999999999999999MA1100001999999OC100931REMMET065METAR ETGQ 301120Z 22008G18KT 9999 FEW050 BKN130 17/04 Q1000 BLU;
0170102340999992008043012204+53133+009350FM-15+0061ETGQ V0202301N00311018001CN0112651N1+01701+00401999999ADDGA1021+015001999GA2041+018001999GA3071+039001999GF107991999999999999999999MA1099901999999REMMET069METAR ETGQ 301220Z 23006KT 9999 FEW050 SCT060 BKN130 17/04 Q0999 BLU;
0147102340999992008043013204+53133+009350FM-15+0061ETGQ V0202401N004610180019N0112651N1+01501+00601999999ADDGA1021+012001999GA2071+018001999GF107991999999999999999999MA1100101999999REMMET062METAR ETGQ 301320Z 24009KT 9999 FEW040 BKN060 15/06 Q1001 BLU;
0147102340999992008043014204+53133+009350FM-15+0061ETGQ V0201601N003110240019N0112651N1+01501+00801999999ADDGA1021+009001999GA2071+024001999GF107991999999999999999999MA1100101999999REMMET062METAR ETGQ 301420Z 16006KT 9999 FEW030 BKN080 15/08 Q1001 BLU;
0147102340999992008043015204+53133+009350FM-15+0061ETGQ V0202201N003610360019N0112651N1+01601+00501999999ADDGA1041+013501999GA2071+036001999GF107991999999999999999999MA1100101999999REMMET062METAR ETGQ 301520Z 22007KT 9999 SCT045 BKN120 16/05 Q1001 BLU;
0147102340999992008043016204+53133+009350FM-15+0061ETGQ V0202401N002610390019N0112651N1+01501+00401999999ADDGA1041+015001999GA2071+039001999GF107991999999999999999999MA1100201999999REMMET062METAR ETGQ 301620Z 24005KT 9999 SCT050 BKN130 15/04 Q1002 BLU;
0147102340999992008043017204+53133+009350FM-15+0061ETGQ V0202001N002610450019N0112651N1+01401+00401999999ADDGA1041+015001999GA2071+045001999GF107991999999999999999999MA1100311999999REMMET062METAR ETGQ 301720Z 20005KT 9999 SCT050 BKN150 14/04 Q1003 BLU;
0147102340999992008043018204+53133+009350FM-15+0061ETGQ V0202001N001510135019N0112651N1+01401+00401999999ADDGA1021+007501999GA2071+013501999GF107991999999999999999999MA1100311999999REMMET062METAR ETGQ 301820Z 20003KT 9999 FEW025 BKN045 14/04 Q1003 BLU;
0147102340999992008050204204+53133+009350FM-15+0061ETGQ V0209999C000010060019N0112651N1+00901+00601999999ADDGA1071+006001999GA2071+021001999GF107991999999999999999999MA1102001999999REMMET062METAR ETGQ 020420Z 00000KT 9999 BKN020 BKN070 09/06 Q1020 WHT;
0124102340999992008050205204+53133+009350FM-15+0061ETGQ V0202601N000510060019N0112651N1+00901+00601999999ADDGA1071+006001999GF107991999999999999999999MA1102101999999REMMET055METAR ETGQ 020520Z 26001KT 9999 BKN020 09/06 Q1021 WHT;
0124102340999992008050206204+53133+009350FM-15+0061ETGQ V0209999V001010075019N0112651N1+01001+00601999999ADDGA1071+007501999GF107991999999999999999999MA1102201999999REMMET055METAR ETGQ 020620Z VRB02KT 9999 BKN025 10/06 Q1022 BLU;
0124102340999992008050207204+53133+009350FM-15+0061ETGQ V0202301N002110066019N0112651N1+01201+00601999999ADDGA1071+006601999GF107991999999999999999999MA1102201999999REMMET055METAR ETGQ 020720Z 23004KT 9999 BKN022 12/06 Q1022 WHT;
0147102340999992008050208204+53133+009350FM-15+0061ETGQ V0202401N002110090019N0112651N1+01201+00601999999ADDGA1021+000601999GA2071+009001999GF107991999999999999999999MA1102201999999REMMET062METAR ETGQ 020820Z 24004KT 9999 FEW002 BKN030 12/06 Q1022 BLU;
0124102340999992008050209204+53133+009350FM-15+0061ETGQ V0202001N002110096019N0112651N1+01301+00601999999ADDGA1071+009601999GF107991999999999999999999MA1102201999999REMMET055METAR ETGQ 020920Z 20004KT 9999 BKN032 13/06 Q1022 BLU;
0147102340999992008050210204+53133+009350FM-15+0061ETGQ V0201901N003110150019N0112651N1+01501+00601999999ADDGA1041+010501999GA2071+015001999GF107991999999999999999999MA1102201999999REMMET062METAR ETGQ 021020Z 19006KT 9999 SCT035 BKN050 15/06 Q1022 BLU;
0147102340999992008050211204+53133+009350FM-15+0061ETGQ V0202401N002610150019N0112651N1+01601+00601999999ADDGA1041+010501999GA2071+015001999GF107991999999999999999999MA1102201999999REMMET062METAR ETGQ 021120Z 24005KT 9999 SCT035 BKN050 16/06 Q1022 BLU;
0147102340999992008050212204+53133+009350FM-15+0061ETGQ V0202201N002610180019N0112651N1+01601+00501999999ADDGA1041+011101999GA2071+018001999GF107991999999999999999999MA1102201999999REMMET062METAR ETGQ 021220Z 22005KT 9999 SCT037 BKN060 16/05 Q1022 BLU;
0150102340999992008050213204+53133+009350FM-15+0061ETGQ V0203301N005110180019N0112651N1+01401+00701999999ADDGA1041+011101021GA2071+018001999GF107991999999999999999999MA1102301999999REMMET065METAR ETGQ 021320Z 33010KT 9999 SCT037TCU BKN060 14/07 Q1023 BLU;
0150102340999992008050214204+53133+009350FM-15+0061ETGQ V0200101N001510180019N0112651N1+01401+00701999999ADDGA1041+011101021GA2071+018001999GF107991999999999999999999MA1102301999999REMMET065METAR ETGQ 021420Z 01003KT 9999 SCT037TCU BKN060 14/07 Q1023 BLU;
0150102340999992008050215204+53133+009350FM-15+0061ETGQ V0201801N001010180019N0112651N1+01501+00601999999ADDGA1041+011101021GA2071+018001999GF107991999999999999999999MA1102301999999REMMET065METAR ETGQ 021520Z 18002KT 9999 SCT037TCU BKN060 15/06 Q1023 BLU;
0150102340999992008050216204+53133+009350FM-15+0061ETGQ V0203301N002110180019N0112651N1+01301+00701999999ADDGA1041+011101021GA2071+018001999GF107991999999999999999999MA1102301999999REMMET065METAR ETGQ 021620Z 33004KT 9999 SCT037TCU BKN060 13/07 Q1023 BLU;
0162102340999992008050217204+53133+009350FM-15+0061ETGQ V0209999C000012200019N0112651N1+01501+00401999999ADDGA1021+010501021GA2041+024001999GF104991999999999999999999MA1102301999999MW1161REMMET071METAR ETGQ 021720Z 00000KT 9999 VCSH FEW035TCU SCT080 15/04 Q1023 BLU/;
0151102340999992008050218204+53133+009350FM-15+0061ETGQ V0202701N000512200019N0112651N1+01401+00501999999ADDGA1021+010501021GA2041+024001999GF104991999999999999999999MA1102401999999REMMET066METAR ETGQ 021820Z 27001KT 9999 FEW035TCU SCT080 14/05 Q1024 BLU/;
0125102340999992008050505204+53133+009350FM-15+0061ETGQ V0209999C000012200019N0112651N1+01001+00601999999ADDGA1021+075001999GF102991999999999999999999MA1102611999999REMMET056METAR ETGQ 050520Z 00000KT 9999 FEW250 10/06 Q1026 BLU/;
0076102340999992008050506204+53133+009350FM-15+0061ETGQ V0209999C000012200019N0112651N1+01101+00401999999ADDMA1102611999999REMMET049METAR ETGQ 050620Z 00000KT 9999 11/04 Q1026 BLU/;
0076102340999992008050507204+53133+009350FM-15+0061ETGQ V0209999C000012200019N0112651N1+01301+00501999999ADDMA1102711999999REMMET049METAR ETGQ 050720Z 00000KT 9999 13/05 Q1027 BLU/;
0076102340999992008050508204+53133+009350FM-15+0061ETGQ V0209999V000512200019N0112651N1+01701+00501999999ADDMA1102711999999REMMET049METAR ETGQ 050820Z VRB01KT 9999 17/05 Q1027 BLU/;
0076102340999992008050509204+53133+009350FM-15+0061ETGQ V0201101N002612200019N0112651N1+01801+00201999999ADDMA1102711999999REMMET049METAR ETGQ 050920Z 11005KT 9999 18/02 Q1027 BLU/;
0125102340999992008050510204+53133+009350FM-15+0061ETGQ V0201101N003112200019N0112651N1+01901+00101999999ADDGA1021+018001999GF102991999999999999999999MA1102611999999REMMET056METAR ETGQ 051020Z 11006KT 9999 FEW060 19/01 Q1026 BLU/;
0125102340999992008050511204+53133+009350FM-15+0061ETGQ V0200801N003112200019N0112651N1+02001+00301999999ADDGA1021+021001999GF102991999999999999999999MA1102611999999REMMET056METAR ETGQ 051120Z 08006KT 9999 FEW070 20/03 Q1026 BLU/;
0125102340999992008050512204+53133+009350FM-15+0061ETGQ V0200801N003112200019N0112651N1+02001+00301999999ADDGA1021+021001999GF102991999999999999999999MA1102611999999REMMET056METAR ETGQ 051220Z 08006KT 9999 FEW070 20/03 Q1026 BLU/;
0125102340999992008050513204+53133+009350FM-15+0061ETGQ V0200901N003612200019N0112651N1+02001+00401999999ADDGA1041+018001999GF104991999999999999999999MA1102511999999REMMET056METAR ETGQ 051320Z 09007KT 9999 SCT060 20/04 Q1025 BLU/;
0147102340999992008050514204+53133+009350FM-15+0061ETGQ V0200701N003110210019N0112651N1+01901+00401999999ADDGA1021+018001999GA2071+021001999GF107991999999999999999999MA1102511999999REMMET062METAR ETGQ 051420Z 07006KT 9999 FEW060 BKN070 19/04 Q1025 BLU;
0147102340999992008050515204+53133+009350FM-15+0061ETGQ V0200701N003610210019N0112651N1+02001+00601999999ADDGA1021+018001999GA2071+021001999GF107991999999999999999999MA1102511999999REMMET062METAR ETGQ 051520Z 07007KT 9999 FEW060 BKN070 20/06 Q1025 BLU;
0148102340999992008050516204+53133+009350FM-15+0061ETGQ V0201001N002612200019N0112651N1+02001+00501999999ADDGA1021+015001999GA2041+021001999GF104991999999999999999999MA1102511999999REMMET063METAR ETGQ 051620Z 10005KT 9999 FEW050 SCT070 20/05 Q1025 BLU/;
0148102340999992008050517204+53133+009350FM-15+0061ETGQ V0201001N002612200019N0112651N1+01901+00601999999ADDGA1021+015001999GA2041+042001999GF104991999999999999999999MA1102511999999REMMET063METAR ETGQ 051720Z 10005KT 9999 FEW050 SCT140 19/06 Q1025 BLU/;
0125102340999992008050518204+53133+009350FM-15+0061ETGQ V0201001N001012200019N0112651N1+01801+00601999999ADDGA1021+045001999GF102991999999999999999999MA1102511999999REMMET056METAR ETGQ 051820Z 10002KT 9999 FEW150 18/06 Q1025 BLU/;
0076102340999992008050604204+53133+009350FM-15+0061ETGQ V0209999C000012200019N0112651N1+00801+00701999999ADDMA1102611999999REMMET049METAR ETGQ 060420Z 00000KT 9999 08/07 Q1026 BLU/;
0076102340999992008050605204+53133+009350FM-15+0061ETGQ V0209999C000012200019N0112651N1+01001+00901999999ADDMA1102611999999REMMET049METAR ETGQ 060520Z 00000KT 9999 10/09 Q1026 BLU/;
0076102340999992008050606204+53133+009350FM-15+0061ETGQ V0209999C000012200019N0112651N1+01301+00901999999ADDMA1102611999999REMMET049METAR ETGQ 060620Z 00000KT 9999 13/09 Q1026 BLU/;
0076102340999992008050607204+53133+009350FM-15+0061ETGQ V0209999C000012200019N0112651N1+01501+01001999999ADDMA1102611999999REMMET049METAR ETGQ 060720Z 00000KT 9999 15/10 Q1026 BLU/;
0125102340999992008050608204+53133+009350FM-15+0061ETGQ V0209999V000512200019N0112651N1+01801+01001999999ADDGA1021+009001999GF102991999999999999999999MA1102511999999REMMET056METAR ETGQ 060820Z VRB01KT 9999 FEW030 18/10 Q1025 BLU/;
0125102340999992008050609204+53133+009350FM-15+0061ETGQ V0200801N002112200019N0112651N1+02001+00901999999ADDGA1021+012001999GF102991999999999999999999MA1102511999999REMMET056METAR ETGQ 060920Z 08004KT 9999 FEW040 20/09 Q1025 BLU/;
0125102340999992008050610204+53133+009350FM-15+0061ETGQ V0203501N001512200019N0112651N1+02101+00901999999ADDGA1021+014401999GF102991999999999999999999MA1102511999999REMMET056METAR ETGQ 061020Z 35003KT 9999 FEW048 21/09 Q1025 BLU/;
0125102340999992008050611204+53133+009350FM-15+0061ETGQ V0200901N003612200019N0112651N1+02201+00701999999ADDGA1041+018001999GF104991999999999999999999MA1102511999999REMMET056METAR ETGQ 061120Z 09007KT 9999 SCT060 22/07 Q1025 BLU/;
0125102340999992008050612204+53133+009350FM-15+0061ETGQ V0200801N003612200019N0112651N1+02301+00701999999ADDGA1041+018001999GF104991999999999999999999MA1102401999999REMMET056METAR ETGQ 061220Z 08007KT 9999 SCT060 23/07 Q1024 BLU/;
0125102340999992008050613204+53133+009350FM-15+0061ETGQ V0200801N003612200019N0112651N1+02301+00701999999ADDGA1041+018001999GF104991999999999999999999MA1102401999999REMMET056METAR ETGQ 061320Z 08007KT 9999 SCT060 23/07 Q1024 BLU/;
0125102340999992008050614204+53133+009350FM-15+0061ETGQ V0200601N002612200019N0112651N1+02301+00601999999ADDGA1041+018001999GF104991999999999999999999MA1102301999999REMMET056METAR ETGQ 061420Z 06005KT 9999 SCT060 23/06 Q1023 BLU/;
0125102340999992008050615204+53133+009350FM-15+0061ETGQ V0201001N002612200019N0112651N1+02301+00601999999ADDGA1041+018001999GF104991999999999999999999MA1102201999999REMMET056METAR ETGQ 061520Z 10005KT 9999 SCT060 23/06 Q1022 BLU/;
0125102340999992008050616204+53133+009350FM-15+0061ETGQ V0200801N002612200019N0112651N1+02301+00601999999ADDGA1021+021001999GF102991999999999999999999MA1102201999999REMMET056METAR ETGQ 061620Z 08005KT 9999 FEW070 23/06 Q1022 BLU/;
0125102340999992008050617204+53133+009350FM-15+0061ETGQ V0201101N002612200019N0112651N1+02201+00601999999ADDGA1021+021001999GF102991999999999999999999MA1102201999999REMMET056METAR ETGQ 061720Z 11005KT 9999 FEW070 22/06 Q1022 BLU/;
0125102340999992008050618204+53133+009350FM-15+0061ETGQ V0201001N002112200019N0112651N1+02201+00601999999ADDGA1021+021001999GF102991999999999999999999MA1102201999999REMMET056METAR ETGQ 061820Z 10004KT 9999 FEW070 22/06 Q1022 BLU/;
0076102340999992008050704204+53133+009350FM-15+0061ETGQ V0209999C000012200019N0112651N1+01001+00801999999ADDMA1102301999999REMMET049METAR ETGQ 070420Z 00000KT 9999 10/08 Q1023 BLU/;
0125102340999992008050705204+53133+009350FM-15+0061ETGQ V0209999C000012200019N0112651N1+01101+00901999999ADDGA1021+084001999GF102991999999999999999999MA1102301999999REMMET056METAR ETGQ 070520Z 00000KT 9999 FEW280 11/09 Q1023 BLU/;
0076102340999992008050706204+53133+009350FM-15+0061ETGQ V0209999C000012200019N0112651N1+01401+00901999999ADDMA1102301999999REMMET049METAR ETGQ 070620Z 00000KT 9999 14/09 Q1023 BLU/;
0076102340999992008050707204+53133+009350FM-15+0061ETGQ V0209999C000012200019N0112651N1+01501+00901999999ADDMA1102301999999REMMET049METAR ETGQ 070720Z 00000KT 9999 15/09 Q1023 BLU/;
0076102340999992008050708204+53133+009350FM-15+0061ETGQ V0201401N002112200019N0112651N1+01901+00801999999ADDMA1102301999999REMMET049METAR ETGQ 070820Z 14004KT 9999 19/08 Q1023 BLU/;
0125102340999992008050709204+53133+009350FM-15+0061ETGQ V0201201N002112200019N0112651N1+02001+00701999999ADDGA1021+013501999GF102991999999999999999999MA1102301999999REMMET056METAR ETGQ 070920Z 12004KT 9999 FEW045 20/07 Q1023 BLU/;
0125102340999992008050710204+53133+009350FM-15+0061ETGQ V0201601N002612200019N0112651N1+02201+00601999999ADDGA1021+015001999GF102991999999999999999999MA1102201999999REMMET056METAR ETGQ 071020Z 16005KT 9999 FEW050 22/06 Q1022 BLU/;
0125102340999992008050711204+53133+009350FM-15+0061ETGQ V0201201N002112200019N0112651N1+02201+00201999999ADDGA1021+018001999GF102991999999999999999999MA1102201999999REMMET056METAR ETGQ 071120Z 12004KT 9999 FEW060 22/02 Q1022 BLU/;
0125102340999992008050712204+53133+009350FM-15+0061ETGQ V0201901N001512200019N0112651N1+02301+00401999999ADDGA1041+021001999GF104991999999999999999999MA1102101999999REMMET056METAR ETGQ 071220Z 19003KT 9999 SCT070 23/04 Q1021 BLU/;
0125102340999992008050713204+53133+009350FM-15+0061ETGQ V0201101N002112200019N0112651N1+02301+00401999999ADDGA1041+021001999GF104991999999999999999999MA1102101999999REMMET056METAR ETGQ 071320Z 11004KT 9999 SCT070 23/04 Q1021 BLU/;
0125102340999992008050714204+53133+009350FM-15+0061ETGQ V0200901N002112200019N0112651N1+02301+00301999999ADDGA1041+021001999GF104991999999999999999999MA1102001999999REMMET056METAR ETGQ 071420Z 09004KT 9999 SCT070 23/03 Q1020 BLU/;
0125102340999992008050715204+53133+009350FM-15+0061ETGQ V0200501N002612200019N0112651N1+02301+00401999999ADDGA1021+021001999GF102991999999999999999999MA1102001999999REMMET056METAR ETGQ 071520Z 05005KT 9999 FEW070 23/04 Q1020 BLU/;
0125102340999992008050716204+53133+009350FM-15+0061ETGQ V0200701N001512200019N0112651N1+02301+00501999999ADDGA1021+021001999GF102991999999999999999999MA1101901999999REMMET056METAR ETGQ 071620Z 07003KT 9999 FEW070 23/05 Q1019 BLU/;
0125102340999992008050717204+53133+009350FM-15+0061ETGQ V0201101N002112200019N0112651N1+02201+00501999999ADDGA1021+021001999GF102991999999999999999999MA1101901999999REMMET056METAR ETGQ 071720Z 11004KT 9999 FEW070 22/05 Q1019 BLU/;
0125102340999992008050718204+53133+009350FM-15+0061ETGQ V0201001N001512200019N0112651N1+02101+00501999999ADDGA1021+021001999GF102991999999999999999999MA1101901999999REMMET056METAR ETGQ 071820Z 10003KT 9999 FEW070 21/05 Q1019 BLU/;
0125102340999992008050804204+53133+009350FM-15+0061ETGQ V0209999C000012200019N0112651N1+00901+00701999999ADDGA1021+084001999GF102991999999999999999999MA1102001999999REMMET056METAR ETGQ 080420Z 00000KT 9999 FEW280 09/07 Q1020 BLU/;
0125102340999992008050805204+53133+009350FM-15+0061ETGQ V0209999C000012200019N0112651N1+01101+00801999999ADDGA1021+084001999GF102991999999999999999999MA1102001999999REMMET056METAR ETGQ 080520Z 00000KT 9999 FEW280 11/08 Q1020 BLU/;
0125102340999992008050806204+53133+009350FM-15+0061ETGQ V0209999C000012200019N0112651N1+01201+00801999999ADDGA1021+084001999GF102991999999999999999999MA1102001999999REMMET056METAR ETGQ 080620Z 00000KT 9999 FEW280 12/08 Q1020 BLU/;
0125102340999992008050807204+53133+009350FM-15+0061ETGQ V0209999C000012200019N0112651N1+01601+00801999999ADDGA1021+084001999GF102991999999999999999999MA1102001999999REMMET056METAR ETGQ 080720Z 00000KT 9999 FEW280 16/08 Q1020 BLU/;
0076102340999992008050808204+53133+009350FM-15+0061ETGQ V0209999C000012200019N0112651N1+01801+00701999999ADDMA1102001999999REMMET049METAR ETGQ 080820Z 00000KT 9999 18/07 Q1020 BLU/;
0076102340999992008050809204+53133+009350FM-15+0061ETGQ V0201401N002112200019N0112651N1+02101+00301999999ADDMA1101901999999REMMET049METAR ETGQ 080920Z 14004KT 9999 21/03 Q1019 BLU/;
0125102340999992008050810204+53133+009350FM-15+0061ETGQ V0201601N003112200019N0112651N1+02201+00301999999ADDGA1021+018001999GF102991999999999999999999MA1101901999999REMMET056METAR ETGQ 081020Z 16006KT 9999 FEW060 22/03 Q1019 BLU/;
0076102340999992008050811204+53133+009350FM-15+0061ETGQ V0201601N002612200019N0112651N1+02301+00201999999ADDMA1101801999999REMMET049METAR ETGQ 081120Z 16005KT 9999 23/02 Q1018 BLU/;
0076102340999992008050812204+53133+009350FM-15+0061ETGQ V0201201N003112200019N0112651N1+02301+00101999999ADDMA1101691999999REMMET049METAR ETGQ 081220Z 12006KT 9999 23/01 Q1017 BLU/;
0076102340999992008050813204+53133+009350FM-15+0061ETGQ V0201401N003612200019N0112651N1+02301+00101999999ADDMA1101691999999REMMET049METAR ETGQ 081320Z 14007KT 9999 23/01 Q1017 BLU/;
0076102340999992008050814204+53133+009350FM-15+0061ETGQ V0201201N002612200019N0112651N1+02401+00101999999ADDMA1101691999999REMMET049METAR ETGQ 081420Z 12005KT 9999 24/01 Q1017 BLU/;
0076102340999992008050815204+53133+009350FM-15+0061ETGQ V0201301N002612200019N0112651N1+02401+00101999999ADDMA1101591999999REMMET049METAR ETGQ 081520Z 13005KT 9999 24/01 Q1016 BLU/;
0076102340999992008050817204+53133+009350FM-15+0061ETGQ V0201301N002612200019N0112651N1+02301+00201999999ADDMA1101591999999REMMET049METAR ETGQ 081720Z 13005KT 9999 23/02 Q1016 BLU/;
0076102340999992008050818204+53133+009350FM-15+0061ETGQ V0201101N002112200019N0112651N1+02201+00201999999ADDMA1101591999999REMMET049METAR ETGQ 081820Z 11004KT 9999 22/02 Q1016 BLU/;
0076102340999992008050904204+53133+009350FM-15+0061ETGQ V0209999C000012200019N0112651N1+00901+00701999999ADDMA1101691999999REMMET049METAR ETGQ 090420Z 00000KT 9999 09/07 Q1017 BLU/;
0076102340999992008050905204+53133+009350FM-15+0061ETGQ V0202301N000512200019N0112651N1+01001+00801999999ADDMA1101691999999REMMET049METAR ETGQ 090520Z 23001KT 9999 10/08 Q1017 BLU/;
0076102340999992008050906204+53133+009350FM-15+0061ETGQ V0209999C000012200019N0112651N1+01401+00801999999ADDMA1101691999999REMMET049METAR ETGQ 090620Z 00000KT 9999 14/08 Q1017 BLU/;
0076102340999992008050907204+53133+009350FM-15+0061ETGQ V0209999C000012200019N0112651N1+01601+00701999999ADDMA1101691999999REMMET049METAR ETGQ 090720Z 00000KT 9999 16/07 Q1017 BLU/;
0076102340999992008050908204+53133+009350FM-15+0061ETGQ V0209999C000012200019N0112651N1+01901+00801999999ADDMA1101691999999REMMET049METAR ETGQ 090820Z 00000KT 9999 19/08 Q1017 BLU/;
0076102340999992008050909204+53133+009350FM-15+0061ETGQ V0201601N002112200019N0112651N1+02201+00601999999ADDMA1101591999999REMMET049METAR ETGQ 090920Z 16004KT 9999 22/06 Q1016 BLU/;
0125102340999992008050910204+53133+009350FM-15+0061ETGQ V0201401N002612200019N0112651N1+02301+00501999999ADDGA1021+018001999GF102991999999999999999999MA1101591999999REMMET056METAR ETGQ 091020Z 14005KT 9999 FEW060 23/05 Q1016 BLU/;
0125102340999992008050911204+53133+009350FM-15+0061ETGQ V0201301N003112200019N0112651N1+02401+00501999999ADDGA1021+018001999GF102991999999999999999999MA1101591999999REMMET056METAR ETGQ 091120Z 13006KT 9999 FEW060 24/05 Q1016 BLU/;
0125102340999992008050912204+53133+009350FM-15+0061ETGQ V0201001N003612200019N0112651N1+02501+00301999999ADDGA1021+018001999GF102991999999999999999999MA1101491999999REMMET056METAR ETGQ 091220Z 10007KT 9999 FEW060 25/03 Q1015 BLU/;
0076102340999992008050913204+53133+009350FM-15+0061ETGQ V0201101N003112200019N0112651N1+02501+00401999999ADDMA1101491999999REMMET049METAR ETGQ 091320Z 11006KT 9999 25/04 Q1015 BLU/;
0076102340999992008050914204+53133+009350FM-15+0061ETGQ V0201201N003612200019N0112651N1+02501+00401999999ADDMA1101391999999REMMET049METAR ETGQ 091420Z 12007KT 9999 25/04 Q1014 BLU/;
0076102340999992008050915204+53133+009350FM-15+0061ETGQ V0201101N002612200019N0112651N1+02601+00301999999ADDMA1101391999999REMMET049METAR ETGQ 091520Z 11005KT 9999 26/03 Q1014 BLU/;
0076102340999992008050916204+53133+009350FM-15+0061ETGQ V0201201N003112200019N0112651N1+02501+00301999999ADDMA1101391999999REMMET049METAR ETGQ 091620Z 12006KT 9999 25/03 Q1014 BLU/;
0125102340999992008050917204+53133+009350FM-15+0061ETGQ V0201201N002112200019N0112651N1+02501+00201999999ADDGA1021+090001999GF102991999999999999999999MA1101391999999REMMET056METAR ETGQ 091720Z 12004KT 9999 FEW300 25/02 Q1014 BLU/;
0125102340999992008050918204+53133+009350FM-15+0061ETGQ V0200901N001012200019N0112651N1+02401+00401999999ADDGA1021+090001999GF102991999999999999999999MA1101391999999REMMET056METAR ETGQ 091820Z 09002KT 9999 FEW300 24/04 Q1014 BLU/;
0125102340999992008051304204+53133+009350FM-15+0061ETGQ V0202201N001012200019N0112651N1+01101+00901999999ADDGA1021+030001999GF102991999999999999999999MA1101591999999REMMET056METAR ETGQ 130420Z 22002KT 9999 FEW100 11/09 Q1016 BLU/;
0125102340999992008051305204+53133+009350FM-15+0061ETGQ V0209999V001012200019N0112651N1+01301+00901999999ADDGA1041+030001999GF104991999999999999999999MA1101591999999REMMET056METAR ETGQ 130520Z VRB02KT 9999 SCT100 13/09 Q1016 BLU/;
0125102340999992008051306204+53133+009350FM-15+0061ETGQ V0209999V000512200019N0112651N1+01501+00901999999ADDGA1041+027001999GF104991999999999999999999MA1101591999999REMMET056METAR ETGQ 130620Z VRB01KT 9999 SCT090 15/09 Q1016 BLU/;
0125102340999992008051307204+53133+009350FM-15+0061ETGQ V0209999V001012200019N0112651N1+01801+00901999999ADDGA1021+027001999GF102991999999999999999999MA1101591999999REMMET056METAR ETGQ 130720Z VRB02KT 9999 FEW090 18/09 Q1016 BLU/;
0125102340999992008051308204+53133+009350FM-15+0061ETGQ V0200101N001512200019N0112651N1+02001+00801999999ADDGA1021+027001999GF102991999999999999999999MA1101591999999REMMET056METAR ETGQ 130820Z 01003KT 9999 FEW090 20/08 Q1016 BLU/;
0125102340999992008051309204+53133+009350FM-15+0061ETGQ V0203101N001512200019N0112651N1+02201+00701999999ADDGA1021+018001999GF102991999999999999999999MA1101491999999REMMET056METAR ETGQ 130920Z 31003KT 9999 FEW060 22/07 Q1015 BLU/;
0125102340999992008051310204+53133+009350FM-15+0061ETGQ V0200101N001512200019N0112651N1+02401+00701999999ADDGA1021+018001999GF102991999999999999999999MA1101491999999REMMET056METAR ETGQ 131020Z 01003KT 9999 FEW060 24/07 Q1015 BLU/;
0125102340999992008051311204+53133+009350FM-15+0061ETGQ V0200601N002112200019N0112651N1+02501+00301999999ADDGA1041+024001999GF104991999999999999999999MA1101391999999REMMET056METAR ETGQ 131120Z 06004KT 9999 SCT080 25/03 Q1014 BLU/;
0125102340999992008051312204+53133+009350FM-15+0061ETGQ V0200501N003112200019N0112651N1+02601+00301999999ADDGA1021+024001999GF102991999999999999999999MA1101391999999REMMET056METAR ETGQ 131220Z 05006KT 9999 FEW080 26/03 Q1014 BLU/;
0125102340999992008051313204+53133+009350FM-15+0061ETGQ V0200901N003112200019N0112651N1+02501+00201999999ADDGA1021+024001999GF102991999999999999999999MA1101391999999REMMET056METAR ETGQ 131320Z 09006KT 9999 FEW080 25/02 Q1014 BLU/;
0125102340999992008051314204+53133+009350FM-15+0061ETGQ V0200901N004112200019N0112651N1+02601+00501999999ADDGA1021+024001999GF102991999999999999999999MA1101291999999REMMET056METAR ETGQ 131420Z 09008KT 9999 FEW080 26/05 Q1013 BLU/;
0125102340999992008051315204+53133+009350FM-15+0061ETGQ V0200801N002612200019N0112651N1+02501+00401999999ADDGA1021+021001999GF102991999999999999999999MA1101291999999REMMET056METAR ETGQ 131520Z 08005KT 9999 FEW070 25/04 Q1013 BLU/;
0125102340999992008051316204+53133+009350FM-15+0061ETGQ V0200901N002612200019N0112651N1+02501+00301999999ADDGA1021+018001999GF102991999999999999999999MA1101191999999REMMET056METAR ETGQ 131620Z 09005KT 9999 FEW060 25/03 Q1012 BLU/;
0125102340999992008051317204+53133+009350FM-15+0061ETGQ V0200601N003612200019N0112651N1+02501+00501999999ADDGA1021+018001999GF102991999999999999999999MA1101291999999REMMET056METAR ETGQ 131720Z 06007KT 9999 FEW060 25/05 Q1013 BLU/;
0125102340999992008051318204+53133+009350FM-15+0061ETGQ V0200601N002112200019N0112651N1+02401+00401999999ADDGA1021+018001999GF102991999999999999999999MA1101291999999REMMET056METAR ETGQ 131820Z 06004KT 9999 FEW060 24/04 Q1013 BLU/;
0125102340999992008051404204+53133+009350FM-15+0061ETGQ V0202301N001512200019N0112651N1+01301+01001999999ADDGA1041+018001999GF104991999999999999999999MA1101391999999REMMET056METAR ETGQ 140420Z 23003KT 9999 SCT060 13/10 Q1014 BLU/;
0125102340999992008051405204+53133+009350FM-15+0061ETGQ V0202401N000512200019N0112651N1+01401+01101999999ADDGA1041+030001999GF104991999999999999999999MA1101491999999REMMET056METAR ETGQ 140520Z 24001KT 9999 SCT100 14/11 Q1015 BLU/;
0125102340999992008051406204+53133+009350FM-15+0061ETGQ V0202001N001012200019N0112651N1+01601+01001999999ADDGA1041+030001999GF104991999999999999999999MA1101491999999REMMET056METAR ETGQ 140620Z 20002KT 9999 SCT100 16/10 Q1015 BLU/;
0076102340999992008051407204+53133+009350FM-15+0061ETGQ V0203401N001012200019N0112651N1+01801+01101999999ADDMA1101391999999REMMET049METAR ETGQ 140720Z 34002KT 9999 18/11 Q1014 BLU/;
0076102340999992008051408204+53133+009350FM-15+0061ETGQ V0209999V001012200019N0112651N1+02001+01001999999ADDMA1101391999999REMMET049METAR ETGQ 140820Z VRB02KT 9999 20/10 Q1014 BLU/;
0076102340999992008051409204+53133+009350FM-15+0061ETGQ V0201401N002112200019N0112651N1+02201+00801999999ADDMA1101391999999REMMET049METAR ETGQ 140920Z 14004KT 9999 22/08 Q1014 BLU/;
0076102340999992008051410204+53133+009350FM-15+0061ETGQ V0201501N002612200019N0112651N1+02401+00801999999ADDMA1101291999999REMMET049METAR ETGQ 141020Z 15005KT 9999 24/08 Q1013 BLU/;
0127102340999992008051411204+53133+009350FM-15+0061ETGQ V0201301N002612200019N0112651N1+02501+00701999999ADDGA1021+018001091GF102991999999999999999999MA1101291999999REMMET058METAR ETGQ 141120Z 13005KT 9999 FEW060CB 25/07 Q1013 BLU/;
0127102340999992008051412204+53133+009350FM-15+0061ETGQ V0201801N002612200019N0112651N1+02601+00701999999ADDGA1021+018001091GF102991999999999999999999MA1101191999999REMMET058METAR ETGQ 141220Z 18005KT 9999 FEW060CB 26/07 Q1012 BLU/;
0127102340999992008051413204+53133+009350FM-15+0061ETGQ V0200801N001512200019N0112651N1+02501+00501999999ADDGA1041+021001091GF104991999999999999999999MA1101081999999REMMET058METAR ETGQ 141320Z 08003KT 9999 SCT070CB 25/05 Q1011 BLU/;
0128102340999992008051414204+53133+009350FM-15+0061ETGQ V0201701N001512200019N0112651N1+02501+00501999999ADDGA1041+021001021GF104991999999999999999999MA1101081999999REMMET059METAR ETGQ 141420Z 17003KT 9999 SCT070TCU 25/05 Q1011 BLU/;
0150102340999992008051415204+53133+009350FM-15+0061ETGQ V0202401N002612200019N0112651N1+02401+00601999999ADDGA1041+018001091GA2041+027001999GF104991999999999999999999MA1101021999999REMMET065METAR ETGQ 141520Z 24005KT 9999 SCT060CB SCT090 24/06 Q1010 BLU/;
0161102340999992008051416204+53133+009350FM-15+0061ETGQ V0203101N002612200019N0112651N1+02301+00801999999ADDGA1021+018001091GA2041+027001999GF104991999999999999999999MA1101081999999MW1161REMMET070METAR ETGQ 141620Z 31005KT 9999 VCSH FEW060CB SCT090 23/08 Q1011 BLU/;
0149102340999992008051417204+53133+009350FM-15+0061ETGQ V0200101N003110360019N0112651N1+02301+00701999999ADDGA1021+018001091GA2071+036001999GF107991999999999999999999MA1101081999999REMMET064METAR ETGQ 141720Z 01006KT 9999 FEW060CB BKN120 23/07 Q1011 BLU;
0148102340999992008051418204+53133+009350FM-15+0061ETGQ V0200301N001512200019N0112651N1+02201+00701999999ADDGA1021+018001999GA2041+039001999GF104991999999999999999999MA1101021999999REMMET063METAR ETGQ 141820Z 03003KT 9999 FEW060 SCT130 22/07 Q1010 BLU/;
0171102340999992008051504204+53133+009350FM-15+0061ETGQ V0209999V00051039001CN0112651N1+01401+01101999999ADDGA1021+018001999GA2041+039001999GA3071+081001999GF107991999999999999999999MA1101021999999REMMET070METAR ETGQ 150420Z VRB01KT 9999 FEW060 SCT130 BKN270 14/11 Q1010 BLU/;
0147102340999992008051505204+53133+009350FM-15+0061ETGQ V0202701N001010360019N0112651N1+01401+01101999999ADDGA1021+021001999GA2071+036001999GF107991999999999999999999MA1101021999999REMMET062METAR ETGQ 150520Z 27002KT 9999 FEW070 BKN120 14/11 Q1010 BLU;
0147102340999992008051506204+53133+009350FM-15+0061ETGQ V0203001N001010360019N0112651N1+01501+01101999999ADDGA1021+021001999GA2071+036001999GF107991999999999999999999MA1101021999999REMMET062METAR ETGQ 150620Z 30002KT 9999 FEW070 BKN120 15/11 Q1010 BLU;
0140102340999992008051507204+53133+009350FM-15+0061ETGQ V0209999V00101220001CN0112651N1+01701+01001999999ADDGA1071+036001999GA2041+084001999MA1100911999999REMMET062METAR ETGQ 150720Z VRB02KT 9999 BKN120 SCT280 17/10 Q1009 BLU;EQDQ01+000042SCOTCV
0170102340999992008051508204+53133+009350FM-15+0061ETGQ V0209999V001010420019N0112651N1+02001+01001999999ADDGA1021+033001999GA2071+042001999GA3071+084001999GF107991999999999999999999MA1100911999999REMMET069METAR ETGQ 150820Z VRB02KT 9999 FEW110 BKN140 BKN280 20/10 Q1009 BLU;
0170102340999992008051509204+53133+009350FM-15+0061ETGQ V0202101N001510360019N0112651N1+02101+01001999999ADDGA1021+012001999GA2071+036001999GA3071+084001999GF107991999999999999999999MA1100911999999REMMET069METAR ETGQ 150920Z 21003KT 9999 FEW040 BKN120 BKN280 21/10 Q1009 BLU;
0184102340999992008051510204+53133+009350FM-15+0061ETGQ V0201301N00261018001CN0112651N1+02201+01001999999ADDGA1021+013501999GA2041+018001021GA3071+030001999GF107991999999999999999999MA1100911999999MW1161REMMET077METAR ETGQ 151020Z 13005KT 9999 VCSH FEW045 SCT060TCU BKN100 22/10 Q1009 BLU;
0147102340999992008051511204+53133+009350FM-15+0061ETGQ V0202401N001510240019N0112651N1+02301+01001999999ADDGA1021+015001999GA2071+024001999GF107991999999999999999999MA1100911999999REMMET062METAR ETGQ 151120Z 24003KT 9999 FEW050 BKN080 23/10 Q1009 BLU;
0147102340999992008051512204+53133+009350FM-15+0061ETGQ V0202401N003110240019N0112651N1+02401+00901999999ADDGA1021+015001999GA2071+024001999GF107991999999999999999999MA1100811999999REMMET062METAR ETGQ 151220Z 24006KT 9999 FEW050 BKN080 24/09 Q1008 BLU;
0171102340999992008051513204+53133+009350FM-15+0061ETGQ V0202701N00211024001CN0112651N1+02501+00801999999ADDGA1041+015001999GA2041+024001999GA3071+072001999GF107991999999999999999999MA1100711999999REMMET070METAR ETGQ 151320Z 27004KT 9999 SCT050 SCT080 BKN240 25/08 Q1007 BLU/;
0151102340999992008051514204+53133+009350FM-15+0061ETGQ V0202301N004610720019N0112651N1+02101+00901999999ADDGA1041+018001021GA2071+072001999GF107991999999999999999999MA1100711999999REMMET066METAR ETGQ 151420Z 23009KT 9999 SCT060TCU BKN240 21/09 Q1007 BLU/;
0150102340999992008051515204+53133+009350FM-15+0061ETGQ V0203101N003610240019N0112651N1+02001+01101999999ADDGA1041+012001021GA2071+024001999GF107991999999999999999999MA1100911999999REMMET065METAR ETGQ 151520Z 31007KT 9999 SCT040TCU BKN080 20/11 Q1009 BLU;
0147102340999992008051516204+53133+009350FM-15+0061ETGQ V0203201N003110330019N0112651N1+01901+01201999999ADDGA1041+012001999GA2071+033001999GF107991999999999999999999MA1100911999999REMMET062METAR ETGQ 151620Z 32006KT 9999 SCT040 BKN110 19/12 Q1009 BLU;
0170102340999992008051517204+53133+009350FM-15+0061ETGQ V0203101N002110330019N0112651N1+01801+01101999999ADDGA1021+012001999GA2071+033001999GA3071+072001999GF107991999999999999999999MA1100811999999REMMET069METAR ETGQ 151720Z 31004KT 9999 FEW040 BKN110 BKN240 18/11 Q1008 BLU;
0150102340999992008051518204+53133+009350FM-15+0061ETGQ V0209999V001010330019N0112651N1+01701+01301999999ADDGA1041+012001021GA2071+033001999GF107991999999999999999999MA1100811999999REMMET065METAR ETGQ 151820Z VRB02KT 9999 SCT040TCU BKN110 17/13 Q1008 BLU;
0147102340999992008051604204+53133+009350FM-15+0061ETGQ V0202001N001510135019N0112651N1+01501+01201999999ADDGA1041+008701999GA2071+013501999GF107991999999999999999999MA1100711999999REMMET062METAR ETGQ 160420Z 20003KT 9999 SCT029 BKN045 15/12 Q1007 BLU;
0147102340999992008051605204+53133+009350FM-15+0061ETGQ V0202201N002110141019N0112651N1+01501+01201999999ADDGA1041+007201999GA2071+014101999GF107991999999999999999999MA1100811999999REMMET062METAR ETGQ 160520Z 22004KT 9999 SCT024 BKN047 15/12 Q1008 BLU;
0147102340999992008051606204+53133+009350FM-15+0061ETGQ V0202201N002110180019N0112651N1+01501+01201999999ADDGA1041+010201999GA2071+018001999GF107991999999999999999999MA1100811999999REMMET062METAR ETGQ 160620Z 22004KT 9999 SCT034 BKN060 15/12 Q1008 BLU;
0147102340999992008051607204+53133+009350FM-15+0061ETGQ V0202301N001510150019N0112651N1+01701+01301999999ADDGA1041+007501999GA2071+015001999GF107991999999999999999999MA1100811999999REMMET062METAR ETGQ 160720Z 23003KT 9999 SCT025 BKN050 17/13 Q1008 BLU;
0148102340999992008051608204+53133+009350FM-15+0061ETGQ V0202301N002112200019N0112651N1+01801+01201999999ADDGA1041+006601999GA2041+018001999GF104991999999999999999999MA1100811999999REMMET063METAR ETGQ 160820Z 23004KT 9999 SCT022 SCT060 18/12 Q1008 BLU/;
0147102340999992008051609204+53133+009350FM-15+0061ETGQ V0202701N002110180019N0112651N1+01801+01201999999ADDGA1021+006001999GA2071+018001999GF107991999999999999999999MA1100811999999REMMET062METAR ETGQ 160920Z 27004KT 9999 FEW020 BKN060 18/12 Q1008 BLU;
0125102340999992008051610204+53133+009350FM-15+0061ETGQ V0202101N002112200019N0112651N1+02001+01201999999ADDGA1041+009601999GF104991999999999999999999MA1100811999999REMMET056METAR ETGQ 161020Z 21004KT 9999 SCT032 20/12 Q1008 BLU/;
0128102340999992008051611204+53133+009350FM-15+0061ETGQ V0202201N003612200019N0112651N1+02201+01101999999ADDGA1041+010801021GF104991999999999999999999MA1100811999999REMMET059METAR ETGQ 161120Z 22007KT 9999 SCT036TCU 22/11 Q1008 BLU/;
0150102340999992008051613204+53133+009350FM-15+0061ETGQ V0202401N003112200019N0112651N1+02201+01001999999ADDGA1021+013501091GA2041+024001999GF104991999999999999999999MA1100711999999REMMET065METAR ETGQ 161320Z 24006KT 9999 FEW045CB SCT080 22/10 Q1007 BLU/;
0184102340999992008051614204+53133+009350FM-15+0061ETGQ V0202201N00211024001CN0112651N1+02101+01101999999ADDGA1041+012001091GA2041+024001999GA3071+084001999GF107991999999999999999999MA1100611999999MW1161REMMET077METAR ETGQ 161420Z 22004KT 9999 VCSH SCT040CB SCT080 BKN280 21/11 Q1006 BLU/;
0183102340999992008051615204+53133+009350FM-15+0061ETGQ V0202201N00211018001CN0112651N1+01901+01101999999ADDGA1021+012001091GA2041+018001999GA3071+027001999GF107991999999999999999999MA1100611999999MW1161REMMET076METAR ETGQ 161520Z 22004KT 9999 VCSH FEW040CB SCT060 BKN090 19/11 Q1006 BLU;
0183102340999992008051616204+53133+009350FM-15+0061ETGQ V0209999V000510270019N0080001N1+02001+01101999999ADDGA1041+012001091GA2071+027001999GA3071+084001999GF107991999999999999999999MA1100611999999MW1161REMMET076METAR ETGQ 161620Z VRB01KT 8000 VCSH SCT040CB BKN090 BKN280 20/11 Q1006 BLU;
0162102340999992008051617204+53133+009350FM-15+0061ETGQ V0200901N001010750019N0112651N1+01901+01201999999ADDGA1041+015001021GA2071+075001999GF107991999999999999999999MA1100611999999MW1161REMMET071METAR ETGQ 161720Z 09002KT 9999 VCSH SCT050TCU BKN250 19/12 Q1006 BLU/;
0148102340999992008051618204+53133+009350FM-15+0061ETGQ V0200901N000510660019N0112651N1+01901+01201999999ADDGA1021+015001999GA2071+066001999GF107991999999999999999999MA1100611999999REMMET063METAR ETGQ 161820Z 09001KT 9999 FEW050 BKN220 19/12 Q1006 BLU/;
0124102340999992008051904204+53133+009350FM-15+0061ETGQ V0203501N002110240019N0112651N1+01001+00501999999ADDGA1071+024001999GF107991999999999999999999MA1101191999999REMMET055METAR ETGQ 190420Z 35004KT 9999 BKN080 10/05 Q1012 BLU;
0124102340999992008051905204+53133+009350FM-15+0061ETGQ V0203401N002110240019N0112651N1+01101+00501999999ADDGA1071+024001999GF107991999999999999999999MA1101291999999REMMET055METAR ETGQ 190520Z 34004KT 9999 BKN080 11/05 Q1013 BLU;
0125102340999992008051906204+53133+009350FM-15+0061ETGQ V0203401N002112200019N0112651N1+01201+00501999999ADDGA1041+024001999GF104991999999999999999999MA1101291999999REMMET056METAR ETGQ 190620Z 34004KT 9999 SCT080 12/05 Q1013 BLU/;
0125102340999992008051907204+53133+009350FM-15+0061ETGQ V0202801N002112200019N0112651N1+01301+00501999999ADDGA1041+009601999GF104991999999999999999999MA1101291999999REMMET056METAR ETGQ 190720Z 28004KT 9999 SCT032 13/05 Q1013 BLU/;
0125102340999992008051908204+53133+009350FM-15+0061ETGQ V0203101N002112200019N0112651N1+01401+00501999999ADDGA1041+015001999GF104991999999999999999999MA1101291999999REMMET056METAR ETGQ 190820Z 31004KT 9999 SCT050 14/05 Q1013 BLU/;
0124102340999992008051909204+53133+009350FM-15+0061ETGQ V0203601N002610180019N0112651N1+01401+00201999999ADDGA1071+018001999GF107991999999999999999999MA1101291999999REMMET055METAR ETGQ 190920Z 36005KT 9999 BKN060 14/02 Q1013 BLU;
0124102340999992008051910204+53133+009350FM-15+0061ETGQ V0203401N003110150019N0112651N1+01501+00401999999ADDGA1071+015001999GF107991999999999999999999MA1101291999999REMMET055METAR ETGQ 191020Z 34006KT 9999 BKN050 15/04 Q1013 BLU;
0124102340999992008051911204+53133+009350FM-15+0061ETGQ V0209999V001010150019N0112651N1+01501+00201999999ADDGA1071+015001999GF107991999999999999999999MA1101291999999REMMET055METAR ETGQ 191120Z VRB02KT 9999 BKN050 15/02 Q1013 BLU;
0147102340999992008051912204+53133+009350FM-15+0061ETGQ V0203501N002610180019N0112651N1+01501+00201999999ADDGA1021+015001999GA2071+018001999GF107991999999999999999999MA1101291999999REMMET062METAR ETGQ 191220Z 35005KT 9999 FEW050 BKN060 15/02 Q1013 BLU;
0147102340999992008051913204+53133+009350FM-15+0061ETGQ V0203201N002110210019N0112651N1+01601+00201999999ADDGA1041+015001999GA2071+021001999GF107991999999999999999999MA1101291999999REMMET062METAR ETGQ 191320Z 32004KT 9999 SCT050 BKN070 16/02 Q1013 BLU;
0147102340999992008051915204+53133+009350FM-15+0061ETGQ V0200201N001510210019N0112651N1+01601+00101999999ADDGA1021+015001999GA2071+021001999GF107991999999999999999999MA1101191999999REMMET062METAR ETGQ 191520Z 02003KT 9999 FEW050 BKN070 16/01 Q1012 BLU;
0147102340999992008051916204+53133+009350FM-15+0061ETGQ V0200301N001510180019N0112651N1+01601+00201999999ADDGA1021+015001999GA2071+018001999GF107991999999999999999999MA1101191999999REMMET062METAR ETGQ 191620Z 03003KT 9999 FEW050 BKN060 16/02 Q1012 BLU;
0147102340999992008051917204+53133+009350FM-15+0061ETGQ V0203501N003110210019N0112651N1+01601+00201999999ADDGA1021+015001999GA2071+021001999GF107991999999999999999999MA1101291999999REMMET062METAR ETGQ 191720Z 35006KT 9999 FEW050 BKN070 16/02 Q1013 BLU;
0147102340999992008051918204+53133+009350FM-15+0061ETGQ V0203601N002610180019N0112651N1+01501+00201999999ADDGA1021+015001999GA2071+018001999GF107991999999999999999999MA1101291999999REMMET062METAR ETGQ 191820Z 36005KT 9999 FEW050 BKN060 15/02 Q1013 BLU;
0124102340999992008052004204+53133+009350FM-15+0061ETGQ V0203201N002110210019N0112651N1+00901+00401999999ADDGA1071+021001999GF107991999999999999999999MA1101491999999REMMET055METAR ETGQ 200420Z 32004KT 9999 BKN070 09/04 Q1015 BLU;
0124102340999992008052005204+53133+009350FM-15+0061ETGQ V0203301N002110210019N0112651N1+01001+00401999999ADDGA1071+021001999GF107991999999999999999999MA1101491999999REMMET055METAR ETGQ 200520Z 33004KT 9999 BKN070 10/04 Q1015 BLU;
0124102340999992008052006204+53133+009350FM-15+0061ETGQ V0203101N000510210019N0112651N1+01101+00501999999ADDGA1071+021001999GF107991999999999999999999MA1101491999999REMMET055METAR ETGQ 200620Z 31001KT 9999 BKN070 11/05 Q1015 BLU;
0124102340999992008052007204+53133+009350FM-15+0061ETGQ V0203301N001510210019N0112651N1+01201+00501999999ADDGA1071+021001999GF107991999999999999999999MA1101591999999REMMET055METAR ETGQ 200720Z 33003KT 9999 BKN070 12/05 Q1016 BLU;
0124102340999992008052008204+53133+009350FM-15+0061ETGQ V0203101N000510210019N0112651N1+01301+00401999999ADDGA1071+021001999GF107991999999999999999999MA1101591999999REMMET055METAR ETGQ 200820Z 31001KT 9999 BKN070 13/04 Q1016 BLU;
0125102340999992008052009204+53133+009350FM-15+0061ETGQ V0200901N001512200019N0112651N1+01501+00401999999ADDGA1041+013201999GF104991999999999999999999MA1101591999999REMMET056METAR ETGQ 200920Z 09003KT 9999 SCT044 15/04 Q1016 BLU/;
0124102340999992008052010204+53133+009350FM-15+0061ETGQ V0200901N003610150019N0112651N1+01701+00201999999ADDGA1071+015001999GF107991999999999999999999MA1101491999999REMMET055METAR ETGQ 201020Z 09007KT 9999 BKN050 17/02 Q1015 BLU;
0124102340999992008052011204+53133+009350FM-15+0061ETGQ V0200701N002110180019N0112651N1+01701+00201999999ADDGA1071+018001999GF107991999999999999999999MA1101491999999REMMET055METAR ETGQ 201120Z 07004KT 9999 BKN060 17/02 Q1015 BLU;
0124102340999992008052012204+53133+009350FM-15+0061ETGQ V0200401N003610180019N0112651N1+01701+00101999999ADDGA1071+018001999GF107991999999999999999999MA1101491999999REMMET055METAR ETGQ 201220Z 04007KT 9999 BKN060 17/01 Q1015 BLU;
0147102340999992008052013204+53133+009350FM-15+0061ETGQ V0200701N003610210019N0112651N1+01701+00001999999ADDGA1021+018001999GA2071+021001999GF107991999999999999999999MA1101491999999REMMET062METAR ETGQ 201320Z 07007KT 9999 FEW060 BKN070 17/00 Q1015 BLU;
0124102340999992008052014204+53133+009350FM-15+0061ETGQ V0200701N003110180019N0112651N1+01801+00101999999ADDGA1071+018001999GF107991999999999999999999MA1101391999999REMMET055METAR ETGQ 201420Z 07006KT 9999 BKN060 18/01 Q1014 BLU;
0124102340999992008052015204+53133+009350FM-15+0061ETGQ V0200701N003110180019N0112651N1+01701+00101999999ADDGA1071+018001999GF107991999999999999999999MA1101491999999REMMET055METAR ETGQ 201520Z 07006KT 9999 BKN060 17/01 Q1015 BLU;
0124102340999992008052016204+53133+009350FM-15+0061ETGQ V0200701N002110180019N0112651N1+01701+00101999999ADDGA1071+018001999GF107991999999999999999999MA1101491999999REMMET055METAR ETGQ 201620Z 07004KT 9999 BKN060 17/01 Q1015 BLU;
0124102340999992008052017204+53133+009350FM-15+0061ETGQ V0200801N002610180019N0112651N1+01701+00101999999ADDGA1071+018001999GF107991999999999999999999MA1101491999999REMMET055METAR ETGQ 201720Z 08005KT 9999 BKN060 17/01 Q1015 BLU;
0124102340999992008052018204+53133+009350FM-15+0061ETGQ V0200601N002110180019N0112651N1+01601+00101999999ADDGA1071+018001999GF107991999999999999999999MA1101491999999REMMET055METAR ETGQ 201820Z 06004KT 9999 BKN060 16/01 Q1015 BLU;
0124102340999992008052104204+53133+009350FM-15+0061ETGQ V0203201N001010210019N0112651N1+01201+00301999999ADDGA1071+021001999GF107991999999999999999999MA1101591999999REMMET055METAR ETGQ 210420Z 32002KT 9999 BKN070 12/03 Q1016 BLU;
0124102340999992008052105204+53133+009350FM-15+0061ETGQ V0209999C000010210019N0112651N1+01201+00401999999ADDGA1071+021001999GF107991999999999999999999MA1101591999999REMMET055METAR ETGQ 210520Z 00000KT 9999 BKN070 12/04 Q1016 BLU;
0124102340999992008052106204+53133+009350FM-15+0061ETGQ V0209999V001010210019N0112651N1+01301+00301999999ADDGA1071+021001999GF107991999999999999999999MA1101591999999REMMET055METAR ETGQ 210620Z VRB02KT 9999 BKN070 13/03 Q1016 BLU;
0124102340999992008052107204+53133+009350FM-15+0061ETGQ V0200601N002110210019N0112651N1+01401+00301999999ADDGA1071+021001999GF107991999999999999999999MA1101691999999REMMET055METAR ETGQ 210720Z 06004KT 9999 BKN070 14/03 Q1017 BLU;
0124102340999992008052108204+53133+009350FM-15+0061ETGQ V0200801N002110180019N0112651N1+01501+00301999999ADDGA1071+018001999GF107991999999999999999999MA1101691999999REMMET055METAR ETGQ 210820Z 08004KT 9999 BKN060 15/03 Q1017 BLU;
0124102340999992008052109204+53133+009350FM-15+0061ETGQ V0201001N002610210019N0112651N1+01601+00301999999ADDGA1071+021001999GF107991999999999999999999MA1101591999999REMMET055METAR ETGQ 210920Z 10005KT 9999 BKN070 16/03 Q1016 BLU;
0125102340999992008052110204+53133+009350FM-15+0061ETGQ V0200801N003612200019N0112651N1+01701+00101999999ADDGA1041+018001999GF104991999999999999999999MA1101591999999REMMET056METAR ETGQ 211020Z 08007KT 9999 SCT060 17/01 Q1016 BLU/;
0124102340999992008052111204+53133+009350FM-15+0061ETGQ V0200601N003110180019N0112651N1+01801+00101999999ADDGA1071+018001999GF107991999999999999999999MA1101591999999REMMET055METAR ETGQ 211120Z 06006KT 9999 BKN060 18/01 Q1016 BLU;
0147102340999992008052112204+53133+009350FM-15+0061ETGQ V0200701N003110210019N0112651N1+01801+00201999999ADDGA1021+018001999GA2071+021001999GF107991999999999999999999MA1101591999999REMMET062METAR ETGQ 211220Z 07006KT 9999 FEW060 BKN070 18/02 Q1016 BLU;
0147102340999992008052113204+53133+009350FM-15+0061ETGQ V0200901N002610210019N0112651N1+01801+00101999999ADDGA1021+018001999GA2071+021001999GF107991999999999999999999MA1101491999999REMMET062METAR ETGQ 211320Z 09005KT 9999 FEW060 BKN070 18/01 Q1015 BLU;
0147102340999992008052114204+53133+009350FM-15+0061ETGQ V0200201N002610210019N0112651N1+01801+00101999999ADDGA1021+018001999GA2071+021001999GF107991999999999999999999MA1101491999999REMMET062METAR ETGQ 211420Z 02005KT 9999 FEW060 BKN070 18/01 Q1015 BLU;
0147102340999992008052115204+53133+009350FM-15+0061ETGQ V0201001N002110210019N0112651N1+01801+00101999999ADDGA1021+018001999GA2071+021001999GF107991999999999999999999MA1101491999999REMMET062METAR ETGQ 211520Z 10004KT 9999 FEW060 BKN070 18/01 Q1015 BLU;
0147102340999992008052116204+53133+009350FM-15+0061ETGQ V0200601N002110210019N0112651N1+01801+00101999999ADDGA1021+018001999GA2071+021001999GF107991999999999999999999MA1101491999999REMMET062METAR ETGQ 211620Z 06004KT 9999 FEW060 BKN070 18/01 Q1015 BLU;
0147102340999992008052117204+53133+009350FM-15+0061ETGQ V0200701N001010210019N0112651N1+01801+00101999999ADDGA1021+018001999GA2071+021001999GF107991999999999999999999MA1101491999999REMMET062METAR ETGQ 211720Z 07002KT 9999 FEW060 BKN070 18/01 Q1015 BLU;
0124102340999992008052118204+53133+009350FM-15+0061ETGQ V0200901N001010180019N0112651N1+01801+00101999999ADDGA1071+018001999GF107991999999999999999999MA1101491999999REMMET055METAR ETGQ 211820Z 09002KT 9999 BKN060 18/01 Q1015 BLU;
0124102340999992008052304204+53133+009350FM-15+0061ETGQ V0200901N002110240019N0112651N1+01401+00601999999ADDGA1071+024001999GF107991999999999999999999MA1101491999999REMMET055METAR ETGQ 230420Z 09004KT 9999 BKN080 14/06 Q1015 BLU;
0124102340999992008052305204+53133+009350FM-15+0061ETGQ V0201001N001510240019N0112651N1+01501+00701999999ADDGA1071+024001999GF107991999999999999999999MA1101491999999REMMET055METAR ETGQ 230520Z 10003KT 9999 BKN080 15/07 Q1015 BLU;
0125102340999992008052306204+53133+009350FM-15+0061ETGQ V0201301N001012200019N0112651N1+01601+00701999999ADDGA1021+018001999GF102991999999999999999999MA1101491999999REMMET056METAR ETGQ 230620Z 13002KT 9999 FEW060 16/07 Q1015 BLU/;
0125102340999992008052307204+53133+009350FM-15+0061ETGQ V0209999V001012200019N0112651N1+01701+00801999999ADDGA1021+018001999GF102991999999999999999999MA1101391999999REMMET056METAR ETGQ 230720Z VRB02KT 9999 FEW060 17/08 Q1014 BLU/;
0125102340999992008052308204+53133+009350FM-15+0061ETGQ V0201001N002112200019N0112651N1+01801+00701999999ADDGA1021+018001999GF102991999999999999999999MA1101391999999REMMET056METAR ETGQ 230820Z 10004KT 9999 FEW060 18/07 Q1014 BLU/;
0125102340999992008052309204+53133+009350FM-15+0061ETGQ V0200801N002112200019N0112651N1+01801+00601999999ADDGA1021+012001999GF102991999999999999999999MA1101391999999REMMET056METAR ETGQ 230920Z 08004KT 9999 FEW040 18/06 Q1014 BLU/;
0125102340999992008052310204+53133+009350FM-15+0061ETGQ V0201001N002112200019N0112651N1+01901+00501999999ADDGA1041+013501999GF104991999999999999999999MA1101391999999REMMET056METAR ETGQ 231020Z 10004KT 9999 SCT045 19/05 Q1014 BLU/;
0125102340999992008052311204+53133+009350FM-15+0061ETGQ V0203501N001512200019N0112651N1+02001+00401999999ADDGA1041+015001999GF104991999999999999999999MA1101391999999REMMET056METAR ETGQ 231120Z 35003KT 9999 SCT050 20/04 Q1014 BLU/;
0147102340999992008052312204+53133+009350FM-15+0061ETGQ V0201201N002610240019N0112651N1+01901+00501999999ADDGA1041+015001999GA2071+024001999GF107991999999999999999999MA1101291999999REMMET062METAR ETGQ 231220Z 12005KT 9999 SCT050 BKN080 19/05 Q1013 BLU;
0150102340999992008052313204+53133+009350FM-15+0061ETGQ V0201201N003610240019N0112651N1+01901+00601999999ADDGA1041+018001021GA2071+024001999GF107991999999999999999999MA1101291999999REMMET065METAR ETGQ 231320Z 12007KT 9999 SCT060TCU BKN080 19/06 Q1013 BLU;
0150102340999992008052314204+53133+009350FM-15+0061ETGQ V0201001N002610240019N0112651N1+01901+00701999999ADDGA1021+015001021GA2071+024001999GF107991999999999999999999MA1101291999999REMMET065METAR ETGQ 231420Z 10005KT 9999 FEW050TCU BKN080 19/07 Q1013 BLU;
0150102340999992008052315204+53133+009350FM-15+0061ETGQ V0200801N003110270019N0112651N1+01901+00701999999ADDGA1021+015001021GA2071+027001999GF107991999999999999999999MA1101291999999REMMET065METAR ETGQ 231520Z 08006KT 9999 FEW050TCU BKN090 19/07 Q1013 BLU;
0150102340999992008052316204+53133+009350FM-15+0061ETGQ V0200801N003110270019N0112651N1+01901+00801999999ADDGA1021+015001021GA2071+027001999GF107991999999999999999999MA1101191999999REMMET065METAR ETGQ 231620Z 08006KT 9999 FEW050TCU BKN090 19/08 Q1012 BLU;
0150102340999992008052317204+53133+009350FM-15+0061ETGQ V0200901N002110300019N0112651N1+01901+00801999999ADDGA1021+015001021GA2071+030001999GF107991999999999999999999MA1101191999999REMMET065METAR ETGQ 231720Z 09004KT 9999 FEW050TCU BKN100 19/08 Q1012 BLU;
0150102340999992008052318204+53133+009350FM-15+0061ETGQ V0201001N002110300019N0112651N1+01801+00801999999ADDGA1021+015001021GA2071+030001999GF107991999999999999999999MA1101191999999REMMET065METAR ETGQ 231820Z 10004KT 9999 FEW050TCU BKN100 18/08 Q1012 BLU;
0147102340999992008052604204+53133+009350FM-15+0061ETGQ V0209999C000010240019N0112651N1+01701+01501999999ADDGA1041+015001999GA2071+024001999GF107991999999999999999999MA1101021999999REMMET062METAR ETGQ 260420Z 00000KT 9999 SCT050 BKN080 17/15 Q1010 BLU;
0147102340999992008052605204+53133+009350FM-15+0061ETGQ V0209999C000010300019N0112651N1+01701+01501999999ADDGA1041+015001999GA2071+030001999GF107991999999999999999999MA1101021999999REMMET062METAR ETGQ 260520Z 00000KT 9999 SCT050 BKN100 17/15 Q1010 BLU;
0147102340999992008052607204+53133+009350FM-15+0061ETGQ V0201501N000510270019N0112651N1+01801+01401999999ADDGA1041+015001999GA2071+027001999GF107991999999999999999999MA1101081999999REMMET062METAR ETGQ 260720Z 15001KT 9999 SCT050 BKN090 18/14 Q1011 BLU;
0147102340999992008052608204+53133+009350FM-15+0061ETGQ V0209999V000510270019N0112651N1+01801+01501999999ADDGA1041+013501999GA2071+027001999GF107991999999999999999999MA1101081999999REMMET062METAR ETGQ 260820Z VRB01KT 9999 SCT045 BKN090 18/15 Q1011 BLU;
0147102340999992008052609204+53133+009350FM-15+0061ETGQ V0201701N001010300019N0112651N1+01901+01401999999ADDGA1041+013501999GA2071+030001999GF107991999999999999999999MA1101081999999REMMET062METAR ETGQ 260920Z 17002KT 9999 SCT045 BKN100 19/14 Q1011 BLU;
0124102340999992008052610204+53133+009350FM-15+0061ETGQ V0201801N000510270019N0112651N1+02001+01501999999ADDGA1071+027001999GF107991999999999999999999MA1101191999999REMMET055METAR ETGQ 261020Z 18001KT 9999 BKN090 20/15 Q1012 BLU;
0124102340999992008052611204+53133+009350FM-15+0061ETGQ V0201801N001010270019N0112651N1+02001+01501999999ADDGA1071+027001999GF107991999999999999999999MA1101081999999REMMET055METAR ETGQ 261120Z 18002KT 9999 BKN090 20/15 Q1011 BLU;
0124102340999992008052612204+53133+009350FM-15+0061ETGQ V0209999V000510270019N0112651N1+02101+01501999999ADDGA1071+027001999GF107991999999999999999999MA1101081999999REMMET055METAR ETGQ 261220Z VRB01KT 9999 BKN090 21/15 Q1011 BLU;
0124102340999992008052613204+53133+009350FM-15+0061ETGQ V0209999V001010330019N0112651N1+02301+01401999999ADDGA1071+033001999GF107991999999999999999999MA1101081999999REMMET055METAR ETGQ 261320Z VRB02KT 9999 BKN110 23/14 Q1011 BLU;
0147102340999992008052614204+53133+009350FM-15+0061ETGQ V0209999V001010300019N0112651N1+02401+01301999999ADDGA1021+013501999GA2071+030001999GF107991999999999999999999MA1101081999999REMMET062METAR ETGQ 261420Z VRB02KT 9999 FEW045 BKN100 24/13 Q1011 BLU;
0124102340999992008052615204+53133+009350FM-15+0061ETGQ V0209999V001010330019N0112651N1+02401+01301999999ADDGA1071+033001999GF107991999999999999999999MA1101021999999REMMET055METAR ETGQ 261520Z VRB02KT 9999 BKN110 24/13 Q1010 BLU;
0148102340999992008052616204+53133+009350FM-15+0061ETGQ V0200801N002110600019N0112651N1+02301+01501999999ADDGA1021+030001999GA2071+060001999GF107991999999999999999999MA1100911999999REMMET063METAR ETGQ 261620Z 08004KT 9999 FEW100 BKN200 23/15 Q1009 BLU/;
0148102340999992008052617204+53133+009350FM-15+0061ETGQ V0200801N001010660019N0112651N1+02301+01401999999ADDGA1041+030001999GA2071+066001999GF107991999999999999999999MA1101021999999REMMET063METAR ETGQ 261720Z 08002KT 9999 SCT100 BKN220 23/14 Q1010 BLU/;
0148102340999992008052618204+53133+009350FM-15+0061ETGQ V0201001N001510660019N0112651N1+02201+01301999999ADDGA1021+030001999GA2071+066001999GF107991999999999999999999MA1101021999999REMMET063METAR ETGQ 261820Z 10003KT 9999 FEW100 BKN220 22/13 Q1010 BLU/;
0157102340999992008052704204+53133+009350FM-15+0061ETGQ V0209999V001010180019N0080001N1+01701+01501999999ADDGA1041+012001999GA2081+018001999GF108991999999999999999999MA1101291999999MW1611REMMET066METAR ETGQ 270420Z VRB02KT 8000 -RA SCT040 OVC060 17/15 Q1013 BLU;
0157102340999992008052705204+53133+009350FM-15+0061ETGQ V0200101N001010300019N0112651N1+01701+01601999999ADDGA1041+015001999GA2081+030001999GF108991999999999999999999MA1101081999999MW1611REMMET066METAR ETGQ 270520Z 01002KT 9999 -RA SCT050 OVC100 17/16 Q1011 BLU;
0157102340999992008052706204+53133+009350FM-15+0061ETGQ V0201801N000510330019N0112651N1+01801+01601999999ADDGA1041+015001999GA2081+033001999GF108991999999999999999999MA1101081999999MW1611REMMET066METAR ETGQ 270620Z 18001KT 9999 -RA SCT050 OVC110 18/16 Q1011 BLU;
0157102340999992008052707204+53133+009350FM-15+0061ETGQ V0201501N001510420019N0112651N1+01901+01601999999ADDGA1041+018001999GA2071+042001999GF107991999999999999999999MA1101191999999MW1611REMMET066METAR ETGQ 270720Z 15003KT 9999 -RA SCT060 BKN140 19/16 Q1012 BLU;
0147102340999992008052708204+53133+009350FM-15+0061ETGQ V0200901N003110390019N0112651N1+02001+01601999999ADDGA1021+012001999GA2071+039001999GF107991999999999999999999MA1101191999999REMMET062METAR ETGQ 270820Z 09006KT 9999 FEW040 BKN130 20/16 Q1012 BLU;
0124102340999992008052709204+53133+009350FM-15+0061ETGQ V0200801N002610330019N0112651N1+02101+01601999999ADDGA1071+033001999GF107991999999999999999999MA1101081999999REMMET055METAR ETGQ 270920Z 08005KT 9999 BKN110 21/16 Q1011 BLU;
0125102340999992008052710204+53133+009350FM-15+0061ETGQ V0209999V000510600019N0112651N1+02301+01701999999ADDGA1071+060001999GF107991999999999999999999MA1101081999999REMMET056METAR ETGQ 271020Z VRB01KT 9999 BKN200 23/17 Q1011 BLU/;
0148102340999992008052711204+53133+009350FM-15+0061ETGQ V0202901N001010630019N0112651N1+02301+01701999999ADDGA1021+007501999GA2071+063001999GF107991999999999999999999MA1101191999999REMMET063METAR ETGQ 271120Z 29002KT 9999 FEW025 BKN210 23/17 Q1012 BLU/;
0124102340999992008052712204+53133+009350FM-15+0061ETGQ V0203601N002110570019N0112651N1+02401+01601999999ADDGA1071+057001999GF107991999999999999999999MA1101081999999REMMET055METAR ETGQ 271220Z 36004KT 9999 BKN190 24/16 Q1011 BLU;
0147102340999992008052713204+53133+009350FM-15+0061ETGQ V0201201N000510420019N0112651N1+02501+01601999999ADDGA1021+012001999GA2071+042001999GF107991999999999999999999MA1101081999999REMMET062METAR ETGQ 271320Z 12001KT 9999 FEW040 BKN140 25/16 Q1011 BLU;
0148102340999992008052714204+53133+009350FM-15+0061ETGQ V0200601N001510600019N0112651N1+02501+01601999999ADDGA1021+039001999GA2071+060001999GF107991999999999999999999MA1101021999999REMMET063METAR ETGQ 271420Z 06003KT 9999 FEW130 BKN200 25/16 Q1010 BLU/;
0148102340999992008052715204+53133+009350FM-15+0061ETGQ V0200401N002610600019N0112651N1+02601+01601999999ADDGA1021+012001999GA2071+060001999GF107991999999999999999999MA1100911999999REMMET063METAR ETGQ 271520Z 04005KT 9999 FEW040 BKN200 26/16 Q1009 BLU/;
0148102340999992008052716204+53133+009350FM-15+0061ETGQ V0200601N002610600019N0112651N1+02601+01701999999ADDGA1041+045001999GA2071+060001999GF107991999999999999999999MA1100911999999REMMET063METAR ETGQ 271620Z 06005KT 9999 SCT150 BKN200 26/17 Q1009 BLU/;
0124102340999992008052717204+53133+009350FM-15+0061ETGQ V0200601N003110390019N0112651N1+02501+01601999999ADDGA1071+039001999GF107991999999999999999999MA1100811999999REMMET055METAR ETGQ 271720Z 06006KT 9999 BKN130 25/16 Q1008 BLU;
0147102340999992008052718204+53133+009350FM-15+0061ETGQ V0202401N001510510019N0112651N1+02401+01601999999ADDGA1071+051001999GA2071+060001999GF107991999999999999999999MA1100911999999REMMET062METAR ETGQ 271820Z 24003KT 9999 BKN170 BKN200 24/16 Q1009 BLU;
0147102340999992008052804204+53133+009350FM-15+0061ETGQ V0209999C000010510019N0112651N1+01801+01401999999ADDGA1041+030001999GA2071+051001999GF107991999999999999999999MA1100511999999REMMET062METAR ETGQ 280420Z 00000KT 9999 SCT100 BKN170 18/14 Q1005 BLU;
0124102340999992008052805204+53133+009350FM-15+0061ETGQ V0201501N001510390019N0112651N1+02001+01401999999ADDGA1071+039001999GF107991999999999999999999MA1100811999999REMMET055METAR ETGQ 280520Z 15003KT 9999 BKN130 20/14 Q1008 BLU;
0124102340999992008052806204+53133+009350FM-15+0061ETGQ V0201201N001010150019N0112651N1+02001+01401999999ADDGA1071+015001999GF107991999999999999999999MA1100911999999REMMET055METAR ETGQ 280620Z 12002KT 9999 BKN050 20/14 Q1009 BLU;
0124102340999992008052807204+53133+009350FM-15+0061ETGQ V0209999V000510150019N0112651N1+02201+01501999999ADDGA1071+015001999GF107991999999999999999999MA1101021999999REMMET055METAR ETGQ 280720Z VRB01KT 9999 BKN050 22/15 Q1010 BLU;
0125102340999992008052808204+53133+009350FM-15+0061ETGQ V0209999C000012200019N0112651N1+02301+01601999999ADDGA1041+015001999GF104991999999999999999999MA1101021999999REMMET056METAR ETGQ 280820Z 00000KT 9999 SCT050 23/16 Q1010 BLU/;
0125102340999992008052809204+53133+009350FM-15+0061ETGQ V0209999C000012200019N0112651N1+02501+01501999999ADDGA1041+015001999GF104991999999999999999999MA1101021999999REMMET056METAR ETGQ 280920Z 00000KT 9999 SCT050 25/15 Q1010 BLU/;
0148102340999992008052810204+53133+009350FM-15+0061ETGQ V0202701N001512200019N0112651N1+02601+01301999999ADDGA1041+015001999GA2041+060001999GF104991999999999999999999MA1101081999999REMMET063METAR ETGQ 281020Z 27003KT 9999 SCT050 SCT200 26/13 Q1011 BLU/;
0170102340999992008052811204+53133+009350FM-15+0061ETGQ V0202501N00211024001CN0112651N1+02701+01301999999ADDGA1041+015001999GA2041+024001999GA3071+048001999GF107991999999999999999999MA1101081999999REMMET069METAR ETGQ 281120Z 25004KT 9999 SCT050 SCT080 BKN160 27/13 Q1011 BLU;
0147102340999992008052812204+53133+009350FM-15+0061ETGQ V0202101N002610450019N0112651N1+02601+01101999999ADDGA1041+018001999GA2071+045001999GF107991999999999999999999MA1101081999999REMMET062METAR ETGQ 281220Z 21005KT 9999 SCT060 BKN150 26/11 Q1011 BLU;
0147102340999992008052813204+53133+009350FM-15+0061ETGQ V0202501N003110450019N0112651N1+02601+01201999999ADDGA1021+018001999GA2071+045001999GF107991999999999999999999MA1101191999999REMMET062METAR ETGQ 281320Z 25006KT 9999 FEW060 BKN150 26/12 Q1012 BLU;
0124102340999992008052814204+53133+009350FM-15+0061ETGQ V0202601N003110420019N0112651N1+02601+01101999999ADDGA1071+042001999GF107991999999999999999999MA1101191999999REMMET055METAR ETGQ 281420Z 26006KT 9999 BKN140 26/11 Q1012 BLU;
0147102340999992008052815204+53133+009350FM-15+0061ETGQ V0202401N002610450019N0112651N1+02601+01301999999ADDGA1021+018001999GA2071+045001999GF107991999999999999999999MA1101291999999REMMET062METAR ETGQ 281520Z 24005KT 9999 FEW060 BKN150 26/13 Q1013 BLU;
0148102340999992008052816204+53133+009350FM-15+0061ETGQ V0202201N002112200019N0112651N1+02601+01301999999ADDGA1021+018001999GA2041+039001999GF104991999999999999999999MA1101191999999REMMET063METAR ETGQ 281620Z 22004KT 9999 FEW060 SCT130 26/13 Q1012 BLU/;
0125102340999992008052817204+53133+009350FM-15+0061ETGQ V0202301N001012200019N0112651N1+02501+01301999999ADDGA1021+039001999GF102991999999999999999999MA1101191999999REMMET056METAR ETGQ 281720Z 23002KT 9999 FEW130 25/13 Q1012 BLU/;
0125102340999992008052818204+53133+009350FM-15+0061ETGQ V0202501N001512200019N0112651N1+02501+01401999999ADDGA1041+021001999GF104991999999999999999999MA1101291999999REMMET056METAR ETGQ 281820Z 25003KT 9999 SCT070 25/14 Q1013 BLU/;
0125102340999992008052904204+53133+009350FM-15+0061ETGQ V0203101N000512200019N0112651N1+01701+01501999999ADDGA1041+033001999GF104991999999999999999999MA1101081999999REMMET056METAR ETGQ 290420Z 31001KT 9999 SCT110 17/15 Q1011 BLU/;
0124102340999992008052905204+53133+009350FM-15+0061ETGQ V0209999C000010330019N0112651N1+01801+01501999999ADDGA1071+033001999GF107991999999999999999999MA1101081999999REMMET055METAR ETGQ 290520Z 00000KT 9999 BKN110 18/15 Q1011 BLU;
0148102340999992008052906204+53133+009350FM-15+0061ETGQ V0209999C000010600019N0112651N1+01901+01501999999ADDGA1041+033001999GA2071+060001999GF107991999999999999999999MA1101021999999REMMET063METAR ETGQ 290620Z 00000KT 9999 SCT110 BKN200 19/15 Q1010 BLU/;
0124102340999992008052907204+53133+009350FM-15+0061ETGQ V0209999V000510540019N0112651N1+02101+01501999999ADDGA1071+054001999GF107991999999999999999999MA1101021999999REMMET055METAR ETGQ 290720Z VRB01KT 9999 BKN180 21/15 Q1010 BLU;
0124102340999992008052908204+53133+009350FM-15+0061ETGQ V0209999V000510093019N0112651N1+02201+01601999999ADDGA1071+009301999GF107991999999999999999999MA1100911999999REMMET055METAR ETGQ 290820Z VRB01KT 9999 BKN031 22/16 Q1009 BLU;
0124102340999992008052909204+53133+009350FM-15+0061ETGQ V0203101N003610090019N0112651N1+02101+01601999999ADDGA1071+009001999GF107991999999999999999999MA1101021999999REMMET055METAR ETGQ 290920Z 31007KT 9999 BKN030 21/16 Q1010 BLU;
0124102340999992008052911204+53133+009350FM-15+0061ETGQ V0203001N003110099019N0112651N1+02301+01601999999ADDGA1071+009901999GF107991999999999999999999MA1100911999999REMMET055METAR ETGQ 291120Z 30006KT 9999 BKN033 23/16 Q1009 BLU;
0124102340999992008052912204+53133+009350FM-15+0061ETGQ V0203101N003110132019N0112651N1+02301+01601999999ADDGA1071+013201999GF107991999999999999999999MA1100911999999REMMET055METAR ETGQ 291220Z 31006KT 9999 BKN044 23/16 Q1009 BLU;
0148102340999992008052913204+53133+009350FM-15+0061ETGQ V0203001N001510660019N0112651N1+02501+01701999999ADDGA1021+010501999GA2071+066001999GF107991999999999999999999MA1100811999999REMMET063METAR ETGQ 291320Z 30003KT 9999 FEW035 BKN220 25/17 Q1008 BLU/;
0148102340999992008052914204+53133+009350FM-15+0061ETGQ V0202801N001510750019N0112651N1+02701+01801999999ADDGA1021+012001999GA2071+075001999GF107991999999999999999999MA1100811999999REMMET063METAR ETGQ 291420Z 28003KT 9999 FEW040 BKN250 27/18 Q1008 BLU/;
0148102340999992008052915204+53133+009350FM-15+0061ETGQ V0209999C000010600019N0112651N1+02601+01801999999ADDGA1021+012001999GA2071+060001999GF107991999999999999999999MA1100711999999REMMET063METAR ETGQ 291520Z 00000KT 9999 FEW040 BKN200 26/18 Q1007 BLU/;
0174102340999992008052916204+53133+009350FM-15+0061ETGQ V0209999V00051045001CN0112651N1+02601+01801999999ADDGA1021+012001021GA2041+045001999GA3071+069001999GF107991999999999999999999MA1100711999999REMMET073METAR ETGQ 291620Z VRB01KT 9999 FEW040TCU SCT150 BKN230 26/18 Q1007 BLU/;
0184102340999992008052917204+53133+009350FM-15+0061ETGQ V0202201N00311042001CN0112651N1+02401+01701999999ADDGA1021+009001091GA2041+042001999GA3071+060001999GF107991999999999999999999MA1100811999999OC100871REMMET075METAR ETGQ 291720Z 22006G17KT 9999 FEW030CB SCT140 BKN200 24/17 Q1008 BLU/;
0171102340999992008052918204+53133+009350FM-15+0061ETGQ V0209999V00051045001CN0112651N1+02301+01601999999ADDGA1021+010501999GA2041+045001999GA3071+060001999GF107991999999999999999999MA1100811999999REMMET070METAR ETGQ 291820Z VRB01KT 9999 FEW035 SCT150 BKN200 23/16 Q1008 BLU/;
0124102340999992008053004204+53133+009350FM-15+0061ETGQ V0201501N001510123019N0112651N1+01901+01601999999ADDGA1071+012301999GF107991999999999999999999MA1100811999999REMMET055METAR ETGQ 300420Z 15003KT 9999 BKN041 19/16 Q1008 BLU;
0144102340999992008053004454+53133+009350FM-16+0061ETGQ V0209999V001010114019N0112651N1+01901+01601999999ADDGA1071+011401091GF107991999999999999999999MA1100811999999MW1801MW2951REMMET063SPECI ETGQ 300445Z VRB02KT 9999 -TSRA BKN038CB 19/16 Q1008 BLU;
0153102340999992008053005204+53133+009350FM-15+0061ETGQ V0203101N001510066019N0040001N1+01701+01601999999ADDGA1071+006601091GF107991999999999999999999MA1100911999999MW1101MW2801MW3951REMMET066METAR ETGQ 300520Z 31003KT 4000 -TSRA BR BKN022CB 17/16 Q1009 GRN;
0152102340999992008053006204+53133+009350FM-15+0061ETGQ V0202501N001510090019N0080001N1+01801+01701999999ADDGA1041+004201999GA2071+009001999GF107991999999999999999999MA1101021999999REMMET067METAR ETGQ 300620Z 25003KT 8000 SCT014 BKN030 18/17 Q1010 RETS BLU;
0129102340999992008053007204+53133+009350FM-15+0061ETGQ V0209999C000010051019N0080001N1+01801+01601999999ADDGA1071+005101999GF107991999999999999999999MA1101021999999REMMET060METAR ETGQ 300720Z 00000KT 8000 BKN017 18/16 Q1010 RETS WHT;
0152102340999992008053008204+53133+009350FM-15+0061ETGQ V0209999C000010063019N0080001N1+01801+01601999999ADDGA1041+003001999GA2071+006301999GF107991999999999999999999MA1101021999999REMMET067METAR ETGQ 300820Z 00000KT 8000 SCT010 BKN021 18/16 Q1010 RETS WHT;
0129102340999992008053009204+53133+009350FM-15+0061ETGQ V0203301N000510039019N0080001N1+01901+01601999999ADDGA1071+003901999GF107991999999999999999999MA1101021999999REMMET060METAR ETGQ 300920Z 33001KT 8000 BKN013 19/16 Q1010 RETS GRN;
0129102340999992008053010204+53133+009350FM-15+0061ETGQ V0203401N002110039019N0080001N1+01901+01601999999ADDGA1071+003901999GF107991999999999999999999MA1101021999999REMMET060METAR ETGQ 301020Z 34004KT 8000 BKN013 19/16 Q1010 RETS GRN;
0129102340999992008053011204+53133+009350FM-15+0061ETGQ V0203401N002610048019N0080001N1+02001+01601999999ADDGA1081+004801999GF108991999999999999999999MA1101021999999REMMET060METAR ETGQ 301120Z 34005KT 8000 OVC016 20/16 Q1010 RETS WHT;
0124102340999992008053012204+53133+009350FM-15+0061ETGQ V0203301N002610060019N0080001N1+02001+01601999999ADDGA1081+006001999GF108991999999999999999999MA1101081999999REMMET055METAR ETGQ 301220Z 33005KT 8000 OVC020 20/16 Q1011 WHT;
0147102340999992008053013204+53133+009350FM-15+0061ETGQ V0203501N002110066019N0080001N1+02101+01601999999ADDGA1021+004201999GA2081+006601999GF108991999999999999999999MA1101081999999REMMET062METAR ETGQ 301320Z 35004KT 8000 FEW014 OVC022 21/16 Q1011 WHT;
0147102340999992008053014204+53133+009350FM-15+0061ETGQ V0203401N002610102019N0080001N1+02201+01701999999ADDGA1021+005101999GA2081+010201999GF108991999999999999999999MA1101021999999REMMET062METAR ETGQ 301420Z 34005KT 8000 FEW017 OVC034 22/17 Q1010 BLU;
0147102340999992008053015204+53133+009350FM-15+0061ETGQ V0203501N002610075019N0080001N1+02201+01701999999ADDGA1041+006001999GA2071+007501999GF107991999999999999999999MA1101021999999REMMET062METAR ETGQ 301520Z 35005KT 8000 SCT020 BKN025 22/17 Q1010 BLU;
0147102340999992008053016204+53133+009350FM-15+0061ETGQ V0203201N002610084019N0112651N1+02201+01701999999ADDGA1021+006001999GA2071+008401999GF107991999999999999999999MA1101021999999REMMET062METAR ETGQ 301620Z 32005KT 9999 FEW020 BKN028 22/17 Q1010 BLU;
0124102340999992008053017204+53133+009350FM-15+0061ETGQ V0203301N003610090019N0112651N1+02201+01701999999ADDGA1081+009001999GF108991999999999999999999MA1100911999999REMMET055METAR ETGQ 301720Z 33007KT 9999 OVC030 22/17 Q1009 BLU;
0149102340999992008053018004+53133+009350FM-15+0061ETGQ V0203301N003110102019N0060001N1+02101+01601999999ADDGA1021+006601091GA2081+010201999GF108991999999999999999999MA1101081999999REMMET064SPECI ETGQ 301759Z 33006KT 6000 FEW022CB OVC034 21/16 Q1011 WHT;
0158102340999992008053018124+53133+009350FM-16+0061ETGQ V0203201N003110102019N0060001N1+02101+01701999999ADDGA1021+006601091GA2081+010201999GF108991999999999999999999MA1101081999999MW1171REMMET067SPECI ETGQ 301812Z 32006KT 6000 TS FEW022CB OVC034 21/17 Q1011 WHT;
0167102340999992008053018204+53133+009350FM-15+0061ETGQ V0203401N002610105019N0060001N1+02101+01701999999ADDGA1021+006601091GA2081+010501999GF108991999999999999999999MA1101081999999MW1801MW2951REMMET070METAR ETGQ 301820Z 34005KT 6000 -TSRA FEW022CB OVC035 21/17 Q1011 WHT;
0148102340999992008060204204+53133+009350FM-15+0061ETGQ V0209999C000010750019N0112651N1+01701+01601999999ADDGA1021+045001999GA2071+075001999GF107991999999999999999999MA1101291999999REMMET063METAR ETGQ 020420Z 00000KT 9999 FEW150 BKN250 17/16 Q1013 BLU/;
0148102340999992008060205204+53133+009350FM-15+0061ETGQ V0209999C000010750019N0112651N1+01801+01601999999ADDGA1021+045001999GA2071+075001999GF107991999999999999999999MA1101291999999REMMET063METAR ETGQ 020520Z 00000KT 9999 FEW150 BKN250 18/16 Q1013 BLU/;
0148102340999992008060206204+53133+009350FM-15+0061ETGQ V0209999C000010600019N0112651N1+01901+01501999999ADDGA1021+039001999GA2071+060001999GF107991999999999999999999MA1101191999999REMMET063METAR ETGQ 020620Z 00000KT 9999 FEW130 BKN200 19/15 Q1012 BLU/;
0125102340999992008060207204+53133+009350FM-15+0061ETGQ V0209999V000512200019N0112651N1+02201+01701999999ADDGA1021+039001999GF102991999999999999999999MA1101191999999REMMET056METAR ETGQ 020720Z VRB01KT 9999 FEW130 22/17 Q1012 BLU/;
0124102340999992008060208204+53133+009350FM-15+0061ETGQ V0200601N000510450019N0112651N1+02401+01601999999ADDGA1071+045001999GF107991999999999999999999MA1101191999999REMMET055METAR ETGQ 020820Z 06001KT 9999 BKN150 24/16 Q1012 BLU;
0124102340999992008060209204+53133+009350FM-15+0061ETGQ V0201901N000510420019N0112651N1+02501+01701999999ADDGA1071+042001999GF107991999999999999999999MA1101081999999REMMET055METAR ETGQ 020920Z 19001KT 9999 BKN140 25/17 Q1011 BLU;
0124102340999992008060210204+53133+009350FM-15+0061ETGQ V0209999V001010420019N0112651N1+02701+01601999999ADDGA1071+042001999GF107991999999999999999999MA1101081999999REMMET055METAR ETGQ 021020Z VRB02KT 9999 BKN140 27/16 Q1011 BLU;
0147102340999992008060211204+53133+009350FM-15+0061ETGQ V0209999V000510480019N0112651N1+02801+01701999999ADDGA1021+013501999GA2071+048001999GF107991999999999999999999MA1101021999999REMMET062METAR ETGQ 021120Z VRB01KT 9999 FEW045 BKN160 28/17 Q1010 BLU;
0148102340999992008060212204+53133+009350FM-15+0061ETGQ V0201101N002112200019N0112651N1+02901+01501999999ADDGA1041+015001999GA2041+045001999GF104991999999999999999999MA1101021999999REMMET063METAR ETGQ 021220Z 11004KT 9999 SCT050 SCT150 29/15 Q1010 BLU/;
0125102340999992008060213204+53133+009350FM-15+0061ETGQ V0200901N003112200019N0112651N1+03001+01401999999ADDGA1041+018001999GF104991999999999999999999MA1100811999999REMMET056METAR ETGQ 021320Z 09006KT 9999 SCT060 30/14 Q1008 BLU/;
0125102340999992008060214204+53133+009350FM-15+0061ETGQ V0201301N002612200019N0112651N1+02901+01301999999ADDGA1041+018001999GF104991999999999999999999MA1100811999999REMMET056METAR ETGQ 021420Z 13005KT 9999 SCT060 29/13 Q1008 BLU/;
0124102340999992008060215204+53133+009350FM-15+0061ETGQ V0209999C000010102019N0112651N1+02901+01401999999ADDGA1071+010201999GF107991999999999999999999MA1100811999999REMMET055METAR ETGQ 021520Z 00000KT 9999 BKN034 29/14 Q1008 BLU;
0147102340999992008060216204+53133+009350FM-15+0061ETGQ V0200801N003110210019N0112651N1+02701+01401999999ADDGA1041+012001999GA2071+021001999GF107991999999999999999999MA1100811999999REMMET062METAR ETGQ 021620Z 08006KT 9999 SCT040 BKN070 27/14 Q1008 BLU;
0158102340999992008060217204+53133+009350FM-15+0061ETGQ V0209999V001010330019N0112651N1+02601+01401999999ADDGA1041+012001091GA2071+033001999GF107991999999999999999999MA1100911999999MW1171REMMET067METAR ETGQ 021720Z VRB02KT 9999 TS SCT040CB BKN110 26/14 Q1009 BLU;
0144102340999992008060218204+53133+009350FM-15+0061ETGQ V0201101N001510135019N0112651N1+02201+01701999999ADDGA1071+013501091GF107991999999999999999999MA1100911999999MW1801MW2951REMMET063METAR ETGQ 021820Z 11003KT 9999 -TSRA BKN045CB 22/17 Q1009 BLU;
0170102340999992008060304204+53133+009350FM-15+0061ETGQ V0202201N00151021001CN0112651N1+01701+01501999999ADDGA1021+015001999GA2041+021001999GA3071+033001999GF107991999999999999999999MA1101081999999REMMET069METAR ETGQ 030420Z 22003KT 9999 FEW050 SCT070 BKN110 17/15 Q1011 BLU;
0147102340999992008060305204+53133+009350FM-15+0061ETGQ V0202101N002610180019N0112651N1+01701+01501999999ADDGA1041+006901999GA2071+018001999GF107991999999999999999999MA1101191999999REMMET062METAR ETGQ 030520Z 21005KT 9999 SCT023 BKN060 17/15 Q1012 BLU;
0170102340999992008060306204+53133+009350FM-15+0061ETGQ V0201801N001510075019N0112651N1+01801+01501999999ADDGA1021+004501999GA2071+007501999GA3071+018001999GF107991999999999999999999MA1101191999999REMMET069METAR ETGQ 030620Z 18003KT 9999 FEW015 BKN025 BKN060 18/15 Q1012 BLU;
0170102340999992008060307204+53133+009350FM-15+0061ETGQ V0202201N00211010501CN0112651N1+01901+01501999999ADDGA1021+006001999GA2041+010501999GA3071+018001999GF107991999999999999999999MA1101291999999REMMET069METAR ETGQ 030720Z 22004KT 9999 FEW020 SCT035 BKN060 19/15 Q1013 BLU;
0147102340999992008060308204+53133+009350FM-15+0061ETGQ V0202001N002610105019N0112651N1+01901+01401999999ADDGA1021+006601999GA2071+010501999GF107991999999999999999999MA1101291999999REMMET062METAR ETGQ 030820Z 20005KT 9999 FEW022 BKN035 19/14 Q1013 BLU;
0147102340999992008060309204+53133+009350FM-15+0061ETGQ V0209999V001010114019N0112651N1+02001+01301999999ADDGA1041+007501999GA2071+011401999GF107991999999999999999999MA1101291999999REMMET062METAR ETGQ 030920Z VRB02KT 9999 SCT025 BKN038 20/13 Q1013 BLU;
0147102340999992008060310204+53133+009350FM-15+0061ETGQ V0202301N001510129019N0112651N1+02101+01401999999ADDGA1041+007501999GA2071+012901999GF107991999999999999999999MA1101291999999REMMET062METAR ETGQ 031020Z 23003KT 9999 SCT025 BKN043 21/14 Q1013 BLU;
0147102340999992008060311204+53133+009350FM-15+0061ETGQ V0202201N002610150019N0112651N1+02101+01401999999ADDGA1021+009001999GA2071+015001999GF107991999999999999999999MA1101291999999REMMET062METAR ETGQ 031120Z 22005KT 9999 FEW030 BKN050 21/14 Q1013 BLU;
0125102340999992008060312204+53133+009350FM-15+0061ETGQ V0202201N002112200019N0112651N1+02301+01401999999ADDGA1041+012001999GF104991999999999999999999MA1101291999999REMMET056METAR ETGQ 031220Z 22004KT 9999 SCT040 23/14 Q1013 BLU/;
0125102340999992008060313204+53133+009350FM-15+0061ETGQ V0202301N002112200019N0112651N1+02401+01301999999ADDGA1041+012001999GF104991999999999999999999MA1101291999999REMMET056METAR ETGQ 031320Z 23004KT 9999 SCT040 24/13 Q1013 BLU/;
0125102340999992008060314204+53133+009350FM-15+0061ETGQ V0202101N003112200019N0112651N1+02401+01201999999ADDGA1041+015001999GF104991999999999999999999MA1101291999999REMMET056METAR ETGQ 031420Z 21006KT 9999 SCT050 24/12 Q1013 BLU/;
0148102340999992008060315204+53133+009350FM-15+0061ETGQ V0202601N002612200019N0112651N1+02401+01101999999ADDGA1041+015001999GA2041+081001999GF104991999999999999999999MA1101191999999REMMET063METAR ETGQ 031520Z 26005KT 9999 SCT050 SCT270 24/11 Q1012 BLU/;
0151102340999992008060316204+53133+009350FM-15+0061ETGQ V0202401N002112200019N0112651N1+02401+01201999999ADDGA1021+015001021GA2041+081001999GF104991999999999999999999MA1101191999999REMMET066METAR ETGQ 031620Z 24004KT 9999 FEW050TCU SCT270 24/12 Q1012 BLU/;
0151102340999992008060317204+53133+009350FM-15+0061ETGQ V0202301N002110810019N0112651N1+02301+01201999999ADDGA1021+015001021GA2071+081001999GF107991999999999999999999MA1101191999999REMMET066METAR ETGQ 031720Z 23004KT 9999 FEW050TCU BKN270 23/12 Q1012 BLU/;
0148102340999992008060318204+53133+009350FM-15+0061ETGQ V0202601N002610810019N0112651N1+02201+01201999999ADDGA1021+015001999GA2071+081001999GF107991999999999999999999MA1101191999999REMMET063METAR ETGQ 031820Z 26005KT 9999 FEW050 BKN270 22/12 Q1012 BLU/;
0125102340999992008060404204+53133+009350FM-15+0061ETGQ V0209999C000012200019N0112651N1+01501+01301999999ADDGA1041+090001999GF104991999999999999999999MA1101491999999REMMET056METAR ETGQ 040420Z 00000KT 9999 SCT340 15/13 Q1015 BLU/;
0125102340999992008060405204+53133+009350FM-15+0061ETGQ V0203301N000512200019N0112651N1+01601+01301999999ADDGA1041+015001999GF104991999999999999999999MA1101491999999REMMET056METAR ETGQ 040520Z 33001KT 9999 SCT050 16/13 Q1015 BLU/;
0125102340999992008060406204+53133+009350FM-15+0061ETGQ V0209999V000512200019N0112651N1+01701+01401999999ADDGA1021+004501999GF102991999999999999999999MA1101491999999REMMET056METAR ETGQ 040620Z VRB01KT 9999 FEW015 17/14 Q1015 BLU/;
0124102340999992008060407204+53133+009350FM-15+0061ETGQ V0209999V000510054019N0112651N1+01901+01401999999ADDGA1071+005401999GF107991999999999999999999MA1101491999999REMMET055METAR ETGQ 040720Z VRB01KT 9999 BKN018 19/14 Q1015 WHT;
0124102340999992008060408204+53133+009350FM-15+0061ETGQ V0203101N001510057019N0112651N1+01901+01401999999ADDGA1071+005701999GF107991999999999999999999MA1101491999999REMMET055METAR ETGQ 040820Z 31003KT 9999 BKN019 19/14 Q1015 WHT;
0124102340999992008060409204+53133+009350FM-15+0061ETGQ V0203001N002610072019N0112651N1+02001+01401999999ADDGA1071+007201999GF107991999999999999999999MA1101491999999REMMET055METAR ETGQ 040920Z 30005KT 9999 BKN024 20/14 Q1015 WHT;
0148102340999992008060410204+53133+009350FM-15+0061ETGQ V0203201N002112200019N0112651N1+02101+01501999999ADDGA1021+007501999GA2041+009001999GF104991999999999999999999MA1101491999999REMMET063METAR ETGQ 041020Z 32004KT 9999 FEW025 SCT030 21/15 Q1015 BLU/;
0148102340999992008060411204+53133+009350FM-15+0061ETGQ V0201601N001512200019N0112651N1+02301+01501999999ADDGA1041+009601999GA2041+039001999GF104991999999999999999999MA1101391999999REMMET063METAR ETGQ 041120Z 16003KT 9999 SCT032 SCT130 23/15 Q1014 BLU/;
0151102340999992008060412204+53133+009350FM-15+0061ETGQ V0203101N003612200019N0112651N1+02301+01501999999ADDGA1041+009601021GA2041+027001999GF104991999999999999999999MA1101391999999REMMET066METAR ETGQ 041220Z 31007KT 9999 SCT032TCU SCT090 23/15 Q1014 BLU/;
0148102340999992008060413204+53133+009350FM-15+0061ETGQ V0203401N004112200019N0112651N1+02201+01401999999ADDGA1041+008101999GA2041+027001999GF104991999999999999999999MA1101391999999REMMET063METAR ETGQ 041320Z 34008KT 9999 SCT027 SCT090 22/14 Q1014 BLU/;
0148102340999992008060414204+53133+009350FM-15+0061ETGQ V0203001N004112200019N0112651N1+02201+01601999999ADDGA1041+007201999GA2041+030001999GF104991999999999999999999MA1101391999999REMMET063METAR ETGQ 041420Z 30008KT 9999 SCT024 SCT100 22/16 Q1014 BLU/;
0144102340999992008060415204+53133+009350FM-15+0061ETGQ V0200601N003110075019N0112651N1+01901+01401999999ADDGA1071+007501091GF107991999999999999999999MA1101391999999MW1801MW2951REMMET063METAR ETGQ 041520Z 06006KT 9999 -TSRA BKN025CB 19/14 Q1014 BLU;
0138102340999992008060416204+53133+009350FM-15+0061ETGQ V0203101N001010135019N0080001N1+01701+01601999999ADDGA1071+013501999GF107991999999999999999999MA1101491999999MW1631REMMET063METAR ETGQ 041620Z 31002KT 8000 RA BKN045 17/16 Q1015 RETS BLU;
0152102340999992008060417204+53133+009350FM-15+0061ETGQ V0209999C000010270019N0080001N1+01701+01601999999ADDGA1041+013501999GA2071+027001999GF107991999999999999999999MA1101491999999REMMET067METAR ETGQ 041720Z 00000KT 8000 SCT045 BKN090 17/16 Q1015 RERA BLU;
0156102340999992008060418204+53133+009350FM-15+0061ETGQ V0202901N000510270019N0050001N1+01701+01601999999ADDGA1041+005401999GA2071+027001999GF107991999999999999999999MA1101391999999MW1101REMMET065METAR ETGQ 041820Z 29001KT 5000 BR SCT018 BKN090 17/16 Q1014 WHT;
0184102340999992008060504204+53133+009350FM-15+0061ETGQ V0203301N00101024001CN0040001N1+01701+01601999999ADDGA1021+003001999GA2041+024001999GA3071+030001999GF107991999999999999999999MA1101291999999MW1101REMMET077METAR ETGQ 050420Z 33002KT 4000 BR FEW010 SCT080 BKN100 17/16 Q1013 RERA GRN;
0175102340999992008060505204+53133+009350FM-15+0061ETGQ V0203401N00101012001CN0060001N1+01701+01601999999ADDGA1021+003001999GA2041+012001999GA3071+033001999GF107991999999999999999999MA1101291999999REMMET074METAR ETGQ 050520Z 34002KT 6000 FEW010 SCT040 BKN110 17/16 Q1013 RERA WHT;
0170102340999992008060506204+53133+009350FM-15+0061ETGQ V0203201N00151018001CN0112651N1+01801+01601999999ADDGA1021+002401999GA2041+018001999GA3071+036001999GF107991999999999999999999MA1101291999999REMMET069METAR ETGQ 050620Z 32003KT 9999 FEW008 SCT060 BKN120 18/16 Q1013 BLU;
0170102340999992008060507204+53133+009350FM-15+0061ETGQ V0203301N00261027001CN0112651N1+01801+01501999999ADDGA1021+004501999GA2041+027001999GA3071+036001999GF107991999999999999999999MA1101291999999REMMET069METAR ETGQ 050720Z 33005KT 9999 FEW015 SCT090 BKN120 18/15 Q1013 BLU;
0147102340999992008060508204+53133+009350FM-15+0061ETGQ V0203301N002610420019N0112651N1+01901+01601999999ADDGA1041+005401999GA2071+042001999GF107991999999999999999999MA1101291999999REMMET062METAR ETGQ 050820Z 33005KT 9999 SCT018 BKN140 19/16 Q1013 BLU;
0124102340999992008060509204+53133+009350FM-15+0061ETGQ V0203201N002610057019N0112651N1+02001+01601999999ADDGA1071+005701999GF107991999999999999999999MA1101291999999REMMET055METAR ETGQ 050920Z 32005KT 9999 BKN019 20/16 Q1013 WHT;
0148102340999992008060510204+53133+009350FM-15+0061ETGQ V0203201N003110900019N0112651N1+02101+01601999999ADDGA1041+008101999GA2071+090001999GF107991999999999999999999MA1101291999999REMMET063METAR ETGQ 051020Z 32006KT 9999 SCT027 BKN300 21/16 Q1013 BLU/;
0148102340999992008060511204+53133+009350FM-15+0061ETGQ V0203101N002610600019N0112651N1+02101+01701999999ADDGA1041+009001999GA2071+060001999GF107991999999999999999999MA1101191999999REMMET063METAR ETGQ 051120Z 31005KT 9999 SCT030 BKN200 21/17 Q1012 BLU/;
0125102340999992008060512204+53133+009350FM-15+0061ETGQ V0203001N003612200019N0112651N1+02201+01701999999ADDGA1041+010201999GF104991999999999999999999MA1101191999999REMMET056METAR ETGQ 051220Z 30007KT 9999 SCT034 22/17 Q1012 BLU/;
0125102340999992008060513204+53133+009350FM-15+0061ETGQ V0203101N003612200019N0112651N1+02301+01701999999ADDGA1041+010201999GF104991999999999999999999MA1101081999999REMMET056METAR ETGQ 051320Z 31007KT 9999 SCT034 23/17 Q1011 BLU/;
0125102340999992008060514204+53133+009350FM-15+0061ETGQ V0203101N002112200019N0112651N1+02301+01601999999ADDGA1041+012001999GF104991999999999999999999MA1101081999999REMMET056METAR ETGQ 051420Z 31004KT 9999 SCT040 23/16 Q1011 BLU/;
0148102340999992008060515204+53133+009350FM-15+0061ETGQ V0203201N003612200019N0112651N1+02201+01701999999ADDGA1041+012001999GA2041+021001999GF104991999999999999999999MA1101081999999REMMET063METAR ETGQ 051520Z 32007KT 9999 SCT040 SCT070 22/17 Q1011 BLU/;
0148102340999992008060516204+53133+009350FM-15+0061ETGQ V0203301N003610600019N0112651N1+02201+01501999999ADDGA1041+015001999GA2071+060001999GF107991999999999999999999MA1101081999999REMMET063METAR ETGQ 051620Z 33007KT 9999 SCT050 BKN200 22/15 Q1011 BLU/;
0124102340999992008060517204+53133+009350FM-15+0061ETGQ V0203101N003610390019N0112651N1+02101+01701999999ADDGA1071+039001999GF107991999999999999999999MA1101191999999REMMET055METAR ETGQ 051720Z 31007KT 9999 BKN130 21/17 Q1012 BLU;
0124102340999992008060518204+53133+009350FM-15+0061ETGQ V0203201N003110390019N0080001N1+02001+01701999999ADDGA1071+039001999GF107991999999999999999999MA1101191999999REMMET055METAR ETGQ 051820Z 32006KT 8000 BKN130 20/17 Q1012 BLU;
0084102340999992008060604204+53133+009350FM-15+0061ETGQ V0209999C000012200019N0050001N1+01501+01401999999ADDMA1101191999999MW1101REMMET051METAR ETGQ 060420Z 00000KT 5000 BR 15/14 Q1012 WHT;
0133102340999992008060605204+53133+009350FM-15+0061ETGQ V0209999C000012200019N0050001N1+01601+01401999999ADDGA1041+027001999GF104991999999999999999999MA1101191999999MW1101REMMET058METAR ETGQ 060520Z 00000KT 5000 BR SCT090 16/14 Q1012 WHT;
0124102340999992008060606204+53133+009350FM-15+0061ETGQ V0203601N000510240019N0070001N1+01701+01301999999ADDGA1071+024001999GF107991999999999999999999MA1101191999999REMMET055METAR ETGQ 060620Z 36001KT 7000 BKN080 17/13 Q1012 WHT;
0147102340999992008060607204+53133+009350FM-15+0061ETGQ V0203601N000510240019N0112651N1+01801+01201999999ADDGA1041+012001999GA2071+024001999GF107991999999999999999999MA1101191999999REMMET062METAR ETGQ 060720Z 36001KT 9999 SCT040 BKN080 18/12 Q1012 BLU;
0125102340999992008060608204+53133+009350FM-15+0061ETGQ V0209999V001012200019N0112651N1+02001+01201999999ADDGA1041+024001999GF104991999999999999999999MA1101191999999REMMET056METAR ETGQ 060820Z VRB02KT 9999 SCT080 20/12 Q1012 BLU/;
0125102340999992008060609204+53133+009350FM-15+0061ETGQ V0201101N001512200019N0112651N1+02201+01201999999ADDGA1041+009301999GF104991999999999999999999MA1101191999999REMMET056METAR ETGQ 060920Z 11003KT 9999 SCT031 22/12 Q1012 BLU/;
0125102340999992008060610204+53133+009350FM-15+0061ETGQ V0201801N002112200019N0112651N1+02301+01201999999ADDGA1041+012001999GF104991999999999999999999MA1101191999999REMMET056METAR ETGQ 061020Z 18004KT 9999 SCT040 23/12 Q1012 BLU/;
0148102340999992008060611204+53133+009350FM-15+0061ETGQ V0201201N002112200019N0112651N1+02301+01201999999ADDGA1021+012601999GA2041+024001999GF104991999999999999999999MA1101191999999REMMET063METAR ETGQ 061120Z 12004KT 9999 FEW042 SCT080 23/12 Q1012 BLU/;
0147102340999992008060612204+53133+009350FM-15+0061ETGQ V0201501N002110180019N0112651N1+02301+01201999999ADDGA1021+013501999GA2071+018001999GF107991999999999999999999MA1101081999999REMMET062METAR ETGQ 061220Z 15004KT 9999 FEW045 BKN060 23/12 Q1011 BLU;
0124102340999992008060613204+53133+009350FM-15+0061ETGQ V0201901N002110150019N0112651N1+02401+01001999999ADDGA1071+015001999GF107991999999999999999999MA1101081999999REMMET055METAR ETGQ 061320Z 19004KT 9999 BKN050 24/10 Q1011 BLU;
0147102340999992008060614204+53133+009350FM-15+0061ETGQ V0202701N002110150019N0112651N1+02301+01401999999ADDGA1021+012001999GA2071+015001999GF107991999999999999999999MA1101081999999REMMET062METAR ETGQ 061420Z 27004KT 9999 FEW040 BKN050 23/14 Q1011 BLU;
0124102340999992008060615204+53133+009350FM-15+0061ETGQ V0202401N001510150019N0112651N1+02501+01401999999ADDGA1071+015001999GF107991999999999999999999MA1101081999999REMMET055METAR ETGQ 061520Z 24003KT 9999 BKN050 25/14 Q1011 BLU;
0148102340999992008060616204+53133+009350FM-15+0061ETGQ V0202601N001512200019N0112651N1+02301+01401999999ADDGA1021+012001999GA2041+018001999GF104991999999999999999999MA1101081999999REMMET063METAR ETGQ 061620Z 26003KT 9999 FEW040 SCT060 23/14 Q1011 BLU/;
0148102340999992008060617204+53133+009350FM-15+0061ETGQ V0202401N002112200019N0112651N1+02201+01501999999ADDGA1021+012001999GA2041+018001999GF104991999999999999999999MA1101081999999REMMET063METAR ETGQ 061720Z 24004KT 9999 FEW040 SCT060 22/15 Q1011 BLU/;
0148102340999992008060618204+53133+009350FM-15+0061ETGQ V0202401N001512200019N0112651N1+02101+01501999999ADDGA1021+012001999GA2041+018001999GF104991999999999999999999MA1101081999999REMMET063METAR ETGQ 061820Z 24003KT 9999 FEW040 SCT060 21/15 Q1011 BLU/;
0168102340999992008060812184+53133+009350FM-16+0061ETGQ V0203101N003112200019N0112651N1+02101+01401999999ADDGA1041+009001091GA2041+030001999GF104991999999999999999999MA1101901999999MW1801MW2951REMMET071SPECI ETGQ 081218Z 31006KT 9999 -TSRA SCT030CB SCT100 21/14 Q1019 BLU/;
0158102340999992008060816374+53133+009350FM-16+0061ETGQ V0203301N003610240019N0060001N1+02301+01601999999ADDGA1041+009001091GA2071+024001999GF107991999999999999999999MA1101901999999MW1171REMMET067SPECI ETGQ 081637Z 33007KT 6000 TS SCT030CB BKN080 23/16 Q1019 WHT;
0076102340999992008060904204+53133+009350FM-15+0061ETGQ V0209999C000012200019N0112651N1+01401+01301999999ADDMA1102101999999REMMET049METAR ETGQ 090420Z 00000KT 9999 14/13 Q1021 BLU/;
0076102340999992008060905204+53133+009350FM-15+0061ETGQ V0209999C000012200019N0080001N1+01601+01401999999ADDMA1102101999999REMMET049METAR ETGQ 090520Z 00000KT 8000 16/14 Q1021 BLU/;
0076102340999992008060906204+53133+009350FM-15+0061ETGQ V0209999C000012200019N0080001N1+01801+01501999999ADDMA1102201999999REMMET049METAR ETGQ 090620Z 00000KT 8000 18/15 Q1022 BLU/;
0076102340999992008060907204+53133+009350FM-15+0061ETGQ V0209999V001012200019N0080001N1+01901+01401999999ADDMA1102201999999REMMET049METAR ETGQ 090720Z VRB02KT 8000 19/14 Q1022 BLU/;
0076102340999992008060908204+53133+009350FM-15+0061ETGQ V0203601N001512200019N0090001N1+02101+01401999999ADDMA1102201999999REMMET049METAR ETGQ 090820Z 36003KT 9000 21/14 Q1022 BLU/;
0076102340999992008060909204+53133+009350FM-15+0061ETGQ V0209999V000512200019N0090001N1+02301+01401999999ADDMA1102101999999REMMET049METAR ETGQ 090920Z VRB01KT 9000 23/14 Q1021 BLU/;
0125102340999992008060910204+53133+009350FM-15+0061ETGQ V0200201N002112200019N0112651N1+02501+01301999999ADDGA1021+012001999GF102991999999999999999999MA1102101999999REMMET056METAR ETGQ 091020Z 02004KT 9999 FEW040 25/13 Q1021 BLU/;
0125102340999992008060911204+53133+009350FM-15+0061ETGQ V0203101N001512200019N0112651N1+02601+01201999999ADDGA1021+018001999GF102991999999999999999999MA1102101999999REMMET056METAR ETGQ 091120Z 31003KT 9999 FEW060 26/12 Q1021 BLU/;
0125102340999992008060912204+53133+009350FM-15+0061ETGQ V0209999V001012200019N0112651N1+02601+01201999999ADDGA1041+018001999GF104991999999999999999999MA1102101999999REMMET056METAR ETGQ 091220Z VRB02KT 9999 SCT060 26/12 Q1021 BLU/;
0125102340999992008060913204+53133+009350FM-15+0061ETGQ V0203101N001512200019N0112651N1+02701+00901999999ADDGA1041+018001999GF104991999999999999999999MA1102001999999REMMET056METAR ETGQ 091320Z 31003KT 9999 SCT060 27/09 Q1020 BLU/;
0125102340999992008060914204+53133+009350FM-15+0061ETGQ V0203401N002612200019N0112651N1+02701+00801999999ADDGA1041+021001999GF104991999999999999999999MA1102001999999REMMET056METAR ETGQ 091420Z 34005KT 9999 SCT070 27/08 Q1020 BLU/;
0125102340999992008060915204+53133+009350FM-15+0061ETGQ V0203501N003112200019N0112651N1+02801+00901999999ADDGA1041+024001999GF104991999999999999999999MA1102001999999REMMET056METAR ETGQ 091520Z 35006KT 9999 SCT080 28/09 Q1020 BLU/;
0125102340999992008060916204+53133+009350FM-15+0061ETGQ V0203301N003612200019N0112651N1+02701+00901999999ADDGA1021+024001999GF102991999999999999999999MA1101901999999REMMET056METAR ETGQ 091620Z 33007KT 9999 FEW080 27/09 Q1019 BLU/;
0125102340999992008060917204+53133+009350FM-15+0061ETGQ V0203301N004112200019N0112651N1+02701+00801999999ADDGA1021+024001999GF102991999999999999999999MA1102001999999REMMET056METAR ETGQ 091720Z 33008KT 9999 FEW080 27/08 Q1020 BLU/;
0124102340999992008060918204+53133+009350FM-15+0061ETGQ V0203301N003612200019N0112651N1+02501+00801999999ADDGA1021+024001999GF102991999999999999999999MA1102001999999REMMET055METAR ETGQ 091820Z 33007KT 9999 FEW080 25/08 Q1020 BLU;
0076102340999992008061004204+53133+009350FM-15+0061ETGQ V0209999C000012200019N0112651N1+01501+01301999999ADDMA1102101999999REMMET049METAR ETGQ 100420Z 00000KT 9999 15/13 Q1021 BLU/;
0076102340999992008061005204+53133+009350FM-15+0061ETGQ V0209999C000012200019N0112651N1+01601+01301999999ADDMA1102101999999REMMET049METAR ETGQ 100520Z 00000KT 9999 16/13 Q1021 BLU/;
0076102340999992008061006204+53133+009350FM-15+0061ETGQ V0209999C000012200019N0112651N1+01801+01301999999ADDMA1102101999999REMMET049METAR ETGQ 100620Z 00000KT 9999 18/13 Q1021 BLU/;
0076102340999992008061007204+53133+009350FM-15+0061ETGQ V0203101N001012200019N0112651N1+01901+01201999999ADDMA1102101999999REMMET049METAR ETGQ 100720Z 31002KT 9999 19/12 Q1021 BLU/;
0076102340999992008061008204+53133+009350FM-15+0061ETGQ V0203201N001512200019N0112651N1+02101+01301999999ADDMA1102101999999REMMET049METAR ETGQ 100820Z 32003KT 9999 21/13 Q1021 BLU/;
0076102340999992008061009204+53133+009350FM-15+0061ETGQ V0201401N001512200019N0112651N1+02401+01301999999ADDMA1102101999999REMMET049METAR ETGQ 100920Z 14003KT 9999 24/13 Q1021 BLU/;
0125102340999992008061010204+53133+009350FM-15+0061ETGQ V0203301N002112200019N0112651N1+02501+01201999999ADDGA1021+018001999GF102991999999999999999999MA1102001999999REMMET056METAR ETGQ 101020Z 33004KT 9999 FEW060 25/12 Q1020 BLU/;
0125102340999992008061011204+53133+009350FM-15+0061ETGQ V0203101N002612200019N0112651N1+02601+01101999999ADDGA1021+018001999GF102991999999999999999999MA1102001999999REMMET056METAR ETGQ 101120Z 31005KT 9999 FEW060 26/11 Q1020 BLU/;
0125102340999992008061012204+53133+009350FM-15+0061ETGQ V0203501N003112200019N0112651N1+02701+01101999999ADDGA1021+018001999GF102991999999999999999999MA1101901999999REMMET056METAR ETGQ 101220Z 35006KT 9999 FEW060 27/11 Q1019 BLU/;
0125102340999992008061013204+53133+009350FM-15+0061ETGQ V0203501N004112200019N0112651N1+02701+01001999999ADDGA1021+021001999GF102991999999999999999999MA1101901999999REMMET056METAR ETGQ 101320Z 35008KT 9999 FEW070 27/10 Q1019 BLU/;
0125102340999992008061014204+53133+009350FM-15+0061ETGQ V0203501N004612200019N0112651N1+02701+00901999999ADDGA1021+021001999GF102991999999999999999999MA1101801999999REMMET056METAR ETGQ 101420Z 35009KT 9999 FEW070 27/09 Q1018 BLU/;
0125102340999992008061015204+53133+009350FM-15+0061ETGQ V0203401N004612200019N0112651N1+02701+01101999999ADDGA1021+021001999GF102991999999999999999999MA1101801999999REMMET056METAR ETGQ 101520Z 34009KT 9999 FEW070 27/11 Q1018 BLU/;
0125102340999992008061016204+53133+009350FM-15+0061ETGQ V0203501N004112200019N0112651N1+02601+01001999999ADDGA1021+021001999GF102991999999999999999999MA1101691999999REMMET056METAR ETGQ 101620Z 35008KT 9999 FEW070 26/10 Q1017 BLU/;
0076102340999992008061017204+53133+009350FM-15+0061ETGQ V0203301N003612200019N0112651N1+02601+01001999999ADDMA1101691999999REMMET049METAR ETGQ 101720Z 33007KT 9999 26/10 Q1017 BLU/;
0125102340999992008061018204+53133+009350FM-15+0061ETGQ V0203401N003112200019N0112651N1+02401+01101999999ADDGA1021+015001999GF102991999999999999999999MA1101691999999REMMET056METAR ETGQ 101820Z 34006KT 9999 FEW050 24/11 Q1017 BLU/;
0124102340999992008061104204+53133+009350FM-15+0061ETGQ V0203101N002610066019N0112651N1+01401+01001999999ADDGA1071+006601999GF107991999999999999999999MA1101901999999REMMET055METAR ETGQ 110420Z 31005KT 9999 BKN022 14/10 Q1019 WHT;
0147102340999992008061105204+53133+009350FM-15+0061ETGQ V0203101N002610075019N0112651N1+01401+01001999999ADDGA1041+006001999GA2071+007501999GF107991999999999999999999MA1102001999999REMMET062METAR ETGQ 110520Z 31005KT 9999 SCT020 BKN025 14/10 Q1020 BLU;
0147102340999992008061106204+53133+009350FM-15+0061ETGQ V0202901N002110078019N0112651N1+01401+01001999999ADDGA1041+005401999GA2071+007801999GF107991999999999999999999MA1102001999999REMMET062METAR ETGQ 110620Z 29004KT 9999 SCT018 BKN026 14/10 Q1020 BLU;
0147102340999992008061107204+53133+009350FM-15+0061ETGQ V0203301N003610084019N0112651N1+01601+00901999999ADDGA1021+006001999GA2071+008401999GF107991999999999999999999MA1102001999999REMMET062METAR ETGQ 110720Z 33007KT 9999 FEW020 BKN028 16/09 Q1020 BLU;
0148102340999992008061108204+53133+009350FM-15+0061ETGQ V0203301N003612200019N0112651N1+01701+00801999999ADDGA1021+007501999GA2041+010501999GF104991999999999999999999MA1102001999999REMMET063METAR ETGQ 110820Z 33007KT 9999 FEW025 SCT035 17/08 Q1020 BLU/;
0124102340999992008061109204+53133+009350FM-15+0061ETGQ V0203401N003610123019N0112651N1+01801+00701999999ADDGA1071+012301999GF107991999999999999999999MA1102001999999REMMET055METAR ETGQ 110920Z 34007KT 9999 BKN041 18/07 Q1020 BLU;
0147102340999992008061110204+53133+009350FM-15+0061ETGQ V0202801N003110150019N0112651N1+01901+00801999999ADDGA1021+012001999GA2071+015001999GF107991999999999999999999MA1102001999999REMMET062METAR ETGQ 111020Z 28006KT 9999 FEW040 BKN050 19/08 Q1020 BLU;
0147102340999992008061111204+53133+009350FM-15+0061ETGQ V0203101N003110180019N0112651N1+01801+00901999999ADDGA1041+012001999GA2071+018001999GF107991999999999999999999MA1101901999999REMMET062METAR ETGQ 111120Z 31006KT 9999 SCT040 BKN060 18/09 Q1019 BLU;
0147102340999992008061112204+53133+009350FM-15+0061ETGQ V0203101N004110180019N0112651N1+01901+00701999999ADDGA1021+012001999GA2071+018001999GF107991999999999999999999MA1101901999999REMMET062METAR ETGQ 111220Z 31008KT 9999 FEW040 BKN060 19/07 Q1019 BLU;
0147102340999992008061113204+53133+009350FM-15+0061ETGQ V0203201N005110210019N0112651N1+01901+00701999999ADDGA1021+013501999GA2071+021001999GF107991999999999999999999MA1101901999999REMMET062METAR ETGQ 111320Z 32010KT 9999 FEW045 BKN070 19/07 Q1019 BLU;
0147102340999992008061114204+53133+009350FM-15+0061ETGQ V0203301N004110180019N0112651N1+01801+00801999999ADDGA1021+013501999GA2071+018001999GF107991999999999999999999MA1101801999999REMMET062METAR ETGQ 111420Z 33008KT 9999 FEW045 BKN060 18/08 Q1018 BLU;
0139102340999992008061214204+53133+009350FM-15+0061ETGQ V0201401N002610111019N0112651N1+01301+01101999999ADDGA1081+011101999GF108991999999999999999999MA1101021999999MW1611REMMET064METAR ETGQ 121420Z 14005KT 9999 -RA OVC037 13/11 Q1010 RERA BLU;
0134102340999992008061215204+53133+009350FM-15+0061ETGQ V0201501N002110054019N0070001N1+01301+01101999999ADDGA1081+005401999GF108991999999999999999999MA1100911999999MW1611REMMET059METAR ETGQ 121520Z 15004KT 7000 -RA OVC018 13/11 Q1009 WHT;
0124102340999992008061216204+53133+009350FM-15+0061ETGQ V0201901N001510063019N0112651N1+01401+01201999999ADDGA1081+006301999GF108991999999999999999999MA1100811999999REMMET055METAR ETGQ 121620Z 19003KT 9999 OVC021 14/12 Q1008 WHT;
0147102340999992008061217204+53133+009350FM-15+0061ETGQ V0202601N002110123019N0112651N1+01401+01101999999ADDGA1021+008401999GA2071+012301999GF107991999999999999999999MA1100811999999REMMET062METAR ETGQ 121720Z 26004KT 9999 FEW028 BKN041 14/11 Q1008 BLU;
0147102340999992008061218204+53133+009350FM-15+0061ETGQ V0203201N006210084019N0112651N1+01101+00901999999ADDGA1041+005401999GA2071+008401999GF107991999999999999999999MA1100911999999REMMET062METAR ETGQ 121820Z 32012KT 9999 SCT018 BKN028 11/09 Q1009 BLU;
0147102340999992008061304204+53133+009350FM-15+0061ETGQ V0203001N002110054019N0112651N1+01001+00701999999ADDGA1041+004501999GA2071+005401999GF107991999999999999999999MA1101391999999REMMET062METAR ETGQ 130420Z 30004KT 9999 SCT015 BKN018 10/07 Q1014 WHT;
0147102340999992008061305204+53133+009350FM-15+0061ETGQ V0203101N003110105019N0112651N1+01001+00701999999ADDGA1041+005401999GA2071+010501999GF107991999999999999999999MA1101491999999REMMET062METAR ETGQ 130520Z 31006KT 9999 SCT018 BKN035 10/07 Q1015 BLU;
0147102340999992008061306204+53133+009350FM-15+0061ETGQ V0203001N002110060019N0112651N1+01101+00701999999ADDGA1071+006001999GA2071+012001999GF107991999999999999999999MA1101491999999REMMET062METAR ETGQ 130620Z 30004KT 9999 BKN020 BKN040 11/07 Q1015 WHT;
0140102340999992008061307204+53133+009350FM-15+0061ETGQ V0203201N00261220001CN0112651N1+01201+00701999999ADDGA1071+006001999GA2041+009001999MA1101491999999REMMET062METAR ETGQ 130720Z 32005KT 9999 BKN020 SCT030 12/07 Q1015 WHT;EQDQ01+000042SCOTCV
0140102340999992008061308204+53133+009350FM-15+0061ETGQ V0203401N00261220001CN0112651N1+01201+00801999999ADDGA1071+006601999GA2041+018001999MA1101491999999REMMET062METAR ETGQ 130820Z 34005KT 9999 BKN022 SCT060 12/08 Q1015 WHT;EQDQ01+000042SCOTCV
0151102340999992008061309204+53133+009350FM-15+0061ETGQ V0203201N004112200019N0112651N1+01301+00701999999ADDGA1021+006601021GA2041+008401999GF104991999999999999999999MA1101491999999REMMET066METAR ETGQ 130920Z 32008KT 9999 FEW022TCU SCT028 13/07 Q1015 BLU/;
0173102340999992008061310204+53133+009350FM-15+0061ETGQ V0203101N00261009001CN0112651N1+01301+00801999999ADDGA1021+006601021GA2041+009001999GA3071+015001999GF107991999999999999999999MA1101591999999REMMET072METAR ETGQ 131020Z 31005KT 9999 FEW022TCU SCT030 BKN050 13/08 Q1016 BLU;
0124102340999992008061311204+53133+009350FM-15+0061ETGQ V0200501N001510096019N0112651N1+01601+00701999999ADDGA1071+009601999GF107991999999999999999999MA1101491999999REMMET055METAR ETGQ 131120Z 05003KT 9999 BKN032 16/07 Q1015 BLU;
0148102340999992008061312204+53133+009350FM-15+0061ETGQ V0203101N005712200019N0112651N1+01501+00601999999ADDGA1041+011401999GA2041+027001999GF104991999999999999999999MA1101491999999REMMET063METAR ETGQ 131220Z 31011KT 9999 SCT038 SCT090 15/06 Q1015 BLU/;
0148102340999992008061313204+53133+009350FM-15+0061ETGQ V0202601N001512200019N0112651N1+01601+00701999999ADDGA1021+009001999GA2041+024001999GF104991999999999999999999MA1101491999999REMMET063METAR ETGQ 131320Z 26003KT 9999 FEW030 SCT080 16/07 Q1015 BLU/;
0148102340999992008061314204+53133+009350FM-15+0061ETGQ V0203101N003612200019N0112651N1+01601+00501999999ADDGA1021+012601999GA2041+024001999GF104991999999999999999999MA1101491999999REMMET063METAR ETGQ 131420Z 31007KT 9999 FEW042 SCT080 16/05 Q1015 BLU/;
0151102340999992008061315204+53133+009350FM-15+0061ETGQ V0203101N002612200019N0112651N1+01601+00701999999ADDGA1021+012001021GA2041+018001999GF104991999999999999999999MA1101491999999REMMET066METAR ETGQ 131520Z 31005KT 9999 FEW040TCU SCT060 16/07 Q1015 BLU/;
0147102340999992008061316204+53133+009350FM-15+0061ETGQ V0203201N004110240019N0112651N1+01601+00601999999ADDGA1021+011401999GA2071+024001999GF107991999999999999999999MA1101491999999REMMET062METAR ETGQ 131620Z 32008KT 9999 FEW038 BKN080 16/06 Q1015 BLU;
0147102340999992008061317204+53133+009350FM-15+0061ETGQ V0203201N003610240019N0112651N1+01501+00601999999ADDGA1021+011401999GA2071+024001999GF107991999999999999999999MA1101491999999REMMET062METAR ETGQ 131720Z 32007KT 9999 FEW038 BKN080 15/06 Q1015 BLU;
0170102340999992008061318204+53133+009350FM-15+0061ETGQ V0203401N00311015001CN0112651N1+01401+00601999999ADDGA1021+011401999GA2041+015001999GA3071+024001999GF107991999999999999999999MA1101591999999REMMET069METAR ETGQ 131820Z 34006KT 9999 FEW038 SCT050 BKN080 14/06 Q1016 BLU;
0167102340999992008061515394+53133+009350FM-16+0061ETGQ V0202101N001510180019N0112651N1+01601+00901999999ADDGA1041+007501091GA2071+018001999GF107991999999999999999999MA1100811999999MW1801MW2951REMMET070SPECI ETGQ 151539Z 21003KT 9999 -TSRA SCT025CB BKN060 16/09 Q1008 BLU;
0147102340999992008061604204+53133+009350FM-15+0061ETGQ V0202501N000512200019N0060001N1+01001+00901999999ADDGA1041+001201999GA2041+009001999GF104991999999999999999999MA1101021999999REMMET062METAR ETGQ 160420Z 25001KT 6000 SCT004 SCT030 10/09 Q1010 WHT;
0147102340999992008061605204+53133+009350FM-15+0061ETGQ V0209999C000010060019N0060001N1+01001+00901999999ADDGA1041+001501999GA2071+006001999GF107991999999999999999999MA1101021999999REMMET062METAR ETGQ 160520Z 00000KT 6000 SCT005 BKN020 10/09 Q1010 WHT;
0147102340999992008061606204+53133+009350FM-15+0061ETGQ V0203401N001010066019N0080001N1+01201+00901999999ADDGA1021+005101999GA2071+006601999GF107991999999999999999999MA1101021999999REMMET062METAR ETGQ 160620Z 34002KT 8000 FEW017 BKN022 12/09 Q1010 WHT;
0148102340999992008061607204+53133+009350FM-15+0061ETGQ V0203401N002112200019N0080001N1+01201+00901999999ADDGA1041+004501999GA2041+006001999GF104991999999999999999999MA1101081999999REMMET063METAR ETGQ 160720Z 34004KT 8000 SCT015 SCT020 12/09 Q1011 BLU/;
0124102340999992008061608204+53133+009350FM-15+0061ETGQ V0209999V001010066019N0112651N1+01401+00901999999ADDGA1071+006601999GF107991999999999999999999MA1101081999999REMMET055METAR ETGQ 160820Z VRB02KT 9999 BKN022 14/09 Q1011 WHT;
0125102340999992008061609204+53133+009350FM-15+0061ETGQ V0202901N002112200019N0112651N1+01501+00901999999ADDGA1041+007501999GF104991999999999999999999MA1101081999999REMMET056METAR ETGQ 160920Z 29004KT 9999 SCT025 15/09 Q1011 BLU/;
0125102340999992008061610204+53133+009350FM-15+0061ETGQ V0201901N001512200019N0112651N1+01601+00801999999ADDGA1041+009001999GF104991999999999999999999MA1101081999999REMMET056METAR ETGQ 161020Z 19003KT 9999 SCT030 16/08 Q1011 BLU/;
0125102340999992008061611204+53133+009350FM-15+0061ETGQ V0203501N002612200019N0112651N1+01701+00601999999ADDGA1041+010501999GF104991999999999999999999MA1101021999999REMMET056METAR ETGQ 161120Z 35005KT 9999 SCT035 17/06 Q1010 BLU/;
0125102340999992008061612204+53133+009350FM-15+0061ETGQ V0203401N002612200019N0112651N1+01701+00401999999ADDGA1041+010501999GF104991999999999999999999MA1101021999999REMMET056METAR ETGQ 161220Z 34005KT 9999 SCT035 17/04 Q1010 BLU/;
0125102340999992008061613204+53133+009350FM-15+0061ETGQ V0203201N001512200019N0112651N1+01901+00501999999ADDGA1041+012001999GF104991999999999999999999MA1101021999999REMMET056METAR ETGQ 161320Z 32003KT 9999 SCT040 19/05 Q1010 BLU/;
0125102340999992008061614204+53133+009350FM-15+0061ETGQ V0203201N002612200019N0112651N1+01901+00401999999ADDGA1041+013501999GF104991999999999999999999MA1101021999999REMMET056METAR ETGQ 161420Z 32005KT 9999 SCT045 19/04 Q1010 BLU/;
0125102340999992008061615204+53133+009350FM-15+0061ETGQ V0200301N002112200019N0112651N1+01901+00301999999ADDGA1041+015001999GF104991999999999999999999MA1100911999999REMMET056METAR ETGQ 161520Z 03004KT 9999 SCT050 19/03 Q1009 BLU/;
0125102340999992008061616204+53133+009350FM-15+0061ETGQ V0200201N002612200019N0112651N1+01901+00201999999ADDGA1041+015001999GF104991999999999999999999MA1100911999999REMMET056METAR ETGQ 161620Z 02005KT 9999 SCT050 19/02 Q1009 BLU/;
0125102340999992008061617204+53133+009350FM-15+0061ETGQ V0203401N003112200019N0112651N1+01901+00401999999ADDGA1041+015001999GF104991999999999999999999MA1101021999999REMMET056METAR ETGQ 161720Z 34006KT 9999 SCT050 19/04 Q1010 BLU/;
0125102340999992008061618204+53133+009350FM-15+0061ETGQ V0203301N003112200019N0112651N1+01801+00401999999ADDGA1041+015001999GF104991999999999999999999MA1101021999999REMMET056METAR ETGQ 161820Z 33006KT 9999 SCT050 18/04 Q1010 BLU/;
0148102340999992008061704204+53133+009350FM-15+0061ETGQ V0209999C000010900019N0112651N1+00901+00701999999ADDGA1021+018001999GA2071+090001999GF107991999999999999999999MA1101191999999REMMET063METAR ETGQ 170420Z 00000KT 9999 FEW060 BKN320 09/07 Q1012 BLU/;
0148102340999992008061705204+53133+009350FM-15+0061ETGQ V0209999C000010900019N0112651N1+01101+00801999999ADDGA1021+018001999GA2071+090001999GF107991999999999999999999MA1101291999999REMMET063METAR ETGQ 170520Z 00000KT 9999 FEW060 BKN300 11/08 Q1013 BLU/;
0125102340999992008061706204+53133+009350FM-15+0061ETGQ V0209999C000012200019N0112651N1+01201+00801999999ADDGA1041+021001999GF104991999999999999999999MA1101291999999REMMET056METAR ETGQ 170620Z 00000KT 9999 SCT070 12/08 Q1013 BLU/;
0124102340999992008061707204+53133+009350FM-15+0061ETGQ V0203001N000510210019N0112651N1+01301+00801999999ADDGA1071+021001999GF107991999999999999999999MA1101291999999REMMET055METAR ETGQ 170720Z 30001KT 9999 BKN070 13/08 Q1013 BLU;
0148102340999992008061708204+53133+009350FM-15+0061ETGQ V0203101N001512200019N0112651N1+01501+00801999999ADDGA1021+007501999GA2041+024001999GF104991999999999999999999MA1101291999999REMMET063METAR ETGQ 170820Z 31003KT 9999 FEW025 SCT080 15/08 Q1013 BLU/;
0125102340999992008061709204+53133+009350FM-15+0061ETGQ V0209999V000512200019N0112651N1+01701+00901999999ADDGA1021+000901999GF102991999999999999999999MA1101291999999REMMET056METAR ETGQ 170920Z VRB01KT 9999 FEW003 17/09 Q1013 BLU/;
0125102340999992008061710204+53133+009350FM-15+0061ETGQ V0209999V001012200019N0112651N1+01901+00701999999ADDGA1041+012001999GF104991999999999999999999MA1101291999999REMMET056METAR ETGQ 171020Z VRB02KT 9999 SCT040 19/07 Q1013 BLU/;
0125102340999992008061711204+53133+009350FM-15+0061ETGQ V0200801N000512200019N0112651N1+02001+00401999999ADDGA1041+015001999GF104991999999999999999999MA1101191999999REMMET056METAR ETGQ 171120Z 08001KT 9999 SCT050 20/04 Q1012 BLU/;
0147102340999992008061712204+53133+009350FM-15+0061ETGQ V0202301N000510270019N0112651N1+02101+00501999999ADDGA1021+015001999GA2071+027001999GF107991999999999999999999MA1101191999999REMMET062METAR ETGQ 171220Z 23001KT 9999 FEW050 BKN090 21/05 Q1012 BLU;
0147102340999992008061713204+53133+009350FM-15+0061ETGQ V0201501N001510270019N0112651N1+02101+00401999999ADDGA1021+015001999GA2071+027001999GF107991999999999999999999MA1101191999999REMMET062METAR ETGQ 171320Z 15003KT 9999 FEW050 BKN090 21/04 Q1012 BLU;
0147102340999992008061714204+53133+009350FM-15+0061ETGQ V0202001N002110300019N0112651N1+02201+00301999999ADDGA1021+018001999GA2071+030001999GF107991999999999999999999MA1101191999999REMMET062METAR ETGQ 171420Z 20004KT 9999 FEW060 BKN100 22/03 Q1012 BLU;
0148102340999992008061715204+53133+009350FM-15+0061ETGQ V0209999V001012200019N0112651N1+02201+00401999999ADDGA1021+018001999GA2041+030001999GF104991999999999999999999MA1101191999999REMMET063METAR ETGQ 171520Z VRB02KT 9999 FEW060 SCT100 22/04 Q1012 BLU/;
0147102340999992008061716204+53133+009350FM-15+0061ETGQ V0209999V001010270019N0112651N1+02101+00401999999ADDGA1021+018001999GA2071+027001999GF107991999999999999999999MA1101191999999REMMET062METAR ETGQ 171620Z VRB02KT 9999 FEW060 BKN090 21/04 Q1012 BLU;
0147102340999992008061717204+53133+009350FM-15+0061ETGQ V0209999V000510300019N0112651N1+02101+00401999999ADDGA1021+018001999GA2071+030001999GF107991999999999999999999MA1101191999999REMMET062METAR ETGQ 171720Z VRB01KT 9999 FEW060 BKN100 21/04 Q1012 BLU;
0147102340999992008061718204+53133+009350FM-15+0061ETGQ V0203401N001010300019N0112651N1+02101+00501999999ADDGA1021+018001999GA2071+030001999GF107991999999999999999999MA1101191999999REMMET062METAR ETGQ 171820Z 34002KT 9999 FEW060 BKN100 21/05 Q1012 BLU;
0125102340999992008061804204+53133+009350FM-15+0061ETGQ V0202201N001012200019N0112651N1+01301+01001999999ADDGA1021+030001999GF102991999999999999999999MA1101591999999REMMET056METAR ETGQ 180420Z 22002KT 9999 FEW100 13/10 Q1016 BLU/;
0125102340999992008061805204+53133+009350FM-15+0061ETGQ V0209999C000012200019N0112651N1+01401+01101999999ADDGA1021+030001999GF102991999999999999999999MA1101591999999REMMET056METAR ETGQ 180520Z 00000KT 9999 FEW100 14/11 Q1016 BLU/;
0125102340999992008061806204+53133+009350FM-15+0061ETGQ V0209999C000012200019N0112651N1+01601+01101999999ADDGA1021+084001999GF102991999999999999999999MA1101691999999REMMET056METAR ETGQ 180620Z 00000KT 9999 FEW280 16/11 Q1017 BLU/;
0125102340999992008061807204+53133+009350FM-15+0061ETGQ V0209999V000512200019N0112651N1+01801+01101999999ADDGA1041+087001999GF104991999999999999999999MA1101691999999REMMET056METAR ETGQ 180720Z VRB01KT 9999 SCT290 18/11 Q1017 BLU/;
0125102340999992008061808204+53133+009350FM-15+0061ETGQ V0209999V001012200019N0112651N1+02001+01001999999ADDGA1041+087001999GF104991999999999999999999MA1101691999999REMMET056METAR ETGQ 180820Z VRB02KT 9999 SCT290 20/10 Q1017 BLU/;
0125102340999992008061809204+53133+009350FM-15+0061ETGQ V0201801N001512200019N0112651N1+02201+00501999999ADDGA1021+015001999GF102991999999999999999999MA1101591999999REMMET056METAR ETGQ 180920Z 18003KT 9999 FEW050 22/05 Q1016 BLU/;
0125102340999992008061810204+53133+009350FM-15+0061ETGQ V0202101N003112200019N0112651N1+02301+00601999999ADDGA1021+018001999GF102991999999999999999999MA1101591999999REMMET056METAR ETGQ 181020Z 21006KT 9999 FEW060 23/06 Q1016 BLU/;
0125102340999992008061811204+53133+009350FM-15+0061ETGQ V0202401N002112200019N0112651N1+02301+00601999999ADDGA1041+021001999GF104991999999999999999999MA1101591999999REMMET056METAR ETGQ 181120Z 24004KT 9999 SCT070 23/06 Q1016 BLU/;
0125102340999992008061812204+53133+009350FM-15+0061ETGQ V0202701N003112200019N0112651N1+02401+00601999999ADDGA1041+018001999GF104991999999999999999999MA1101591999999REMMET056METAR ETGQ 181220Z 27006KT 9999 SCT060 24/06 Q1016 BLU/;
0148102340999992008061813204+53133+009350FM-15+0061ETGQ V0202501N002612200019N0112651N1+02301+00601999999ADDGA1021+018001999GA2041+027001999GF104991999999999999999999MA1101591999999REMMET063METAR ETGQ 181320Z 25005KT 9999 FEW060 SCT090 23/06 Q1016 BLU/;
0147102340999992008061814204+53133+009350FM-15+0061ETGQ V0202101N002110270019N0112651N1+02301+00501999999ADDGA1021+018001999GA2071+027001999GF107991999999999999999999MA1101491999999REMMET062METAR ETGQ 181420Z 21004KT 9999 FEW060 BKN090 23/05 Q1015 BLU;
0171102340999992008061815204+53133+009350FM-15+0061ETGQ V0202301N00211027001CN0112651N1+02301+00601999999ADDGA1021+018001999GA2041+027001999GA3071+084001999GF107991999999999999999999MA1101491999999REMMET070METAR ETGQ 181520Z 23004KT 9999 FEW060 SCT090 BKN280 23/06 Q1015 BLU/;
0171102340999992008061816204+53133+009350FM-15+0061ETGQ V0202501N00211027001CN0112651N1+02401+00701999999ADDGA1021+018001999GA2041+027001999GA3071+087001999GF107991999999999999999999MA1101491999999REMMET070METAR ETGQ 181620Z 25004KT 9999 FEW060 SCT090 BKN290 24/07 Q1015 BLU/;
0148102340999992008061817204+53133+009350FM-15+0061ETGQ V0202401N002110870019N0112651N1+02401+00701999999ADDGA1021+018001999GA2071+087001999GF107991999999999999999999MA1101391999999REMMET063METAR ETGQ 181720Z 24004KT 9999 FEW060 BKN290 24/07 Q1014 BLU/;
0171102340999992008061818204+53133+009350FM-15+0061ETGQ V0202401N00211027001CN0112651N1+02201+00801999999ADDGA1021+018001999GA2041+027001999GA3071+087001999GF107991999999999999999999MA1101391999999REMMET070METAR ETGQ 181820Z 24004KT 9999 FEW060 SCT090 BKN290 22/08 Q1014 BLU/;
0147102340999992008061904204+53133+009350FM-15+0061ETGQ V0209999C000010450019N0112651N1+01501+01001999999ADDGA1041+021001999GA2071+045001999GF107991999999999999999999MA1101291999999REMMET062METAR ETGQ 190420Z 00000KT 9999 SCT070 BKN150 15/10 Q1013 BLU;
0147102340999992008061905204+53133+009350FM-15+0061ETGQ V0209999C000010390019N0112651N1+01601+01001999999ADDGA1021+030001999GA2071+039001999GF107991999999999999999999MA1101291999999REMMET062METAR ETGQ 190520Z 00000KT 9999 FEW100 BKN130 16/10 Q1013 BLU;
0147102340999992008061906204+53133+009350FM-15+0061ETGQ V0209999C000010300019N0112651N1+01701+01201999999ADDGA1021+015001999GA2071+030001999GF107991999999999999999999MA1101391999999REMMET062METAR ETGQ 190620Z 00000KT 9999 FEW050 BKN100 17/12 Q1014 BLU;
0124102340999992008061907204+53133+009350FM-15+0061ETGQ V0202001N002110330019N0112651N1+01801+00901999999ADDGA1071+033001999GF107991999999999999999999MA1101291999999REMMET055METAR ETGQ 190720Z 20004KT 9999 BKN110 18/09 Q1013 BLU;
0147102340999992008061908204+53133+009350FM-15+0061ETGQ V0202101N003110300019N0112651N1+02001+00901999999ADDGA1021+013501999GA2071+030001999GF107991999999999999999999MA1101291999999REMMET062METAR ETGQ 190820Z 21006KT 9999 FEW045 BKN100 20/09 Q1013 BLU;
0147102340999992008061909204+53133+009350FM-15+0061ETGQ V0202101N003610270019N0112651N1+02101+00801999999ADDGA1021+015001999GA2071+027001999GF107991999999999999999999MA1101291999999REMMET062METAR ETGQ 190920Z 21007KT 9999 FEW050 BKN090 21/08 Q1013 BLU;
0147102340999992008061910204+53133+009350FM-15+0061ETGQ V0203501N003610270019N0112651N1+02201+00801999999ADDGA1021+021001999GA2071+027001999GF107991999999999999999999MA1101291999999REMMET062METAR ETGQ 191020Z 35007KT 9999 FEW070 BKN090 22/08 Q1013 BLU;
0147102340999992008061911204+53133+009350FM-15+0061ETGQ V0202501N004110360019N0112651N1+02201+00801999999ADDGA1021+018001999GA2071+036001999GF107991999999999999999999MA1101291999999REMMET062METAR ETGQ 191120Z 25008KT 9999 FEW060 BKN120 22/08 Q1013 BLU;
0147102340999992008061912204+53133+009350FM-15+0061ETGQ V0202401N004110300019N0112651N1+02301+00701999999ADDGA1021+018001999GA2071+030001999GF107991999999999999999999MA1101291999999REMMET062METAR ETGQ 191220Z 24008KT 9999 FEW060 BKN100 23/07 Q1013 BLU;
0147102340999992008061913204+53133+009350FM-15+0061ETGQ V0202301N004610390019N0112651N1+02301+00801999999ADDGA1021+018001999GA2071+039001999GF107991999999999999999999MA1101291999999REMMET062METAR ETGQ 191320Z 23009KT 9999 FEW060 BKN130 23/08 Q1013 BLU;
0147102340999992008061914204+53133+009350FM-15+0061ETGQ V0202501N003610300019N0112651N1+02401+01001999999ADDGA1021+015001999GA2071+030001999GF107991999999999999999999MA1101291999999REMMET062METAR ETGQ 191420Z 25007KT 9999 FEW050 BKN100 24/10 Q1013 BLU;
0147102340999992008061915204+53133+009350FM-15+0061ETGQ V0202301N002610270019N0112651N1+02301+01001999999ADDGA1021+018001999GA2071+027001999GF107991999999999999999999MA1101291999999REMMET062METAR ETGQ 191520Z 23005KT 9999 FEW060 BKN090 23/10 Q1013 BLU;
0147102340999992008061916204+53133+009350FM-15+0061ETGQ V0202401N003110150019N0112651N1+02201+01101999999ADDGA1021+013501999GA2071+015001999GF107991999999999999999999MA1101391999999REMMET062METAR ETGQ 191620Z 24006KT 9999 FEW045 BKN050 22/11 Q1014 BLU;
0147102340999992008061917204+53133+009350FM-15+0061ETGQ V0202401N003110390019N0112651N1+02201+01101999999ADDGA1041+018001999GA2071+039001999GF107991999999999999999999MA1101391999999REMMET062METAR ETGQ 191720Z 24006KT 9999 SCT060 BKN130 22/11 Q1014 BLU;
0147102340999992008061918204+53133+009350FM-15+0061ETGQ V0202501N001510330019N0112651N1+02101+01201999999ADDGA1041+015001999GA2071+033001999GF107991999999999999999999MA1101391999999REMMET062METAR ETGQ 191820Z 25003KT 9999 SCT050 BKN110 21/12 Q1014 BLU;
0148102340999992008062004204+53133+009350FM-15+0061ETGQ V0209999V000510840019N0112651N1+01201+01001999999ADDGA1021+027001999GA2071+084001999GF107991999999999999999999MA1101901999999REMMET063METAR ETGQ 200420Z VRB01KT 9999 FEW090 BKN280 12/10 Q1019 BLU/;
0148102340999992008062005204+53133+009350FM-15+0061ETGQ V0202401N001510840019N0112651N1+01401+00901999999ADDGA1021+024001999GA2071+084001999GF107991999999999999999999MA1101901999999REMMET063METAR ETGQ 200520Z 24003KT 9999 FEW080 BKN280 14/09 Q1019 BLU/;
0148102340999992008062006204+53133+009350FM-15+0061ETGQ V0209999C000010630019N0112651N1+01501+00901999999ADDGA1021+030001999GA2071+063001999GF107991999999999999999999MA1102001999999REMMET063METAR ETGQ 200620Z 00000KT 9999 FEW100 BKN210 15/09 Q1020 BLU/;
0148102340999992008062007204+53133+009350FM-15+0061ETGQ V0202401N002110630019N0112651N1+01501+00901999999ADDGA1041+021001999GA2071+063001999GF107991999999999999999999MA1102001999999REMMET063METAR ETGQ 200720Z 24004KT 9999 SCT070 BKN210 15/09 Q1020 BLU/;
0148102340999992008062008204+53133+009350FM-15+0061ETGQ V0202501N002610630019N0112651N1+01601+00901999999ADDGA1041+024001999GA2071+063001999GF107991999999999999999999MA1102001999999REMMET063METAR ETGQ 200820Z 25005KT 9999 SCT080 BKN210 16/09 Q1020 BLU/;
0148102340999992008062009204+53133+009350FM-15+0061ETGQ V0202401N002112200019N0112651N1+01801+00901999999ADDGA1021+012001999GA2041+027001999GF104991999999999999999999MA1102001999999REMMET063METAR ETGQ 200920Z 24004KT 9999 FEW040 SCT090 18/09 Q1020 BLU/;
0148102340999992008062010204+53133+009350FM-15+0061ETGQ V0203301N002110750019N0112651N1+02001+01001999999ADDGA1021+013501999GA2071+075001999GF107991999999999999999999MA1102001999999REMMET063METAR ETGQ 201020Z 33004KT 9999 FEW045 BKN250 20/10 Q1020 BLU/;
0148102340999992008062011204+53133+009350FM-15+0061ETGQ V0202301N002610750019N0112651N1+02101+00901999999ADDGA1041+015001999GA2071+075001999GF107991999999999999999999MA1101901999999REMMET063METAR ETGQ 201120Z 23005KT 9999 SCT050 BKN250 21/09 Q1019 BLU/;
0124102340999992008062012204+53133+009350FM-15+0061ETGQ V0202401N002110150019N0112651N1+02201+01001999999ADDGA1071+015001999GF107991999999999999999999MA1101901999999REMMET055METAR ETGQ 201220Z 24004KT 9999 BKN050 22/10 Q1019 BLU;
0148102340999992008062013204+53133+009350FM-15+0061ETGQ V0202501N002610810019N0112651N1+02101+01001999999ADDGA1041+012001999GA2071+081001999GF107991999999999999999999MA1101901999999REMMET063METAR ETGQ 201320Z 25005KT 9999 SCT040 BKN270 21/10 Q1019 BLU/;
0148102340999992008062014204+53133+009350FM-15+0061ETGQ V0202601N003110810019N0112651N1+02201+00901999999ADDGA1041+012001999GA2071+081001999GF107991999999999999999999MA1101901999999REMMET063METAR ETGQ 201420Z 26006KT 9999 SCT040 BKN270 22/09 Q1019 BLU/;
0148102340999992008062015204+53133+009350FM-15+0061ETGQ V0202501N004112200019N0112651N1+02201+00901999999ADDGA1021+013501999GA2041+075001999GF104991999999999999999999MA1101901999999REMMET063METAR ETGQ 201520Z 25008KT 9999 FEW045 SCT250 22/09 Q1019 BLU/;
0147102340999992008062016204+53133+009350FM-15+0061ETGQ V0202701N003110240019N0112651N1+02201+00901999999ADDGA1021+013501999GA2071+024001999GF107991999999999999999999MA1101901999999REMMET062METAR ETGQ 201620Z 27006KT 9999 FEW045 BKN080 22/09 Q1019 BLU;
0147102340999992008062017204+53133+009350FM-15+0061ETGQ V0202401N002110180019N0112651N1+02101+01001999999ADDGA1021+013501999GA2071+018001999GF107991999999999999999999MA1101901999999REMMET062METAR ETGQ 201720Z 24004KT 9999 FEW045 BKN060 21/10 Q1019 BLU;
0147102340999992008062018204+53133+009350FM-15+0061ETGQ V0202501N001510180019N0112651N1+02101+01001999999ADDGA1021+013501999GA2071+018001999GF107991999999999999999999MA1101901999999REMMET062METAR ETGQ 201820Z 25003KT 9999 FEW045 BKN060 21/10 Q1019 BLU;
0076102340999992008062304204+53133+009350FM-15+0061ETGQ V0202801N001012200019N0112651N1+01601+00701999999ADDMA1101801999999REMMET049METAR ETGQ 230420Z 28002KT 9999 16/07 Q1018 BLU/;
0076102340999992008062305204+53133+009350FM-15+0061ETGQ V0203001N002612200019N0112651N1+01601+00501999999ADDMA1101901999999REMMET049METAR ETGQ 230520Z 30005KT 9999 16/05 Q1019 BLU/;
0076102340999992008062306204+53133+009350FM-15+0061ETGQ V0202901N002612200019N0112651N1+01701+00601999999ADDMA1101901999999REMMET049METAR ETGQ 230620Z 29005KT 9999 17/06 Q1019 BLU/;
0125102340999992008062307204+53133+009350FM-15+0061ETGQ V0203201N002112200019N0112651N1+01701+00801999999ADDGA1021+012001999GF102991999999999999999999MA1102001999999REMMET056METAR ETGQ 230720Z 32004KT 9999 FEW040 17/08 Q1020 BLU/;
0125102340999992008062308204+53133+009350FM-15+0061ETGQ V0203601N001512200019N0112651N1+01801+00801999999ADDGA1021+012001999GF102991999999999999999999MA1102001999999REMMET056METAR ETGQ 230820Z 36003KT 9999 FEW040 18/08 Q1020 BLU/;
0125102340999992008062309204+53133+009350FM-15+0061ETGQ V0209999V000512200019N0112651N1+02001+00701999999ADDGA1021+013501999GF102991999999999999999999MA1102001999999REMMET056METAR ETGQ 230920Z VRB01KT 9999 FEW045 20/07 Q1020 BLU/;
0076102340999992008062310204+53133+009350FM-15+0061ETGQ V0203201N002612200019N0112651N1+02001+00701999999ADDMA1102001999999REMMET049METAR ETGQ 231020Z 32005KT 9999 20/07 Q1020 BLU/;
0125102340999992008062311204+53133+009350FM-15+0061ETGQ V0203201N001512200019N0112651N1+02101+00701999999ADDGA1021+018001999GF102991999999999999999999MA1102001999999REMMET056METAR ETGQ 231120Z 32003KT 9999 FEW060 21/07 Q1020 BLU/;
0148102340999992008062312204+53133+009350FM-15+0061ETGQ V0209999V001010810019N0112651N1+02201+00701999999ADDGA1021+039001999GA2071+081001999GF107991999999999999999999MA1101901999999REMMET063METAR ETGQ 231220Z VRB02KT 9999 FEW130 BKN270 22/07 Q1019 BLU/;
0148102340999992008062313204+53133+009350FM-15+0061ETGQ V0203301N001512200019N0112651N1+02301+00501999999ADDGA1021+048001999GA2041+087001999GF104991999999999999999999MA1101901999999REMMET063METAR ETGQ 231320Z 33003KT 9999 FEW160 SCT290 23/05 Q1019 BLU/;
0125102340999992008062314204+53133+009350FM-15+0061ETGQ V0203301N001512200019N0112651N1+02401+00501999999ADDGA1021+018001999GF102991999999999999999999MA1101901999999REMMET056METAR ETGQ 231420Z 33003KT 9999 FEW060 24/05 Q1019 BLU/;
0125102340999992008062315204+53133+009350FM-15+0061ETGQ V0203601N003112200019N0112651N1+02501+00501999999ADDGA1021+048001999GF102991999999999999999999MA1101801999999REMMET056METAR ETGQ 231520Z 36006KT 9999 FEW160 25/05 Q1018 BLU/;
0125102340999992008062316204+53133+009350FM-15+0061ETGQ V0203601N002612200019N0112651N1+02401+00501999999ADDGA1021+048001999GF102991999999999999999999MA1101801999999REMMET056METAR ETGQ 231620Z 36005KT 9999 FEW160 24/05 Q1018 BLU/;
0148102340999992008062317204+53133+009350FM-15+0061ETGQ V0200101N002110810019N0112651N1+02401+00501999999ADDGA1021+051001999GA2071+081001999GF107991999999999999999999MA1101801999999REMMET063METAR ETGQ 231720Z 01004KT 9999 FEW170 BKN270 24/05 Q1018 BLU/;
0148102340999992008062318204+53133+009350FM-15+0061ETGQ V0203401N003610750019N0112651N1+02301+00601999999ADDGA1021+048001999GA2071+075001999GF107991999999999999999999MA1101901999999REMMET063METAR ETGQ 231820Z 34007KT 9999 FEW160 BKN250 23/06 Q1019 BLU/;
0125102340999992008062404204+53133+009350FM-15+0061ETGQ V0209999V000512200019N0112651N1+01401+01001999999ADDGA1041+090001999GF104991999999999999999999MA1101901999999REMMET056METAR ETGQ 240420Z VRB01KT 9999 SCT300 14/10 Q1019 BLU/;
0125102340999992008062405204+53133+009350FM-15+0061ETGQ V0203001N000512200019N0112651N1+01401+01101999999ADDGA1021+090001999GF102991999999999999999999MA1101901999999REMMET056METAR ETGQ 240520Z 30001KT 9999 FEW300 14/11 Q1019 BLU/;
0125102340999992008062406204+53133+009350FM-15+0061ETGQ V0203301N002112200019N0112651N1+01601+01101999999ADDGA1041+090001999GF104991999999999999999999MA1101901999999REMMET056METAR ETGQ 240620Z 33004KT 9999 SCT300 16/11 Q1019 BLU/;
0125102340999992008062407204+53133+009350FM-15+0061ETGQ V0200901N002612200019N0112651N1+01901+00901999999ADDGA1041+033001999GF104991999999999999999999MA1101901999999REMMET056METAR ETGQ 240720Z 09005KT 9999 SCT110 19/09 Q1019 BLU/;
0125102340999992008062408204+53133+009350FM-15+0061ETGQ V0201601N001512200019N0112651N1+02101+00901999999ADDGA1021+030001999GF102991999999999999999999MA1101901999999REMMET056METAR ETGQ 240820Z 16003KT 9999 FEW100 21/09 Q1019 BLU/;
0148102340999992008062409204+53133+009350FM-15+0061ETGQ V0209999V001012200019N0112651N1+02201+00901999999ADDGA1021+030001999GA2041+090001999GF104991999999999999999999MA1101801999999REMMET063METAR ETGQ 240920Z VRB02KT 9999 FEW100 SCT300 22/09 Q1018 BLU/;
0125102340999992008062410204+53133+009350FM-15+0061ETGQ V0200701N002612200019N0112651N1+02301+00901999999ADDGA1021+030001999GF102991999999999999999999MA1101691999999REMMET056METAR ETGQ 241020Z 07005KT 9999 FEW100 23/09 Q1017 BLU/;
0076102340999992008062411204+53133+009350FM-15+0061ETGQ V0201601N002612200019N0112651N1+02401+00801999999ADDMA1101691999999REMMET049METAR ETGQ 241120Z 16005KT 9999 24/08 Q1017 BLU/;
0125102340999992008062412204+53133+009350FM-15+0061ETGQ V0201401N001512200019N0112651N1+02501+00801999999ADDGA1021+054001999GF102991999999999999999999MA1101691999999REMMET056METAR ETGQ 241220Z 14003KT 9999 FEW180 25/08 Q1017 BLU/;
0125102340999992008062413204+53133+009350FM-15+0061ETGQ V0200401N001512200019N0112651N1+02601+01001999999ADDGA1021+018001999GF102991999999999999999999MA1101591999999REMMET056METAR ETGQ 241320Z 04003KT 9999 FEW060 26/10 Q1016 BLU/;
0125102340999992008062414204+53133+009350FM-15+0061ETGQ V0200801N002112200019N0112651N1+02701+01001999999ADDGA1021+018001999GF102991999999999999999999MA1101491999999REMMET056METAR ETGQ 241420Z 08004KT 9999 FEW060 27/10 Q1015 BLU/;
0125102340999992008062415204+53133+009350FM-15+0061ETGQ V0200601N002612200019N0112651N1+02701+01101999999ADDGA1021+018001999GF102991999999999999999999MA1101491999999REMMET056METAR ETGQ 241520Z 06005KT 9999 FEW060 27/11 Q1015 BLU/;
0125102340999992008062416204+53133+009350FM-15+0061ETGQ V0200301N002110900019N0112651N1+02801+01101999999ADDGA1071+090001999GF107991999999999999999999MA1101491999999REMMET056METAR ETGQ 241620Z 03004KT 9999 BKN300 28/11 Q1015 BLU/;
0148102340999992008062417204+53133+009350FM-15+0061ETGQ V0200601N002112200019N0112651N1+02801+01201999999ADDGA1021+021001999GA2041+090001999GF104991999999999999999999MA1101391999999REMMET063METAR ETGQ 241720Z 06004KT 9999 FEW070 SCT300 28/12 Q1014 BLU/;
0125102340999992008062418204+53133+009350FM-15+0061ETGQ V0200901N002112200019N0112651N1+02701+01201999999ADDGA1041+090001999GF104991999999999999999999MA1101391999999REMMET056METAR ETGQ 241820Z 09004KT 9999 SCT300 27/12 Q1014 BLU/;
0147102340999992008062505204+53133+009350FM-15+0061ETGQ V0201401N000510480019N0112651N1+02101+01501999999ADDGA1041+024001999GA2071+048001999GF107991999999999999999999MA1101291999999REMMET062METAR ETGQ 250520Z 14001KT 9999 SCT080 BKN160 21/15 Q1013 BLU;
0147102340999992008062506204+53133+009350FM-15+0061ETGQ V0203201N000510450019N0112651N1+02101+01601999999ADDGA1041+015001999GA2071+045001999GF107991999999999999999999MA1101291999999REMMET062METAR ETGQ 250620Z 32001KT 9999 SCT050 BKN150 21/16 Q1013 BLU;
0124102340999992008062507204+53133+009350FM-15+0061ETGQ V0209999V000510132019N0112651N1+02301+01501999999ADDGA1071+013201999GF107991999999999999999999MA1101291999999REMMET055METAR ETGQ 250720Z VRB01KT 9999 BKN044 23/15 Q1013 BLU;
0148102340999992008062508204+53133+009350FM-15+0061ETGQ V0203201N002612200019N0112651N1+02301+01601999999ADDGA1041+013501999GA2041+036001999GF104991999999999999999999MA1101291999999REMMET063METAR ETGQ 250820Z 32005KT 9999 SCT045 SCT120 23/16 Q1013 BLU/;
0127102340999992008062509204+53133+009350FM-15+0061ETGQ V0203601N001010138019N0112651N1+02301+01801999999ADDGA1071+013801021GF107991999999999999999999MA1101291999999REMMET058METAR ETGQ 250920Z 36002KT 9999 BKN046TCU 23/18 Q1013 BLU;
0144102340999992008062510054+53133+009350FM-16+0061ETGQ V0203501N002610135019N0080001N1+02301+01801999999ADDGA1071+013501091GF107991999999999999999999MA1101291999999MW1801MW2951REMMET063SPECI ETGQ 251005Z 35005KT 8000 -TSRA BKN045CB 23/18 Q1013 BLU;
0152102340999992008062510204+53133+009350FM-15+0061ETGQ V0203101N001510120019N0050001N1+02101+01801999999ADDGA1071+012001091GF107991999999999999999999MA1101391999999MW1101MW2811MW3951REMMET065METAR ETGQ 251020Z 31003KT 5000 TSRA BR BKN040CB 21/18 Q1014 WHT;
0152102340999992008062511204+53133+009350FM-15+0061ETGQ V0201801N000510270019N0080001N1+02001+01901999999ADDGA1041+012001999GA2071+027001999GF107991999999999999999999MA1101291999999REMMET067METAR ETGQ 251120Z 18001KT 8000 SCT040 BKN090 20/19 Q1013 RETS BLU;
0152102340999992008062512204+53133+009350FM-15+0061ETGQ V0203201N001010300019N0080001N1+02101+01901999999ADDGA1041+015001999GA2071+030001999GF107991999999999999999999MA1101291999999REMMET067METAR ETGQ 251220Z 32002KT 8000 SCT050 BKN100 21/19 Q1013 RETS BLU;
0159102340999992008062513204+53133+009350FM-15+0061ETGQ V0209999V000510090019N0080001N1+02101+01901999999ADDGA1021+003601999GA2071+009001999GF107991999999999999999999MA1101391999999MW1801REMMET068METAR ETGQ 251320Z VRB01KT 8000 -SHRA FEW012 BKN030 21/19 Q1014 BLU;
0182102340999992008062514204+53133+009350FM-15+0061ETGQ V0209999C00001006001CN0080001N1+02201+02001999999ADDGA1021+005101999GA2041+006001999GA3071+018001999GF107991999999999999999999MA1101391999999MW1801REMMET075METAR ETGQ 251420Z 00000KT 8000 -SHRA FEW017 SCT020 BKN060 22/20 Q1014 BLU;
0136102340999992008062515204+53133+009350FM-15+0061ETGQ V0203201N002610090019N0112651N1+02201+02001999999ADDGA1071+009001999GF107991999999999999999999MA1101491999999MW1801REMMET061METAR ETGQ 251520Z 32005KT 9999 -SHRA BKN030 22/20 Q1015 BLU;
0125102340999992008062516204+53133+009350FM-15+0061ETGQ V0203301N004112200019N0112651N1+02401+01801999999ADDGA1021+009001999GF102991999999999999999999MA1101491999999REMMET056METAR ETGQ 251620Z 33008KT 9999 FEW030 24/18 Q1015 BLU/;
0125102340999992008062517204+53133+009350FM-15+0061ETGQ V0203301N003612200019N0112651N1+02301+01601999999ADDGA1021+009901999GF102991999999999999999999MA1101591999999REMMET056METAR ETGQ 251720Z 33007KT 9999 FEW033 23/16 Q1016 BLU/;
0125102340999992008062518204+53133+009350FM-15+0061ETGQ V0203301N002612200019N0112651N1+02301+01501999999ADDGA1041+012001999GF104991999999999999999999MA1101591999999REMMET056METAR ETGQ 251820Z 33005KT 9999 SCT040 23/15 Q1016 BLU/;
0148102340999992008062604204+53133+009350FM-15+0061ETGQ V0202001N001012200019N0112651N1+01301+01001999999ADDGA1021+015001999GA2041+030001999GF104991999999999999999999MA1102101999999REMMET063METAR ETGQ 260420Z 20002KT 9999 FEW050 SCT100 13/10 Q1021 BLU/;
0148102340999992008062605204+53133+009350FM-15+0061ETGQ V0209999C000012200019N0112651N1+01401+01001999999ADDGA1021+015001999GA2041+030001999GF104991999999999999999999MA1102201999999REMMET063METAR ETGQ 260520Z 00000KT 9999 FEW050 SCT100 14/10 Q1022 BLU/;
0125102340999992008062606204+53133+009350FM-15+0061ETGQ V0202701N000512200019N0112651N1+01601+01101999999ADDGA1021+015001999GF102991999999999999999999MA1102201999999REMMET056METAR ETGQ 260620Z 27001KT 9999 FEW050 16/11 Q1022 BLU/;
0125102340999992008062607204+53133+009350FM-15+0061ETGQ V0209999V001012200019N0112651N1+01801+01101999999ADDGA1021+015001999GF102991999999999999999999MA1102201999999REMMET056METAR ETGQ 260720Z VRB02KT 9999 FEW050 18/11 Q1022 BLU/;
0148102340999992008062608204+53133+009350FM-15+0061ETGQ V0202501N000512200019N0112651N1+01801+00901999999ADDGA1021+012001999GA2041+075001999GF104991999999999999999999MA1102201999999REMMET063METAR ETGQ 260820Z 25001KT 9999 FEW040 SCT250 18/09 Q1022 BLU/;
0148102340999992008062609204+53133+009350FM-15+0061ETGQ V0209999V000510750019N0112651N1+02001+00901999999ADDGA1021+013201999GA2071+075001999GF107991999999999999999999MA1102201999999REMMET063METAR ETGQ 260920Z VRB01KT 9999 FEW044 BKN250 20/09 Q1022 BLU/;
0148102340999992008062610204+53133+009350FM-15+0061ETGQ V0202301N001510660019N0112651N1+02101+00801999999ADDGA1021+013501999GA2071+066001999GF107991999999999999999999MA1102101999999REMMET063METAR ETGQ 261020Z 23003KT 9999 FEW045 BKN220 21/08 Q1021 BLU/;
0148102340999992008062611204+53133+009350FM-15+0061ETGQ V0209999V001010660019N0112651N1+02201+00701999999ADDGA1021+001201999GA2071+066001999GF107991999999999999999999MA1102101999999REMMET063METAR ETGQ 261120Z VRB02KT 9999 FEW004 BKN220 22/07 Q1021 BLU/;
0148102340999992008062612204+53133+009350FM-15+0061ETGQ V0209999V001010690019N0112651N1+02201+00701999999ADDGA1021+018001999GA2071+069001999GF107991999999999999999999MA1102001999999REMMET063METAR ETGQ 261220Z VRB02KT 9999 FEW060 BKN230 22/07 Q1020 BLU/;
0148102340999992008062613204+53133+009350FM-15+0061ETGQ V0202101N001510750019N0112651N1+02401+00601999999ADDGA1021+018001999GA2071+075001999GF107991999999999999999999MA1102001999999REMMET063METAR ETGQ 261320Z 21003KT 9999 FEW060 BKN250 24/06 Q1020 BLU/;
0148102340999992008062614204+53133+009350FM-15+0061ETGQ V0202001N002610690019N0112651N1+02401+00601999999ADDGA1021+018001999GA2071+069001999GF107991999999999999999999MA1101901999999REMMET063METAR ETGQ 261420Z 20005KT 9999 FEW060 BKN230 24/06 Q1019 BLU/;
0148102340999992008062615204+53133+009350FM-15+0061ETGQ V0202101N002610810019N0112651N1+02501+00601999999ADDGA1021+018001999GA2071+081001999GF107991999999999999999999MA1101901999999REMMET063METAR ETGQ 261520Z 21005KT 9999 FEW060 BKN270 25/06 Q1019 BLU/;
0148102340999992008062616204+53133+009350FM-15+0061ETGQ V0202201N003110810019N0112651N1+02401+00801999999ADDGA1021+018001999GA2071+081001999GF107991999999999999999999MA1101801999999REMMET063METAR ETGQ 261620Z 22006KT 9999 FEW060 BKN270 24/08 Q1018 BLU/;
0148102340999992008062617204+53133+009350FM-15+0061ETGQ V0202401N003110900019N0112651N1+02401+00801999999ADDGA1021+018001999GA2071+090001999GF107991999999999999999999MA1101801999999REMMET063METAR ETGQ 261720Z 24006KT 9999 FEW060 BKN300 24/08 Q1018 BLU/;
0148102340999992008062618204+53133+009350FM-15+0061ETGQ V0202401N002612200019N0112651N1+02401+00801999999ADDGA1021+018001999GA2041+090001999GF104991999999999999999999MA1101801999999REMMET063METAR ETGQ 261820Z 24005KT 9999 FEW060 SCT300 24/08 Q1018 BLU/;
0124102340999992008062704204+53133+009350FM-15+0061ETGQ V0203001N002110150019N0112651N1+01501+01101999999ADDGA1071+015001999GF107991999999999999999999MA1101801999999REMMET055METAR ETGQ 270420Z 30004KT 9999 BKN050 15/11 Q1018 BLU;
0124102340999992008062705204+53133+009350FM-15+0061ETGQ V0202001N001510150019N0112651N1+01501+01101999999ADDGA1071+015001999GF107991999999999999999999MA1101801999999REMMET055METAR ETGQ 270520Z 20003KT 9999 BKN050 15/11 Q1018 BLU;
0124102340999992008062706204+53133+009350FM-15+0061ETGQ V0202201N001510150019N0112651N1+01501+01101999999ADDGA1071+015001999GF107991999999999999999999MA1101801999999REMMET055METAR ETGQ 270620Z 22003KT 9999 BKN050 15/11 Q1018 BLU;
0147102340999992008062707204+53133+009350FM-15+0061ETGQ V0202401N002110150019N0112651N1+01601+00901999999ADDGA1071+015001999GA2071+024001999GF107991999999999999999999MA1101801999999REMMET062METAR ETGQ 270720Z 24004KT 9999 BKN050 BKN080 16/09 Q1018 BLU;
0147102340999992008062708204+53133+009350FM-15+0061ETGQ V0202201N001510135019N0112651N1+01601+00901999999ADDGA1071+013501999GA2071+024001999GF107991999999999999999999MA1101901999999REMMET062METAR ETGQ 270820Z 22003KT 9999 BKN045 BKN080 16/09 Q1019 BLU;
0147102340999992008062709204+53133+009350FM-15+0061ETGQ V0202601N002610135019N0112651N1+01801+01101999999ADDGA1071+013501999GA2071+024001999GF107991999999999999999999MA1101901999999REMMET062METAR ETGQ 270920Z 26005KT 9999 BKN045 BKN080 18/11 Q1019 BLU;
0170102340999992008062710204+53133+009350FM-15+0061ETGQ V0202301N002610090019N0112651N1+01801+01101999999ADDGA1021+004501999GA2071+009001999GA3071+024001999GF107991999999999999999999MA1102001999999REMMET069METAR ETGQ 271020Z 23005KT 9999 FEW015 BKN030 BKN080 18/11 Q1020 BLU;
0124102340999992008062711204+53133+009350FM-15+0061ETGQ V0202601N003110090019N0112651N1+02001+01101999999ADDGA1071+009001999GF107991999999999999999999MA1101901999999REMMET055METAR ETGQ 271120Z 26006KT 9999 BKN030 20/11 Q1019 BLU;
0147102340999992008062712204+53133+009350FM-15+0061ETGQ V0202501N004110090019N0112651N1+02201+01101999999ADDGA1021+004501999GA2071+009001999GF107991999999999999999999MA1101901999999REMMET062METAR ETGQ 271220Z 25008KT 9999 FEW015 BKN030 22/11 Q1019 BLU;
0158102340999992008062713204+53133+009350FM-15+0061ETGQ V0202401N004110090019N0112651N1+02001+01101999999ADDGA1021+004501999GA2071+009001999GF107991999999999999999999MA1101901999999OC100981REMMET065METAR ETGQ 271320Z 24008G19KT 9999 FEW015 BKN030 20/11 Q1019 BLU;
0140102340999992008062714204+53133+009350FM-15+0061ETGQ V0202601N00411220001CN0112651N1+02101+01101999999ADDGA1071+010501999GA2041+024001999MA1101901999999REMMET062METAR ETGQ 271420Z 26008KT 9999 BKN035 SCT080 21/11 Q1019 BLU;EQDQ01+000042SCOTCV
0148102340999992008062715204+53133+009350FM-15+0061ETGQ V0202601N003612200019N0112651N1+02201+01201999999ADDGA1021+010501999GA2041+024001999GF104991999999999999999999MA1101901999999REMMET063METAR ETGQ 271520Z 26007KT 9999 FEW035 SCT080 22/12 Q1019 BLU/;
0124102340999992008062716204+53133+009350FM-15+0061ETGQ V0203201N001510120019N0112651N1+02101+01201999999ADDGA1071+012001999GF107991999999999999999999MA1101901999999REMMET055METAR ETGQ 271620Z 32003KT 9999 BKN040 21/12 Q1019 BLU;
0147102340999992008062717204+53133+009350FM-15+0061ETGQ V0202801N003110150019N0112651N1+02101+01201999999ADDGA1041+012601999GA2071+015001999GF107991999999999999999999MA1101901999999REMMET062METAR ETGQ 271720Z 28006KT 9999 SCT042 BKN050 21/12 Q1019 BLU;
0147102340999992008062718204+53133+009350FM-15+0061ETGQ V0202601N002610150019N0112651N1+02001+01101999999ADDGA1021+012601999GA2071+015001999GF107991999999999999999999MA1101901999999REMMET062METAR ETGQ 271820Z 26005KT 9999 FEW042 BKN050 20/11 Q1019 BLU;
0148102340999992008063004204+53133+009350FM-15+0061ETGQ V0209999C000010750019N0112651N1+01401+01101999999ADDGA1021+012001999GA2071+075001999GF107991999999999999999999MA1102001999999REMMET063METAR ETGQ 300420Z 00000KT 9999 FEW040 BKN250 14/11 Q1020 BLU/;
0148102340999992008063005204+53133+009350FM-15+0061ETGQ V0209999C000010750019N0112651N1+01501+01201999999ADDGA1041+007801999GA2071+075001999GF107991999999999999999999MA1102001999999REMMET063METAR ETGQ 300520Z 00000KT 9999 SCT026 BKN250 15/12 Q1020 BLU/;
0171102340999992008063006204+53133+009350FM-15+0061ETGQ V0209999C00001009601CN0112651N1+01701+01201999999ADDGA1021+007201999GA2041+009601999GA3071+075001999GF107991999999999999999999MA1102101999999REMMET070METAR ETGQ 300620Z 00000KT 9999 FEW024 SCT032 BKN250 17/12 Q1021 BLU/;
0125102340999992008063007204+53133+009350FM-15+0061ETGQ V0209999V000512200019N0112651N1+01801+01101999999ADDGA1041+008701999GF104991999999999999999999MA1102101999999REMMET056METAR ETGQ 300720Z VRB01KT 9999 SCT029 18/11 Q1021 BLU/;
0125102340999992008063008204+53133+009350FM-15+0061ETGQ V0209999C000012200019N0112651N1+01901+01001999999ADDGA1041+008701999GF104991999999999999999999MA1102101999999REMMET056METAR ETGQ 300820Z 00000KT 9999 SCT029 19/10 Q1021 BLU/;
0125102340999992008063009204+53133+009350FM-15+0061ETGQ V0209999V000512200019N0112651N1+02101+01001999999ADDGA1041+012001999GF104991999999999999999999MA1102101999999REMMET056METAR ETGQ 300920Z VRB01KT 9999 SCT040 21/10 Q1021 BLU/;
0125102340999992008063010204+53133+009350FM-15+0061ETGQ V0203001N001512200019N0112651N1+02101+01001999999ADDGA1041+013501999GF104991999999999999999999MA1102101999999REMMET056METAR ETGQ 301020Z 30003KT 9999 SCT045 21/10 Q1021 BLU/;
0125102340999992008063011204+53133+009350FM-15+0061ETGQ V0202701N001512200019N0112651N1+02301+00901999999ADDGA1041+015001999GF104991999999999999999999MA1102101999999REMMET056METAR ETGQ 301120Z 27003KT 9999 SCT050 23/09 Q1021 BLU/;
0125102340999992008063012204+53133+009350FM-15+0061ETGQ V0202001N001512200019N0112651N1+02401+00801999999ADDGA1041+015001999GF104991999999999999999999MA1102101999999REMMET056METAR ETGQ 301220Z 20003KT 9999 SCT050 24/08 Q1021 BLU/;
0125102340999992008063013204+53133+009350FM-15+0061ETGQ V0200701N002112200019N0112651N1+02401+00801999999ADDGA1041+018001999GF104991999999999999999999MA1102101999999REMMET056METAR ETGQ 301320Z 07004KT 9999 SCT060 24/08 Q1021 BLU/;
0125102340999992008063014204+53133+009350FM-15+0061ETGQ V0202701N001512200019N0112651N1+02501+00801999999ADDGA1041+018001999GF104991999999999999999999MA1102101999999REMMET056METAR ETGQ 301420Z 27003KT 9999 SCT060 25/08 Q1021 BLU/;
0125102340999992008063015204+53133+009350FM-15+0061ETGQ V0209999V001012200019N0112651N1+02601+00801999999ADDGA1041+018001999GF104991999999999999999999MA1102001999999REMMET056METAR ETGQ 301520Z VRB02KT 9999 SCT060 26/08 Q1020 BLU/;
0125102340999992008063016204+53133+009350FM-15+0061ETGQ V0200201N002112200019N0112651N1+02501+00801999999ADDGA1041+018001999GF104991999999999999999999MA1102001999999REMMET056METAR ETGQ 301620Z 02004KT 9999 SCT060 25/08 Q1020 BLU/;
0148102340999992008063017204+53133+009350FM-15+0061ETGQ V0200101N001510900019N0112651N1+02501+00801999999ADDGA1021+018001999GA2071+090001999GF107991999999999999999999MA1101901999999REMMET063METAR ETGQ 301720Z 01003KT 9999 FEW060 BKN300 25/08 Q1019 BLU/;
0148102340999992008063018204+53133+009350FM-15+0061ETGQ V0200101N002110900019N0112651N1+02501+00801999999ADDGA1021+018001999GA2071+090001999GF107991999999999999999999MA1101901999999REMMET063METAR ETGQ 301820Z 01004KT 9999 FEW060 BKN300 25/08 Q1019 BLU/;
0125102340999992008070104204+53133+009350FM-15+0061ETGQ V0202401N000512200019N0112651N1+01301+01201999999ADDGA1021+090001999GF102991999999999999999999MA1101901999999REMMET056METAR ETGQ 010420Z 24001KT 9999 FEW300 13/12 Q1019 BLU/;
0125102340999992008070105204+53133+009350FM-15+0061ETGQ V0209999C000012200019N0112651N1+01501+01201999999ADDGA1021+090001999GF102991999999999999999999MA1101901999999REMMET056METAR ETGQ 010520Z 00000KT 9999 FEW300 15/12 Q1019 BLU/;
0076102340999992008070106204+53133+009350FM-15+0061ETGQ V0209999C000012200019N0112651N1+01701+01201999999ADDMA1101901999999REMMET049METAR ETGQ 010620Z 00000KT 9999 17/12 Q1019 BLU/;
0076102340999992008070107204+53133+009350FM-15+0061ETGQ V0209999C000012200019N0112651N1+01901+01201999999ADDMA1101801999999REMMET049METAR ETGQ 010720Z 00000KT 9999 19/12 Q1018 BLU/;
0076102340999992008070108204+53133+009350FM-15+0061ETGQ V0209999V000512200019N0112651N1+02101+01201999999ADDMA1101801999999REMMET049METAR ETGQ 010820Z VRB01KT 9999 21/12 Q1018 BLU/;
0076102340999992008070109204+53133+009350FM-15+0061ETGQ V0209999V000512200019N0112651N1+02401+01201999999ADDMA1101801999999REMMET049METAR ETGQ 010920Z VRB01KT 9999 24/12 Q1018 BLU/;
0125102340999992008070110204+53133+009350FM-15+0061ETGQ V0209999V001012200019N0112651N1+02601+01001999999ADDGA1021+015001999GF102991999999999999999999MA1101691999999REMMET056METAR ETGQ 011020Z VRB02KT 9999 FEW050 26/10 Q1017 BLU/;
0125102340999992008070111204+53133+009350FM-15+0061ETGQ V0201501N001512200019N0112651N1+02801+01001999999ADDGA1021+015001999GF102991999999999999999999MA1101591999999REMMET056METAR ETGQ 011120Z 15003KT 9999 FEW050 28/10 Q1016 BLU/;
0125102340999992008070112204+53133+009350FM-15+0061ETGQ V0209999V001012200019N0112651N1+02901+01001999999ADDGA1021+015001999GF102991999999999999999999MA1101491999999REMMET056METAR ETGQ 011220Z VRB02KT 9999 FEW050 29/10 Q1015 BLU/;
0125102340999992008070113204+53133+009350FM-15+0061ETGQ V0202301N001512200019N0112651N1+03001+00801999999ADDGA1021+018001999GF102991999999999999999999MA1101491999999REMMET056METAR ETGQ 011320Z 23003KT 9999 FEW060 30/08 Q1015 BLU/;
0125102340999992008070114204+53133+009350FM-15+0061ETGQ V0209999C000012200019N0112651N1+03001+00801999999ADDGA1021+021001999GF102991999999999999999999MA1101391999999REMMET056METAR ETGQ 011420Z 00000KT 9999 FEW070 30/08 Q1014 BLU/;
0125102340999992008070115204+53133+009350FM-15+0061ETGQ V0200501N001512200019N0112651N1+03001+00901999999ADDGA1021+021001999GF102991999999999999999999MA1101291999999REMMET056METAR ETGQ 011520Z 05003KT 9999 FEW070 30/09 Q1013 BLU/;
0125102340999992008070116204+53133+009350FM-15+0061ETGQ V0201601N002112200019N0112651N1+03001+01001999999ADDGA1021+021001999GF102991999999999999999999MA1101291999999REMMET056METAR ETGQ 011620Z 16004KT 9999 FEW070 30/10 Q1013 BLU/;
0125102340999992008070117204+53133+009350FM-15+0061ETGQ V0201601N001512200019N0112651N1+03001+00901999999ADDGA1021+021001999GF102991999999999999999999MA1101191999999REMMET056METAR ETGQ 011720Z 16003KT 9999 FEW070 30/09 Q1012 BLU/;
0076102340999992008070118204+53133+009350FM-15+0061ETGQ V0201301N001512200019N0112651N1+02901+00901999999ADDMA1101191999999REMMET049METAR ETGQ 011820Z 13003KT 9999 29/09 Q1012 BLU/;
0076102340999992008070204204+53133+009350FM-15+0061ETGQ V0202201N000512200019N0112651N1+01801+01501999999ADDMA1101191999999REMMET049METAR ETGQ 020420Z 22001KT 9999 18/15 Q1012 BLU/;
0148102340999992008070205204+53133+009350FM-15+0061ETGQ V0203101N001012200019N0112651N1+01901+01401999999ADDGA1021+018001999GA2041+075001999GF104991999999999999999999MA1101191999999REMMET063METAR ETGQ 020520Z 31002KT 9999 FEW060 SCT250 19/14 Q1012 BLU/;
0125102340999992008070206204+53133+009350FM-15+0061ETGQ V0209999V000512200019N0112651N1+02201+01401999999ADDGA1021+042001999GF102991999999999999999999MA1101191999999REMMET056METAR ETGQ 020620Z VRB01KT 9999 FEW140 22/14 Q1012 BLU/;
0125102340999992008070207204+53133+009350FM-15+0061ETGQ V0209999V000512200019N0112651N1+02501+01401999999ADDGA1021+042001999GF102991999999999999999999MA1101081999999REMMET056METAR ETGQ 020720Z VRB01KT 9999 FEW140 25/14 Q1011 BLU/;
0125102340999992008070208204+53133+009350FM-15+0061ETGQ V0209999V001012200019N0112651N1+02601+01301999999ADDGA1021+021001999GF102991999999999999999999MA1101081999999REMMET056METAR ETGQ 020820Z VRB02KT 9999 FEW070 26/13 Q1011 BLU/;
0125102340999992008070209204+53133+009350FM-15+0061ETGQ V0201701N001512200019N0112651N1+02901+01401999999ADDGA1021+021001999GF102991999999999999999999MA1101021999999REMMET056METAR ETGQ 020920Z 17003KT 9999 FEW070 29/14 Q1010 BLU/;
0148102340999992008070210204+53133+009350FM-15+0061ETGQ V0201201N001512200019N0112651N1+03001+01401999999ADDGA1021+015001999GA2041+105001999GF104991999999999999999999MA1101021999999REMMET063METAR ETGQ 021020Z 12003KT 9999 FEW050 SCT350 30/14 Q1010 BLU/;
0148102340999992008070211204+53133+009350FM-15+0061ETGQ V0202801N001512200019N0112651N1+03201+01401999999ADDGA1021+015001999GA2041+105001999GF104991999999999999999999MA1101021999999REMMET063METAR ETGQ 021120Z 28003KT 9999 FEW050 SCT350 32/14 Q1010 BLU/;
0148102340999992008070212204+53133+009350FM-15+0061ETGQ V0201201N001512200019N0112651N1+03301+01201999999ADDGA1021+015001999GA2041+105001999GF104991999999999999999999MA1100911999999REMMET063METAR ETGQ 021220Z 12003KT 9999 FEW050 SCT350 33/12 Q1009 BLU/;
0125102340999992008070213204+53133+009350FM-15+0061ETGQ V0202801N002112200019N0112651N1+03401+01201999999ADDGA1041+018001999GF104991999999999999999999MA1100911999999REMMET056METAR ETGQ 021320Z 28004KT 9999 SCT060 34/12 Q1009 BLU/;
0125102340999992008070214204+53133+009350FM-15+0061ETGQ V0203201N001512200019N0112651N1+03301+01001999999ADDGA1041+018001999GF104991999999999999999999MA1100811999999REMMET056METAR ETGQ 021420Z 32003KT 9999 SCT060 33/10 Q1008 BLU/;
0125102340999992008070216204+53133+009350FM-15+0061ETGQ V0201601N002112200019N0112651N1+03301+01001999999ADDGA1041+021001999GF104991999999999999999999MA1100611999999REMMET056METAR ETGQ 021620Z 16004KT 9999 SCT070 33/10 Q1006 BLU/;
0125102340999992008070217204+53133+009350FM-15+0061ETGQ V0201101N002612200019N0112651N1+03201+01101999999ADDGA1041+021001999GF104991999999999999999999MA1100611999999REMMET056METAR ETGQ 021720Z 11005KT 9999 SCT070 32/11 Q1006 BLU/;
0160102340999992008070218204+53133+009350FM-15+0061ETGQ V0203201N005710270019N0112651N1+02601+01601999999ADDGA1021+015001091GA2071+027001999GF107991999999999999999999MA1100811999999MW1171REMMET069METAR ETGQ 021820Z 32011KT 9999 VCTS FEW050CB BKN090 26/16 Q1008 BLU;
0124102340999992008070304204+53133+009350FM-15+0061ETGQ V0209999C000010360019N0112651N1+01901+01701999999ADDGA1071+036001999GF107991999999999999999999MA1100911999999REMMET055METAR ETGQ 030420Z 00000KT 9999 BKN120 19/17 Q1009 BLU;
0148102340999992008070305204+53133+009350FM-15+0061ETGQ V0201801N000512200019N0112651N1+02001+01701999999ADDGA1041+033001999GA2041+072001999GF104991999999999999999999MA1101021999999REMMET063METAR ETGQ 030520Z 18001KT 9999 SCT110 SCT240 20/17 Q1010 BLU/;
0147102340999992008070306204+53133+009350FM-15+0061ETGQ V0202401N002110330019N0112651N1+02101+01701999999ADDGA1041+005101999GA2071+033001999GF107991999999999999999999MA1101021999999REMMET062METAR ETGQ 030620Z 24004KT 9999 SCT017 BKN110 21/17 Q1010 BLU;
0148102340999992008070307204+53133+009350FM-15+0061ETGQ V0202201N002112200019N0112651N1+02101+01601999999ADDGA1041+005701999GA2041+063001999GF104991999999999999999999MA1101021999999REMMET063METAR ETGQ 030720Z 22004KT 9999 SCT019 SCT210 21/16 Q1010 BLU/;
0147102340999992008070308204+53133+009350FM-15+0061ETGQ V0202101N001510360019N0112651N1+02201+01601999999ADDGA1041+006001999GA2071+036001999GF107991999999999999999999MA1101021999999REMMET062METAR ETGQ 030820Z 21003KT 9999 SCT020 BKN120 22/16 Q1010 BLU;
0147102340999992008070309204+53133+009350FM-15+0061ETGQ V0202401N001510240019N0112651N1+02201+01701999999ADDGA1041+005401999GA2071+024001999GF107991999999999999999999MA1101021999999REMMET062METAR ETGQ 030920Z 24003KT 9999 SCT018 BKN080 22/17 Q1010 BLU;
0147102340999992008070310204+53133+009350FM-15+0061ETGQ V0202101N001510270019N0112651N1+02301+01701999999ADDGA1041+009601999GA2071+027001999GF107991999999999999999999MA1101081999999REMMET062METAR ETGQ 031020Z 21003KT 9999 SCT032 BKN090 23/17 Q1011 BLU;
0150102340999992008070311204+53133+009350FM-15+0061ETGQ V0202501N001510135019N0112651N1+02201+01701999999ADDGA1041+006001021GA2071+013501999GF107991999999999999999999MA1101081999999REMMET065METAR ETGQ 031120Z 25003KT 9999 SCT020TCU BKN045 22/17 Q1011 BLU;
0147102340999992008070312204+53133+009350FM-15+0061ETGQ V0202501N001510390019N0112651N1+02401+01601999999ADDGA1041+008401999GA2071+039001999GF107991999999999999999999MA1101081999999REMMET062METAR ETGQ 031220Z 25003KT 9999 SCT028 BKN130 24/16 Q1011 BLU;
0158102340999992008070313204+53133+009350FM-15+0061ETGQ V0202301N003110075019N0030001N1+02001+01601999999ADDGA1071+007501091GF107991999999999999999999MA1101081999999MW1101MW2821OC100821REMMET069METAR ETGQ 031320Z 23006G16KT 3000 +SHRA BR BKN025CB 20/16 Q1011 YLO;
0162102340999992008070314204+53133+009350FM-15+0061ETGQ V0209999V001010240019N0112651N1+01901+01701999999ADDGA1021+009001999GA2071+024001999GF107991999999999999999999MA1101081999999MW1611REMMET071METAR ETGQ 031420Z VRB02KT 9999 -RA FEW030 BKN080 19/17 Q1011 RERA BLU;
0180102340999992008070315204+53133+009350FM-15+0061ETGQ V0203201N00361007201CN0080001N1+01601+01401999999ADDGA1021+002401999GA2041+007201999GA3071+024001999GF107991999999999999999999MA1101191999999MW1611REMMET073METAR ETGQ 031520Z 32007KT 8000 -RA FEW008 SCT024 BKN080 16/14 Q1012 BLU;
0170102340999992008070316204+53133+009350FM-15+0061ETGQ V0203101N00211008101CN0112651N1+01701+01501999999ADDGA1041+003001999GA2041+008101999GA3071+015001999GF107991999999999999999999MA1101191999999REMMET069METAR ETGQ 031620Z 31004KT 9999 SCT010 SCT027 BKN050 17/15 Q1012 BLU;
0170102340999992008070317204+53133+009350FM-15+0061ETGQ V0203301N00211009001CN0112651N1+01701+01401999999ADDGA1041+004201999GA2041+009001999GA3071+015001999GF107991999999999999999999MA1101191999999REMMET069METAR ETGQ 031720Z 33004KT 9999 SCT014 SCT030 BKN050 17/14 Q1012 BLU;
0170102340999992008070318204+53133+009350FM-15+0061ETGQ V0203301N00211009001CN0112651N1+01701+01401999999ADDGA1041+003001999GA2041+009001999GA3071+013501999GF107991999999999999999999MA1101291999999REMMET069METAR ETGQ 031820Z 33004KT 9999 SCT010 SCT030 BKN045 17/14 Q1013 BLU;
0125102340999992008070404204+53133+009350FM-15+0061ETGQ V0203401N000512200019N0112651N1+01301+01201999999ADDGA1041+009001999GF104991999999999999999999MA1101591999999REMMET056METAR ETGQ 040420Z 34001KT 9999 SCT030 13/12 Q1016 BLU/;
0147102340999992008070405204+53133+009350FM-15+0061ETGQ V0203201N001010150019N0112651N1+01401+01201999999ADDGA1021+007801999GA2071+015001999GF107991999999999999999999MA1101591999999REMMET062METAR ETGQ 040520Z 32002KT 9999 FEW026 BKN050 14/12 Q1016 BLU;
0148102340999992008070406204+53133+009350FM-15+0061ETGQ V0209999C000012200019N0112651N1+01501+01201999999ADDGA1021+003601999GA2041+018001999GF104991999999999999999999MA1101691999999REMMET063METAR ETGQ 040620Z 00000KT 9999 FEW012 SCT060 15/12 Q1017 BLU/;
0148102340999992008070407204+53133+009350FM-15+0061ETGQ V0203001N001512200019N0112651N1+01701+01001999999ADDGA1021+004801999GA2041+018001999GF104991999999999999999999MA1101691999999REMMET063METAR ETGQ 040720Z 30003KT 9999 FEW016 SCT062 17/10 Q1017 BLU/;
0148102340999992008070408204+53133+009350FM-15+0061ETGQ V0202301N002112200019N0112651N1+01801+01201999999ADDGA1021+008701999GA2041+018001999GF104991999999999999999999MA1101691999999REMMET063METAR ETGQ 040820Z 23004KT 9999 FEW029 SCT060 18/12 Q1017 BLU/;
0148102340999992008070409204+53133+009350FM-15+0061ETGQ V0209999V001012200019N0112651N1+01801+01001999999ADDGA1021+003601999GA2041+018001999GF104991999999999999999999MA1101691999999REMMET063METAR ETGQ 040920Z VRB02KT 9999 FEW012 SCT060 18/10 Q1017 BLU/;
0125102340999992008070410204+53133+009350FM-15+0061ETGQ V0203201N002112200019N0112651N1+01901+00801999999ADDGA1041+015001999GF104991999999999999999999MA1101691999999REMMET056METAR ETGQ 041020Z 32004KT 9999 SCT050 19/08 Q1017 BLU/;
0124102340999992008070411204+53133+009350FM-15+0061ETGQ V0203101N002610150019N0112651N1+02001+00801999999ADDGA1071+015001999GF107991999999999999999999MA1101691999999REMMET055METAR ETGQ 041120Z 31005KT 9999 BKN050 20/08 Q1017 BLU;
0125102340999992008070412204+53133+009350FM-15+0061ETGQ V0203201N002612200019N0112651N1+02101+00901999999ADDGA1041+015001999GF104991999999999999999999MA1101691999999REMMET056METAR ETGQ 041220Z 32005KT 9999 SCT050 21/09 Q1017 BLU/;
0125102340999992008070413204+53133+009350FM-15+0061ETGQ V0203001N003112200019N0112651N1+02201+00801999999ADDGA1041+015001999GF104991999999999999999999MA1101591999999REMMET056METAR ETGQ 041320Z 30006KT 9999 SCT050 22/08 Q1016 BLU/;
0125102340999992008070414204+53133+009350FM-15+0061ETGQ V0203001N002112200019N0112651N1+02201+00801999999ADDGA1041+015001999GF104991999999999999999999MA1101591999999REMMET056METAR ETGQ 041420Z 30004KT 9999 SCT050 22/08 Q1016 BLU/;
0125102340999992008070415204+53133+009350FM-15+0061ETGQ V0203001N002112200019N0112651N1+02301+00701999999ADDGA1021+018001999GF102991999999999999999999MA1101591999999REMMET056METAR ETGQ 041520Z 30004KT 9999 FEW060 23/07 Q1016 BLU/;
0125102340999992008070416204+53133+009350FM-15+0061ETGQ V0203001N002612200019N0112651N1+02301+00601999999ADDGA1021+018001999GF102991999999999999999999MA1101491999999REMMET056METAR ETGQ 041620Z 30005KT 9999 FEW060 23/06 Q1015 BLU/;
0125102340999992008070417204+53133+009350FM-15+0061ETGQ V0203501N004112200019N0112651N1+02201+01001999999ADDGA1021+018001999GF102991999999999999999999MA1101491999999REMMET056METAR ETGQ 041720Z 35008KT 9999 FEW060 22/10 Q1015 BLU/;
0125102340999992008070418204+53133+009350FM-15+0061ETGQ V0203501N003612200019N0112651N1+02101+00901999999ADDGA1021+018001999GF102991999999999999999999MA1101591999999REMMET056METAR ETGQ 041820Z 35007KT 9999 FEW060 21/09 Q1016 BLU/;
0147102340999992008070704204+53133+009350FM-15+0061ETGQ V0202201N003110270019N0112651N1+01601+01101999999ADDGA1041+013501999GA2071+027001999GF107991999999999999999999MA1100711999999REMMET062METAR ETGQ 070420Z 22006KT 9999 SCT045 BKN090 16/11 Q1007 BLU;
0147102340999992008070705204+53133+009350FM-15+0061ETGQ V0202101N002610300019N0112651N1+01601+01101999999ADDGA1021+006001999GA2071+030001999GF107991999999999999999999MA1100711999999REMMET062METAR ETGQ 070520Z 21005KT 9999 FEW020 BKN100 16/11 Q1007 BLU;
0171102340999992008070706204+53133+009350FM-15+0061ETGQ V0201601N00211030001CN0112651N1+01601+01101999999ADDGA1021+007501999GA2041+030001999GA3071+060001999GF107991999999999999999999MA1100711999999REMMET070METAR ETGQ 070620Z 16004KT 9999 FEW025 SCT100 BKN200 16/11 Q1007 BLU/;
0124102340999992008070707204+53133+009350FM-15+0061ETGQ V0202201N002610120019N0112651N1+01801+01101999999ADDGA1071+012001999GF107991999999999999999999MA1100711999999REMMET055METAR ETGQ 070720Z 22005KT 9999 BKN040 18/11 Q1007 BLU;
0125102340999992008070708204+53133+009350FM-15+0061ETGQ V0200501N003612200019N0112651N1+02001+00901999999ADDGA1041+012001999GF104991999999999999999999MA1100711999999REMMET056METAR ETGQ 070820Z 05007KT 9999 SCT040 20/09 Q1007 BLU/;
0124102340999992008070709204+53133+009350FM-15+0061ETGQ V0202501N005710126019N0112651N1+02001+00701999999ADDGA1071+012601999GF107991999999999999999999MA1100711999999REMMET055METAR ETGQ 070920Z 25011KT 9999 BKN042 20/07 Q1007 BLU;
0125102340999992008070710204+53133+009350FM-15+0061ETGQ V0201801N003612200019N0112651N1+02101+00601999999ADDGA1041+015001999GF104991999999999999999999MA1100711999999REMMET056METAR ETGQ 071020Z 18007KT 9999 SCT050 21/06 Q1007 BLU/;
0138102340999992008070711204+53133+009350FM-15+0061ETGQ V0201901N003110123019N0112651N1+01901+00801999999ADDGA1071+012301021GF107991999999999999999999MA1100711999999MW1811REMMET063METAR ETGQ 071120Z 19006KT 9999 SHRA BKN041TCU 19/08 Q1007 BLU;
0163102340999992008070712204+53133+009350FM-15+0061ETGQ V0202501N003110270019N0112651N1+02001+00801999999ADDGA1041+006901999GA2071+027001999GF107991999999999999999999MA1100711999999MW1811REMMET072METAR ETGQ 071220Z 25006KT 9999 SHRA SCT023 BKN090 20/08 Q1007 RERA BLU;
0158102340999992008070713204+53133+009350FM-15+0061ETGQ V0202101N003610270019N0112651N1+02201+00801999999ADDGA1041+006901999GA2071+027001999GF107991999999999999999999MA1100611999999OC100871REMMET065METAR ETGQ 071320Z 21007G17KT 9999 SCT023 BKN090 22/08 Q1006 BLU;
0177102340999992008070714204+53133+009350FM-15+0061ETGQ V0202501N004110075019N0080001N1+01901+00801999999ADDGA1021+004501999GA2071+007501091GF107991999999999999999999MA1100611999999MW1801OC100931REMMET078METAR ETGQ 071420Z 25008G18KT 8000 -SHRA FEW015 BKN025CB 19/08 Q1006 RERA BLU;
0162102340999992008070715204+53133+009350FM-15+0061ETGQ V0202401N001510075019N0112651N1+01901+01001999999ADDGA1021+004501999GA2071+007501021GF107991999999999999999999MA1100711999999MW1801REMMET071METAR ETGQ 071520Z 24003KT 9999 -SHRA FEW015 BKN025TCU 19/10 Q1007 BLU;
0150102340999992008070716204+53133+009350FM-15+0061ETGQ V0202401N002110090019N0112651N1+01901+01101999999ADDGA1021+004501999GA2071+009001021GF107991999999999999999999MA1100611999999REMMET065METAR ETGQ 071620Z 24004KT 9999 FEW015 BKN030TCU 19/11 Q1006 BLU;
0173102340999992008070717204+53133+009350FM-15+0061ETGQ V0202601N00261018001CN0112651N1+02001+00801999999ADDGA1021+009001021GA2041+018001999GA3071+024001999GF107991999999999999999999MA1100611999999REMMET072METAR ETGQ 071720Z 26005KT 9999 FEW030TCU SCT060 BKN080 20/08 Q1006 BLU;
0151102340999992008070718204+53133+009350FM-15+0061ETGQ V0202101N003612200019N0112651N1+01901+00901999999ADDGA1021+009001021GA2041+024001999GF104991999999999999999999MA1100711999999REMMET066METAR ETGQ 071820Z 21007KT 9999 FEW030TCU SCT080 19/09 Q1007 BLU/;
0147102340999992008070804204+53133+009350FM-15+0061ETGQ V0202201N002110150019N0112651N1+01601+01101999999ADDGA1021+006001999GA2071+015001999GF107991999999999999999999MA1100911999999REMMET062METAR ETGQ 080420Z 22004KT 9999 FEW020 BKN050 16/11 Q1009 BLU;
0168102340999992008070805204+53133+009350FM-15+0061ETGQ V0202101N003110105019N0112651N1+01501+01201999999ADDGA1041+005401999GA2071+010501999GF107991999999999999999999MA1100911999999MW1611OC100821REMMET069METAR ETGQ 080520Z 21006G16KT 9999 -RA SCT018 BKN035 15/12 Q1009 BLU;
0170102340999992008070806204+53133+009350FM-15+0061ETGQ V0202201N00361009001CN0112651N1+01501+01201999999ADDGA1021+006001999GA2041+009001999GA3071+024001999GF107991999999999999999999MA1101021999999REMMET069METAR ETGQ 080620Z 22007KT 9999 FEW020 SCT030 BKN080 15/12 Q1010 BLU;
0148102340999992008070807204+53133+009350FM-15+0061ETGQ V0202201N002612200019N0112651N1+01601+01201999999ADDGA1041+012001999GA2041+027001999GF104991999999999999999999MA1101021999999REMMET063METAR ETGQ 080720Z 22005KT 9999 SCT040 SCT090 16/12 Q1010 BLU/;
0147102340999992008070808204+53133+009350FM-15+0061ETGQ V0202501N003110180019N0112651N1+01701+01101999999ADDGA1021+010501999GA2071+018001999GF107991999999999999999999MA1101081999999REMMET062METAR ETGQ 080820Z 25006KT 9999 FEW035 BKN060 17/11 Q1011 BLU;
0147102340999992008070809204+53133+009350FM-15+0061ETGQ V0202401N003110180019N0112651N1+01701+01101999999ADDGA1021+010501999GA2071+018001999GF107991999999999999999999MA1101081999999REMMET062METAR ETGQ 080920Z 24006KT 9999 FEW035 BKN060 17/11 Q1011 BLU;
0124102340999992008070810204+53133+009350FM-15+0061ETGQ V0202301N004110132019N0112651N1+01801+01101999999ADDGA1071+013201999GF107991999999999999999999MA1101081999999REMMET055METAR ETGQ 081020Z 23008KT 9999 BKN044 18/11 Q1011 BLU;
0147102340999992008070811204+53133+009350FM-15+0061ETGQ V0203501N003110240019N0112651N1+01901+01101999999ADDGA1041+013201999GA2071+024001999GF107991999999999999999999MA1101081999999REMMET062METAR ETGQ 081120Z 35006KT 9999 SCT044 BKN080 19/11 Q1011 BLU;
0158102340999992008070812204+53133+009350FM-15+0061ETGQ V0202401N004110240019N0112651N1+01901+01101999999ADDGA1041+015001999GA2071+024001999GF107991999999999999999999MA1101081999999OC101031REMMET065METAR ETGQ 081220Z 24008G20KT 9999 SCT050 BKN080 19/11 Q1011 BLU;
0147102340999992008070813204+53133+009350FM-15+0061ETGQ V0202401N004110240019N0112651N1+01701+01201999999ADDGA1041+013501999GA2071+024001999GF107991999999999999999999MA1101081999999REMMET062METAR ETGQ 081320Z 24008KT 9999 SCT045 BKN080 17/12 Q1011 BLU;
0147102340999992008070814204+53133+009350FM-15+0061ETGQ V0202801N003610240019N0112651N1+01701+01001999999ADDGA1041+013501999GA2071+024001999GF107991999999999999999999MA1101191999999REMMET062METAR ETGQ 081420Z 28007KT 9999 SCT045 BKN080 17/10 Q1012 BLU;
0162102340999992008070815204+53133+009350FM-15+0061ETGQ V0202701N003110240019N0112651N1+01801+01101999999ADDGA1041+013501021GA2071+024001999GF107991999999999999999999MA1101191999999MW1801REMMET071METAR ETGQ 081520Z 27006KT 9999 -SHRA SCT045TCU BKN080 18/11 Q1012 BLU;
0150102340999992008070816204+53133+009350FM-15+0061ETGQ V0202501N003110240019N0112651N1+01801+01001999999ADDGA1041+013501021GA2071+024001999GF107991999999999999999999MA1101191999999REMMET065METAR ETGQ 081620Z 25006KT 9999 SCT045TCU BKN080 18/10 Q1012 BLU;
0161102340999992008070817204+53133+009350FM-15+0061ETGQ V0202801N003610180019N0112651N1+01701+00901999999ADDGA1041+013501021GA2071+018001999GF107991999999999999999999MA1101291999999OC100981REMMET068METAR ETGQ 081720Z 28007G19KT 9999 SCT045TCU BKN060 17/09 Q1013 BLU;
0172102340999992008070818204+53133+009350FM-15+0061ETGQ V0202601N003110240019N0112651N1+01701+00901999999ADDGA1021+010501999GA2021+012001091GA3071+024001999GF107991999999999999999999MA1101291999999REMMET071METAR ETGQ 081820Z 26006KT 9999 FEW035 FEW040CB BKN080 17/09 Q1013 BLU;
0148102340999992008070904204+53133+009350FM-15+0061ETGQ V0209999C000012200019N0112651N1+01401+01001999999ADDGA1021+012001999GA2041+030001999GF104991999999999999999999MA1101591999999REMMET063METAR ETGQ 090420Z 00000KT 9999 FEW040 SCT100 14/10 Q1016 BLU/;
0148102340999992008070905204+53133+009350FM-15+0061ETGQ V0202601N001512200019N0112651N1+01401+01001999999ADDGA1021+009001999GA2041+030001999GF104991999999999999999999MA1101591999999REMMET063METAR ETGQ 090520Z 26003KT 9999 FEW030 SCT100 14/10 Q1016 BLU/;
0125102340999992008070906204+53133+009350FM-15+0061ETGQ V0202401N001512200019N0112651N1+01601+01001999999ADDGA1041+007501999GF104991999999999999999999MA1101591999999REMMET056METAR ETGQ 090620Z 24003KT 9999 SCT025 16/10 Q1016 BLU/;
0125102340999992008070907204+53133+009350FM-15+0061ETGQ V0202501N002112200019N0112651N1+01701+00901999999ADDGA1041+009001999GF104991999999999999999999MA1101591999999REMMET056METAR ETGQ 090720Z 25004KT 9999 SCT030 17/09 Q1016 BLU/;
0125102340999992008070908204+53133+009350FM-15+0061ETGQ V0202401N002612200019N0112651N1+01901+00901999999ADDGA1041+009001999GF104991999999999999999999MA1101591999999REMMET056METAR ETGQ 090820Z 24005KT 9999 SCT030 19/09 Q1016 BLU/;
0124102340999992008070909204+53133+009350FM-15+0061ETGQ V0202601N002610150019N0112651N1+02101+00801999999ADDGA1071+015001999GF107991999999999999999999MA1101591999999REMMET055METAR ETGQ 090920Z 26005KT 9999 BKN050 21/08 Q1016 BLU;
0124102340999992008070910204+53133+009350FM-15+0061ETGQ V0202401N003610210019N0112651N1+02101+00801999999ADDGA1071+021001999GF107991999999999999999999MA1101591999999REMMET055METAR ETGQ 091020Z 24007KT 9999 BKN070 21/08 Q1016 BLU;
0124102340999992008070911204+53133+009350FM-15+0061ETGQ V0202501N003610150019N0112651N1+02101+00801999999ADDGA1071+015001999GF107991999999999999999999MA1101591999999REMMET055METAR ETGQ 091120Z 25007KT 9999 BKN050 21/08 Q1016 BLU;
0158102340999992008070912204+53133+009350FM-15+0061ETGQ V0202801N004110180019N0112651N1+02101+00801999999ADDGA1021+015001999GA2071+018001999GF107991999999999999999999MA1101591999999OC100981REMMET065METAR ETGQ 091220Z 28008G19KT 9999 FEW050 BKN060 21/08 Q1016 BLU;
0147102340999992008070913204+53133+009350FM-15+0061ETGQ V0202801N002610150019N0112651N1+02001+00901999999ADDGA1041+013501999GA2071+015001999GF107991999999999999999999MA1101591999999REMMET062METAR ETGQ 091320Z 28005KT 9999 SCT045 BKN050 20/09 Q1016 BLU;
0124102340999992008070914204+53133+009350FM-15+0061ETGQ V0202501N003110150019N0112651N1+01901+01101999999ADDGA1071+015001999GF107991999999999999999999MA1101591999999REMMET055METAR ETGQ 091420Z 25006KT 9999 BKN050 19/11 Q1016 BLU;
0157102340999992008070915204+53133+009350FM-15+0061ETGQ V0202601N002110180019N0112651N1+01801+01201999999ADDGA1041+013501999GA2071+018001999GF107991999999999999999999MA1101591999999MW1611REMMET066METAR ETGQ 091520Z 26004KT 9999 -RA SCT045 BKN060 18/12 Q1016 BLU;
0134102340999992008070916204+53133+009350FM-15+0061ETGQ V0203501N001510108019N0112651N1+01801+01201999999ADDGA1071+010801999GF107991999999999999999999MA1101491999999MW1611REMMET059METAR ETGQ 091620Z 35003KT 9999 -RA BKN036 18/12 Q1015 BLU;
0147102340999992008070917204+53133+009350FM-15+0061ETGQ V0200601N001010210019N0112651N1+01701+01301999999ADDGA1041+012001999GA2071+021001999GF107991999999999999999999MA1101591999999REMMET062METAR ETGQ 091720Z 06002KT 9999 SCT040 BKN070 17/13 Q1016 BLU;
0147102340999992008070918204+53133+009350FM-15+0061ETGQ V0200601N001010114019N0112651N1+01701+01401999999ADDGA1021+003601999GA2071+011401999GF107991999999999999999999MA1101491999999REMMET062METAR ETGQ 091820Z 06002KT 9999 FEW012 BKN038 17/14 Q1015 BLU;
0148102340999992008071004204+53133+009350FM-15+0061ETGQ V0201601N000510900019N0112651N1+01501+01401999999ADDGA1041+015001999GA2071+090001999GF107991999999999999999999MA1101391999999REMMET063METAR ETGQ 100420Z 16001KT 9999 SCT050 BKN300 15/14 Q1014 BLU/;
0124102340999992008071005204+53133+009350FM-15+0061ETGQ V0201501N001010450019N0112651N1+01601+01401999999ADDGA1071+045001999GF107991999999999999999999MA1101391999999REMMET055METAR ETGQ 100520Z 15002KT 9999 BKN150 16/14 Q1014 BLU;
0124102340999992008071006204+53133+009350FM-15+0061ETGQ V0201501N000510390019N0112651N1+01701+01401999999ADDGA1071+039001999GF107991999999999999999999MA1101391999999REMMET055METAR ETGQ 100620Z 15001KT 9999 BKN130 17/14 Q1014 BLU;
0124102340999992008071007204+53133+009350FM-15+0061ETGQ V0209999C000010450019N0112651N1+02001+01501999999ADDGA1071+045001999GF107991999999999999999999MA1101291999999REMMET055METAR ETGQ 100720Z 00000KT 9999 BKN150 20/15 Q1013 BLU;
0124102340999992008071008204+53133+009350FM-15+0061ETGQ V0202201N002610480019N0112651N1+02201+01301999999ADDGA1071+048001999GF107991999999999999999999MA1101291999999REMMET055METAR ETGQ 100820Z 22005KT 9999 BKN160 22/13 Q1013 BLU;
0158102340999992008071009204+53133+009350FM-15+0061ETGQ V0202301N003610480019N0112651N1+02401+01301999999ADDGA1021+012001999GA2071+048001999GF107991999999999999999999MA1101291999999OC100871REMMET065METAR ETGQ 100920Z 23007G17KT 9999 FEW040 BKN160 24/13 Q1013 BLU;
0171102340999992008071011204+53133+009350FM-15+0061ETGQ V0202201N00261048001CN0112651N1+02601+01201999999ADDGA1021+015001999GA2041+048001999GA3071+075001999GF107991999999999999999999MA1101191999999REMMET070METAR ETGQ 101120Z 22005KT 9999 FEW050 SCT160 BKN250 26/12 Q1012 BLU/;
0171102340999992008071012204+53133+009350FM-15+0061ETGQ V0201701N00311048001CN0112651N1+02701+01101999999ADDGA1021+015001999GA2041+048001999GA3071+075001999GF107991999999999999999999MA1101081999999REMMET070METAR ETGQ 101220Z 17006KT 9999 FEW050 SCT160 BKN250 27/11 Q1011 BLU/;
0171102340999992008071013204+53133+009350FM-15+0061ETGQ V0202601N00261048001CN0112651N1+02701+01001999999ADDGA1021+018001999GA2041+048001999GA3071+075001999GF107991999999999999999999MA1101081999999REMMET070METAR ETGQ 101320Z 26005KT 9999 FEW060 SCT160 BKN250 27/10 Q1011 BLU/;
0171102340999992008071014204+53133+009350FM-15+0061ETGQ V0202401N00261048001CN0112651N1+02801+01001999999ADDGA1021+018001999GA2041+048001999GA3071+075001999GF107991999999999999999999MA1101021999999REMMET070METAR ETGQ 101420Z 24005KT 9999 FEW060 SCT160 BKN250 28/10 Q1010 BLU/;
0159102340999992008071015204+53133+009350FM-15+0061ETGQ V0202401N003610870019N0112651N1+02801+00901999999ADDGA1021+018001999GA2071+087001999GF107991999999999999999999MA1101021999999OC100871REMMET066METAR ETGQ 101520Z 24007G17KT 9999 FEW060 BKN290 28/09 Q1010 BLU/;
0148102340999992008071016204+53133+009350FM-15+0061ETGQ V0202401N002110900019N0112651N1+02801+00901999999ADDGA1021+018001999GA2071+090001999GF107991999999999999999999MA1100911999999REMMET063METAR ETGQ 101620Z 24004KT 9999 FEW060 BKN300 28/09 Q1009 BLU/;
0148102340999992008071017204+53133+009350FM-15+0061ETGQ V0202501N002110900019N0112651N1+02701+01001999999ADDGA1021+018001999GA2071+090001999GF107991999999999999999999MA1100911999999REMMET063METAR ETGQ 101720Z 25004KT 9999 FEW060 BKN300 27/10 Q1009 BLU/;
0148102340999992008071018204+53133+009350FM-15+0061ETGQ V0202401N001510840019N0112651N1+02601+01101999999ADDGA1021+048001999GA2071+084001999GF107991999999999999999999MA1100911999999REMMET063METAR ETGQ 101820Z 24003KT 9999 FEW160 BKN280 26/11 Q1009 BLU/;
0124102340999992008071104204+53133+009350FM-15+0061ETGQ V0209999C000010138019N0112651N1+01801+01601999999ADDGA1071+013801999GF107991999999999999999999MA1100911999999REMMET055METAR ETGQ 110420Z 00000KT 9999 BKN046 18/16 Q1009 BLU;
0124102340999992008071105204+53133+009350FM-15+0061ETGQ V0209999V000510150019N0112651N1+01901+01601999999ADDGA1071+015001999GF107991999999999999999999MA1100911999999REMMET055METAR ETGQ 110520Z VRB01KT 9999 BKN050 19/16 Q1009 BLU;
0148102340999992008071106204+53133+009350FM-15+0061ETGQ V0202001N001012200019N0112651N1+02001+01501999999ADDGA1041+015001999GA2041+036001999GF104991999999999999999999MA1100911999999REMMET063METAR ETGQ 110620Z 20002KT 9999 SCT050 SCT120 20/15 Q1009 BLU/;
0147102340999992008071107204+53133+009350FM-15+0061ETGQ V0202101N001010270019N0112651N1+02101+01601999999ADDGA1041+013501999GA2071+027001999GF107991999999999999999999MA1100911999999REMMET062METAR ETGQ 110720Z 21002KT 9999 SCT045 BKN090 21/16 Q1009 BLU;
0147102340999992008071108204+53133+009350FM-15+0061ETGQ V0202401N002610330019N0112651N1+02201+01501999999ADDGA1041+009601999GA2071+033001999GF107991999999999999999999MA1100911999999REMMET062METAR ETGQ 110820Z 24005KT 9999 SCT032 BKN110 22/15 Q1009 BLU;
0147102340999992008071109204+53133+009350FM-15+0061ETGQ V0202201N003610270019N0112651N1+02201+01501999999ADDGA1041+010501999GA2071+027001999GF107991999999999999999999MA1100911999999REMMET062METAR ETGQ 110920Z 22007KT 9999 SCT035 BKN090 22/15 Q1009 BLU;
0147102340999992008071110204+53133+009350FM-15+0061ETGQ V0202801N002110330019N0112651N1+02201+01501999999ADDGA1041+009601999GA2071+033001999GF107991999999999999999999MA1100911999999REMMET062METAR ETGQ 111020Z 28004KT 9999 SCT032 BKN110 22/15 Q1009 BLU;
0147102340999992008071111204+53133+009350FM-15+0061ETGQ V0202201N004610360019N0112651N1+02201+01501999999ADDGA1041+009601999GA2071+036001999GF107991999999999999999999MA1100911999999REMMET062METAR ETGQ 111120Z 22009KT 9999 SCT032 BKN120 22/15 Q1009 BLU;
0147102340999992008071112204+53133+009350FM-15+0061ETGQ V0202101N002610330019N0112651N1+02101+01501999999ADDGA1041+009001999GA2071+033001999GF107991999999999999999999MA1100911999999REMMET062METAR ETGQ 111220Z 21005KT 9999 SCT030 BKN110 21/15 Q1009 BLU;
0150102340999992008071113204+53133+009350FM-15+0061ETGQ V0202101N001510330019N0112651N1+02001+01501999999ADDGA1041+009001021GA2071+033001999GF107991999999999999999999MA1100911999999REMMET065METAR ETGQ 111320Z 21003KT 9999 SCT030TCU BKN110 20/15 Q1009 BLU;
0150102340999992008071114204+53133+009350FM-15+0061ETGQ V0202301N003110084019N0112651N1+02001+01501999999ADDGA1071+008401021GA2071+033001999GF107991999999999999999999MA1100911999999REMMET065METAR ETGQ 111420Z 23006KT 9999 BKN028TCU BKN110 20/15 Q1009 BLU;
0150102340999992008071115204+53133+009350FM-15+0061ETGQ V0202301N001510084019N0112651N1+02001+01501999999ADDGA1071+008401021GA2071+033001999GF107991999999999999999999MA1100911999999REMMET065METAR ETGQ 111520Z 23003KT 9999 BKN028TCU BKN110 20/15 Q1009 BLU;
0150102340999992008071116204+53133+009350FM-15+0061ETGQ V0202201N002110075019N0112651N1+02201+01401999999ADDGA1071+007501021GA2071+033001999GF107991999999999999999999MA1100811999999REMMET065METAR ETGQ 111620Z 22004KT 9999 BKN025TCU BKN110 22/14 Q1008 BLU;
0173102340999992008071117204+53133+009350FM-15+0061ETGQ V0202401N00261015001CN0112651N1+02001+01501999999ADDGA1041+007501021GA2041+015001999GA3071+033001999GF107991999999999999999999MA1100811999999REMMET072METAR ETGQ 111720Z 24005KT 9999 SCT025TCU SCT050 BKN110 20/15 Q1008 BLU;
0173102340999992008071118204+53133+009350FM-15+0061ETGQ V0202001N00261012001CN0112651N1+01801+01501999999ADDGA1021+007501021GA2041+012001999GA3071+021001999GF107991999999999999999999MA1100811999999REMMET072METAR ETGQ 111820Z 20005KT 9999 FEW025TCU SCT040 BKN070 18/15 Q1008 BLU;
0125102340999992008071404204+53133+009350FM-15+0061ETGQ V0209999C000012200019N0112651N1+01001+00901999999ADDGA1021+090001999GF102991999999999999999999MA1102001999999REMMET056METAR ETGQ 140420Z 00000KT 9999 FEW320 10/09 Q1020 BLU/;
0076102340999992008071405204+53133+009350FM-15+0061ETGQ V0209999C000012200019N0112651N1+01201+00901999999ADDMA1102101999999REMMET049METAR ETGQ 140520Z 00000KT 9999 12/09 Q1021 BLU/;
0076102340999992008071406204+53133+009350FM-15+0061ETGQ V0209999C000012200019N0112651N1+01401+01001999999ADDMA1102101999999REMMET049METAR ETGQ 140620Z 00000KT 9999 14/10 Q1021 BLU/;
0125102340999992008071407204+53133+009350FM-15+0061ETGQ V0203201N001012200019N0112651N1+01501+01101999999ADDGA1021+007201999GF102991999999999999999999MA1102201999999REMMET056METAR ETGQ 140720Z 32002KT 9999 FEW024 15/11 Q1022 BLU/;
0125102340999992008071408204+53133+009350FM-15+0061ETGQ V0203301N002112200019N0112651N1+01701+01001999999ADDGA1041+009001999GF104991999999999999999999MA1102201999999REMMET056METAR ETGQ 140820Z 33004KT 9999 SCT030 17/10 Q1022 BLU/;
0148102340999992008071409204+53133+009350FM-15+0061ETGQ V0203401N002612200019N0112651N1+01801+01001999999ADDGA1021+009901999GA2041+011101999GF104991999999999999999999MA1102201999999REMMET063METAR ETGQ 140920Z 34005KT 9999 FEW033 SCT037 18/10 Q1022 BLU/;
0125102340999992008071410204+53133+009350FM-15+0061ETGQ V0203101N002612200019N0112651N1+01901+00901999999ADDGA1041+012001999GF104991999999999999999999MA1102201999999REMMET056METAR ETGQ 141020Z 31005KT 9999 SCT040 19/09 Q1022 BLU/;
0148102340999992008071411204+53133+009350FM-15+0061ETGQ V0203101N002112200019N0112651N1+02001+00801999999ADDGA1021+012601999GA2041+014101999GF104991999999999999999999MA1102201999999REMMET063METAR ETGQ 141120Z 31004KT 9999 FEW042 SCT047 20/08 Q1022 BLU/;
0125102340999992008071412204+53133+009350FM-15+0061ETGQ V0203301N002612200019N0112651N1+02101+00801999999ADDGA1041+015001999GF104991999999999999999999MA1102201999999REMMET056METAR ETGQ 141220Z 33005KT 9999 SCT050 21/08 Q1022 BLU/;
0125102340999992008071413204+53133+009350FM-15+0061ETGQ V0203401N003112200019N0112651N1+02201+00601999999ADDGA1041+018001999GF104991999999999999999999MA1102301999999REMMET056METAR ETGQ 141320Z 34006KT 9999 SCT060 22/06 Q1023 BLU/;
0133102340999992008071414204+53133+009350FM-15+0061ETGQ V0203201N003612200019N0112651N1+02301+00701999999ADDGA1041+018001999GF104991999999999999999999MA1102301999999REMMET064METAR ETGQ 141420Z 32007KT 9999 SCT060 /A/NS2/ 23/07 Q1023 BLU/;
0133102340999992008071415204+53133+009350FM-15+0061ETGQ V0203501N004112200019N0112651N1+02301+00501999999ADDGA1041+018001999GF104991999999999999999999MA1102301999999REMMET064METAR ETGQ 141520Z 35008KT 9999 SCT060 /A/NS2/ 23/05 Q1023 BLU/;
0148102340999992008071416204+53133+009350FM-15+0061ETGQ V0203401N004112200019N0112651N1+02201+00701999999ADDGA1021+018001999GA2041+024001999GF104991999999999999999999MA1102401999999REMMET063METAR ETGQ 141620Z 34008KT 9999 FEW060 SCT080 22/07 Q1024 BLU/;
0148102340999992008071417204+53133+009350FM-15+0061ETGQ V0203301N003612200019N0112651N1+02201+00701999999ADDGA1021+018001999GA2041+024001999GF104991999999999999999999MA1102401999999REMMET063METAR ETGQ 141720Z 33007KT 9999 FEW060 SCT080 22/07 Q1024 BLU/;
0147102340999992008071418204+53133+009350FM-15+0061ETGQ V0203501N002610270019N0112651N1+02201+00701999999ADDGA1021+018001999GA2071+027001999GF107991999999999999999999MA1102401999999REMMET062METAR ETGQ 141820Z 35005KT 9999 FEW060 BKN090 22/07 Q1024 BLU;
0125102340999992008071504204+53133+009350FM-15+0061ETGQ V0209999C000012200019N0112651N1+01201+01001999999ADDGA1021+042001999GF102991999999999999999999MA1102711999999REMMET056METAR ETGQ 150420Z 00000KT 9999 FEW140 12/10 Q1027 BLU/;
0076102340999992008071505204+53133+009350FM-15+0061ETGQ V0209999C000012200019N0112651N1+01401+01001999999ADDMA1102811999999REMMET049METAR ETGQ 150520Z 00000KT 9999 14/10 Q1028 BLU/;
0076102340999992008071506204+53133+009350FM-15+0061ETGQ V0209999C000012200019N0112651N1+01601+01001999999ADDMA1102811999999REMMET049METAR ETGQ 150620Z 00000KT 9999 16/10 Q1028 BLU/;
0125102340999992008071509204+53133+009350FM-15+0061ETGQ V0202101N002612200019N0112651N1+02301+00901999999ADDGA1021+014101999GF102991999999999999999999MA1102711999999REMMET056METAR ETGQ 150920Z 21005KT 9999 FEW047 23/09 Q1027 BLU/;
0125102340999992008071510204+53133+009350FM-15+0061ETGQ V0202701N002112200019N0112651N1+02401+00901999999ADDGA1041+015001999GF104991999999999999999999MA1102711999999REMMET056METAR ETGQ 151020Z 27004KT 9999 SCT050 24/09 Q1027 BLU/;
0125102340999992008071511204+53133+009350FM-15+0061ETGQ V0202501N002612200019N0112651N1+02501+00801999999ADDGA1021+015001999GF102991999999999999999999MA1102611999999REMMET056METAR ETGQ 151120Z 25005KT 9999 FEW050 25/08 Q1026 BLU/;
0125102340999992008071512204+53133+009350FM-15+0061ETGQ V0202801N002112200019N0112651N1+02601+00801999999ADDGA1021+018001999GF102991999999999999999999MA1102511999999REMMET056METAR ETGQ 151220Z 28004KT 9999 FEW060 26/08 Q1025 BLU/;
0125102340999992008071513204+53133+009350FM-15+0061ETGQ V0202201N003112200019N0112651N1+02701+00801999999ADDGA1021+018001999GF102991999999999999999999MA1102511999999REMMET056METAR ETGQ 151320Z 22006KT 9999 FEW060 27/08 Q1025 BLU/;
0125102340999992008071514204+53133+009350FM-15+0061ETGQ V0202301N002112200019N0112651N1+02701+00901999999ADDGA1021+018001999GF102991999999999999999999MA1102401999999REMMET056METAR ETGQ 151420Z 23004KT 9999 FEW060 27/09 Q1024 BLU/;
0125102340999992008071515204+53133+009350FM-15+0061ETGQ V0202601N002612200019N0112651N1+02801+00701999999ADDGA1021+018001999GF102991999999999999999999MA1102401999999REMMET056METAR ETGQ 151520Z 26005KT 9999 FEW060 28/07 Q1024 BLU/;
0125102340999992008071516204+53133+009350FM-15+0061ETGQ V0202901N002612200019N0112651N1+02801+00701999999ADDGA1021+018001999GF102991999999999999999999MA1102301999999REMMET056METAR ETGQ 151620Z 29005KT 9999 FEW060 28/07 Q1023 BLU/;
0125102340999992008071517204+53133+009350FM-15+0061ETGQ V0202901N003112200019N0112651N1+02701+00901999999ADDGA1021+018001999GF102991999999999999999999MA1102301999999REMMET056METAR ETGQ 151720Z 29006KT 9999 FEW060 27/09 Q1023 BLU/;
0124102340999992008071518204+53133+009350FM-15+0061ETGQ V0203101N002610180019N0112651N1+02501+01101999999ADDGA1071+018001999GF107991999999999999999999MA1102301999999REMMET055METAR ETGQ 151820Z 31005KT 9999 BKN060 25/11 Q1023 BLU;
0124102340999992008071604204+53133+009350FM-15+0061ETGQ V0209999C000010141019N0112651N1+01901+01301999999ADDGA1071+014101999GF107991999999999999999999MA1102101999999REMMET055METAR ETGQ 160420Z 00000KT 9999 BKN047 19/13 Q1021 BLU;
0124102340999992008071605204+53133+009350FM-15+0061ETGQ V0209999V001010144019N0112651N1+01901+01401999999ADDGA1071+014401999GF107991999999999999999999MA1102101999999REMMET055METAR ETGQ 160520Z VRB02KT 9999 BKN048 19/14 Q1021 BLU;
0124102340999992008071606204+53133+009350FM-15+0061ETGQ V0202101N002610144019N0112651N1+01901+01401999999ADDGA1071+014401999GF107991999999999999999999MA1102001999999REMMET055METAR ETGQ 160620Z 21005KT 9999 BKN048 19/14 Q1020 BLU;
0148102340999992008071607204+53133+009350FM-15+0061ETGQ V0209999V001012200019N0112651N1+02201+01401999999ADDGA1021+009601999GA2041+015001999GF104991999999999999999999MA1102001999999REMMET063METAR ETGQ 160720Z VRB02KT 9999 FEW032 SCT050 22/14 Q1020 BLU/;
0125102340999992008071608204+53133+009350FM-15+0061ETGQ V0202301N002112200019N0112651N1+02201+01201999999ADDGA1041+012001999GF104991999999999999999999MA1102001999999REMMET056METAR ETGQ 160820Z 23004KT 9999 SCT040 22/12 Q1020 BLU/;
0124102340999992008071609204+53133+009350FM-15+0061ETGQ V0202501N002610141019N0112651N1+02301+01201999999ADDGA1071+014101999GF107991999999999999999999MA1101901999999REMMET055METAR ETGQ 160920Z 25005KT 9999 BKN047 23/12 Q1019 BLU;
0125102340999992008071610204+53133+009350FM-15+0061ETGQ V0202501N002112200019N0112651N1+02401+01101999999ADDGA1041+014101999GF104991999999999999999999MA1101901999999REMMET056METAR ETGQ 161020Z 25004KT 9999 SCT047 24/11 Q1019 BLU/;
0148102340999992008071611204+53133+009350FM-15+0061ETGQ V0202701N003612200019N0112651N1+02401+01001999999ADDGA1021+013501999GA2041+021001999GF104991999999999999999999MA1101801999999REMMET063METAR ETGQ 161120Z 27007KT 9999 FEW045 SCT070 24/10 Q1018 BLU/;
0147102340999992008071612204+53133+009350FM-15+0061ETGQ V0202901N003610180019N0112651N1+02301+01101999999ADDGA1041+013501999GA2071+018001999GF107991999999999999999999MA1101801999999REMMET062METAR ETGQ 161220Z 29007KT 9999 SCT045 BKN060 23/11 Q1018 BLU;
0165102340999992008071613204+53133+009350FM-15+0061ETGQ V0203201N005110180019N0050001N1+01701+01601999999ADDGA1041+013501999GA2071+018001999GF107991999999999999999999MA1101901999999MW1101MW2631REMMET068METAR ETGQ 161320Z 32010KT 5000 RA BR SCT045 BKN060 17/16 Q1019 WHT;
0161102340999992008071614204+53133+009350FM-15+0061ETGQ V0203001N001010180019N0070001N1+01601+01501999999ADDGA1041+013501999GA2081+018001999GF108991999999999999999999MA1101901999999MW1631REMMET070METAR ETGQ 161420Z 30002KT 7000 RA SCT045 OVC060 16/15 Q1019 RERA WHT;
0157102340999992008071615204+53133+009350FM-15+0061ETGQ V0203201N002110180019N0080001N1+01701+01501999999ADDGA1041+012001999GA2081+018001999GF108991999999999999999999MA1101901999999MW1611REMMET066METAR ETGQ 161520Z 32004KT 8000 -RA SCT040 OVC060 17/15 Q1019 BLU;
0147102340999992008071616204+53133+009350FM-15+0061ETGQ V0202901N000510180019N0112651N1+01701+01401999999ADDGA1041+012001999GA2071+018001999GF107991999999999999999999MA1101901999999REMMET062METAR ETGQ 161620Z 29001KT 9999 SCT040 BKN060 17/14 Q1019 BLU;
0147102340999992008071617204+53133+009350FM-15+0061ETGQ V0209999C000010180019N0112651N1+01801+01401999999ADDGA1041+012001999GA2071+018001999GF107991999999999999999999MA1101801999999REMMET062METAR ETGQ 161720Z 00000KT 9999 SCT040 BKN060 18/14 Q1018 BLU;
0148102340999992008071618204+53133+009350FM-15+0061ETGQ V0209999C000010720019N0112651N1+01701+01301999999ADDGA1021+006901999GA2071+072001999GF107991999999999999999999MA1101801999999REMMET063METAR ETGQ 161820Z 00000KT 9999 FEW023 BKN240 17/13 Q1018 BLU/;
0140102340999992008071704204+53133+009350FM-15+0061ETGQ V0209999C00001220001CN0112651N1+01401+01001999999ADDGA1071+033001999GA2041+063001999MA1101691999999REMMET062METAR ETGQ 170420Z 00000KT 9999 BKN110 SCT210 14/10 Q1017 BLU;EQDQ01+000042SCOTCV
0124102340999992008071705204+53133+009350FM-15+0061ETGQ V0209999C000010300019N0112651N1+01401+01101999999ADDGA1071+030001999GF107991999999999999999999MA1101691999999REMMET055METAR ETGQ 170520Z 00000KT 9999 BKN100 14/11 Q1017 BLU;
0124102340999992008071706204+53133+009350FM-15+0061ETGQ V0209999C000010330019N0112651N1+01501+01101999999ADDGA1071+033001999GF107991999999999999999999MA1101691999999REMMET055METAR ETGQ 170620Z 00000KT 9999 BKN110 15/11 Q1017 BLU;
0147102340999992008071707204+53133+009350FM-15+0061ETGQ V0209999C000010480019N0112651N1+01601+01101999999ADDGA1041+030001999GA2071+048001999GF107991999999999999999999MA1101591999999REMMET062METAR ETGQ 170720Z 00000KT 9999 SCT100 BKN160 16/11 Q1016 BLU;
0147102340999992008071708204+53133+009350FM-15+0061ETGQ V0209999C000010360019N0112651N1+01701+01001999999ADDGA1021+008401999GA2071+036001999GF107991999999999999999999MA1101591999999REMMET062METAR ETGQ 170820Z 00000KT 9999 FEW028 BKN120 17/10 Q1016 BLU;
0147102340999992008071709204+53133+009350FM-15+0061ETGQ V0202201N001510270019N0112651N1+01701+01001999999ADDGA1041+008401999GA2071+027001999GF107991999999999999999999MA1101591999999REMMET062METAR ETGQ 170920Z 22003KT 9999 SCT028 BKN090 17/10 Q1016 BLU;
0147102340999992008071710204+53133+009350FM-15+0061ETGQ V0209999C000010270019N0112651N1+01901+00901999999ADDGA1041+012001999GA2071+027001999GF107991999999999999999999MA1101591999999REMMET062METAR ETGQ 171020Z 00000KT 9999 SCT040 BKN090 19/09 Q1016 BLU;
0147102340999992008071711204+53133+009350FM-15+0061ETGQ V0209999V000510180019N0112651N1+01901+00801999999ADDGA1041+012001999GA2071+018001999GF107991999999999999999999MA1101491999999REMMET062METAR ETGQ 171120Z VRB01KT 9999 SCT040 BKN060 19/08 Q1015 BLU;
0147102340999992008071712204+53133+009350FM-15+0061ETGQ V0209999V000510180019N0112651N1+02001+00901999999ADDGA1041+012001999GA2071+018001999GF107991999999999999999999MA1101391999999REMMET062METAR ETGQ 171220Z VRB01KT 9999 SCT040 BKN060 20/09 Q1014 BLU;
0147102340999992008071713204+53133+009350FM-15+0061ETGQ V0209999C000010180019N0112651N1+01901+00901999999ADDGA1021+012001999GA2071+018001999GF107991999999999999999999MA1101391999999REMMET062METAR ETGQ 171320Z 00000KT 9999 FEW040 BKN060 19/09 Q1014 BLU;
0147102340999992008071714204+53133+009350FM-15+0061ETGQ V0203501N001010150019N0112651N1+01901+00801999999ADDGA1021+012001999GA2071+015001999GF107991999999999999999999MA1101391999999REMMET062METAR ETGQ 171420Z 35002KT 9999 FEW040 BKN050 19/08 Q1014 BLU;
0147102340999992008071715204+53133+009350FM-15+0061ETGQ V0203401N000510150019N0112651N1+01901+00901999999ADDGA1021+012001999GA2071+015001999GF107991999999999999999999MA1101391999999REMMET062METAR ETGQ 171520Z 34001KT 9999 FEW040 BKN050 19/09 Q1014 BLU;
0147102340999992008071716204+53133+009350FM-15+0061ETGQ V0209999C000010150019N0112651N1+01901+00901999999ADDGA1021+012001999GA2071+015001999GF107991999999999999999999MA1101291999999REMMET062METAR ETGQ 171620Z 00000KT 9999 FEW040 BKN050 19/09 Q1013 BLU;
0184102340999992008071717204+53133+009350FM-15+0061ETGQ V0203301N001510150019N0112651N1+01801+00901999999ADDGA1041+009001021GA2071+015001999GA3081+024001999GF108991999999999999999999MA1101291999999MW1161REMMET077METAR ETGQ 171720Z 33003KT 9999 VCSH SCT030TCU BKN050 OVC080 18/09 Q1013 BLU;
0161102340999992008071718204+53133+009350FM-15+0061ETGQ V0202601N001510105019N0112651N1+01601+01101999999ADDGA1071+010501021GA2071+018001999GF107991999999999999999999MA1101391999999MW1161REMMET070METAR ETGQ 171820Z 26003KT 9999 VCSH BKN035TCU BKN060 16/11 Q1014 BLU;
0147102340999992008071804204+53133+009350FM-15+0061ETGQ V0202501N001010087019N0112651N1+01401+01201999999ADDGA1021+004501999GA2071+008701999GF107991999999999999999999MA1101191999999REMMET062METAR ETGQ 180420Z 25002KT 9999 FEW015 BKN029 14/12 Q1012 BLU;
0124102340999992008071805204+53133+009350FM-15+0061ETGQ V0202401N001010078019N0112651N1+01401+01201999999ADDGA1081+007801999GF108991999999999999999999MA1101191999999REMMET055METAR ETGQ 180520Z 24002KT 9999 OVC026 14/12 Q1012 BLU;
0147102340999992008071806204+53133+009350FM-15+0061ETGQ V0202601N001010090019N0112651N1+01501+01101999999ADDGA1021+006001999GA2081+009001999GF108991999999999999999999MA1101291999999REMMET062METAR ETGQ 180620Z 26002KT 9999 FEW020 OVC030 15/11 Q1013 BLU;
0147102340999992008071807204+53133+009350FM-15+0061ETGQ V0209999V001010081019N0112651N1+01501+01201999999ADDGA1021+006001999GA2071+008101999GF107991999999999999999999MA1101291999999REMMET062METAR ETGQ 180720Z VRB02KT 9999 FEW020 BKN027 15/12 Q1013 BLU;
0147102340999992008071808204+53133+009350FM-15+0061ETGQ V0202201N002110111019N0112651N1+01501+01201999999ADDGA1041+007501999GA2071+011101999GF107991999999999999999999MA1101291999999REMMET062METAR ETGQ 180820Z 22004KT 9999 SCT025 BKN037 15/12 Q1013 BLU;
0124102340999992008071809204+53133+009350FM-15+0061ETGQ V0202301N002610087019N0112651N1+01601+01201999999ADDGA1071+008701999GF107991999999999999999999MA1101291999999REMMET055METAR ETGQ 180920Z 23005KT 9999 BKN029 16/12 Q1013 BLU;
0124102340999992008071810204+53133+009350FM-15+0061ETGQ V0202301N002610090019N0112651N1+01601+01201999999ADDGA1071+009001999GF107991999999999999999999MA1101291999999REMMET055METAR ETGQ 181020Z 23005KT 9999 BKN030 16/12 Q1013 BLU;
0147102340999992008071811204+53133+009350FM-15+0061ETGQ V0202401N002110150019N0112651N1+01801+01201999999ADDGA1041+009001999GA2071+015001999GF107991999999999999999999MA1101291999999REMMET062METAR ETGQ 181120Z 24004KT 9999 SCT030 BKN050 18/12 Q1013 BLU;
0147102340999992008071812204+53133+009350FM-15+0061ETGQ V0209999C000010150019N0112651N1+01801+01101999999ADDGA1041+009001999GA2071+015001999GF107991999999999999999999MA1101291999999REMMET062METAR ETGQ 181220Z 00000KT 9999 SCT030 BKN050 18/11 Q1013 BLU;
0147102340999992008071813204+53133+009350FM-15+0061ETGQ V0202701N001010150019N0112651N1+01901+01101999999ADDGA1041+009001999GA2071+015001999GF107991999999999999999999MA1101291999999REMMET062METAR ETGQ 181320Z 27002KT 9999 SCT030 BKN050 19/11 Q1013 BLU;
0147102340999992008071814204+53133+009350FM-15+0061ETGQ V0209999C000010150019N0112651N1+01901+01101999999ADDGA1041+009001999GA2071+015001999GF107991999999999999999999MA1101291999999REMMET062METAR ETGQ 181420Z 00000KT 9999 SCT030 BKN050 19/11 Q1013 BLU;
0175102340999992008071815204+53133+009350FM-15+0061ETGQ V0202301N00211015001CN0112651N1+01801+01201999999ADDGA1021+009001999GA2041+015001999GA3071+021001999GF107991999999999999999999MA1101291999999REMMET074METAR ETGQ 181520Z 23004KT 9999 FEW030 SCT050 BKN070 18/12 Q1013 RERA BLU;
0170102340999992008071816204+53133+009350FM-15+0061ETGQ V0209999C00001015001CN0112651N1+01701+01301999999ADDGA1021+009001999GA2041+015001999GA3071+021001999GF107991999999999999999999MA1101291999999REMMET069METAR ETGQ 181620Z 00000KT 9999 FEW030 SCT050 BKN070 17/13 Q1013 BLU;
0147102340999992008071817204+53133+009350FM-15+0061ETGQ V0209999C000010180019N0112651N1+01801+01201999999ADDGA1021+012001999GA2071+018001999GF107991999999999999999999MA1101291999999REMMET062METAR ETGQ 181720Z 00000KT 9999 FEW040 BKN060 18/12 Q1013 BLU;
0147102340999992008071818204+53133+009350FM-15+0061ETGQ V0209999C000010180019N0112651N1+01701+01201999999ADDGA1021+013501999GA2071+018001999GF107991999999999999999999MA1101291999999REMMET062METAR ETGQ 181820Z 00000KT 9999 FEW045 BKN060 17/12 Q1013 BLU;
0144102340999992008071914534+53133+009350FM-16+0061ETGQ V0202701N003110120019N0070001N1+02201+01401999999ADDGA1071+012001091GF107991999999999999999999MA1100811999999MW1821MW2971REMMET063SPECI ETGQ 191453Z 27006KT 7000 +TSRA BKN040CB 22/14 Q1008 WHT;
0154102340999992008071916524+53133+009350FM-16+0061ETGQ V0202601N005710120019N0112651N1+01901+01201999999ADDGA1071+012001091GF107991999999999999999999MA1100911999999MW1811MW2951OC101341REMMET065SPECI ETGQ 191652Z 26011G26KT 9999 TSRA BKN040CB 19/12 Q1009 BLU;
0159102340999992008072013184+53133+009350FM-16+0061ETGQ V0202101N00411220001CN0030001N1+01901+00901999999ADDGA1071+007501091GA2041+018001999MA1101191999999MW1811MW2951REMMET069SPECI ETGQ 201318Z 21008KT 3000 TSRA BKN025CB SCT060 19/09 Q1012 YLO;EQDQ01+000042SCOTCV
0124102340999992008072104204+53133+009350FM-15+0061ETGQ V0200901N002610300019N0112651N1+01101+00801999999ADDGA1071+030001999GF107991999999999999999999MA1101691999999REMMET055METAR ETGQ 210420Z 09005KT 9999 BKN100 11/08 Q1017 BLU;
0147102340999992008072105204+53133+009350FM-15+0061ETGQ V0209999V000510240019N0112651N1+01201+00901999999ADDGA1021+012001999GA2071+024001999GF107991999999999999999999MA1101691999999REMMET062METAR ETGQ 210520Z VRB01KT 9999 FEW040 BKN080 12/09 Q1017 BLU;
0148102340999992008072106204+53133+009350FM-15+0061ETGQ V0202601N002112200019N0112651N1+01301+00901999999ADDGA1021+012001999GA2041+030001999GF104991999999999999999999MA1101801999999REMMET063METAR ETGQ 210620Z 26004KT 9999 FEW040 SCT100 13/09 Q1018 BLU/;
0147102340999992008072107204+53133+009350FM-15+0061ETGQ V0202401N002610300019N0112651N1+01501+00901999999ADDGA1041+009901999GA2071+030001999GF107991999999999999999999MA1101691999999REMMET062METAR ETGQ 210720Z 24005KT 9999 SCT033 BKN100 15/09 Q1017 BLU;
0147102340999992008072108204+53133+009350FM-15+0061ETGQ V0203001N003110240019N0112651N1+01501+00801999999ADDGA1041+010501999GA2071+024001999GF107991999999999999999999MA1101801999999REMMET062METAR ETGQ 210820Z 30006KT 9999 SCT035 BKN080 15/08 Q1018 BLU;
0158102340999992008072109204+53133+009350FM-15+0061ETGQ V0202701N002610210019N0112651N1+01601+00801999999ADDGA1041+010801999GA2071+021001999GF107991999999999999999999MA1101801999999MW1161REMMET067METAR ETGQ 210920Z 27005KT 9999 VCSH SCT036 BKN070 16/08 Q1018 BLU;
0152102340999992008072110204+53133+009350FM-15+0061ETGQ V0209999C000010240019N0112651N1+01301+01001999999ADDGA1041+009001999GA2071+024001999GF107991999999999999999999MA1101801999999REMMET067METAR ETGQ 211020Z 00000KT 9999 SCT030 BKN080 13/10 Q1018 RERA BLU;
0147102340999992008072111204+53133+009350FM-15+0061ETGQ V0203401N002610240019N0112651N1+01401+01001999999ADDGA1041+012001999GA2071+024001999GF107991999999999999999999MA1101801999999REMMET062METAR ETGQ 211120Z 34005KT 9999 SCT040 BKN080 14/10 Q1018 BLU;
0147102340999992008072112204+53133+009350FM-15+0061ETGQ V0203201N002110180019N0112651N1+01301+01101999999ADDGA1041+012001999GA2071+018001999GF107991999999999999999999MA1101901999999REMMET062METAR ETGQ 211220Z 32004KT 9999 SCT040 BKN060 13/11 Q1019 BLU;
0182102340999992008072114204+53133+009350FM-15+0061ETGQ V0203201N00311012001CN0112651N1+01201+01001999999ADDGA1021+006001999GA2041+012001999GA3081+024001999GF108991999999999999999999MA1101901999999MW1801REMMET075METAR ETGQ 211420Z 32006KT 9999 -SHRA FEW020 SCT040 OVC080 12/10 Q1019 BLU;
0157102340999992008072115204+53133+009350FM-15+0061ETGQ V0209999V001010150019N0112651N1+01301+01001999999ADDGA1071+015001999GA2081+024001999GF108991999999999999999999MA1101901999999MW1611REMMET066METAR ETGQ 211520Z VRB02KT 9999 -RA BKN050 OVC080 13/10 Q1019 BLU;
0147102340999992008072116204+53133+009350FM-15+0061ETGQ V0202501N001010120019N0112651N1+01301+01101999999ADDGA1071+012001999GA2071+027001999GF107991999999999999999999MA1101901999999REMMET062METAR ETGQ 211620Z 25002KT 9999 BKN040 BKN090 13/11 Q1019 BLU;
0159102340999992008072117204+53133+009350FM-15+0061ETGQ V0202501N002110090019N0112651N1+01301+01001999999ADDGA1071+009001999GA2071+027001999GF107991999999999999999999MA1101901999999MW1801REMMET068METAR ETGQ 211720Z 25004KT 9999 -SHRA BKN030 BKN090 13/10 Q1019 BLU;
0157102340999992008072118204+53133+009350FM-15+0061ETGQ V0202901N001510078019N0112651N1+01201+01001999999ADDGA1071+007801999GA2071+010501999GF107991999999999999999999MA1101901999999MW1611REMMET066METAR ETGQ 211820Z 29003KT 9999 -RA BKN026 BKN035 12/10 Q1019 BLU;
0134102340999992008072204204+53133+009350FM-15+0061ETGQ V0209999C000010084019N0112651N1+01201+01101999999ADDGA1071+008401999GF107991999999999999999999MA1102201999999MW1611REMMET059METAR ETGQ 220420Z 00000KT 9999 -RA BKN028 12/11 Q1022 BLU;
0166102340999992008072205204+53133+009350FM-15+0061ETGQ V0202701N000510072019N0050001N1+01201+01101999999ADDGA1041+003001999GA2081+007201999GF108991999999999999999999MA1102201999999MW1101MW2611REMMET069METAR ETGQ 220520Z 27001KT 5000 -RA BR SCT010 OVC024 12/11 Q1022 WHT;
0133102340999992008072206204+53133+009350FM-15+0061ETGQ V0203001N001510027019N0050001N1+01301+01201999999ADDGA1071+002701999GF107991999999999999999999MA1102201999999MW1101REMMET058METAR ETGQ 220620Z 30003KT 5000 BR BKN009 13/12 Q1022 GRN;
0124102340999992008072207204+53133+009350FM-15+0061ETGQ V0203001N002610033019N0080001N1+01301+01101999999ADDGA1071+003301999GF107991999999999999999999MA1102301999999REMMET055METAR ETGQ 220720Z 30005KT 8000 BKN011 13/11 Q1023 GRN;
0124102340999992008072208204+53133+009350FM-15+0061ETGQ V0203101N004110051019N0080001N1+01301+01101999999ADDGA1071+005101999GF107991999999999999999999MA1102301999999REMMET055METAR ETGQ 220820Z 31008KT 8000 BKN017 13/11 Q1023 WHT;
0124102340999992008072209204+53133+009350FM-15+0061ETGQ V0203201N003610036019N0080001N1+01401+01101999999ADDGA1071+003601999GF107991999999999999999999MA1102401999999REMMET055METAR ETGQ 220920Z 32007KT 8000 BKN012 14/11 Q1024 GRN;
0124102340999992008072210204+53133+009350FM-15+0061ETGQ V0203101N004110066019N0112651N1+01401+01101999999ADDGA1071+006601999GF107991999999999999999999MA1102401999999REMMET055METAR ETGQ 221020Z 31008KT 9999 BKN022 14/11 Q1024 WHT;
0124102340999992008072211204+53133+009350FM-15+0061ETGQ V0203301N004110063019N0112651N1+01501+01101999999ADDGA1071+006301999GF107991999999999999999999MA1102401999999REMMET055METAR ETGQ 221120Z 33008KT 9999 BKN021 15/11 Q1024 WHT;
0147102340999992008072212204+53133+009350FM-15+0061ETGQ V0203301N003110099019N0112651N1+01501+01101999999ADDGA1041+006001999GA2071+009901999GF107991999999999999999999MA1102511999999REMMET062METAR ETGQ 221220Z 33006KT 9999 SCT020 BKN033 15/11 Q1025 BLU;
0147102340999992008072213204+53133+009350FM-15+0061ETGQ V0203201N002110090019N0112651N1+01501+01101999999ADDGA1041+006601999GA2071+009001999GF107991999999999999999999MA1102511999999REMMET062METAR ETGQ 221320Z 32004KT 9999 SCT022 BKN030 15/11 Q1025 BLU;
0147102340999992008072214204+53133+009350FM-15+0061ETGQ V0203601N002610075019N0112651N1+01501+01101999999ADDGA1071+007501999GA2071+009601999GF107991999999999999999999MA1102511999999REMMET062METAR ETGQ 221420Z 36005KT 9999 BKN025 BKN032 15/11 Q1025 BLU;
0147102340999992008072215204+53133+009350FM-15+0061ETGQ V0209999C000010135019N0112651N1+01601+01001999999ADDGA1041+007501999GA2071+013501999GF107991999999999999999999MA1102511999999REMMET062METAR ETGQ 221520Z 00000KT 9999 SCT025 BKN045 16/10 Q1025 BLU;
0124102340999992008072216204+53133+009350FM-15+0061ETGQ V0203601N001510150019N0112651N1+01701+01001999999ADDGA1071+015001999GF107991999999999999999999MA1102511999999REMMET055METAR ETGQ 221620Z 36003KT 9999 BKN050 17/10 Q1025 BLU;
0124102340999992008072217204+53133+009350FM-15+0061ETGQ V0200201N000510180019N0112651N1+01701+01001999999ADDGA1071+018001999GF107991999999999999999999MA1102401999999REMMET055METAR ETGQ 221720Z 02001KT 9999 BKN060 17/10 Q1024 BLU;
0147102340999992008072218204+53133+009350FM-15+0061ETGQ V0209999C000010420019N0112651N1+01701+01101999999ADDGA1041+018001999GA2071+042001999GF107991999999999999999999MA1102401999999REMMET062METAR ETGQ 221820Z 00000KT 9999 SCT060 BKN140 17/11 Q1024 BLU;
0132102340999992008072304204+53133+009350FM-15+0061ETGQ V0209999V000510003019N0001001N1+01101+01101999999ADDGA1091+000301999GF109991999999000251999999MA1102611999999MW1451REMMET057METAR ETGQ 230420Z VRB01KT 0100 FG VV001 11/11 Q1026 RED;
0132102340999992008072305204+53133+009350FM-15+0061ETGQ V0209999C000010003019N0002001N1+01101+01101999999ADDGA1091+000301999GF109991999999000251999999MA1102611999999MW1451REMMET057METAR ETGQ 230520Z 00000KT 0200 FG VV001 11/11 Q1026 RED;
0133102340999992008072306204+53133+009350FM-15+0061ETGQ V0209999C000010015019N0020001N1+01101+01101999999ADDGA1071+001501999GF107991999999999999999999MA1102611999999MW1101REMMET058METAR ETGQ 230620Z 00000KT 2000 BR BKN005 11/11 Q1026 YLO;
0133102340999992008072307204+53133+009350FM-15+0061ETGQ V0209999C000010018019N0030001N1+01201+01101999999ADDGA1071+001801999GF107991999999999999999999MA1102611999999MW1101REMMET058METAR ETGQ 230720Z 00000KT 3000 BR BKN006 12/11 Q1026 YLO;
0125102340999992008072308204+53133+009350FM-15+0061ETGQ V0209999C000012200019N0080001N1+01401+01201999999ADDGA1041+002101999GF104991999999999999999999MA1102611999999REMMET056METAR ETGQ 230820Z 00000KT 8000 SCT007 14/12 Q1026 BLU/;
0125102340999992008072309204+53133+009350FM-15+0061ETGQ V0209999V000512200019N0112651N1+01701+01201999999ADDGA1041+011401999GF104991999999999999999999MA1102611999999REMMET056METAR ETGQ 230920Z VRB01KT 9999 SCT038 17/12 Q1026 BLU/;
0125102340999992008072310204+53133+009350FM-15+0061ETGQ V0209999V001012200019N0112651N1+01901+01201999999ADDGA1041+012001999GF104991999999999999999999MA1102511999999REMMET056METAR ETGQ 231020Z VRB02KT 9999 SCT040 19/12 Q1025 BLU/;
0125102340999992008072311204+53133+009350FM-15+0061ETGQ V0209999V000512200019N0112651N1+02101+01201999999ADDGA1041+010801999GF104991999999999999999999MA1102511999999REMMET056METAR ETGQ 231120Z VRB01KT 9999 SCT036 21/12 Q1025 BLU/;
0125102340999992008072312204+53133+009350FM-15+0061ETGQ V0203101N001512200019N0112651N1+02101+01101999999ADDGA1041+012001999GF104991999999999999999999MA1102511999999REMMET056METAR ETGQ 231220Z 31003KT 9999 SCT040 21/11 Q1025 BLU/;
0124102340999992008072313204+53133+009350FM-15+0061ETGQ V0209999V000510141019N0112651N1+02301+01101999999ADDGA1071+014101999GF107991999999999999999999MA1102401999999REMMET055METAR ETGQ 231320Z VRB01KT 9999 BKN047 23/11 Q1024 BLU;
0125102340999992008072314204+53133+009350FM-15+0061ETGQ V0203201N001512200019N0112651N1+02301+01001999999ADDGA1041+015001999GF104991999999999999999999MA1102401999999REMMET056METAR ETGQ 231420Z 32003KT 9999 SCT050 23/10 Q1024 BLU/;
0125102340999992008072315204+53133+009350FM-15+0061ETGQ V0200301N002612200019N0112651N1+02301+00901999999ADDGA1041+015001999GF104991999999999999999999MA1102301999999REMMET056METAR ETGQ 231520Z 03005KT 9999 SCT050 23/09 Q1023 BLU/;
0125102340999992008072316204+53133+009350FM-15+0061ETGQ V0200101N001512200019N0112651N1+02301+01001999999ADDGA1041+018001999GF104991999999999999999999MA1102301999999REMMET056METAR ETGQ 231620Z 01003KT 9999 SCT060 23/10 Q1023 BLU/;
0125102340999992008072317204+53133+009350FM-15+0061ETGQ V0203601N001512200019N0112651N1+02401+01001999999ADDGA1021+018001999GF102991999999999999999999MA1102301999999REMMET056METAR ETGQ 231720Z 36003KT 9999 FEW060 24/10 Q1023 BLU/;
0125102340999992008072318204+53133+009350FM-15+0061ETGQ V0203501N002112200019N0112651N1+02301+01101999999ADDGA1021+018001999GF102991999999999999999999MA1102201999999REMMET056METAR ETGQ 231820Z 35004KT 9999 FEW060 23/11 Q1022 BLU/;
0076102340999992008072404204+53133+009350FM-15+0061ETGQ V0209999C000012200019N0112651N1+01101+01001999999ADDMA1102201999999REMMET049METAR ETGQ 240420Z 00000KT 9999 11/10 Q1022 BLU/;
0076102340999992008072405204+53133+009350FM-15+0061ETGQ V0209999C000012200019N0112651N1+01401+01201999999ADDMA1102201999999REMMET049METAR ETGQ 240520Z 00000KT 9999 14/12 Q1022 BLU/;
0076102340999992008072406204+53133+009350FM-15+0061ETGQ V0209999C000012200019N0112651N1+01501+01201999999ADDMA1102201999999REMMET049METAR ETGQ 240620Z 00000KT 9999 15/12 Q1022 BLU/;
0076102340999992008072407204+53133+009350FM-15+0061ETGQ V0209999C000012200019N0112651N1+01801+01201999999ADDMA1102101999999REMMET049METAR ETGQ 240720Z 00000KT 9999 18/12 Q1021 BLU/;
0125102340999992008072408204+53133+009350FM-15+0061ETGQ V0201001N002612200019N0112651N1+02101+01201999999ADDGA1021+012001999GF102991999999999999999999MA1102101999999REMMET056METAR ETGQ 240820Z 10005KT 9999 FEW040 21/12 Q1021 BLU/;
0125102340999992008072409204+53133+009350FM-15+0061ETGQ V0201301N002612200019N0112651N1+02201+01001999999ADDGA1021+013501999GF102991999999999999999999MA1102001999999REMMET056METAR ETGQ 240920Z 13005KT 9999 FEW045 22/10 Q1020 BLU/;
0125102340999992008072410204+53133+009350FM-15+0061ETGQ V0200801N002112200019N0112651N1+02301+01001999999ADDGA1021+015001999GF102991999999999999999999MA1102001999999REMMET056METAR ETGQ 241020Z 08004KT 9999 FEW050 23/10 Q1020 BLU/;
0125102340999992008072411204+53133+009350FM-15+0061ETGQ V0201201N002612200019N0112651N1+02401+00901999999ADDGA1021+018001999GF102991999999999999999999MA1101901999999REMMET056METAR ETGQ 241120Z 12005KT 9999 FEW060 24/09 Q1019 BLU/;
0125102340999992008072412204+53133+009350FM-15+0061ETGQ V0200401N002612200019N0112651N1+02501+00801999999ADDGA1021+018001999GF102991999999999999999999MA1101801999999REMMET056METAR ETGQ 241220Z 04005KT 9999 FEW060 25/08 Q1018 BLU/;
0125102340999992008072413204+53133+009350FM-15+0061ETGQ V0200701N003112200019N0112651N1+02601+00801999999ADDGA1021+018001999GF102991999999999999999999MA1101691999999REMMET056METAR ETGQ 241320Z 07006KT 9999 FEW060 26/08 Q1017 BLU/;
0125102340999992008072414204+53133+009350FM-15+0061ETGQ V0200801N003612200019N0112651N1+02701+00801999999ADDGA1021+018001999GF102991999999999999999999MA1101691999999REMMET056METAR ETGQ 241420Z 08007KT 9999 FEW060 27/08 Q1017 BLU/;
0125102340999992008072415204+53133+009350FM-15+0061ETGQ V0200701N002612200019N0112651N1+02701+00801999999ADDGA1021+018001999GF102991999999999999999999MA1101591999999REMMET056METAR ETGQ 241520Z 07005KT 9999 FEW060 27/08 Q1016 BLU/;
0125102340999992008072416204+53133+009350FM-15+0061ETGQ V0200601N002612200019N0112651N1+02601+00901999999ADDGA1021+018001999GF102991999999999999999999MA1101591999999REMMET056METAR ETGQ 241620Z 06005KT 9999 FEW060 26/09 Q1016 BLU/;
0125102340999992008072417204+53133+009350FM-15+0061ETGQ V0201001N003112200019N0112651N1+02601+00901999999ADDGA1021+018001999GF102991999999999999999999MA1101591999999REMMET056METAR ETGQ 241720Z 10006KT 9999 FEW060 26/09 Q1016 BLU/;
0076102340999992008072418204+53133+009350FM-15+0061ETGQ V0200701N002112200019N0112651N1+02601+00901999999ADDMA1101591999999REMMET049METAR ETGQ 241820Z 07004KT 9999 26/09 Q1016 BLU/;
0125102340999992008072504204+53133+009350FM-15+0061ETGQ V0209999C000012200019N0112651N1+01601+01301999999ADDGA1041+045001999GF104991999999999999999999MA1101491999999REMMET056METAR ETGQ 250420Z 00000KT 9999 SCT150 16/13 Q1015 BLU/;
0124102340999992008072505204+53133+009350FM-15+0061ETGQ V0209999C000010138019N0112651N1+01701+01401999999ADDGA1071+013801999GF107991999999999999999999MA1101491999999REMMET055METAR ETGQ 250520Z 00000KT 9999 BKN046 17/14 Q1015 BLU;
0124102340999992008072506204+53133+009350FM-15+0061ETGQ V0209999C000010135019N0112651N1+01701+01301999999ADDGA1071+013501999GF107991999999999999999999MA1101491999999REMMET055METAR ETGQ 250620Z 00000KT 9999 BKN045 17/13 Q1015 BLU;
0124102340999992008072507204+53133+009350FM-15+0061ETGQ V0203501N001010135019N0112651N1+02001+01301999999ADDGA1071+013501999GF107991999999999999999999MA1101391999999REMMET055METAR ETGQ 250720Z 35002KT 9999 BKN045 20/13 Q1014 BLU;
0148102340999992008072508204+53133+009350FM-15+0061ETGQ V0203601N001012200019N0112651N1+02201+01301999999ADDGA1021+015001999GA2041+048001999GF104991999999999999999999MA1101391999999REMMET063METAR ETGQ 250820Z 36002KT 9999 FEW050 SCT160 22/13 Q1014 BLU/;
0125102340999992008072509204+53133+009350FM-15+0061ETGQ V0201101N001512200019N0112651N1+02401+01401999999ADDGA1041+015001999GF104991999999999999999999MA1101391999999REMMET056METAR ETGQ 250920Z 11003KT 9999 SCT050 24/14 Q1014 BLU/;
0125102340999992008072510204+53133+009350FM-15+0061ETGQ V0200901N002612200019N0112651N1+02501+01401999999ADDGA1021+015001999GF102991999999999999999999MA1101291999999REMMET056METAR ETGQ 251020Z 09005KT 9999 FEW050 25/14 Q1013 BLU/;
0125102340999992008072511204+53133+009350FM-15+0061ETGQ V0200601N001512200019N0112651N1+02601+01301999999ADDGA1021+015001999GF102991999999999999999999MA1101291999999REMMET056METAR ETGQ 251120Z 06003KT 9999 FEW050 26/13 Q1013 BLU/;
0125102340999992008072512204+53133+009350FM-15+0061ETGQ V0201201N002612200019N0112651N1+02801+01301999999ADDGA1021+015001999GF102991999999999999999999MA1101191999999REMMET056METAR ETGQ 251220Z 12005KT 9999 FEW050 28/13 Q1012 BLU/;
0125102340999992008072513204+53133+009350FM-15+0061ETGQ V0201101N003112200019N0112651N1+02901+01201999999ADDGA1021+015001999GF102991999999999999999999MA1101191999999REMMET056METAR ETGQ 251320Z 11006KT 9999 FEW050 29/12 Q1012 BLU/;
0125102340999992008072514204+53133+009350FM-15+0061ETGQ V0201301N002612200019N0112651N1+02801+01201999999ADDGA1041+015001999GF104991999999999999999999MA1101081999999REMMET056METAR ETGQ 251420Z 13005KT 9999 SCT050 28/12 Q1011 BLU/;
0148102340999992008072515204+53133+009350FM-15+0061ETGQ V0201201N002612200019N0112651N1+02801+01301999999ADDGA1041+018001999GA2041+090001999GF104991999999999999999999MA1101081999999REMMET063METAR ETGQ 251520Z 12005KT 9999 SCT060 SCT300 28/13 Q1011 BLU/;
0148102340999992008072516204+53133+009350FM-15+0061ETGQ V0201601N001511050019N0112651N1+02801+01301999999ADDGA1041+021001999GA2071+105001999GF107991999999999999999999MA1101081999999REMMET063METAR ETGQ 251620Z 16003KT 9999 SCT070 BKN370 28/13 Q1011 BLU/;
0148102340999992008072517204+53133+009350FM-15+0061ETGQ V0209999C000011050019N0112651N1+02801+01301999999ADDGA1021+021001999GA2071+105001999GF107991999999999999999999MA1101081999999REMMET063METAR ETGQ 251720Z 00000KT 9999 FEW070 BKN350 28/13 Q1011 BLU/;
0148102340999992008072518204+53133+009350FM-15+0061ETGQ V0209999C000012200019N0112651N1+02801+01401999999ADDGA1021+021001999GA2041+105001999GF104991999999999999999999MA1101081999999REMMET063METAR ETGQ 251820Z 00000KT 9999 FEW070 SCT350 28/14 Q1011 BLU/;
0181102340999992008072611204+53133+009350FM-16+0061ETGQ V0209999C00001015001CN0112651N1+02601+01801999999ADDGA1021+010501091GA2041+015001999GA3071+030001999GF107991999999999999999999MA1101291999999MW1171REMMET074SPECI ETGQ 261120Z 00000KT 9999 TS FEW035CB SCT050 BKN100 26/18 Q1013 BLU;
0159102340999992008072716184+53133+009350FM-16+0061ETGQ V0200401N002112200019N0112651N1+02901+01801999999ADDGA1021+012001091GA2041+090001999GF104991999999999999999999MA1101491999999MW1171REMMET068SPECI ETGQ 271618Z 04004KT 9999 TS FEW040CB SCT320 29/18 Q1015 BLU/;
0149102340999992008072717184+53133+009350FM-16+0061ETGQ V0203601N002610300019N0112651N1+02601+01701999999ADDGA1021+012001091GA2081+030001999GF108991999999999999999999MA1101491999999REMMET064SPECI ETGQ 271718Z 36005KT 9999 FEW040CB OVC100 26/17 Q1015 BLU;
0125102340999992008072804204+53133+009350FM-15+0061ETGQ V0209999C000012200019N0080001N1+01801+01701999999ADDGA1041+090001999GF104991999999999999999999MA1101591999999REMMET056METAR ETGQ 280420Z 00000KT 8000 SCT300 18/17 Q1016 BLU/;
0148102340999992008072805204+53133+009350FM-15+0061ETGQ V0209999C000012200019N0080001N1+01901+01701999999ADDGA1021+004501999GA2041+090001999GF104991999999999999999999MA1101591999999REMMET063METAR ETGQ 280520Z 00000KT 8000 FEW015 SCT300 19/17 Q1016 BLU/;
0125102340999992008072806204+53133+009350FM-15+0061ETGQ V0209999C000012200019N0080001N1+02001+01701999999ADDGA1021+004501999GF102991999999999999999999MA1101591999999REMMET056METAR ETGQ 280620Z 00000KT 8000 FEW015 20/17 Q1016 BLU/;
0125102340999992008072807204+53133+009350FM-15+0061ETGQ V0209999C000012200019N0112651N1+02101+01801999999ADDGA1021+004501999GF102991999999999999999999MA1101591999999REMMET056METAR ETGQ 280720Z 00000KT 9999 FEW015 21/18 Q1016 BLU/;
0125102340999992008072808204+53133+009350FM-15+0061ETGQ V0209999C000012200019N0112651N1+02301+01701999999ADDGA1021+039001999GF102991999999999999999999MA1101591999999REMMET056METAR ETGQ 280820Z 00000KT 9999 FEW130 23/17 Q1016 BLU/;
0125102340999992008072809204+53133+009350FM-15+0061ETGQ V0202001N000510900019N0112651N1+02501+01701999999ADDGA1071+090001999GF107991999999999999999999MA1101591999999REMMET056METAR ETGQ 280920Z 20001KT 9999 BKN300 25/17 Q1016 BLU/;
0148102340999992008072810204+53133+009350FM-15+0061ETGQ V0209999V000510900019N0112651N1+02701+01701999999ADDGA1021+039001999GA2071+090001999GF107991999999999999999999MA1101491999999REMMET063METAR ETGQ 281020Z VRB01KT 9999 FEW130 BKN300 27/17 Q1015 BLU/;
0148102340999992008072811204+53133+009350FM-15+0061ETGQ V0201301N001510900019N0112651N1+03001+01601999999ADDGA1021+015001999GA2071+090001999GF107991999999999999999999MA1101491999999REMMET063METAR ETGQ 281120Z 13003KT 9999 FEW050 BKN300 30/16 Q1015 BLU/;
0148102340999992008072812204+53133+009350FM-15+0061ETGQ V0201501N001512200019N0112651N1+02901+01501999999ADDGA1021+015001999GA2041+033001999GF104991999999999999999999MA1101391999999REMMET063METAR ETGQ 281220Z 15003KT 9999 FEW050 SCT110 29/15 Q1014 BLU/;
0148102340999992008072813204+53133+009350FM-15+0061ETGQ V0201201N002112200019N0112651N1+03101+01301999999ADDGA1041+011101999GA2041+105001999GF104991999999999999999999MA1101391999999REMMET063METAR ETGQ 281320Z 12004KT 9999 SCT037 SCT350 31/13 Q1014 BLU/;
0148102340999992008072814204+53133+009350FM-15+0061ETGQ V0201101N002112200019N0112651N1+03101+01201999999ADDGA1041+021001999GA2041+105001999GF104991999999999999999999MA1101291999999REMMET063METAR ETGQ 281420Z 11004KT 9999 SCT070 SCT350 31/12 Q1013 BLU/;
0125102340999992008072815204+53133+009350FM-15+0061ETGQ V0201301N001512200019N0112651N1+03101+01201999999ADDGA1041+021001999GF104991999999999999999999MA1101291999999REMMET056METAR ETGQ 281520Z 13003KT 9999 SCT070 31/12 Q1013 BLU/;
0125102340999992008072816204+53133+009350FM-15+0061ETGQ V0201201N002612200019N0112651N1+03101+01101999999ADDGA1041+024001999GF104991999999999999999999MA1101291999999REMMET056METAR ETGQ 281620Z 12005KT 9999 SCT080 31/11 Q1013 BLU/;
0125102340999992008072817204+53133+009350FM-15+0061ETGQ V0201301N000512200019N0112651N1+03001+01201999999ADDGA1041+024001999GF104991999999999999999999MA1101291999999REMMET056METAR ETGQ 281720Z 13001KT 9999 SCT080 30/12 Q1013 BLU/;
0148102340999992008072818204+53133+009350FM-15+0061ETGQ V0209999C000012200019N0112651N1+02801+01301999999ADDGA1041+027001999GA2041+105001999GF104991999999999999999999MA1101291999999REMMET063METAR ETGQ 281820Z 00000KT 9999 SCT090 SCT350 28/13 Q1013 BLU/;
0125102340999992008072904204+53133+009350FM-15+0061ETGQ V0209999C000010900019N0112651N1+01801+01601999999ADDGA1071+090001999GF107991999999999999999999MA1101391999999REMMET056METAR ETGQ 290420Z 00000KT 9999 BKN300 18/16 Q1014 BLU/;
0148102340999992008072905204+53133+009350FM-15+0061ETGQ V0209999C000011050019N0112651N1+01901+01601999999ADDGA1021+006001999GA2071+105001999GF107991999999999999999999MA1101391999999REMMET063METAR ETGQ 290520Z 00000KT 9999 FEW020 BKN350 19/16 Q1014 BLU/;
0125102340999992008072906204+53133+009350FM-15+0061ETGQ V0202401N000511050019N0112651N1+01901+01601999999ADDGA1071+105001999GF107991999999999999999999MA1101491999999REMMET056METAR ETGQ 290620Z 24001KT 9999 BKN350 19/16 Q1015 BLU/;
0125102340999992008072907204+53133+009350FM-15+0061ETGQ V0209999C000010900019N0112651N1+02201+01601999999ADDGA1071+090001999GF107991999999999999999999MA1101491999999REMMET056METAR ETGQ 290720Z 00000KT 9999 BKN300 22/16 Q1015 BLU/;
0125102340999992008072908204+53133+009350FM-15+0061ETGQ V0209999C000010750019N0112651N1+02501+01601999999ADDGA1071+075001999GF107991999999999999999999MA1101591999999REMMET056METAR ETGQ 290820Z 00000KT 9999 BKN250 25/16 Q1016 BLU/;
0147102340999992008072909204+53133+009350FM-15+0061ETGQ V0209999C000010180019N0112651N1+02501+01701999999ADDGA1021+010501999GA2071+018001999GF107991999999999999999999MA1101591999999REMMET062METAR ETGQ 290920Z 00000KT 9999 FEW035 BKN060 25/17 Q1016 BLU;
0167102340999992008072909464+53133+009350FM-16+0061ETGQ V0202601N003110120019N0080001N1+02401+01701999999ADDGA1021+009001091GA2071+012001999GF107991999999999999999999MA1101591999999MW1801MW2951REMMET070SPECI ETGQ 290946Z 26006KT 8000 -TSRA FEW030CB BKN040 24/17 Q1016 BLU;
0167102340999992008072910204+53133+009350FM-15+0061ETGQ V0202601N001010150019N0080001N1+02001+01801999999ADDGA1021+009001091GA2071+015001999GF107991999999999999999999MA1101691999999MW1801MW2951REMMET070METAR ETGQ 291020Z 26002KT 8000 -TSRA FEW030CB BKN050 20/18 Q1017 BLU;
0170102340999992008072911204+53133+009350FM-15+0061ETGQ V0202501N00051018001CN0112651N1+02101+01901999999ADDGA1021+009001999GA2041+018001999GA3071+036001999GF107991999999999999999999MA1101691999999REMMET069METAR ETGQ 291120Z 25001KT 9999 FEW030 SCT060 BKN120 21/19 Q1017 BLU;
0147102340999992008072912204+53133+009350FM-15+0061ETGQ V0209999V001010360019N0112651N1+02301+01701999999ADDGA1041+018001999GA2071+036001999GF107991999999999999999999MA1101801999999REMMET062METAR ETGQ 291220Z VRB02KT 9999 SCT060 BKN120 23/17 Q1018 BLU;
0148102340999992008072913204+53133+009350FM-15+0061ETGQ V0209999V000512200019N0112651N1+02501+01801999999ADDGA1041+007201999GA2041+048001999GF104991999999999999999999MA1101691999999REMMET063METAR ETGQ 291320Z VRB01KT 9999 SCT024 SCT160 25/18 Q1017 BLU/;
0125102340999992008072914204+53133+009350FM-15+0061ETGQ V0209999C000012200019N0112651N1+02601+01701999999ADDGA1041+010501999GF104991999999999999999999MA1101591999999REMMET056METAR ETGQ 291420Z 00000KT 9999 SCT035 26/17 Q1016 BLU/;
0148102340999992008072915204+53133+009350FM-15+0061ETGQ V0203001N000512200019N0112651N1+02601+01701999999ADDGA1021+012001999GA2041+075001999GF104991999999999999999999MA1101591999999REMMET063METAR ETGQ 291520Z 30001KT 9999 FEW040 SCT250 26/17 Q1016 BLU/;
0148102340999992008072916204+53133+009350FM-15+0061ETGQ V0209999V001012200019N0112651N1+02701+01701999999ADDGA1021+012001999GA2041+105001999GF104991999999999999999999MA1101591999999REMMET063METAR ETGQ 291620Z VRB02KT 9999 FEW040 SCT350 27/17 Q1016 BLU/;
0148102340999992008072917204+53133+009350FM-15+0061ETGQ V0209999C000012200019N0112651N1+02601+01701999999ADDGA1041+012001999GA2041+105001999GF104991999999999999999999MA1101591999999REMMET063METAR ETGQ 291720Z 00000KT 9999 SCT040 SCT350 26/17 Q1016 BLU/;
0148102340999992008072918204+53133+009350FM-15+0061ETGQ V0209999C000012200019N0112651N1+02501+01701999999ADDGA1041+012001999GA2041+105001999GF104991999999999999999999MA1101691999999REMMET063METAR ETGQ 291820Z 00000KT 9999 SCT040 SCT350 25/17 Q1017 BLU/;
0124102340999992008073004204+53133+009350FM-15+0061ETGQ V0202401N000510105019N0112651N1+01701+01601999999ADDGA1071+010501999GF107991999999999999999999MA1101901999999REMMET055METAR ETGQ 300420Z 24001KT 9999 BKN035 17/16 Q1019 BLU;
0125102340999992008073005204+53133+009350FM-15+0061ETGQ V0209999C000012200019N0112651N1+01701+01601999999ADDGA1041+015001999GF104991999999999999999999MA1101901999999REMMET056METAR ETGQ 300520Z 00000KT 9999 SCT050 17/16 Q1019 BLU/;
0147102340999992008073006204+53133+009350FM-15+0061ETGQ V0209999C000010120019N0112651N1+01901+01701999999ADDGA1021+006001999GA2071+012001999GF107991999999999999999999MA1102001999999REMMET062METAR ETGQ 300620Z 00000KT 9999 FEW020 BKN040 19/17 Q1020 BLU;
0125102340999992008073007204+53133+009350FM-15+0061ETGQ V0209999C000012200019N0112651N1+02101+01701999999ADDGA1041+012001999GF104991999999999999999999MA1101901999999REMMET056METAR ETGQ 300720Z 00000KT 9999 SCT040 21/17 Q1019 BLU/;
0125102340999992008073008204+53133+009350FM-15+0061ETGQ V0209999C000012200019N0112651N1+02301+01701999999ADDGA1041+030001999GF104991999999999999999999MA1101901999999REMMET056METAR ETGQ 300820Z 00000KT 9999 SCT100 23/17 Q1019 BLU/;
0125102340999992008073009204+53133+009350FM-15+0061ETGQ V0203101N000512200019N0112651N1+02401+01801999999ADDGA1021+009001999GF102991999999999999999999MA1101901999999REMMET056METAR ETGQ 300920Z 31001KT 9999 FEW030 24/18 Q1019 BLU/;
0125102340999992008073010204+53133+009350FM-15+0061ETGQ V0202401N001012200019N0112651N1+02701+01801999999ADDGA1021+011401999GF102991999999999999999999MA1101901999999REMMET056METAR ETGQ 301020Z 24002KT 9999 FEW038 27/18 Q1019 BLU/;
0125102340999992008073011204+53133+009350FM-15+0061ETGQ V0209999V001012200019N0112651N1+02801+01601999999ADDGA1041+015001999GF104991999999999999999999MA1101801999999REMMET056METAR ETGQ 301120Z VRB02KT 9999 SCT050 28/16 Q1018 BLU/;
0125102340999992008073012204+53133+009350FM-15+0061ETGQ V0209999V001012200019N0112651N1+02801+01701999999ADDGA1041+015001999GF104991999999999999999999MA1101801999999REMMET056METAR ETGQ 301220Z VRB02KT 9999 SCT050 28/17 Q1018 BLU/;
0128102340999992008073013204+53133+009350FM-15+0061ETGQ V0203501N002112200019N0112651N1+02901+01701999999ADDGA1041+014401021GF104991999999999999999999MA1101691999999REMMET059METAR ETGQ 301320Z 35004KT 9999 SCT048TCU 29/17 Q1017 BLU/;
0128102340999992008073014204+53133+009350FM-15+0061ETGQ V0200201N002112200019N0112651N1+03001+01601999999ADDGA1041+015001021GF104991999999999999999999MA1101691999999REMMET059METAR ETGQ 301420Z 02004KT 9999 SCT050TCU 30/16 Q1017 BLU/;
0127102340999992008073015204+53133+009350FM-15+0061ETGQ V0200301N002612200019N0112651N1+03001+01601999999ADDGA1041+015001091GF104991999999999999999999MA1101591999999REMMET058METAR ETGQ 301520Z 03005KT 9999 SCT050CB 30/16 Q1016 BLU/;
0138102340999992008073015544+53133+009350FM-16+0061ETGQ V0200801N001512200019N0112651N1+03001+01601999999ADDGA1041+015001091GF104991999999999999999999MA1101591999999MW1171REMMET063SPECI ETGQ 301554Z 08003KT 9999 VCTS SCT050CB 30/16 Q1016 BLU/;
0135102340999992008073016204+53133+009350FM-15+0061ETGQ V0203501N002110150019N0080001N1+03001+01601999999ADDGA1071+015001091GF107991999999999999999999MA1101591999999MW1171REMMET060METAR ETGQ 301620Z 35004KT 8000 TS BKN050CB 30/16 Q1016 BLU;
0149102340999992008073017204+53133+009350FM-15+0061ETGQ V0201501N002610150019N0112651N1+02101+01901999999ADDGA1071+015001091GF107991999999999999999999MA1101691999999MW1801MW2951REMMET068METAR ETGQ 301720Z 15005KT 9999 -TSRA BKN050CB 21/19 Q1017 RERA BLU;
0183102340999992008073018204+53133+009350FM-15+0061ETGQ V0201701N00101015001CN0112651N1+02201+01901999999ADDGA1021+012001999GA2041+015001091GA3071+030001999GF107991999999999999999999MA1101801999999MW1171REMMET076METAR ETGQ 301820Z 17002KT 9999 VCTS FEW040 SCT050CB BKN100 22/19 Q1018 BLU;
0147102340999992008073104204+53133+009350FM-15+0061ETGQ V0209999C000012200019N0060001N1+01701+01601999999ADDGA1021+001201999GA2041+105001999GF104991999999999999999999MA1101691999999REMMET062METAR ETGQ 310420Z 00000KT 6000 FEW004 SCT350 17/16 Q1017 WHT;
0133102340999992008073105204+53133+009350FM-15+0061ETGQ V0209999C000012200019N0020001N1+01701+01601999999ADDGA1041+000901999GF104991999999999999999999MA1101691999999MW1101REMMET058METAR ETGQ 310520Z 00000KT 2000 BR SCT003 17/16 Q1017 YLO;
0133102340999992008073106204+53133+009350FM-15+0061ETGQ V0209999C000012200019N0030001N1+01801+01701999999ADDGA1041+001201999GF104991999999999999999999MA1101691999999MW1101REMMET058METAR ETGQ 310620Z 00000KT 3000 BR SCT004 18/17 Q1017 YLO;
0125102340999992008073107204+53133+009350FM-15+0061ETGQ V0209999C000012200019N0080001N1+02001+01701999999ADDGA1021+003601999GF102991999999999999999999MA1101691999999REMMET056METAR ETGQ 310720Z 00000KT 8000 FEW012 20/17 Q1017 BLU/;
0148102340999992008073108204+53133+009350FM-15+0061ETGQ V0209999C000012200019N0112651N1+02201+01801999999ADDGA1021+036001999GA2041+090001999GF104991999999999999999999MA1101691999999REMMET063METAR ETGQ 310820Z 00000KT 9999 FEW120 SCT300 22/18 Q1017 BLU/;
0125102340999992008073109204+53133+009350FM-15+0061ETGQ V0201401N002112200019N0112651N1+02501+01801999999ADDGA1041+090001999GF104991999999999999999999MA1101691999999REMMET056METAR ETGQ 310920Z 14004KT 9999 SCT300 25/18 Q1017 BLU/;
0125102340999992008073110204+53133+009350FM-15+0061ETGQ V0201801N001512200019N0112651N1+02701+01801999999ADDGA1041+090001999GF104991999999999999999999MA1101591999999REMMET056METAR ETGQ 311020Z 18003KT 9999 SCT340 27/18 Q1016 BLU/;
0125102340999992008073111204+53133+009350FM-15+0061ETGQ V0201701N002612200019N0112651N1+02901+01701999999ADDGA1021+015001999GF102991999999999999999999MA1101491999999REMMET056METAR ETGQ 311120Z 17005KT 9999 FEW050 29/17 Q1015 BLU/;
0148102340999992008073112204+53133+009350FM-15+0061ETGQ V0201701N003112200019N0112651N1+03001+01701999999ADDGA1021+015001999GA2041+090001999GF104991999999999999999999MA1101491999999REMMET063METAR ETGQ 311220Z 17006KT 9999 FEW050 SCT340 30/17 Q1015 BLU/;
0148102340999992008073113204+53133+009350FM-15+0061ETGQ V0202101N002611050019N0112651N1+02901+01701999999ADDGA1021+015001999GA2071+105001999GF107991999999999999999999MA1101491999999REMMET063METAR ETGQ 311320Z 21005KT 9999 FEW050 BKN350 29/17 Q1015 BLU/;
0148102340999992008073114204+53133+009350FM-15+0061ETGQ V0209999V001011050019N0112651N1+02901+01701999999ADDGA1021+018001999GA2071+105001999GF107991999999999999999999MA1101391999999REMMET063METAR ETGQ 311420Z VRB02KT 9999 FEW060 BKN350 29/17 Q1014 BLU/;
0148102340999992008073115204+53133+009350FM-15+0061ETGQ V0201501N001512200019N0112651N1+03101+01501999999ADDGA1021+015001999GA2041+105001999GF104991999999999999999999MA1101391999999REMMET063METAR ETGQ 311520Z 15003KT 9999 FEW050 SCT350 31/15 Q1014 BLU/;
0148102340999992008073116204+53133+009350FM-15+0061ETGQ V0202101N002112200019N0112651N1+03001+01601999999ADDGA1021+018001999GA2041+105001999GF104991999999999999999999MA1101291999999REMMET063METAR ETGQ 311620Z 21004KT 9999 FEW060 SCT350 30/16 Q1013 BLU/;
0148102340999992008073117204+53133+009350FM-15+0061ETGQ V0202001N001512200019N0112651N1+03001+01501999999ADDGA1021+018001999GA2041+105001999GF104991999999999999999999MA1101291999999REMMET063METAR ETGQ 311720Z 20003KT 9999 FEW060 SCT350 30/15 Q1013 BLU/;
0148102340999992008073118204+53133+009350FM-15+0061ETGQ V0201401N001512200019N0112651N1+02901+01601999999ADDGA1021+036001999GA2041+090001999GF104991999999999999999999MA1101191999999REMMET063METAR ETGQ 311820Z 14003KT 9999 FEW120 SCT300 29/16 Q1012 BLU/;
0147102340999992008080104204+53133+009350FM-15+0061ETGQ V0209999V000510450019N0112651N1+02101+01801999999ADDGA1041+033001999GA2071+045001999GF107991999999999999999999MA1101191999999REMMET062METAR ETGQ 010420Z VRB01KT 9999 SCT110 BKN150 21/18 Q1012 BLU;
0147102340999992008080105204+53133+009350FM-15+0061ETGQ V0201801N000510450019N0112651N1+02201+01801999999ADDGA1041+036001999GA2071+045001999GF107991999999999999999999MA1101291999999REMMET062METAR ETGQ 010520Z 18001KT 9999 SCT120 BKN150 22/18 Q1013 BLU;
0124102340999992008080106204+53133+009350FM-15+0061ETGQ V0202701N000510420019N0112651N1+02301+01901999999ADDGA1071+042001999GF107991999999999999999999MA1101391999999REMMET055METAR ETGQ 010620Z 27001KT 9999 BKN140 23/19 Q1014 BLU;
0125102340999992008080107204+53133+009350FM-15+0061ETGQ V0202201N002112200019N0112651N1+02501+01801999999ADDGA1041+045001999GF104991999999999999999999MA1101391999999REMMET056METAR ETGQ 010720Z 22004KT 9999 SCT150 25/18 Q1014 BLU/;
0148102340999992008080108204+53133+009350FM-15+0061ETGQ V0202201N003612200019N0112651N1+02501+01801999999ADDGA1021+009001999GA2041+048001999GF104991999999999999999999MA1101391999999REMMET063METAR ETGQ 010820Z 22007KT 9999 FEW030 SCT160 25/18 Q1014 BLU/;
0147102340999992008080109204+53133+009350FM-15+0061ETGQ V0202601N002110450019N0112651N1+02501+01601999999ADDGA1021+012001999GA2071+045001999GF107991999999999999999999MA1101491999999REMMET062METAR ETGQ 010920Z 26004KT 9999 FEW040 BKN150 25/16 Q1015 BLU;
0147102340999992008080110204+53133+009350FM-15+0061ETGQ V0202301N002610450019N0112651N1+02601+01601999999ADDGA1021+012001999GA2071+045001999GF107991999999999999999999MA1101491999999REMMET062METAR ETGQ 011020Z 23005KT 9999 FEW040 BKN150 26/16 Q1015 BLU;
0147102340999992008080111204+53133+009350FM-15+0061ETGQ V0202401N002610300019N0112651N1+02501+01401999999ADDGA1021+012001999GA2071+030001999GF107991999999999999999999MA1101591999999REMMET062METAR ETGQ 011120Z 24005KT 9999 FEW040 BKN100 25/14 Q1016 BLU;
0147102340999992008080112204+53133+009350FM-15+0061ETGQ V0202301N001510300019N0112651N1+02401+01401999999ADDGA1021+012901999GA2071+030001999GF107991999999999999999999MA1101591999999REMMET062METAR ETGQ 011220Z 23003KT 9999 FEW043 BKN100 24/14 Q1016 BLU;
0148102340999992008080113204+53133+009350FM-15+0061ETGQ V0202001N003112200019N0112651N1+02501+01401999999ADDGA1041+012001999GA2041+033001999GF104991999999999999999999MA1101591999999REMMET063METAR ETGQ 011320Z 20006KT 9999 SCT040 SCT110 25/14 Q1016 BLU/;
0170102340999992008080114204+53133+009350FM-15+0061ETGQ V0202601N00311039001CN0112651N1+02501+01401999999ADDGA1041+014401999GA2041+039001999GA3071+051001999GF107991999999999999999999MA1101591999999REMMET069METAR ETGQ 011420Z 26006KT 9999 SCT048 SCT130 BKN170 25/14 Q1016 BLU;
0170102340999992008080115204+53133+009350FM-15+0061ETGQ V0202201N00361018001CN0112651N1+02501+01301999999ADDGA1021+013501999GA2041+018001999GA3071+048001999GF107991999999999999999999MA1101591999999REMMET069METAR ETGQ 011520Z 22007KT 9999 FEW045 SCT060 BKN160 25/13 Q1016 BLU;
0170102340999992008080116204+53133+009350FM-15+0061ETGQ V0202201N002610240019N0112651N1+02401+01201999999ADDGA1021+013501999GA2071+024001999GA3071+045001999GF107991999999999999999999MA1101591999999REMMET069METAR ETGQ 011620Z 22005KT 9999 FEW045 BKN080 BKN150 24/12 Q1016 BLU;
0170102340999992008080117204+53133+009350FM-15+0061ETGQ V0202501N00361030001CN0112651N1+02401+01201999999ADDGA1021+013501999GA2041+030001999GA3071+054001999GF107991999999999999999999MA1101591999999REMMET069METAR ETGQ 011720Z 25007KT 9999 FEW045 SCT100 BKN180 24/12 Q1016 BLU;
0170102340999992008080118204+53133+009350FM-15+0061ETGQ V0202201N002610300019N0112651N1+02301+00901999999ADDGA1021+013501999GA2071+030001999GA3071+072001999GF107991999999999999999999MA1101691999999REMMET069METAR ETGQ 011820Z 22005KT 9999 FEW045 BKN100 BKN240 23/09 Q1017 BLU;
0157102340999992008080404204+53133+009350FM-15+0061ETGQ V0202401N002610180019N0080001N1+01801+01601999999ADDGA1041+007501999GA2081+018001999GF108991999999999999999999MA1100811999999MW1611REMMET066METAR ETGQ 040420Z 24005KT 8000 -RA SCT025 OVC060 18/16 Q1008 BLU;
0157102340999992008080405204+53133+009350FM-15+0061ETGQ V0202801N000510240019N0080001N1+01701+01501999999ADDGA1041+006901999GA2081+024001999GF108991999999999999999999MA1100811999999MW1611REMMET066METAR ETGQ 040520Z 28001KT 8000 -RA SCT023 OVC080 17/15 Q1008 BLU;
0134102340999992008080406204+53133+009350FM-15+0061ETGQ V0202501N002610075019N0112651N1+01701+01501999999ADDGA1071+007501999GF107991999999999999999999MA1100911999999MW1611REMMET059METAR ETGQ 040620Z 25005KT 9999 -RA BKN025 17/15 Q1009 BLU;
0125102340999992008080407204+53133+009350FM-15+0061ETGQ V0203001N000512200019N0112651N1+01701+01501999999ADDGA1041+009601999GF104991999999999999999999MA1100911999999REMMET056METAR ETGQ 040720Z 30001KT 9999 SCT032 17/15 Q1009 BLU/;
0125102340999992008080408204+53133+009350FM-15+0061ETGQ V0202801N003112200019N0112651N1+02001+01401999999ADDGA1041+010501999GF104991999999999999999999MA1101021999999REMMET056METAR ETGQ 040820Z 28006KT 9999 SCT035 20/14 Q1010 BLU/;
0125102340999992008080409204+53133+009350FM-15+0061ETGQ V0202801N004112200019N0112651N1+02101+01301999999ADDGA1041+009001999GF104991999999999999999999MA1101021999999REMMET056METAR ETGQ 040920Z 28008KT 9999 SCT030 21/13 Q1010 BLU/;
0136102340999992008080410204+53133+009350FM-15+0061ETGQ V0202801N003612200019N0112651N1+02301+01201999999ADDGA1041+012001999GF104991999999999999999999MA1101021999999OC100871REMMET059METAR ETGQ 041020Z 28007G17KT 9999 SCT040 23/12 Q1010 BLU/;
0125102340999992008080411204+53133+009350FM-15+0061ETGQ V0203401N005712200019N0112651N1+02101+01301999999ADDGA1041+015001999GF104991999999999999999999MA1101021999999REMMET056METAR ETGQ 041120Z 34011KT 9999 SCT050 21/13 Q1010 BLU/;
0125102340999992008080412204+53133+009350FM-15+0061ETGQ V0203201N004612200019N0112651N1+02201+01201999999ADDGA1041+018001999GF104991999999999999999999MA1101081999999REMMET056METAR ETGQ 041220Z 32009KT 9999 SCT060 22/12 Q1011 BLU/;
0125102340999992008080413204+53133+009350FM-15+0061ETGQ V0203101N003112200019N0112651N1+02201+01101999999ADDGA1041+015001999GF104991999999999999999999MA1101081999999REMMET056METAR ETGQ 041320Z 31006KT 9999 SCT050 22/11 Q1011 BLU/;
0125102340999992008080414204+53133+009350FM-15+0061ETGQ V0203201N005112200019N0112651N1+02301+01001999999ADDGA1041+015001999GF104991999999999999999999MA1101081999999REMMET056METAR ETGQ 041420Z 32010KT 9999 SCT050 23/10 Q1011 BLU/;
0125102340999992008080415204+53133+009350FM-15+0061ETGQ V0203301N003612200019N0112651N1+02301+01001999999ADDGA1041+018001999GF104991999999999999999999MA1101081999999REMMET056METAR ETGQ 041520Z 33007KT 9999 SCT060 23/10 Q1011 BLU/;
0125102340999992008080416204+53133+009350FM-15+0061ETGQ V0203401N004112200019N0112651N1+02301+00901999999ADDGA1021+018001999GF102991999999999999999999MA1101191999999REMMET056METAR ETGQ 041620Z 34008KT 9999 FEW060 23/09 Q1012 BLU/;
0148102340999992008080417204+53133+009350FM-15+0061ETGQ V0203201N003612200019N0112651N1+02201+00901999999ADDGA1021+018001999GA2041+090001999GF104991999999999999999999MA1101191999999REMMET063METAR ETGQ 041720Z 32007KT 9999 FEW060 SCT300 22/09 Q1012 BLU/;
0148102340999992008080418204+53133+009350FM-15+0061ETGQ V0203101N002112200019N0112651N1+02101+00901999999ADDGA1021+018001999GA2041+090001999GF104991999999999999999999MA1101191999999REMMET063METAR ETGQ 041820Z 31004KT 9999 FEW060 SCT300 21/09 Q1012 BLU/;
0125102340999992008080504204+53133+009350FM-15+0061ETGQ V0202301N001512200019N0112651N1+01401+01001999999ADDGA1021+030001999GF102991999999999999999999MA1101491999999REMMET056METAR ETGQ 050420Z 23003KT 9999 FEW100 14/10 Q1015 BLU/;
0124102340999992008080505204+53133+009350FM-15+0061ETGQ V0201701N000510090019N0112651N1+01401+01001999999ADDGA1071+009001999GF107991999999999999999999MA1101591999999REMMET055METAR ETGQ 050520Z 17001KT 9999 BKN030 14/10 Q1016 BLU;
0125102340999992008080506204+53133+009350FM-15+0061ETGQ V0202301N001012200019N0112651N1+01601+01101999999ADDGA1041+009001999GF104991999999999999999999MA1101691999999REMMET056METAR ETGQ 050620Z 23002KT 9999 SCT030 16/11 Q1017 BLU/;
0125102340999992008080507204+53133+009350FM-15+0061ETGQ V0209999V000512200019N0112651N1+01701+01101999999ADDGA1021+015001999GF102991999999999999999999MA1101691999999REMMET056METAR ETGQ 050720Z VRB01KT 9999 FEW050 17/11 Q1017 BLU/;
0125102340999992008080508204+53133+009350FM-15+0061ETGQ V0202301N000512200019N0112651N1+01901+01101999999ADDGA1021+008401999GF102991999999999999999999MA1101691999999REMMET056METAR ETGQ 050820Z 23001KT 9999 FEW028 19/11 Q1017 BLU/;
0125102340999992008080510204+53133+009350FM-15+0061ETGQ V0209999V000512200019N0112651N1+02101+01101999999ADDGA1041+010501999GF104991999999999999999999MA1101801999999REMMET056METAR ETGQ 051020Z VRB01KT 9999 SCT035 21/11 Q1018 BLU/;
0125102340999992008080511204+53133+009350FM-15+0061ETGQ V0209999V001012200019N0112651N1+02201+01101999999ADDGA1041+012001999GF104991999999999999999999MA1101691999999REMMET056METAR ETGQ 051120Z VRB02KT 9999 SCT040 22/11 Q1017 BLU/;
0125102340999992008080512204+53133+009350FM-15+0061ETGQ V0209999V001012200019N0112651N1+02201+01001999999ADDGA1041+013501999GF104991999999999999999999MA1101691999999REMMET056METAR ETGQ 051220Z VRB02KT 9999 SCT045 22/10 Q1017 BLU/;
0125102340999992008080513204+53133+009350FM-15+0061ETGQ V0209999C000012200019N0112651N1+02201+01001999999ADDGA1041+015001999GF104991999999999999999999MA1101691999999REMMET056METAR ETGQ 051320Z 00000KT 9999 SCT050 22/10 Q1017 BLU/;
0125102340999992008080514204+53133+009350FM-15+0061ETGQ V0209999V000512200019N0112651N1+02301+01001999999ADDGA1041+018001999GF104991999999999999999999MA1101691999999REMMET056METAR ETGQ 051420Z VRB01KT 9999 SCT060 23/10 Q1017 BLU/;
0148102340999992008080515204+53133+009350FM-15+0061ETGQ V0201201N001512200019N0112651N1+02401+01001999999ADDGA1041+015001999GA2041+060001999GF104991999999999999999999MA1101691999999REMMET063METAR ETGQ 051520Z 12003KT 9999 SCT050 SCT200 24/10 Q1017 BLU/;
0148102340999992008080516204+53133+009350FM-15+0061ETGQ V0209999C000012200019N0112651N1+02401+01001999999ADDGA1041+015001999GA2041+060001999GF104991999999999999999999MA1101591999999REMMET063METAR ETGQ 051620Z 00000KT 9999 SCT050 SCT200 24/10 Q1016 BLU/;
0148102340999992008080517204+53133+009350FM-15+0061ETGQ V0209999V001012200019N0112651N1+02401+01001999999ADDGA1041+015001999GA2041+060001999GF104991999999999999999999MA1101591999999REMMET063METAR ETGQ 051720Z VRB02KT 9999 SCT050 SCT200 24/10 Q1016 BLU/;
0148102340999992008080518204+53133+009350FM-15+0061ETGQ V0200501N001012200019N0112651N1+02301+01201999999ADDGA1041+015001999GA2041+087001999GF104991999999999999999999MA1101591999999REMMET063METAR ETGQ 051820Z 05002KT 9999 SCT050 SCT290 23/12 Q1016 BLU/;
0125102340999992008080604204+53133+009350FM-15+0061ETGQ V0201401N001512200019N0112651N1+01501+01301999999ADDGA1021+015001999GF102991999999999999999999MA1101591999999REMMET056METAR ETGQ 060420Z 14003KT 9999 FEW050 15/13 Q1016 BLU/;
0125102340999992008080605204+53133+009350FM-15+0061ETGQ V0209999C000012200019N0112651N1+01601+01301999999ADDGA1021+075001999GF102991999999999999999999MA1101691999999REMMET056METAR ETGQ 060520Z 00000KT 9999 FEW250 16/13 Q1017 BLU/;
0125102340999992008080606204+53133+009350FM-15+0061ETGQ V0201601N001512200019N0112651N1+01801+01301999999ADDGA1021+075001999GF102991999999999999999999MA1101691999999REMMET056METAR ETGQ 060620Z 16003KT 9999 FEW250 18/13 Q1017 BLU/;
0125102340999992008080607204+53133+009350FM-15+0061ETGQ V0209999V001012200019N0112651N1+02001+01201999999ADDGA1021+075001999GF102991999999999999999999MA1101591999999REMMET056METAR ETGQ 060720Z VRB02KT 9999 FEW250 20/12 Q1016 BLU/;
0125102340999992008080608204+53133+009350FM-15+0061ETGQ V0201601N001512200019N0112651N1+02301+01301999999ADDGA1021+075001999GF102991999999999999999999MA1101591999999REMMET056METAR ETGQ 060820Z 16003KT 9999 FEW250 23/13 Q1016 BLU/;
0125102340999992008080609204+53133+009350FM-15+0061ETGQ V0209999V001012200019N0112651N1+02501+01301999999ADDGA1021+015001999GF102991999999999999999999MA1101491999999REMMET056METAR ETGQ 060920Z VRB02KT 9999 FEW050 25/13 Q1015 BLU/;
0125102340999992008080610204+53133+009350FM-15+0061ETGQ V0209999V001012200019N0112651N1+02601+01301999999ADDGA1021+018001999GF102991999999999999999999MA1101491999999REMMET056METAR ETGQ 061020Z VRB02KT 9999 FEW060 26/13 Q1015 BLU/;
0125102340999992008080611204+53133+009350FM-15+0061ETGQ V0201701N000512200019N0112651N1+02801+01201999999ADDGA1021+021001999GF102991999999999999999999MA1101391999999REMMET056METAR ETGQ 061120Z 17001KT 9999 FEW070 28/12 Q1014 BLU/;
0125102340999992008080612204+53133+009350FM-15+0061ETGQ V0201701N002112200019N0112651N1+02801+01201999999ADDGA1021+021001999GF102991999999999999999999MA1101391999999REMMET056METAR ETGQ 061220Z 17004KT 9999 FEW070 28/12 Q1014 BLU/;
0125102340999992008080613204+53133+009350FM-15+0061ETGQ V0201301N002112200019N0112651N1+02901+01301999999ADDGA1021+021001999GF102991999999999999999999MA1101291999999REMMET056METAR ETGQ 061320Z 13004KT 9999 FEW070 29/13 Q1013 BLU/;
0125102340999992008080614204+53133+009350FM-15+0061ETGQ V0201901N002112200019N0112651N1+03001+01301999999ADDGA1021+021001999GF102991999999999999999999MA1101191999999REMMET056METAR ETGQ 061420Z 19004KT 9999 FEW070 30/13 Q1012 BLU/;
0125102340999992008080615204+53133+009350FM-15+0061ETGQ V0201601N002112200019N0112651N1+03001+01301999999ADDGA1021+021001999GF102991999999999999999999MA1101191999999REMMET056METAR ETGQ 061520Z 16004KT 9999 FEW070 30/13 Q1012 BLU/;
0125102340999992008080616204+53133+009350FM-15+0061ETGQ V0201601N002112200019N0112651N1+03001+01301999999ADDGA1021+021001999GF102991999999999999999999MA1101191999999REMMET056METAR ETGQ 061620Z 16004KT 9999 FEW070 30/13 Q1012 BLU/;
0125102340999992008080617204+53133+009350FM-15+0061ETGQ V0202701N002112200019N0112651N1+03001+01301999999ADDGA1021+021001999GF102991999999999999999999MA1101081999999REMMET056METAR ETGQ 061720Z 27004KT 9999 FEW070 30/13 Q1011 BLU/;
0148102340999992008080618204+53133+009350FM-15+0061ETGQ V0201501N001512200019N0112651N1+02801+01401999999ADDGA1021+021001999GA2041+105001999GF104991999999999999999999MA1101081999999REMMET063METAR ETGQ 061820Z 15003KT 9999 FEW070 SCT350 28/14 Q1011 BLU/;
0125102340999992008080704204+53133+009350FM-15+0061ETGQ V0209999C000012200019N0112651N1+01701+01501999999ADDGA1021+030001999GF102991999999999999999999MA1100911999999REMMET056METAR ETGQ 070420Z 00000KT 9999 FEW100 17/15 Q1009 BLU/;
0125102340999992008080705204+53133+009350FM-15+0061ETGQ V0201801N001012200019N0112651N1+01901+01501999999ADDGA1021+039001999GF102991999999999999999999MA1100811999999REMMET056METAR ETGQ 070520Z 18002KT 9999 FEW130 19/15 Q1008 BLU/;
0148102340999992008080706204+53133+009350FM-15+0061ETGQ V0209999C000011050019N0112651N1+02101+01601999999ADDGA1021+039001999GA2071+105001999GF107991999999999999999999MA1100811999999REMMET063METAR ETGQ 070620Z 00000KT 9999 FEW130 BKN350 21/16 Q1008 BLU/;
0148102340999992008080707204+53133+009350FM-15+0061ETGQ V0201501N001011050019N0112651N1+02301+01601999999ADDGA1021+039001999GA2071+105001999GF107991999999999999999999MA1100811999999REMMET063METAR ETGQ 070720Z 15002KT 9999 FEW130 BKN350 23/16 Q1008 BLU/;
0148102340999992008080708204+53133+009350FM-15+0061ETGQ V0201301N002111050019N0112651N1+02501+01601999999ADDGA1021+045001999GA2071+105001999GF107991999999999999999999MA1100711999999REMMET063METAR ETGQ 070820Z 13004KT 9999 FEW150 BKN350 25/16 Q1007 BLU/;
0125102340999992008080709204+53133+009350FM-15+0061ETGQ V0201701N002111050019N0112651N1+02701+01701999999ADDGA1071+105001999GF107991999999999999999999MA1100711999999REMMET056METAR ETGQ 070920Z 17004KT 9999 BKN350 27/17 Q1007 BLU/;
0125102340999992008080710204+53133+009350FM-15+0061ETGQ V0201401N002610690019N0112651N1+02801+01601999999ADDGA1071+069001999GF107991999999999999999999MA1100611999999REMMET056METAR ETGQ 071020Z 14005KT 9999 BKN230 28/16 Q1006 BLU/;
0148102340999992008080711204+53133+009350FM-15+0061ETGQ V0202101N002610690019N0112651N1+02901+01701999999ADDGA1041+015001999GA2071+069001999GF107991999999999999999999MA1100611999999REMMET063METAR ETGQ 071120Z 21005KT 9999 SCT050 BKN230 29/17 Q1006 BLU/;
0147102340999992008080712204+53133+009350FM-15+0061ETGQ V0202101N003110300019N0112651N1+02801+01601999999ADDGA1041+015001999GA2071+030001999GF107991999999999999999999MA1100611999999REMMET062METAR ETGQ 071220Z 21006KT 9999 SCT050 BKN100 28/16 Q1006 BLU;
0170102340999992008080713204+53133+009350FM-15+0061ETGQ V0202201N00361024001CN0112651N1+02601+01601999999ADDGA1021+015001999GA2041+024001999GA3071+039001999GF107991999999999999999999MA1100611999999REMMET069METAR ETGQ 071320Z 22007KT 9999 FEW050 SCT080 BKN130 26/16 Q1006 BLU;
0171102340999992008080714204+53133+009350FM-15+0061ETGQ V0202301N00311039001CN0112651N1+02701+01501999999ADDGA1041+012001999GA2041+039001999GA3071+075001999GF107991999999999999999999MA1100611999999REMMET070METAR ETGQ 071420Z 23006KT 9999 SCT040 SCT130 BKN250 27/15 Q1006 BLU/;
0159102340999992008080715204+53133+009350FM-15+0061ETGQ V0202301N004110900019N0112651N1+02701+01401999999ADDGA1041+015001999GA2071+090001999GF107991999999999999999999MA1100511999999OC101031REMMET066METAR ETGQ 071520Z 23008G20KT 9999 SCT050 BKN310 27/14 Q1005 BLU/;
0124102340999992008080716204+53133+009350FM-15+0061ETGQ V0202701N003610150019N0112651N1+02701+01301999999ADDGA1071+015001999GF107991999999999999999999MA1100611999999REMMET055METAR ETGQ 071620Z 27007KT 9999 BKN050 27/13 Q1006 BLU;
0147102340999992008080717204+53133+009350FM-15+0061ETGQ V0202401N003610450019N0112651N1+02601+01301999999ADDGA1041+015001999GA2071+045001999GF107991999999999999999999MA1100611999999REMMET062METAR ETGQ 071720Z 24007KT 9999 SCT050 BKN150 26/13 Q1006 BLU;
0148102340999992008080718204+53133+009350FM-15+0061ETGQ V0203001N004112200019N0112651N1+02401+01301999999ADDGA1021+015001999GA2041+045001999GF104991999999999999999999MA1100611999999REMMET063METAR ETGQ 071820Z 30008KT 9999 FEW050 SCT150 24/13 Q1006 BLU/;
0182102340999992008080720394+53133+009350FM-16+0061ETGQ V0209999V00101030001CN0112651N1+02101+01301999999ADDGA1041+013501091GA2041+030001999GA3071+075001999GF107991999999999999999999MA1100811999999MW1171REMMET075SPECI ETGQ 072039Z VRB02KT 9999 TS SCT045CB SCT100 BKN250 21/13 Q1008 BLU/;
0124102340999992008080804204+53133+009350FM-15+0061ETGQ V0202601N002610180019N0112651N1+01801+01401999999ADDGA1071+018001999GF107991999999999999999999MA1100611999999REMMET055METAR ETGQ 080420Z 26005KT 9999 BKN060 18/14 Q1006 BLU;
0147102340999992008080805204+53133+009350FM-15+0061ETGQ V0209999V001010180019N0112651N1+01801+01401999999ADDGA1021+012001999GA2071+018001999GF107991999999999999999999MA1100611999999REMMET062METAR ETGQ 080520Z VRB02KT 9999 FEW040 BKN060 18/14 Q1006 BLU;
0147102340999992008080806204+53133+009350FM-15+0061ETGQ V0201601N001510210019N0112651N1+01701+01501999999ADDGA1021+015001999GA2071+021001999GF107991999999999999999999MA1100611999999REMMET062METAR ETGQ 080620Z 16003KT 9999 FEW050 BKN070 17/15 Q1006 BLU;
0147102340999992008080807204+53133+009350FM-15+0061ETGQ V0202001N002110180019N0112651N1+01701+01501999999ADDGA1021+009001999GA2071+018001999GF107991999999999999999999MA1100611999999REMMET062METAR ETGQ 080720Z 20004KT 9999 FEW030 BKN060 17/15 Q1006 BLU;
0147102340999992008080808204+53133+009350FM-15+0061ETGQ V0202201N001510180019N0112651N1+01801+01401999999ADDGA1041+009001999GA2071+018001999GF107991999999999999999999MA1100711999999REMMET062METAR ETGQ 080820Z 22003KT 9999 SCT030 BKN060 18/14 Q1007 BLU;
0147102340999992008080809204+53133+009350FM-15+0061ETGQ V0202201N003110240019N0112651N1+01901+01501999999ADDGA1041+009601999GA2071+024001999GF107991999999999999999999MA1100711999999REMMET062METAR ETGQ 080920Z 22006KT 9999 SCT032 BKN080 19/15 Q1007 BLU;
0150102340999992008080810204+53133+009350FM-15+0061ETGQ V0202801N002110210019N0112651N1+02001+01601999999ADDGA1041+007501021GA2071+021001999GF107991999999999999999999MA1100711999999REMMET065METAR ETGQ 081020Z 28004KT 9999 SCT025TCU BKN070 20/16 Q1007 BLU;
0154102340999992008080810414+53133+009350FM-16+0061ETGQ V0203001N004610060019N0060001N1+01801+01401999999ADDGA1071+006001091GF107991999999999999999999MA1100711999999MW1811MW2951OC101081REMMET065SPECI ETGQ 081041Z 30009G21KT 6000 TSRA BKN020CB 18/14 Q1007 WHT;
0170102340999992008080811204+53133+009350FM-15+0061ETGQ V0202001N001012200019N0080001N1+01801+01501999999ADDGA1021+006001091GA2041+009001021GF104991999999999999999999MA1100811999999MW1811MW2951REMMET073METAR ETGQ 081120Z 20002KT 8000 TSRA FEW020CB SCT030TCU 18/15 Q1008 BLU/;
0128102340999992008080812204+53133+009350FM-15+0061ETGQ V0202601N001512200019N0112651N1+02001+01501999999ADDGA1041+008401021GF104991999999999999999999MA1100711999999REMMET059METAR ETGQ 081220Z 26003KT 9999 SCT028TCU 20/15 Q1007 BLU/;
0127102340999992008080813204+53133+009350FM-15+0061ETGQ V0202701N002610075019N0112651N1+02201+01201999999ADDGA1071+007501021GF107991999999999999999999MA1100711999999REMMET058METAR ETGQ 081320Z 27005KT 9999 BKN025TCU 22/12 Q1007 BLU;
0158102340999992008080814204+53133+009350FM-15+0061ETGQ V0202801N003110129019N0112651N1+02101+01201999999ADDGA1021+009001091GA2071+012901999GF107991999999999999999999MA1100811999999MW1171REMMET067METAR ETGQ 081420Z 28006KT 9999 TS FEW030CB BKN043 21/12 Q1008 BLU;
0158102340999992008080815204+53133+009350FM-15+0061ETGQ V0202601N002110120019N0112651N1+02101+01301999999ADDGA1021+009001091GA2071+012001999GF107991999999999999999999MA1100911999999MW1171REMMET067METAR ETGQ 081520Z 26004KT 9999 TS FEW030CB BKN040 21/13 Q1009 BLU;
0147102340999992008080816204+53133+009350FM-15+0061ETGQ V0202901N002610300019N0112651N1+02001+01301999999ADDGA1021+012001999GA2071+030001999GF107991999999999999999999MA1100911999999REMMET062METAR ETGQ 081620Z 29005KT 9999 FEW040 BKN100 20/13 Q1009 BLU;
0147102340999992008080817204+53133+009350FM-15+0061ETGQ V0203101N003110300019N0112651N1+01901+01201999999ADDGA1021+012001999GA2071+030001999GF107991999999999999999999MA1101021999999REMMET062METAR ETGQ 081720Z 31006KT 9999 FEW040 BKN100 19/12 Q1010 BLU;
0147102340999992008080818204+53133+009350FM-15+0061ETGQ V0202901N002110210019N0112651N1+01701+01401999999ADDGA1041+010201999GA2071+021001999GF107991999999999999999999MA1101021999999REMMET062METAR ETGQ 081820Z 29004KT 9999 SCT034 BKN070 17/14 Q1010 BLU;
0125102340999992008081104204+53133+009350FM-15+0061ETGQ V0202101N001512200019N0112651N1+01601+01201999999ADDGA1041+015001999GF104991999999999999999999MA1100811999999REMMET056METAR ETGQ 110420Z 21003KT 9999 SCT050 16/12 Q1008 BLU/;
0125102340999992008081105204+53133+009350FM-15+0061ETGQ V0209999C000012200019N0112651N1+01701+01301999999ADDGA1041+015001999GF104991999999999999999999MA1100811999999REMMET056METAR ETGQ 110520Z 00000KT 9999 SCT050 17/13 Q1008 BLU/;
0148102340999992008081106204+53133+009350FM-15+0061ETGQ V0201801N001011050019N0112651N1+01701+01301999999ADDGA1021+015001999GA2071+105001999GF107991999999999999999999MA1100911999999REMMET063METAR ETGQ 110620Z 18002KT 9999 FEW050 BKN350 17/13 Q1009 BLU/;
0148102340999992008081107204+53133+009350FM-15+0061ETGQ V0209999V000510900019N0112651N1+01801+01201999999ADDGA1041+015001999GA2071+090001999GF107991999999999999999999MA1100811999999REMMET063METAR ETGQ 110720Z VRB01KT 9999 SCT050 BKN300 18/12 Q1008 BLU/;
0148102340999992008081108204+53133+009350FM-15+0061ETGQ V0209999C000010750019N0112651N1+02001+01201999999ADDGA1021+015001999GA2071+075001999GF107991999999999999999999MA1100811999999REMMET063METAR ETGQ 110820Z 00000KT 9999 FEW050 BKN250 20/12 Q1008 BLU/;
0148102340999992008081109204+53133+009350FM-15+0061ETGQ V0209999V001010750019N0112651N1+02101+01001999999ADDGA1021+015001999GA2071+075001999GF107991999999999999999999MA1100811999999REMMET063METAR ETGQ 110920Z VRB02KT 9999 FEW050 BKN250 21/10 Q1008 BLU/;
0148102340999992008081110204+53133+009350FM-15+0061ETGQ V0202101N002612200019N0112651N1+02301+01101999999ADDGA1041+015001999GA2041+075001999GF104991999999999999999999MA1100711999999REMMET063METAR ETGQ 111020Z 21005KT 9999 SCT050 SCT250 23/11 Q1007 BLU/;
0148102340999992008081111204+53133+009350FM-15+0061ETGQ V0202001N003110900019N0112651N1+02401+01001999999ADDGA1041+015001999GA2071+090001999GF107991999999999999999999MA1100611999999REMMET063METAR ETGQ 111120Z 20006KT 9999 SCT050 BKN300 24/10 Q1006 BLU/;
0148102340999992008081112204+53133+009350FM-15+0061ETGQ V0202601N002610750019N0112651N1+02501+00801999999ADDGA1041+015001999GA2071+075001999GF107991999999999999999999MA1100611999999REMMET063METAR ETGQ 111220Z 26005KT 9999 SCT050 BKN250 25/08 Q1006 BLU/;
0148102340999992008081113204+53133+009350FM-15+0061ETGQ V0200501N002111050019N0112651N1+02501+00701999999ADDGA1041+015001999GA2071+105001999GF107991999999999999999999MA1100511999999REMMET063METAR ETGQ 111320Z 05004KT 9999 SCT050 BKN350 25/07 Q1005 BLU/;
0147102340999992008081114204+53133+009350FM-15+0061ETGQ V0202401N002610510019N0112651N1+02501+00801999999ADDGA1021+015001999GA2071+051001999GF107991999999999999999999MA1100511999999REMMET062METAR ETGQ 111420Z 24005KT 9999 FEW050 BKN170 25/08 Q1005 BLU;
0147102340999992008081115204+53133+009350FM-15+0061ETGQ V0202501N002110300019N0112651N1+02401+00901999999ADDGA1021+015001999GA2071+030001999GF107991999999999999999999MA1100511999999REMMET062METAR ETGQ 111520Z 25004KT 9999 FEW050 BKN100 24/09 Q1005 BLU;
0147102340999992008081116204+53133+009350FM-15+0061ETGQ V0202201N002610300019N0112651N1+02301+00901999999ADDGA1041+012901999GA2071+030001999GF107991999999999999999999MA1100411999999REMMET062METAR ETGQ 111620Z 22005KT 9999 SCT043 BKN100 23/09 Q1004 BLU;
0147102340999992008081117204+53133+009350FM-15+0061ETGQ V0202201N001010270019N0112651N1+02201+01101999999ADDGA1041+018001999GA2071+027001999GF107991999999999999999999MA1100411999999REMMET062METAR ETGQ 111720Z 22002KT 9999 SCT060 BKN090 22/11 Q1004 BLU;
0147102340999992008081118204+53133+009350FM-15+0061ETGQ V0203001N001510270019N0112651N1+02101+01201999999ADDGA1041+018001999GA2071+027001999GF107991999999999999999999MA1100411999999REMMET062METAR ETGQ 111820Z 30003KT 9999 SCT060 BKN090 21/12 Q1004 BLU;
0157102340999992008081204204+53133+009350FM-15+0061ETGQ V0209999V001010300019N0112651N1+01601+01401999999ADDGA1041+012001999GA2071+030001999GF107991999999999999999999MA1099901999999MW1611REMMET066METAR ETGQ 120420Z VRB02KT 9999 -RA SCT040 BKN100 16/14 Q0999 BLU;
0147102340999992008081205204+53133+009350FM-15+0061ETGQ V0209999C000010180019N0112651N1+01601+01501999999ADDGA1021+003001999GA2071+018001999GF107991999999999999999999MA1099801999999REMMET062METAR ETGQ 120520Z 00000KT 9999 FEW010 BKN060 16/15 Q0998 BLU;
0124102340999992008081206204+53133+009350FM-15+0061ETGQ V0209999C000010180019N0112651N1+01701+01501999999ADDGA1071+018001999GF107991999999999999999999MA1099801999999REMMET055METAR ETGQ 120620Z 00000KT 9999 BKN060 17/15 Q0998 BLU;
0147102340999992008081207204+53133+009350FM-15+0061ETGQ V0201401N001510114019N0112651N1+01701+01501999999ADDGA1021+004501999GA2071+011401999GF107991999999999999999999MA1099701999999REMMET062METAR ETGQ 120720Z 14003KT 9999 FEW015 BKN038 17/15 Q0997 BLU;
0159102340999992008081208204+53133+009350FM-15+0061ETGQ V0201701N003110075019N0112651N1+01801+01601999999ADDGA1021+004501999GA2071+007501999GF107991999999999999999999MA1099701999999MW1801REMMET068METAR ETGQ 120820Z 17006KT 9999 -SHRA FEW015 BKN025 18/16 Q0997 BLU;
0157102340999992008081209204+53133+009350FM-15+0061ETGQ V0201401N004110120019N0112651N1+01801+01601999999ADDGA1041+006001999GA2071+012001999GF107991999999999999999999MA1099701999999MW1611REMMET066METAR ETGQ 120920Z 14008KT 9999 -RA SCT020 BKN040 18/16 Q0997 BLU;
0147102340999992008081210204+53133+009350FM-15+0061ETGQ V0201401N002110060019N0112651N1+01901+01701999999ADDGA1071+006001999GA2071+042001999GF107991999999999999999999MA1099701999999REMMET062METAR ETGQ 121020Z 14004KT 9999 BKN020 BKN140 19/17 Q0997 WHT;
0124102340999992008081211204+53133+009350FM-15+0061ETGQ V0201701N002610069019N0112651N1+02101+01701999999ADDGA1071+006901999GF107991999999999999999999MA1099701999999REMMET055METAR ETGQ 121120Z 17005KT 9999 BKN023 21/17 Q0997 WHT;
0124102340999992008081212204+53133+009350FM-15+0061ETGQ V0201701N002110108019N0112651N1+02301+01701999999ADDGA1071+010801999GF107991999999999999999999MA1099801999999REMMET055METAR ETGQ 121220Z 17004KT 9999 BKN036 23/17 Q0998 BLU;
0159102340999992008081213204+53133+009350FM-15+0061ETGQ V0202001N002610078019N0112651N1+02201+01601999999ADDGA1071+007801999GA2071+012001999GF107991999999999999999999MA1099801999999MW1801REMMET068METAR ETGQ 121320Z 20005KT 9999 -SHRA BKN026 BKN040 22/16 Q0998 BLU;
0155102340999992008081214204+53133+009350FM-15+0061ETGQ V0201901N001510150019N0112651N1+02001+01701999999ADDGA1041+009001021GA2071+015001999GF107991999999999999999999MA1099801999999REMMET070METAR ETGQ 121420Z 19003KT 9999 SCT030TCU BKN050 20/17 Q0998 RERA BLU;
0174102340999992008081215204+53133+009350FM-15+0061ETGQ V0201001N00101018001CN0112651N1+02201+01701999999ADDGA1021+009001021GA2041+018001999GA3071+063001999GF107991999999999999999999MA1099801999999REMMET073METAR ETGQ 121520Z 10002KT 9999 FEW030TCU SCT060 BKN210 22/17 Q0998 BLU/;
0147102340999992008081216204+53133+009350FM-15+0061ETGQ V0201701N000510141019N0112651N1+02201+01601999999ADDGA1021+011401999GA2071+014101999GF107991999999999999999999MA1099901999999REMMET062METAR ETGQ 121620Z 17001KT 9999 FEW038 BKN047 22/16 Q0999 BLU;
0147102340999992008081217204+53133+009350FM-15+0061ETGQ V0201801N001510510019N0112651N1+02201+01601999999ADDGA1021+009001999GA2071+051001999GF107991999999999999999999MA1099901999999REMMET062METAR ETGQ 121720Z 18003KT 9999 FEW030 BKN170 22/16 Q0999 BLU;
0148102340999992008081218204+53133+009350FM-15+0061ETGQ V0202201N003110600019N0112651N1+02201+01401999999ADDGA1041+010501999GA2071+060001999GF107991999999999999999999MA1100001999999REMMET063METAR ETGQ 121820Z 22006KT 9999 SCT035 BKN200 22/14 Q1000 BLU/;
0125102340999992008081304204+53133+009350FM-15+0061ETGQ V0202101N002112200019N0112651N1+01601+01101999999ADDGA1041+011101999GF104991999999999999999999MA1100611999999REMMET056METAR ETGQ 130420Z 21004KT 9999 SCT037 16/11 Q1006 BLU/;
0125102340999992008081305204+53133+009350FM-15+0061ETGQ V0202001N002112200019N0112651N1+01601+01101999999ADDGA1041+011101999GF104991999999999999999999MA1100711999999REMMET056METAR ETGQ 130520Z 20004KT 9999 SCT037 16/11 Q1007 BLU/;
0124102340999992008081306204+53133+009350FM-15+0061ETGQ V0202201N002110105019N0112651N1+01701+01001999999ADDGA1071+010501999GF107991999999999999999999MA1100711999999REMMET055METAR ETGQ 130620Z 22004KT 9999 BKN035 17/10 Q1007 BLU;
0147102340999992008081307204+53133+009350FM-15+0061ETGQ V0202201N003110144019N0112651N1+01701+01101999999ADDGA1041+012001999GA2071+014401999GF107991999999999999999999MA1100811999999REMMET062METAR ETGQ 130720Z 22006KT 9999 SCT040 BKN048 17/11 Q1008 BLU;
0124102340999992008081308204+53133+009350FM-15+0061ETGQ V0202101N002110120019N0112651N1+01701+01001999999ADDGA1071+012001999GF107991999999999999999999MA1100811999999REMMET055METAR ETGQ 130820Z 21004KT 9999 BKN040 17/10 Q1008 BLU;
0148102340999992008081309204+53133+009350FM-15+0061ETGQ V0202201N003112200019N0112651N1+01701+01201999999ADDGA1041+010501999GA2041+018001999GF104991999999999999999999MA1100911999999REMMET063METAR ETGQ 130920Z 22006KT 9999 SCT035 SCT060 17/12 Q1009 BLU/;
0147102340999992008081310204+53133+009350FM-15+0061ETGQ V0202201N002610180019N0112651N1+01901+01101999999ADDGA1041+011401999GA2071+018001999GF107991999999999999999999MA1100911999999REMMET062METAR ETGQ 131020Z 22005KT 9999 SCT038 BKN060 19/11 Q1009 BLU;
0124102340999992008081311204+53133+009350FM-15+0061ETGQ V0202201N003110120019N0112651N1+02001+01001999999ADDGA1071+012001999GF107991999999999999999999MA1100911999999REMMET055METAR ETGQ 131120Z 22006KT 9999 BKN040 20/10 Q1009 BLU;
0135102340999992008081312204+53133+009350FM-15+0061ETGQ V0202301N004610210019N0112651N1+02001+01101999999ADDGA1071+021001999GF107991999999999999999999MA1101021999999OC101031REMMET058METAR ETGQ 131220Z 23009G20KT 9999 BKN070 20/11 Q1010 BLU;
0148102340999992008081313204+53133+009350FM-15+0061ETGQ V0202101N003112200019N0112651N1+02001+01201999999ADDGA1021+012001999GA2041+024001999GF104991999999999999999999MA1101021999999REMMET063METAR ETGQ 131320Z 21006KT 9999 FEW040 SCT080 20/12 Q1010 BLU/;
0159102340999992008081314204+53133+009350FM-15+0061ETGQ V0202201N003612200019N0112651N1+02101+01101999999ADDGA1021+012001999GA2041+027001999GF104991999999999999999999MA1101021999999OC100871REMMET066METAR ETGQ 131420Z 22007G17KT 9999 FEW040 SCT090 21/11 Q1010 BLU/;
0136102340999992008081315204+53133+009350FM-15+0061ETGQ V0202501N003112200019N0112651N1+02201+00901999999ADDGA1041+015001999GF104991999999999999999999MA1101021999999OC100821REMMET059METAR ETGQ 131520Z 25006G16KT 9999 SCT050 22/09 Q1010 BLU/;
0125102340999992008081316204+53133+009350FM-15+0061ETGQ V0202301N002612200019N0112651N1+02201+00901999999ADDGA1041+018001999GF104991999999999999999999MA1101021999999REMMET056METAR ETGQ 131620Z 23005KT 9999 SCT060 22/09 Q1010 BLU/;
0125102340999992008081317204+53133+009350FM-15+0061ETGQ V0202501N003112200019N0112651N1+02101+00901999999ADDGA1041+018001999GF104991999999999999999999MA1101081999999REMMET056METAR ETGQ 131720Z 25006KT 9999 SCT060 21/09 Q1011 BLU/;
0130102340999992008081318204+53133+009350FM-15+0061ETGQ V0202901N002112200019N0112651N1+01701+01201999999ADDGA1041+015001999GF104991999999999999999999MA1101081999999REMMET061METAR ETGQ 131820Z 29004KT 9999 SCT050 17/12 Q1011 RERA BLU/;
0125102340999992008081404204+53133+009350FM-15+0061ETGQ V0201801N001010660019N0112651N1+01401+01101999999ADDGA1071+066001999GF107991999999999999999999MA1101491999999REMMET056METAR ETGQ 140420Z 18002KT 9999 BKN220 14/11 Q1015 BLU/;
0125102340999992008081405204+53133+009350FM-15+0061ETGQ V0201901N000510690019N0112651N1+01401+01101999999ADDGA1071+069001999GF107991999999999999999999MA1101591999999REMMET056METAR ETGQ 140520Z 19001KT 9999 BKN230 14/11 Q1016 BLU/;
0148102340999992008081406204+53133+009350FM-15+0061ETGQ V0203501N000511050019N0112651N1+01501+01101999999ADDGA1021+069001999GA2071+105001999GF107991999999999999999999MA1101591999999REMMET063METAR ETGQ 140620Z 35001KT 9999 FEW230 BKN350 15/11 Q1016 BLU/;
0125102340999992008081407204+53133+009350FM-15+0061ETGQ V0202401N002612200019N0112651N1+01701+01001999999ADDGA1021+007501999GF102991999999999999999999MA1101691999999REMMET056METAR ETGQ 140720Z 24005KT 9999 FEW025 17/10 Q1017 BLU/;
0125102340999992008081408204+53133+009350FM-15+0061ETGQ V0201601N002112200019N0112651N1+01901+00901999999ADDGA1021+012001999GF102991999999999999999999MA1101591999999REMMET056METAR ETGQ 140820Z 16004KT 9999 FEW040 19/09 Q1016 BLU/;
0125102340999992008081409204+53133+009350FM-15+0061ETGQ V0202401N003112200019N0112651N1+02001+00901999999ADDGA1021+013501999GF102991999999999999999999MA1101591999999REMMET056METAR ETGQ 140920Z 24006KT 9999 FEW045 20/09 Q1016 BLU/;
0125102340999992008081410204+53133+009350FM-15+0061ETGQ V0202301N003112200019N0112651N1+02101+00901999999ADDGA1041+015001999GF104991999999999999999999MA1101591999999REMMET056METAR ETGQ 141020Z 23006KT 9999 SCT050 21/09 Q1016 BLU/;
0148102340999992008081411204+53133+009350FM-15+0061ETGQ V0202401N002610750019N0112651N1+02201+00701999999ADDGA1041+018001999GA2071+075001999GF107991999999999999999999MA1101591999999REMMET063METAR ETGQ 141120Z 24005KT 9999 SCT060 BKN250 22/07 Q1016 BLU/;
0148102340999992008081412204+53133+009350FM-15+0061ETGQ V0202401N002610690019N0112651N1+02201+00701999999ADDGA1041+018001999GA2071+069001999GF107991999999999999999999MA1101491999999REMMET063METAR ETGQ 141220Z 24005KT 9999 SCT060 BKN230 22/07 Q1015 BLU/;
0148102340999992008081413204+53133+009350FM-15+0061ETGQ V0202401N002610750019N0112651N1+02201+00701999999ADDGA1041+021001999GA2071+075001999GF107991999999999999999999MA1101491999999REMMET063METAR ETGQ 141320Z 24005KT 9999 SCT070 BKN250 22/07 Q1015 BLU/;
0125102340999992008081414204+53133+009350FM-15+0061ETGQ V0202201N002112200019N0112651N1+02301+00701999999ADDGA1041+021001999GF104991999999999999999999MA1101491999999REMMET056METAR ETGQ 141420Z 22004KT 9999 SCT070 23/07 Q1015 BLU/;
0125102340999992008081415204+53133+009350FM-15+0061ETGQ V0203101N002112200019N0112651N1+02301+00601999999ADDGA1041+021001999GF104991999999999999999999MA1101391999999REMMET056METAR ETGQ 141520Z 31004KT 9999 SCT070 23/06 Q1014 BLU/;
0125102340999992008081416204+53133+009350FM-15+0061ETGQ V0202501N002112200019N0112651N1+02201+00501999999ADDGA1021+021001999GF102991999999999999999999MA1101391999999REMMET056METAR ETGQ 141620Z 25004KT 9999 FEW070 22/05 Q1014 BLU/;
0148102340999992008081417204+53133+009350FM-15+0061ETGQ V0202601N002112200019N0112651N1+02201+00601999999ADDGA1021+021001999GA2041+075001999GF104991999999999999999999MA1101391999999REMMET063METAR ETGQ 141720Z 26004KT 9999 FEW070 SCT250 22/06 Q1014 BLU/;
0148102340999992008081418204+53133+009350FM-15+0061ETGQ V0202401N001512200019N0112651N1+02001+00701999999ADDGA1021+021001999GA2041+075001999GF104991999999999999999999MA1101391999999REMMET063METAR ETGQ 141820Z 24003KT 9999 FEW070 SCT250 20/07 Q1014 BLU/;
0124102340999992008081504204+53133+009350FM-15+0061ETGQ V0209999C000010300019N0112651N1+01301+01001999999ADDGA1071+030001999GF107991999999999999999999MA1101391999999REMMET055METAR ETGQ 150420Z 00000KT 9999 BKN100 13/10 Q1014 BLU;
0125102340999992008081505204+53133+009350FM-15+0061ETGQ V0209999C000012200019N0112651N1+01301+01001999999ADDGA1041+081001999GF104991999999999999999999MA1101391999999REMMET056METAR ETGQ 150520Z 00000KT 9999 SCT270 13/10 Q1014 BLU/;
0125102340999992008081506204+53133+009350FM-15+0061ETGQ V0203101N001012200019N0112651N1+01401+01001999999ADDGA1021+015001999GF102991999999999999999999MA1101391999999REMMET056METAR ETGQ 150620Z 31002KT 9999 FEW050 14/10 Q1014 BLU/;
0125102340999992008081507204+53133+009350FM-15+0061ETGQ V0203201N001512200019N0112651N1+01601+01101999999ADDGA1021+015001999GF102991999999999999999999MA1101291999999REMMET056METAR ETGQ 150720Z 32003KT 9999 FEW050 16/11 Q1013 BLU/;
0125102340999992008081508204+53133+009350FM-15+0061ETGQ V0200201N002112200019N0112651N1+01801+01101999999ADDGA1021+015001999GF102991999999999999999999MA1101291999999REMMET056METAR ETGQ 150820Z 02004KT 9999 FEW050 18/11 Q1013 BLU/;
0148102340999992008081509204+53133+009350FM-15+0061ETGQ V0203601N002612200019N0112651N1+01901+01001999999ADDGA1021+015001999GA2041+090001999GF104991999999999999999999MA1101291999999REMMET063METAR ETGQ 150920Z 36005KT 9999 FEW050 SCT300 19/10 Q1013 BLU/;
0148102340999992008081510204+53133+009350FM-15+0061ETGQ V0203301N003110900019N0112651N1+02001+01001999999ADDGA1021+015001999GA2071+090001999GF107991999999999999999999MA1101291999999REMMET063METAR ETGQ 151020Z 33006KT 9999 FEW050 BKN300 20/10 Q1013 BLU/;
0125102340999992008081511204+53133+009350FM-15+0061ETGQ V0203501N003112200019N0112651N1+02001+00801999999ADDGA1041+024001999GF104991999999999999999999MA1101291999999REMMET056METAR ETGQ 151120Z 35006KT 9999 SCT080 20/08 Q1013 BLU/;
0148102340999992008081512204+53133+009350FM-15+0061ETGQ V0200301N002612200019N0112651N1+02001+00901999999ADDGA1041+015001999GA2041+027001999GF104991999999999999999999MA1101291999999REMMET063METAR ETGQ 151220Z 03005KT 9999 SCT050 SCT090 20/09 Q1013 BLU/;
0147102340999992008081513204+53133+009350FM-15+0061ETGQ V0200701N001010270019N0112651N1+02001+01001999999ADDGA1021+015001999GA2071+027001999GF107991999999999999999999MA1101291999999REMMET062METAR ETGQ 151320Z 07002KT 9999 FEW050 BKN090 20/10 Q1013 BLU;
0147102340999992008081514204+53133+009350FM-15+0061ETGQ V0200201N002610300019N0112651N1+02101+00901999999ADDGA1021+015001999GA2071+030001999GF107991999999999999999999MA1101291999999REMMET062METAR ETGQ 151420Z 02005KT 9999 FEW050 BKN100 21/09 Q1013 BLU;
0148102340999992008081515204+53133+009350FM-15+0061ETGQ V0200601N002112200019N0112651N1+02101+00901999999ADDGA1021+015001999GA2041+030001999GF104991999999999999999999MA1101291999999REMMET063METAR ETGQ 151520Z 06004KT 9999 FEW050 SCT100 21/09 Q1013 BLU/;
0148102340999992008081516204+53133+009350FM-15+0061ETGQ V0200501N001512200019N0112651N1+02101+00901999999ADDGA1021+015001999GA2041+033001999GF104991999999999999999999MA1101391999999REMMET063METAR ETGQ 151620Z 05003KT 9999 FEW050 SCT110 21/09 Q1014 BLU/;
0148102340999992008081517204+53133+009350FM-15+0061ETGQ V0200401N002112200019N0112651N1+02101+00801999999ADDGA1021+018001999GA2041+030001999GF104991999999999999999999MA1101391999999REMMET063METAR ETGQ 151720Z 04004KT 9999 FEW060 SCT100 21/08 Q1014 BLU/;
0125102340999992008081518204+53133+009350FM-15+0061ETGQ V0200401N000512200019N0112651N1+02001+00901999999ADDGA1021+018001999GF102991999999999999999999MA1101391999999REMMET056METAR ETGQ 151820Z 04001KT 9999 FEW060 20/09 Q1014 BLU/;
0124102340999992008081804204+53133+009350FM-15+0061ETGQ V0202001N000510210019N0112651N1+01601+01401999999ADDGA1071+021001999GF107991999999999999999999MA1101191999999REMMET055METAR ETGQ 180420Z 20001KT 9999 BKN070 16/14 Q1012 BLU;
0148102340999992008081805204+53133+009350FM-15+0061ETGQ V0209999C000010720019N0112651N1+01501+01401999999ADDGA1041+024001999GA2071+072001999GF107991999999999999999999MA1101191999999REMMET063METAR ETGQ 180520Z 00000KT 9999 SCT080 BKN240 15/14 Q1012 BLU/;
0148102340999992008081806204+53133+009350FM-15+0061ETGQ V0209999C000010750019N0112651N1+01801+01501999999ADDGA1041+036001999GA2071+075001999GF107991999999999999999999MA1101191999999REMMET063METAR ETGQ 180620Z 00000KT 9999 SCT120 BKN250 18/15 Q1012 BLU/;
0147102340999992008081807204+53133+009350FM-15+0061ETGQ V0209999C000010360019N0112651N1+01901+01401999999ADDGA1021+006001999GA2071+036001999GF107991999999999999999999MA1101291999999REMMET062METAR ETGQ 180720Z 00000KT 9999 FEW020 BKN120 19/14 Q1013 BLU;
0170102340999992008081808204+53133+009350FM-15+0061ETGQ V0209999V00101018001CN0112651N1+02001+01401999999ADDGA1021+009001999GA2041+018001999GA3071+042001999GF107991999999999999999999MA1101291999999REMMET069METAR ETGQ 180820Z VRB02KT 9999 FEW030 SCT060 BKN140 20/14 Q1013 BLU;
0170102340999992008081809204+53133+009350FM-15+0061ETGQ V0201701N00151018001CN0112651N1+02101+01401999999ADDGA1021+009001999GA2041+018001999GA3071+033001999GF107991999999999999999999MA1101191999999REMMET069METAR ETGQ 180920Z 17003KT 9999 FEW030 SCT060 BKN110 21/14 Q1012 BLU;
0147102340999992008081810204+53133+009350FM-15+0061ETGQ V0202001N002610330019N0112651N1+02201+01301999999ADDGA1041+011101999GA2071+033001999GF107991999999999999999999MA1101191999999REMMET062METAR ETGQ 181020Z 20005KT 9999 SCT037 BKN110 22/13 Q1012 BLU;
0148102340999992008081811204+53133+009350FM-15+0061ETGQ V0202001N002610600019N0112651N1+02301+01301999999ADDGA1041+012001999GA2071+060001999GF107991999999999999999999MA1101081999999REMMET063METAR ETGQ 181120Z 20005KT 9999 SCT040 BKN200 23/13 Q1011 BLU/;
0147102340999992008081812204+53133+009350FM-15+0061ETGQ V0202001N002610420019N0112651N1+02301+01301999999ADDGA1041+015001999GA2071+042001999GF107991999999999999999999MA1101081999999REMMET062METAR ETGQ 181220Z 20005KT 9999 SCT050 BKN140 23/13 Q1011 BLU;
0147102340999992008081813204+53133+009350FM-15+0061ETGQ V0202001N003110360019N0112651N1+02401+01201999999ADDGA1021+015001999GA2071+036001999GF107991999999999999999999MA1101021999999REMMET062METAR ETGQ 181320Z 20006KT 9999 FEW050 BKN120 24/12 Q1010 BLU;
0147102340999992008081814204+53133+009350FM-15+0061ETGQ V0201901N001510360019N0112651N1+02401+01201999999ADDGA1021+015001999GA2071+036001999GF107991999999999999999999MA1101021999999REMMET062METAR ETGQ 181420Z 19003KT 9999 FEW050 BKN120 24/12 Q1010 BLU;
0148102340999992008081815204+53133+009350FM-15+0061ETGQ V0202201N004112200019N0112651N1+02601+01101999999ADDGA1041+018001999GA2041+027001999GF104991999999999999999999MA1101021999999REMMET063METAR ETGQ 181520Z 22008KT 9999 SCT060 SCT090 26/11 Q1010 BLU/;
0148102340999992008081816204+53133+009350FM-15+0061ETGQ V0201101N003112200019N0112651N1+02701+01001999999ADDGA1021+018001999GA2041+027001999GF104991999999999999999999MA1100911999999REMMET063METAR ETGQ 181620Z 11006KT 9999 FEW060 SCT090 27/10 Q1009 BLU/;
0148102340999992008081817204+53133+009350FM-15+0061ETGQ V0202301N002112200019N0112651N1+02601+01101999999ADDGA1021+021001999GA2041+036001999GF104991999999999999999999MA1100911999999REMMET063METAR ETGQ 181720Z 23004KT 9999 FEW070 SCT120 26/11 Q1009 BLU/;
0125102340999992008081818204+53133+009350FM-15+0061ETGQ V0201801N002112200019N0112651N1+02501+01201999999ADDGA1041+036001999GF104991999999999999999999MA1100911999999REMMET056METAR ETGQ 181820Z 18004KT 9999 SCT120 25/12 Q1009 BLU/;
0125102340999992008081904204+53133+009350FM-15+0061ETGQ V0202001N002112200019N0112651N1+01901+01401999999ADDGA1041+084001999GF104991999999999999999999MA1101081999999REMMET056METAR ETGQ 190420Z 20004KT 9999 SCT280 19/14 Q1011 BLU/;
0125102340999992008081905204+53133+009350FM-15+0061ETGQ V0201801N000510840019N0112651N1+01901+01301999999ADDGA1071+084001999GF107991999999999999999999MA1101081999999REMMET056METAR ETGQ 190520Z 18001KT 9999 BKN280 19/13 Q1011 BLU/;
0125102340999992008081906204+53133+009350FM-15+0061ETGQ V0202201N001510750019N0112651N1+02001+01201999999ADDGA1071+075001999GF107991999999999999999999MA1101081999999REMMET056METAR ETGQ 190620Z 22003KT 9999 BKN250 20/12 Q1011 BLU/;
0148102340999992008081907204+53133+009350FM-15+0061ETGQ V0202101N002110630019N0112651N1+02001+01201999999ADDGA1041+039001999GA2071+063001999GF107991999999999999999999MA1101191999999REMMET063METAR ETGQ 190720Z 21004KT 9999 SCT130 BKN210 20/12 Q1012 BLU/;
0147102340999992008081908204+53133+009350FM-15+0061ETGQ V0202501N001510480019N0112651N1+02001+01201999999ADDGA1041+012901999GA2071+048001999GF107991999999999999999999MA1101191999999REMMET062METAR ETGQ 190820Z 25003KT 9999 SCT043 BKN160 20/12 Q1012 BLU;
0147102340999992008081909204+53133+009350FM-15+0061ETGQ V0202001N002610129019N0112651N1+02001+01201999999ADDGA1071+012901999GA2071+030001999GF107991999999999999999999MA1101081999999REMMET062METAR ETGQ 190920Z 20005KT 9999 BKN043 BKN100 20/12 Q1011 BLU;
0124102340999992008081910204+53133+009350FM-15+0061ETGQ V0203201N003110129019N0112651N1+02101+01201999999ADDGA1071+012901999GF107991999999999999999999MA1101081999999REMMET055METAR ETGQ 191020Z 32006KT 9999 BKN043 21/12 Q1011 BLU;
0148102340999992008081911204+53133+009350FM-15+0061ETGQ V0202101N003110600019N0112651N1+02201+01201999999ADDGA1041+013501999GA2071+060001999GF107991999999999999999999MA1101081999999REMMET063METAR ETGQ 191120Z 21006KT 9999 SCT045 BKN200 22/12 Q1011 BLU/;
0148102340999992008081912204+53133+009350FM-15+0061ETGQ V0202201N003610600019N0112651N1+02301+01201999999ADDGA1041+018001999GA2071+060001999GF107991999999999999999999MA1101021999999REMMET063METAR ETGQ 191220Z 22007KT 9999 SCT060 BKN200 23/12 Q1010 BLU/;
0148102340999992008081913204+53133+009350FM-15+0061ETGQ V0202001N003110660019N0112651N1+02301+01101999999ADDGA1041+012901999GA2071+066001999GF107991999999999999999999MA1101021999999REMMET063METAR ETGQ 191320Z 20006KT 9999 SCT043 BKN220 23/11 Q1010 BLU/;
0124102340999992008081914204+53133+009350FM-15+0061ETGQ V0202501N002610135019N0112651N1+02201+01201999999ADDGA1071+013501999GF107991999999999999999999MA1101021999999REMMET055METAR ETGQ 191420Z 25005KT 9999 BKN045 22/12 Q1010 BLU;
0148102340999992008081915204+53133+009350FM-15+0061ETGQ V0202401N003110660019N0112651N1+02201+01201999999ADDGA1041+015001999GA2071+066001999GF107991999999999999999999MA1100911999999REMMET063METAR ETGQ 191520Z 24006KT 9999 SCT050 BKN220 22/12 Q1009 BLU/;
0148102340999992008081916204+53133+009350FM-15+0061ETGQ V0202101N003110660019N0112651N1+02101+01201999999ADDGA1041+018001999GA2071+066001999GF107991999999999999999999MA1101021999999REMMET063METAR ETGQ 191620Z 21006KT 9999 SCT060 BKN220 21/12 Q1010 BLU/;
0124102340999992008081917204+53133+009350FM-15+0061ETGQ V0202001N002110180019N0112651N1+02101+01201999999ADDGA1071+018001999GF107991999999999999999999MA1100911999999REMMET055METAR ETGQ 191720Z 20004KT 9999 BKN060 21/12 Q1009 BLU;
0148102340999992008081918204+53133+009350FM-15+0061ETGQ V0202101N003112200019N0112651N1+02101+01301999999ADDGA1021+015001999GA2041+024001999GF104991999999999999999999MA1100911999999REMMET063METAR ETGQ 191820Z 21006KT 9999 FEW050 SCT080 21/13 Q1009 BLU/;
0125102340999992008082004204+53133+009350FM-15+0061ETGQ V0202501N001512200019N0112651N1+01601+01301999999ADDGA1041+021001999GF104991999999999999999999MA1101191999999REMMET056METAR ETGQ 200420Z 25003KT 9999 SCT070 16/13 Q1012 BLU/;
0125102340999992008082005204+53133+009350FM-15+0061ETGQ V0202101N002612200019N0112651N1+01601+01301999999ADDGA1041+024001999GF104991999999999999999999MA1101191999999REMMET056METAR ETGQ 200520Z 21005KT 9999 SCT080 16/13 Q1012 BLU/;
0159102340999992008082006204+53133+009350FM-15+0061ETGQ V0202201N004112200019N0112651N1+01701+01201999999ADDGA1021+006001999GA2041+024001999GF104991999999999999999999MA1101291999999OC100931REMMET066METAR ETGQ 200620Z 22008G18KT 9999 FEW020 SCT080 17/12 Q1013 BLU/;
0148102340999992008082007204+53133+009350FM-15+0061ETGQ V0202501N003612200019N0112651N1+01801+01201999999ADDGA1021+007501999GA2041+024001999GF104991999999999999999999MA1101291999999REMMET063METAR ETGQ 200720Z 25007KT 9999 FEW025 SCT080 18/12 Q1013 BLU/;
0158102340999992008082008204+53133+009350FM-15+0061ETGQ V0202301N004110180019N0112651N1+01801+01201999999ADDGA1021+014401999GA2071+018001999GF107991999999999999999999MA1101391999999OC100931REMMET065METAR ETGQ 200820Z 23008G18KT 9999 FEW048 BKN060 18/12 Q1014 BLU;
0147102340999992008082009204+53133+009350FM-15+0061ETGQ V0202301N003610180019N0112651N1+01901+01201999999ADDGA1021+013501999GA2071+018001999GF107991999999999999999999MA1101391999999REMMET062METAR ETGQ 200920Z 23007KT 9999 FEW045 BKN060 19/12 Q1014 BLU;
0124102340999992008082010204+53133+009350FM-15+0061ETGQ V0202401N001510111019N0112651N1+01901+01201999999ADDGA1071+011101999GF107991999999999999999999MA1101491999999REMMET055METAR ETGQ 201020Z 24003KT 9999 BKN037 19/12 Q1015 BLU;
0147102340999992008082011204+53133+009350FM-15+0061ETGQ V0202201N003610240019N0112651N1+01901+01201999999ADDGA1021+012001999GA2071+024001999GF107991999999999999999999MA1101491999999REMMET062METAR ETGQ 201120Z 22007KT 9999 FEW040 BKN080 19/12 Q1015 BLU;
0158102340999992008082013204+53133+009350FM-15+0061ETGQ V0202301N003610210019N0112651N1+02001+01101999999ADDGA1041+011401999GA2071+021001999GF107991999999999999999999MA1101491999999OC100871REMMET065METAR ETGQ 201320Z 23007G17KT 9999 SCT038 BKN070 20/11 Q1015 BLU;
0172102340999992008082014204+53133+009350FM-15+0061ETGQ V0201401N003610240019N0112651N1+02101+01101999999ADDGA1041+013501021GA2071+024001999GF107991999999999999999999MA1101491999999MW1161OC100871REMMET073METAR ETGQ 201420Z 14007G17KT 9999 VCSH SCT045TCU BKN080 21/11 Q1015 BLU;
0161102340999992008082015204+53133+009350FM-15+0061ETGQ V0202701N003610240019N0112651N1+02101+01101999999ADDGA1021+011401021GA2071+024001999GF107991999999999999999999MA1101591999999MW1161REMMET070METAR ETGQ 201520Z 27007KT 9999 VCSH FEW038TCU BKN080 21/11 Q1016 BLU;
0150102340999992008082016204+53133+009350FM-15+0061ETGQ V0202501N003110210019N0112651N1+02001+01001999999ADDGA1021+011401021GA2071+021001999GF107991999999999999999999MA1101591999999REMMET065METAR ETGQ 201620Z 25006KT 9999 FEW038TCU BKN070 20/10 Q1016 BLU;
0150102340999992008082017204+53133+009350FM-15+0061ETGQ V0202401N003110210019N0112651N1+01901+01001999999ADDGA1021+011401021GA2071+021001999GF107991999999999999999999MA1101591999999REMMET065METAR ETGQ 201720Z 24006KT 9999 FEW038TCU BKN070 19/10 Q1016 BLU;
0147102340999992008082018204+53133+009350FM-15+0061ETGQ V0202401N003110210019N0112651N1+01901+01101999999ADDGA1041+012001999GA2071+021001999GF107991999999999999999999MA1101691999999REMMET062METAR ETGQ 201820Z 24006KT 9999 SCT040 BKN070 19/11 Q1017 BLU;
0147102340999992008082104204+53133+009350FM-15+0061ETGQ V0209999C000010180019N0112651N1+01301+01101999999ADDGA1021+006001999GA2071+018001999GF107991999999999999999999MA1101801999999REMMET062METAR ETGQ 210420Z 00000KT 9999 FEW020 BKN060 13/11 Q1018 BLU;
0124102340999992008082105204+53133+009350FM-15+0061ETGQ V0201601N000510210019N0112651N1+01401+01101999999ADDGA1071+021001999GF107991999999999999999999MA1101901999999REMMET055METAR ETGQ 210520Z 16001KT 9999 BKN070 14/11 Q1019 BLU;
0124102340999992008082106204+53133+009350FM-15+0061ETGQ V0209999C000010180019N0112651N1+01501+01201999999ADDGA1071+018001999GF107991999999999999999999MA1101901999999REMMET055METAR ETGQ 210620Z 00000KT 9999 BKN060 15/12 Q1019 BLU;
0148102340999992008082107204+53133+009350FM-15+0061ETGQ V0209999C000012200019N0112651N1+01601+01101999999ADDGA1021+013501999GA2041+018001999GF104991999999999999999999MA1101901999999REMMET063METAR ETGQ 210720Z 00000KT 9999 FEW045 SCT060 16/11 Q1019 BLU/;
0125102340999992008082108204+53133+009350FM-15+0061ETGQ V0209999V000512200019N0112651N1+01901+01101999999ADDGA1021+007501999GF102991999999999999999999MA1101901999999REMMET056METAR ETGQ 210820Z VRB01KT 9999 FEW025 19/11 Q1019 BLU/;
0148102340999992008082109204+53133+009350FM-15+0061ETGQ V0202401N002612200019N0112651N1+02101+01101999999ADDGA1021+012001999GA2041+018001999GF104991999999999999999999MA1101801999999REMMET063METAR ETGQ 210920Z 24005KT 9999 FEW040 SCT060 21/11 Q1018 BLU/;
0124102340999992008082110204+53133+009350FM-15+0061ETGQ V0202201N002610129019N0112651N1+02201+01101999999ADDGA1071+012901999GF107991999999999999999999MA1101801999999REMMET055METAR ETGQ 211020Z 22005KT 9999 BKN043 22/11 Q1018 BLU;
0125102340999992008082111204+53133+009350FM-15+0061ETGQ V0202001N002612200019N0112651N1+02401+01001999999ADDGA1041+014401999GF104991999999999999999999MA1101691999999REMMET056METAR ETGQ 211120Z 20005KT 9999 SCT048 24/10 Q1017 BLU/;
0125102340999992008082112204+53133+009350FM-15+0061ETGQ V0202401N003112200019N0112651N1+02401+01001999999ADDGA1041+018001999GF104991999999999999999999MA1101691999999REMMET056METAR ETGQ 211220Z 24006KT 9999 SCT060 24/10 Q1017 BLU/;
0147102340999992008082113204+53133+009350FM-15+0061ETGQ V0202101N003610270019N0112651N1+02401+01001999999ADDGA1041+018001999GA2071+027001999GF107991999999999999999999MA1101691999999REMMET062METAR ETGQ 211320Z 21007KT 9999 SCT060 BKN090 24/10 Q1017 BLU;
0171102340999992008082114204+53133+009350FM-15+0061ETGQ V0202201N00311027001CN0112651N1+02401+01001999999ADDGA1021+018001999GA2041+027001999GA3071+090001999GF107991999999999999999999MA1101691999999REMMET070METAR ETGQ 211420Z 22006KT 9999 FEW060 SCT090 BKN300 24/10 Q1017 BLU/;
0171102340999992008082115204+53133+009350FM-15+0061ETGQ V0202201N00311027001CN0112651N1+02301+01001999999ADDGA1041+018001999GA2041+027001999GA3071+069001999GF107991999999999999999999MA1101691999999REMMET070METAR ETGQ 211520Z 22006KT 9999 SCT060 SCT090 BKN230 23/10 Q1017 BLU/;
0171102340999992008082116204+53133+009350FM-15+0061ETGQ V0202501N00311024001CN0112651N1+02301+01101999999ADDGA1021+018001999GA2041+024001999GA3071+069001999GF107991999999999999999999MA1101591999999REMMET070METAR ETGQ 211620Z 25006KT 9999 FEW060 SCT080 BKN230 23/11 Q1016 BLU/;
0147102340999992008082117204+53133+009350FM-15+0061ETGQ V0202401N002610210019N0112651N1+02201+01201999999ADDGA1021+015001999GA2071+021001999GF107991999999999999999999MA1101691999999REMMET062METAR ETGQ 211720Z 24005KT 9999 FEW050 BKN070 22/12 Q1017 BLU;
0147102340999992008082118204+53133+009350FM-15+0061ETGQ V0202301N001010180019N0112651N1+02201+01201999999ADDGA1021+013501999GA2071+018001999GF107991999999999999999999MA1101691999999REMMET062METAR ETGQ 211820Z 23002KT 9999 FEW045 BKN060 22/12 Q1017 BLU;
0124102340999992008082204204+53133+009350FM-15+0061ETGQ V0209999C000010210019N0112651N1+01701+01301999999ADDGA1071+021001999GF107991999999999999999999MA1101491999999REMMET055METAR ETGQ 220420Z 00000KT 9999 BKN070 17/13 Q1015 BLU;
0124102340999992008082205204+53133+009350FM-15+0061ETGQ V0209999C000010180019N0112651N1+01801+01301999999ADDGA1071+018001999GF107991999999999999999999MA1101391999999REMMET055METAR ETGQ 220520Z 00000KT 9999 BKN060 18/13 Q1014 BLU;
0124102340999992008082206204+53133+009350FM-15+0061ETGQ V0203001N000510135019N0112651N1+01801+01301999999ADDGA1071+013501999GF107991999999999999999999MA1101491999999REMMET055METAR ETGQ 220620Z 30001KT 9999 BKN045 18/13 Q1015 BLU;
0148102340999992008082207204+53133+009350FM-15+0061ETGQ V0202201N001010600019N0112651N1+02001+01401999999ADDGA1041+013501999GA2071+060001999GF107991999999999999999999MA1101491999999REMMET063METAR ETGQ 220720Z 22002KT 9999 SCT045 BKN200 20/14 Q1015 BLU/;
0147102340999992008082208204+53133+009350FM-15+0061ETGQ V0201801N001510570019N0112651N1+02101+01301999999ADDGA1021+015001999GA2071+057001999GF107991999999999999999999MA1101391999999REMMET062METAR ETGQ 220820Z 18003KT 9999 FEW050 BKN190 21/13 Q1014 BLU;
0148102340999992008082209204+53133+009350FM-15+0061ETGQ V0201901N001512200019N0112651N1+02301+01401999999ADDGA1041+018001999GA2041+027001999GF104991999999999999999999MA1101291999999REMMET063METAR ETGQ 220920Z 19003KT 9999 SCT060 SCT090 23/14 Q1013 BLU/;
0147102340999992008082210204+53133+009350FM-15+0061ETGQ V0202001N001010300019N0112651N1+02301+01301999999ADDGA1041+015001999GA2071+030001999GF107991999999999999999999MA1101191999999REMMET062METAR ETGQ 221020Z 20002KT 9999 SCT050 BKN100 23/13 Q1012 BLU;
0160102340999992008082211124+53133+009350FM-16+0061ETGQ V0202401N002110150019N0112651N1+02301+01301999999ADDGA1041+012001091GA2071+015001999GF107991999999999999999999MA1101191999999MW1171REMMET069SPECI ETGQ 221112Z 24004KT 9999 VCTS SCT040CB BKN050 23/13 Q1012 BLU;
0160102340999992008082211204+53133+009350FM-15+0061ETGQ V0201701N002610150019N0080001N1+02201+01301999999ADDGA1041+012001091GA2071+015001999GF107991999999999999999999MA1101191999999MW1171REMMET069METAR ETGQ 221120Z 17005KT 8000 VCTS SCT040CB BKN050 22/13 Q1012 BLU;
0162102340999992008082212204+53133+009350FM-15+0061ETGQ V0202101N001510180019N0112651N1+01901+01601999999ADDGA1041+012001999GA2071+018001999GF107991999999999999999999MA1101191999999MW1611REMMET071METAR ETGQ 221220Z 21003KT 9999 -RA SCT040 BKN060 19/16 Q1012 RETS BLU;
0157102340999992008082213204+53133+009350FM-15+0061ETGQ V0201801N001510180019N0112651N1+01801+01601999999ADDGA1041+012001999GA2071+018001999GF107991999999999999999999MA1101081999999MW1611REMMET066METAR ETGQ 221320Z 18003KT 9999 -RA SCT040 BKN060 18/16 Q1011 BLU;
0185102340999992008082214204+53133+009350FM-15+0061ETGQ V0201301N001510048019N0080001N1+01801+01601999999ADDGA1021+003901999GA2071+004801999GA3071+018001999GF107991999999999999999999MA1101081999999MW1611REMMET078METAR ETGQ 221420Z 13003KT 8000 -RA FEW013 BKN016 BKN060 18/16 Q1011 RERA WHT;
0180102340999992008082215204+53133+009350FM-15+0061ETGQ V0202201N00211005401CN0090001N1+01801+01601999999ADDGA1021+003901999GA2041+005401999GA3071+018001999GF107991999999999999999999MA1101081999999MW1611REMMET073METAR ETGQ 221520Z 22004KT 9000 -RA FEW013 SCT018 BKN060 18/16 Q1011 BLU;
0180102340999992008082216204+53133+009350FM-15+0061ETGQ V0203201N00411006001CN0090001N1+01601+01401999999ADDGA1021+004501999GA2041+006001999GA3071+015001999GF107991999999999999999999MA1101021999999MW1611REMMET073METAR ETGQ 221620Z 32008KT 9000 -RA FEW015 SCT020 BKN050 16/14 Q1010 BLU;
0180102340999992008082217204+53133+009350FM-15+0061ETGQ V0203501N00151006001CN0080001N1+01601+01401999999ADDGA1021+004501999GA2041+006001999GA3071+015001999GF107991999999999999999999MA1101081999999MW1611REMMET073METAR ETGQ 221720Z 35003KT 8000 -RA FEW015 SCT020 BKN050 16/14 Q1011 BLU;
0180102340999992008082218204+53133+009350FM-15+0061ETGQ V0203001N00101007501CN0080001N1+01501+01401999999ADDGA1021+003001999GA2041+007501999GA3071+018001999GF107991999999999999999999MA1101081999999MW1611REMMET073METAR ETGQ 221820Z 30002KT 8000 -RA FEW010 SCT025 BKN060 15/14 Q1011 BLU;
0147102340999992008082504204+53133+009350FM-15+0061ETGQ V0209999V000510081019N0090001N1+01501+01301999999ADDGA1041+003001999GA2071+008101999GF107991999999999999999999MA1101491999999REMMET062METAR ETGQ 250420Z VRB01KT 9000 SCT010 BKN027 15/13 Q1015 BLU;
0147102340999992008082505204+53133+009350FM-15+0061ETGQ V0202001N000510084019N0090001N1+01501+01301999999ADDGA1041+003001999GA2071+008401999GF107991999999999999999999MA1101591999999REMMET062METAR ETGQ 250520Z 20001KT 9000 SCT010 BKN028 15/13 Q1016 BLU;
0147102340999992008082506204+53133+009350FM-15+0061ETGQ V0202001N001510078019N0060001N1+01501+01301999999ADDGA1041+003001999GA2071+007801999GF107991999999999999999999MA1101591999999REMMET062METAR ETGQ 250620Z 20003KT 6000 SCT010 BKN026 15/13 Q1016 WHT;
0157102340999992008082507204+53133+009350FM-15+0061ETGQ V0201601N001010075019N0070001N1+01501+01401999999ADDGA1041+003001999GA2071+007501999GF107991999999999999999999MA1101591999999MW1511REMMET066METAR ETGQ 250720Z 16002KT 7000 -DZ SCT010 BKN025 15/14 Q1016 WHT;
0157102340999992008082508204+53133+009350FM-15+0061ETGQ V0201401N000510075019N0080001N1+01601+01401999999ADDGA1041+003001999GA2071+007501999GF107991999999999999999999MA1101691999999MW1511REMMET066METAR ETGQ 250820Z 14001KT 8000 -DZ SCT010 BKN025 16/14 Q1017 BLU;
0147102340999992008082509204+53133+009350FM-15+0061ETGQ V0201601N001010036019N0080001N1+01601+01401999999ADDGA1071+003601999GA2071+008401999GF107991999999999999999999MA1101691999999REMMET062METAR ETGQ 250920Z 16002KT 8000 BKN012 BKN028 16/14 Q1017 GRN;
0124102340999992008082510204+53133+009350FM-15+0061ETGQ V0202001N002110039019N0090001N1+01701+01401999999ADDGA1071+003901999GF107991999999999999999999MA1101691999999REMMET055METAR ETGQ 251020Z 20004KT 9000 BKN013 17/14 Q1017 GRN;
0124102340999992008082511204+53133+009350FM-15+0061ETGQ V0202401N002110051019N0112651N1+01801+01401999999ADDGA1071+005101999GF107991999999999999999999MA1101691999999REMMET055METAR ETGQ 251120Z 24004KT 9999 BKN017 18/14 Q1017 WHT;
0124102340999992008082512204+53133+009350FM-15+0061ETGQ V0202401N002610066019N0112651N1+01901+01401999999ADDGA1071+006601999GF107991999999999999999999MA1101691999999REMMET055METAR ETGQ 251220Z 24005KT 9999 BKN022 19/14 Q1017 WHT;
0134102340999992008082513204+53133+009350FM-15+0061ETGQ V0202501N002610060019N0112651N1+02001+01501999999ADDGA1071+006001999GF107991999999999999999999MA1101691999999MW1611REMMET059METAR ETGQ 251320Z 25005KT 9999 -RA BKN020 20/15 Q1017 WHT;
0124102340999992008082514204+53133+009350FM-15+0061ETGQ V0202401N003610075019N0112651N1+02101+01401999999ADDGA1071+007501999GF107991999999999999999999MA1101691999999REMMET055METAR ETGQ 251420Z 24007KT 9999 BKN025 21/14 Q1017 BLU;
0170102340999992008082515204+53133+009350FM-15+0061ETGQ V0202301N00261015001CN0112651N1+02101+01401999999ADDGA1021+007501999GA2041+015001999GA3071+024001999GF107991999999999999999999MA1101691999999REMMET069METAR ETGQ 251520Z 23005KT 9999 FEW025 SCT050 BKN080 21/14 Q1017 BLU;
0148102340999992008082516204+53133+009350FM-15+0061ETGQ V0209999V000512200019N0112651N1+02001+01401999999ADDGA1021+007501999GA2041+018001999GF104991999999999999999999MA1101691999999REMMET063METAR ETGQ 251620Z VRB01KT 9999 FEW025 SCT060 20/14 Q1017 BLU/;
0147102340999992008082517204+53133+009350FM-15+0061ETGQ V0202601N001010150019N0112651N1+02001+01501999999ADDGA1041+006601999GA2071+015001999GF107991999999999999999999MA1101801999999REMMET062METAR ETGQ 251720Z 26002KT 9999 SCT022 BKN050 20/15 Q1018 BLU;
0148102340999992008082518204+53133+009350FM-15+0061ETGQ V0202501N002112200019N0112651N1+01901+01201999999ADDGA1021+007501999GA2041+087001999GF104991999999999999999999MA1101801999999REMMET063METAR ETGQ 251820Z 25004KT 9999 FEW025 SCT290 19/12 Q1018 BLU/;
0147102340999992008082604204+53133+009350FM-15+0061ETGQ V0209999C000010120019N0112651N1+01501+01201999999ADDGA1021+008101999GA2081+012001999GF108991999999999999999999MA1102201999999REMMET062METAR ETGQ 260420Z 00000KT 9999 FEW027 OVC040 15/12 Q1022 BLU;
0124102340999992008082605204+53133+009350FM-15+0061ETGQ V0201301N001010090019N0112651N1+01501+01201999999ADDGA1081+009001999GF108991999999999999999999MA1102201999999REMMET055METAR ETGQ 260520Z 13002KT 9999 OVC030 15/12 Q1022 BLU;
0124102340999992008082606204+53133+009350FM-15+0061ETGQ V0201301N000510108019N0112651N1+01501+01201999999ADDGA1081+010801999GF108991999999999999999999MA1102201999999REMMET055METAR ETGQ 260620Z 13001KT 9999 OVC036 15/12 Q1022 BLU;
0124102340999992008082607204+53133+009350FM-15+0061ETGQ V0201701N000510102019N0112651N1+01601+01201999999ADDGA1071+010201999GF107991999999999999999999MA1102301999999REMMET055METAR ETGQ 260720Z 17001KT 9999 BKN034 16/12 Q1023 BLU;
0124102340999992008082608204+53133+009350FM-15+0061ETGQ V0202401N002110105019N0112651N1+01701+01201999999ADDGA1071+010501999GF107991999999999999999999MA1102301999999REMMET055METAR ETGQ 260820Z 24004KT 9999 BKN035 17/12 Q1023 BLU;
0124102340999992008082609204+53133+009350FM-15+0061ETGQ V0200401N001510111019N0112651N1+01901+01301999999ADDGA1071+011101999GF107991999999999999999999MA1102301999999REMMET055METAR ETGQ 260920Z 04003KT 9999 BKN037 19/13 Q1023 BLU;
0124102340999992008082610204+53133+009350FM-15+0061ETGQ V0202001N001510105019N0112651N1+02001+01301999999ADDGA1071+010501999GF107991999999999999999999MA1102301999999REMMET055METAR ETGQ 261020Z 20003KT 9999 BKN035 20/13 Q1023 BLU;
0124102340999992008082611204+53133+009350FM-15+0061ETGQ V0202401N001510090019N0112651N1+02201+01301999999ADDGA1071+009001999GF107991999999999999999999MA1102301999999REMMET055METAR ETGQ 261120Z 24003KT 9999 BKN030 22/13 Q1023 BLU;
0124102340999992008082612204+53133+009350FM-15+0061ETGQ V0202501N001510105019N0112651N1+02201+01401999999ADDGA1071+010501999GF107991999999999999999999MA1102301999999REMMET055METAR ETGQ 261220Z 25003KT 9999 BKN035 22/14 Q1023 BLU;
0124102340999992008082613204+53133+009350FM-15+0061ETGQ V0202101N002610111019N0112651N1+02201+01301999999ADDGA1071+011101999GF107991999999999999999999MA1102301999999REMMET055METAR ETGQ 261320Z 21005KT 9999 BKN037 22/13 Q1023 BLU;
0124102340999992008082614204+53133+009350FM-15+0061ETGQ V0202001N003110123019N0112651N1+02301+01301999999ADDGA1071+012301999GF107991999999999999999999MA1102301999999REMMET055METAR ETGQ 261420Z 20006KT 9999 BKN041 23/13 Q1023 BLU;
0125102340999992008082615204+53133+009350FM-15+0061ETGQ V0202301N002112200019N0112651N1+02401+01401999999ADDGA1041+012601999GF104991999999999999999999MA1102201999999REMMET056METAR ETGQ 261520Z 23004KT 9999 SCT042 24/14 Q1022 BLU/;
0125102340999992008082616204+53133+009350FM-15+0061ETGQ V0202201N002612200019N0112651N1+02301+01301999999ADDGA1041+013501999GF104991999999999999999999MA1102201999999REMMET056METAR ETGQ 261620Z 22005KT 9999 SCT045 23/13 Q1022 BLU/;
0124102340999992008082617204+53133+009350FM-15+0061ETGQ V0202301N001510129019N0112651N1+02301+01401999999ADDGA1071+012901999GF107991999999999999999999MA1102201999999REMMET055METAR ETGQ 261720Z 23003KT 9999 BKN043 23/14 Q1022 BLU;
0124102340999992008082618204+53133+009350FM-15+0061ETGQ V0202701N001510120019N0112651N1+02201+01401999999ADDGA1071+012001999GF107991999999999999999999MA1102201999999REMMET055METAR ETGQ 261820Z 27003KT 9999 BKN040 22/14 Q1022 BLU;
0124102340999992008082704204+53133+009350FM-15+0061ETGQ V0202301N001510084019N0112651N1+01401+01301999999ADDGA1071+008401999GF107991999999999999999999MA1102301999999REMMET055METAR ETGQ 270420Z 23003KT 9999 BKN028 14/13 Q1023 BLU;
0124102340999992008082705204+53133+009350FM-15+0061ETGQ V0202401N001510093019N0080001N1+01401+01301999999ADDGA1071+009301999GF107991999999999999999999MA1102301999999REMMET055METAR ETGQ 270520Z 24003KT 8000 BKN031 14/13 Q1023 BLU;
0124102340999992008082706204+53133+009350FM-15+0061ETGQ V0202001N001010069019N0080001N1+01501+01301999999ADDGA1071+006901999GF107991999999999999999999MA1102301999999REMMET055METAR ETGQ 270620Z 20002KT 8000 BKN023 15/13 Q1023 WHT;
0124102340999992008082707204+53133+009350FM-15+0061ETGQ V0209999V001010069019N0080001N1+01601+01301999999ADDGA1071+006901999GF107991999999999999999999MA1102301999999REMMET055METAR ETGQ 270720Z VRB02KT 8000 BKN023 16/13 Q1023 WHT;
0124102340999992008082708204+53133+009350FM-15+0061ETGQ V0202001N001010084019N0080001N1+01801+01401999999ADDGA1071+008401999GF107991999999999999999999MA1102301999999REMMET055METAR ETGQ 270820Z 20002KT 8000 BKN028 18/14 Q1023 BLU;
0124102340999992008082709204+53133+009350FM-15+0061ETGQ V0209999V001010078019N0112651N1+02001+01401999999ADDGA1071+007801999GF107991999999999999999999MA1102301999999REMMET055METAR ETGQ 270920Z VRB02KT 9999 BKN026 20/14 Q1023 BLU;
0125102340999992008082710204+53133+009350FM-15+0061ETGQ V0202401N001512200019N0112651N1+02101+01301999999ADDGA1041+009001999GF104991999999999999999999MA1102201999999REMMET056METAR ETGQ 271020Z 24003KT 9999 SCT030 21/13 Q1022 BLU/;
0125102340999992008082711204+53133+009350FM-15+0061ETGQ V0202001N002112200019N0112651N1+02201+01301999999ADDGA1041+010801999GF104991999999999999999999MA1102201999999REMMET056METAR ETGQ 271120Z 20004KT 9999 SCT036 22/13 Q1022 BLU/;
0125102340999992008082712204+53133+009350FM-15+0061ETGQ V0202101N002612200019N0112651N1+02301+01301999999ADDGA1021+012001999GF102991999999999999999999MA1102101999999REMMET056METAR ETGQ 271220Z 21005KT 9999 FEW040 23/13 Q1021 BLU/;
0125102340999992008082713204+53133+009350FM-15+0061ETGQ V0202001N002612200019N0112651N1+02401+01401999999ADDGA1021+012001999GF102991999999999999999999MA1102101999999REMMET056METAR ETGQ 271320Z 20005KT 9999 FEW040 24/14 Q1021 BLU/;
0125102340999992008082714204+53133+009350FM-15+0061ETGQ V0202901N002612200019N0112651N1+02401+01401999999ADDGA1021+013501999GF102991999999999999999999MA1102001999999REMMET056METAR ETGQ 271420Z 29005KT 9999 FEW045 24/14 Q1020 BLU/;
0125102340999992008082715204+53133+009350FM-15+0061ETGQ V0202901N003112200019N0112651N1+02501+01401999999ADDGA1021+013501999GF102991999999999999999999MA1102001999999REMMET056METAR ETGQ 271520Z 29006KT 9999 FEW045 25/14 Q1020 BLU/;
0125102340999992008082716204+53133+009350FM-15+0061ETGQ V0203001N004112200019N0112651N1+02301+01401999999ADDGA1021+013501999GF102991999999999999999999MA1102001999999REMMET056METAR ETGQ 271620Z 30008KT 9999 FEW045 23/14 Q1020 BLU/;
0125102340999992008082717204+53133+009350FM-15+0061ETGQ V0203501N003612200019N0112651N1+02101+01401999999ADDGA1021+013501999GF102991999999999999999999MA1102001999999REMMET056METAR ETGQ 271720Z 35007KT 9999 FEW045 21/14 Q1020 BLU/;
0125102340999992008082718204+53133+009350FM-15+0061ETGQ V0203501N003612200019N0112651N1+02001+01401999999ADDGA1041+014101999GF104991999999999999999999MA1102101999999REMMET056METAR ETGQ 271820Z 35007KT 9999 SCT047 20/14 Q1021 BLU/;
0124102340999992008082804204+53133+009350FM-15+0061ETGQ V0209999C000010087019N0112651N1+01701+01301999999ADDGA1071+008701999GF107991999999999999999999MA1102001999999REMMET055METAR ETGQ 280420Z 00000KT 9999 BKN029 17/13 Q1020 BLU;
0124102340999992008082805204+53133+009350FM-15+0061ETGQ V0203501N001510093019N0112651N1+01701+01301999999ADDGA1081+009301999GF108991999999999999999999MA1102001999999REMMET055METAR ETGQ 280520Z 35003KT 9999 OVC031 17/13 Q1020 BLU;
0124102340999992008082806204+53133+009350FM-15+0061ETGQ V0209999C000010102019N0112651N1+01701+01301999999ADDGA1071+010201999GF107991999999999999999999MA1102101999999REMMET055METAR ETGQ 280620Z 00000KT 9999 BKN034 17/13 Q1021 BLU;
0124102340999992008082807204+53133+009350FM-15+0061ETGQ V0203501N000510111019N0112651N1+01801+01301999999ADDGA1071+011101999GF107991999999999999999999MA1102101999999REMMET055METAR ETGQ 280720Z 35001KT 9999 BKN037 18/13 Q1021 BLU;
0124102340999992008082808204+53133+009350FM-15+0061ETGQ V0202001N001010126019N0112651N1+01801+01301999999ADDGA1071+012601999GF107991999999999999999999MA1102101999999REMMET055METAR ETGQ 280820Z 20002KT 9999 BKN042 18/13 Q1021 BLU;
0124102340999992008082809204+53133+009350FM-15+0061ETGQ V0209999V000510126019N0112651N1+02001+01201999999ADDGA1071+012601999GF107991999999999999999999MA1102101999999REMMET055METAR ETGQ 280920Z VRB01KT 9999 BKN042 20/12 Q1021 BLU;
0124102340999992008082810204+53133+009350FM-15+0061ETGQ V0201901N001510132019N0112651N1+02001+01201999999ADDGA1071+013201999GF107991999999999999999999MA1102101999999REMMET055METAR ETGQ 281020Z 19003KT 9999 BKN044 20/12 Q1021 BLU;
0147102340999992008082811204+53133+009350FM-15+0061ETGQ V0209999C000010129019N0112651N1+02001+01201999999ADDGA1021+011401999GA2071+012901999GF107991999999999999999999MA1102101999999REMMET062METAR ETGQ 281120Z 00000KT 9999 FEW038 BKN043 20/12 Q1021 BLU;
0147102340999992008082812204+53133+009350FM-15+0061ETGQ V0209999V001010141019N0112651N1+02101+01101999999ADDGA1021+011401999GA2071+014101999GF107991999999999999999999MA1102101999999REMMET062METAR ETGQ 281220Z VRB02KT 9999 FEW038 BKN047 21/11 Q1021 BLU;
0147102340999992008082813204+53133+009350FM-15+0061ETGQ V0209999V001010141019N0112651N1+02101+01101999999ADDGA1041+011401999GA2071+014101999GF107991999999999999999999MA1102101999999REMMET062METAR ETGQ 281320Z VRB02KT 9999 SCT038 BKN047 21/11 Q1021 BLU;
0147102340999992008082814204+53133+009350FM-15+0061ETGQ V0203301N002610132019N0112651N1+02101+01201999999ADDGA1021+011401999GA2071+013201999GF107991999999999999999999MA1102001999999REMMET062METAR ETGQ 281420Z 33005KT 9999 FEW038 BKN044 21/12 Q1020 BLU;
0124102340999992008082815204+53133+009350FM-15+0061ETGQ V0203301N003110132019N0112651N1+02101+01201999999ADDGA1071+013201999GF107991999999999999999999MA1102001999999REMMET055METAR ETGQ 281520Z 33006KT 9999 BKN044 21/12 Q1020 BLU;
0124102340999992008082816204+53133+009350FM-15+0061ETGQ V0203501N003110126019N0112651N1+02101+01201999999ADDGA1071+012601999GF107991999999999999999999MA1102001999999REMMET055METAR ETGQ 281620Z 35006KT 9999 BKN042 21/12 Q1020 BLU;
0124102340999992008082817204+53133+009350FM-15+0061ETGQ V0203401N002110126019N0112651N1+02001+01201999999ADDGA1071+012601999GF107991999999999999999999MA1102001999999REMMET055METAR ETGQ 281720Z 34004KT 9999 BKN042 20/12 Q1020 BLU;
0124102340999992008082818204+53133+009350FM-15+0061ETGQ V0203401N002610126019N0112651N1+02001+01201999999ADDGA1071+012601999GF107991999999999999999999MA1102001999999REMMET055METAR ETGQ 281820Z 34005KT 9999 BKN042 20/12 Q1020 BLU;
0124102340999992008082904204+53133+009350FM-15+0061ETGQ V0209999C000010102019N0112651N1+01701+01301999999ADDGA1071+010201999GF107991999999999999999999MA1102001999999REMMET055METAR ETGQ 290420Z 00000KT 9999 BKN034 17/13 Q1020 BLU;
0124102340999992008082905204+53133+009350FM-15+0061ETGQ V0209999C000010105019N0080001N1+01701+01201999999ADDGA1081+010501999GF108991999999999999999999MA1102001999999REMMET055METAR ETGQ 290520Z 00000KT 8000 OVC035 17/12 Q1020 BLU;
0124102340999992008082906204+53133+009350FM-15+0061ETGQ V0209999C000010084019N0080001N1+01801+01301999999ADDGA1071+008401999GF107991999999999999999999MA1102001999999REMMET055METAR ETGQ 290620Z 00000KT 8000 BKN028 18/13 Q1020 BLU;
0124102340999992008082907204+53133+009350FM-15+0061ETGQ V0209999C000010066019N0112651N1+01801+01301999999ADDGA1071+006601999GF107991999999999999999999MA1102001999999REMMET055METAR ETGQ 290720Z 00000KT 9999 BKN022 18/13 Q1020 WHT;
0124102340999992008082908204+53133+009350FM-15+0061ETGQ V0209999C000010087019N0112651N1+01801+01301999999ADDGA1071+008701999GF107991999999999999999999MA1102101999999REMMET055METAR ETGQ 290820Z 00000KT 9999 BKN029 18/13 Q1021 BLU;
0147102340999992008082909204+53133+009350FM-15+0061ETGQ V0203101N000510141019N0112651N1+01901+01301999999ADDGA1041+006301999GA2071+014101999GF107991999999999999999999MA1102101999999REMMET062METAR ETGQ 290920Z 31001KT 9999 SCT021 BKN047 19/13 Q1021 BLU;
0124102340999992008082910204+53133+009350FM-15+0061ETGQ V0209999C000010099019N0112651N1+01901+01301999999ADDGA1071+009901999GF107991999999999999999999MA1102101999999REMMET055METAR ETGQ 291020Z 00000KT 9999 BKN033 19/13 Q1021 BLU;
0124102340999992008082911204+53133+009350FM-15+0061ETGQ V0209999C000010111019N0112651N1+01901+01301999999ADDGA1071+011101999GF107991999999999999999999MA1102001999999REMMET055METAR ETGQ 291120Z 00000KT 9999 BKN037 19/13 Q1020 BLU;
0147102340999992008082912204+53133+009350FM-15+0061ETGQ V0202001N001510135019N0112651N1+02101+01301999999ADDGA1041+011101999GA2071+013501999GF107991999999999999999999MA1102001999999REMMET062METAR ETGQ 291220Z 20003KT 9999 SCT037 BKN045 21/13 Q1020 BLU;
0147102340999992008082913204+53133+009350FM-15+0061ETGQ V0209999V000510135019N0112651N1+02201+01401999999ADDGA1021+009901999GA2071+013501999GF107991999999999999999999MA1102001999999REMMET062METAR ETGQ 291320Z VRB01KT 9999 FEW033 BKN045 22/14 Q1020 BLU;
0147102340999992008082914204+53133+009350FM-15+0061ETGQ V0209999V001010150019N0112651N1+02201+01301999999ADDGA1021+009301999GA2071+015001999GF107991999999999999999999MA1102001999999REMMET062METAR ETGQ 291420Z VRB02KT 9999 FEW031 BKN050 22/13 Q1020 BLU;
0147102340999992008082915204+53133+009350FM-15+0061ETGQ V0203501N002610150019N0112651N1+02201+01401999999ADDGA1041+009901999GA2071+015001999GF107991999999999999999999MA1101901999999REMMET062METAR ETGQ 291520Z 35005KT 9999 SCT033 BKN050 22/14 Q1019 BLU;
0148102340999992008082916204+53133+009350FM-15+0061ETGQ V0200301N002112200019N0112651N1+02201+01401999999ADDGA1021+009601999GA2041+014101999GF104991999999999999999999MA1101901999999REMMET063METAR ETGQ 291620Z 03004KT 9999 FEW032 SCT047 22/14 Q1019 BLU/;
0148102340999992008082917204+53133+009350FM-15+0061ETGQ V0203501N002612200019N0112651N1+02201+01301999999ADDGA1021+009601999GA2041+014101999GF104991999999999999999999MA1101901999999REMMET063METAR ETGQ 291720Z 35005KT 9999 FEW032 SCT047 22/13 Q1019 BLU/;
0124102340999992008082918204+53133+009350FM-15+0061ETGQ V0203501N001510150019N0112651N1+02101+01401999999ADDGA1071+015001999GF107991999999999999999999MA1101901999999REMMET055METAR ETGQ 291820Z 35003KT 9999 BKN050 21/14 Q1019 BLU;
0125102340999992008090104204+53133+009350FM-15+0061ETGQ V0202201N001010900019N0112651N1+01901+01601999999ADDGA1071+090001999GF107991999999999999999999MA1101491999999REMMET056METAR ETGQ 010420Z 22002KT 9999 BKN330 19/16 Q1015 BLU/;
0147102340999992008090105204+53133+009350FM-15+0061ETGQ V0209999V000510132019N0112651N1+01901+01701999999ADDGA1021+006001999GA2071+013201999GF107991999999999999999999MA1101491999999REMMET062METAR ETGQ 010520Z VRB01KT 9999 FEW020 BKN044 19/17 Q1015 BLU;
0147102340999992008090106204+53133+009350FM-15+0061ETGQ V0209999C000010210019N0112651N1+01901+01701999999ADDGA1041+015001999GA2071+021001999GF107991999999999999999999MA1101491999999REMMET062METAR ETGQ 010620Z 00000KT 9999 SCT050 BKN070 19/17 Q1015 BLU;
0125102340999992008090107204+53133+009350FM-15+0061ETGQ V0202001N001012200019N0112651N1+02001+01701999999ADDGA1041+018001999GF104991999999999999999999MA1101491999999REMMET056METAR ETGQ 010720Z 20002KT 9999 SCT060 20/17 Q1015 BLU/;
0147102340999992008090108204+53133+009350FM-15+0061ETGQ V0202701N002110150019N0112651N1+02101+01501999999ADDGA1041+008701999GA2071+015001999GF107991999999999999999999MA1101591999999REMMET062METAR ETGQ 010820Z 27004KT 9999 SCT029 BKN050 21/15 Q1016 BLU;
0147102340999992008090109204+53133+009350FM-15+0061ETGQ V0202501N002610210019N0112651N1+02101+01401999999ADDGA1021+009001999GA2071+021001999GF107991999999999999999999MA1101591999999REMMET062METAR ETGQ 010920Z 25005KT 9999 FEW030 BKN070 21/14 Q1016 BLU;
0124102340999992008090110204+53133+009350FM-15+0061ETGQ V0202801N003110123019N0112651N1+02001+01401999999ADDGA1071+012301999GF107991999999999999999999MA1101591999999REMMET055METAR ETGQ 011020Z 28006KT 9999 BKN041 20/14 Q1016 BLU;
0125102340999992008090111204+53133+009350FM-15+0061ETGQ V0202901N002112200019N0112651N1+02201+01401999999ADDGA1041+009601999GF104991999999999999999999MA1101591999999REMMET056METAR ETGQ 011120Z 29004KT 9999 SCT032 22/14 Q1016 BLU/;
0124102340999992008090112204+53133+009350FM-15+0061ETGQ V0203001N003610096019N0112651N1+02301+01101999999ADDGA1071+009601999GF107991999999999999999999MA1101591999999REMMET055METAR ETGQ 011220Z 30007KT 9999 BKN032 23/11 Q1016 BLU;
0124102340999992008090113204+53133+009350FM-15+0061ETGQ V0203301N002610096019N0112651N1+02201+01201999999ADDGA1071+009601999GF107991999999999999999999MA1101591999999REMMET055METAR ETGQ 011320Z 33005KT 9999 BKN032 22/12 Q1016 BLU;
0124102340999992008090114204+53133+009350FM-15+0061ETGQ V0202701N002610096019N0112651N1+02201+01001999999ADDGA1071+009601999GF107991999999999999999999MA1101591999999REMMET055METAR ETGQ 011420Z 27005KT 9999 BKN032 22/10 Q1016 BLU;
0124102340999992008090115204+53133+009350FM-15+0061ETGQ V0202901N003110096019N0112651N1+02201+01001999999ADDGA1071+009601999GF107991999999999999999999MA1101591999999REMMET055METAR ETGQ 011520Z 29006KT 9999 BKN032 22/10 Q1016 BLU;
0147102340999992008090116204+53133+009350FM-15+0061ETGQ V0203001N002610150019N0112651N1+02101+01001999999ADDGA1021+012001999GA2071+015001999GF107991999999999999999999MA1101591999999REMMET062METAR ETGQ 011620Z 30005KT 9999 FEW040 BKN050 21/10 Q1016 BLU;
0147102340999992008090117204+53133+009350FM-15+0061ETGQ V0202901N001510240019N0112651N1+02001+01001999999ADDGA1021+015001999GA2071+024001999GF107991999999999999999999MA1101691999999REMMET062METAR ETGQ 011720Z 29003KT 9999 FEW050 BKN080 20/10 Q1017 BLU;
0147102340999992008090118204+53133+009350FM-15+0061ETGQ V0202401N000510240019N0112651N1+01901+01101999999ADDGA1021+018001999GA2071+024001999GF107991999999999999999999MA1101691999999REMMET062METAR ETGQ 011820Z 24001KT 9999 FEW060 BKN080 19/11 Q1017 BLU;
0125102340999992008090204204+53133+009350FM-15+0061ETGQ V0209999V001010900019N0112651N1+01301+01101999999ADDGA1071+090001999GF107991999999999999999999MA1101491999999REMMET056METAR ETGQ 020420Z VRB02KT 9999 BKN300 13/11 Q1015 BLU/;
0125102340999992008090205204+53133+009350FM-15+0061ETGQ V0209999C000010900019N0112651N1+01201+01101999999ADDGA1071+090001999GF107991999999999999999999MA1101491999999REMMET056METAR ETGQ 020520Z 00000KT 9999 BKN300 12/11 Q1015 BLU/;
0147102340999992008090206204+53133+009350FM-15+0061ETGQ V0201701N000510330019N0112651N1+01401+01201999999ADDGA1071+033001999GA2071+090001999GF107991999999999999999999MA1101391999999REMMET062METAR ETGQ 020620Z 17001KT 9999 BKN110 BKN300 14/12 Q1014 BLU;
0124102340999992008090207204+53133+009350FM-15+0061ETGQ V0201601N001010360019N0112651N1+01701+01301999999ADDGA1071+036001999GF107991999999999999999999MA1101391999999REMMET055METAR ETGQ 020720Z 16002KT 9999 BKN120 17/13 Q1014 BLU;
0124102340999992008090208204+53133+009350FM-15+0061ETGQ V0201601N002610360019N0112651N1+01901+01201999999ADDGA1071+036001999GF107991999999999999999999MA1101291999999REMMET055METAR ETGQ 020820Z 16005KT 9999 BKN120 19/12 Q1013 BLU;
0124102340999992008090209204+53133+009350FM-15+0061ETGQ V0209999V001010300019N0112651N1+02001+01201999999ADDGA1071+030001999GF107991999999999999999999MA1101291999999REMMET055METAR ETGQ 020920Z VRB02KT 9999 BKN100 20/12 Q1013 BLU;
0124102340999992008090210204+53133+009350FM-15+0061ETGQ V0201801N001510117019N0112651N1+02101+01201999999ADDGA1071+011701999GF107991999999999999999999MA1101191999999REMMET055METAR ETGQ 021020Z 18003KT 9999 BKN039 21/12 Q1012 BLU;
0124102340999992008090211204+53133+009350FM-15+0061ETGQ V0201801N001510150019N0112651N1+02201+01201999999ADDGA1071+015001999GF107991999999999999999999MA1101081999999REMMET055METAR ETGQ 021120Z 18003KT 9999 BKN050 22/12 Q1011 BLU;
0147102340999992008090212204+53133+009350FM-15+0061ETGQ V0201901N001010450019N0112651N1+02301+01201999999ADDGA1041+018001999GA2071+045001999GF107991999999999999999999MA1101021999999REMMET062METAR ETGQ 021220Z 19002KT 9999 SCT060 BKN150 23/12 Q1010 BLU;
0158102340999992008090213204+53133+009350FM-15+0061ETGQ V0202401N002610150019N0112651N1+02401+01101999999ADDGA1071+015001999GA2071+045001999GF107991999999999999999999MA1100911999999OC100821REMMET065METAR ETGQ 021320Z 24005G16KT 9999 BKN050 BKN150 24/11 Q1009 BLU;
0147102340999992008090214204+53133+009350FM-15+0061ETGQ V0202201N003110450019N0112651N1+02301+01101999999ADDGA1041+018001999GA2071+045001999GF107991999999999999999999MA1100911999999REMMET062METAR ETGQ 021420Z 22006KT 9999 SCT060 BKN150 23/11 Q1009 BLU;
0147102340999992008090215204+53133+009350FM-15+0061ETGQ V0202001N002610450019N0112651N1+02301+01101999999ADDGA1041+018001999GA2071+045001999GF107991999999999999999999MA1100811999999REMMET062METAR ETGQ 021520Z 20005KT 9999 SCT060 BKN150 23/11 Q1008 BLU;
0147102340999992008090216204+53133+009350FM-15+0061ETGQ V0201801N002610480019N0112651N1+02301+01101999999ADDGA1041+015001999GA2071+048001999GF107991999999999999999999MA1100811999999REMMET062METAR ETGQ 021620Z 18005KT 9999 SCT050 BKN160 23/11 Q1008 BLU;
0147102340999992008090217204+53133+009350FM-15+0061ETGQ V0201701N002110480019N0112651N1+02201+01101999999ADDGA1041+015001999GA2071+048001999GF107991999999999999999999MA1100711999999REMMET062METAR ETGQ 021720Z 17004KT 9999 SCT050 BKN160 22/11 Q1007 BLU;
0147102340999992008090218204+53133+009350FM-15+0061ETGQ V0201501N002610480019N0112651N1+02201+01201999999ADDGA1041+015001999GA2071+048001999GF107991999999999999999999MA1100711999999REMMET062METAR ETGQ 021820Z 15005KT 9999 SCT050 BKN160 22/12 Q1007 BLU;
0124102340999992008090304204+53133+009350FM-15+0061ETGQ V0209999C000010051019N0112651N1+01601+01501999999ADDGA1071+005101999GF107991999999999999999999MA1100711999999REMMET055METAR ETGQ 030420Z 00000KT 9999 BKN017 16/15 Q1007 WHT;
0147102340999992008090305204+53133+009350FM-15+0061ETGQ V0202801N001010210019N0112651N1+01601+01401999999ADDGA1041+004501999GA2071+021001999GF107991999999999999999999MA1100811999999REMMET062METAR ETGQ 030520Z 28002KT 9999 SCT015 BKN070 16/14 Q1008 BLU;
0124102340999992008090306204+53133+009350FM-15+0061ETGQ V0202501N001510066019N0112651N1+01501+01101999999ADDGA1071+006601999GF107991999999999999999999MA1100811999999REMMET055METAR ETGQ 030620Z 25003KT 9999 BKN022 15/11 Q1008 WHT;
0147102340999992008090307204+53133+009350FM-15+0061ETGQ V0202101N001510180019N0112651N1+01501+01101999999ADDGA1021+007501999GA2071+018001999GF107991999999999999999999MA1100811999999REMMET062METAR ETGQ 030720Z 21003KT 9999 FEW025 BKN060 15/11 Q1008 BLU;
0171102340999992008090308204+53133+009350FM-15+0061ETGQ V0202301N00211036001CN0112651N1+01601+01201999999ADDGA1021+006001999GA2041+036001999GA3071+090001999GF107991999999999999999999MA1100811999999REMMET070METAR ETGQ 030820Z 23004KT 9999 FEW020 SCT120 BKN300 16/12 Q1008 BLU/;
0147102340999992008090309204+53133+009350FM-15+0061ETGQ V0202001N002110270019N0112651N1+01601+01101999999ADDGA1021+006001999GA2071+027001999GF107991999999999999999999MA1100811999999REMMET062METAR ETGQ 030920Z 20004KT 9999 FEW020 BKN090 16/11 Q1008 BLU;
0147102340999992008090310204+53133+009350FM-15+0061ETGQ V0201701N001510270019N0112651N1+01601+01101999999ADDGA1021+009001999GA2071+027001999GF107991999999999999999999MA1100811999999REMMET062METAR ETGQ 031020Z 17003KT 9999 FEW030 BKN090 16/11 Q1008 BLU;
0147102340999992008090311204+53133+009350FM-15+0061ETGQ V0209999V001010240019N0112651N1+01601+01001999999ADDGA1041+007501999GA2071+024001999GF107991999999999999999999MA1100811999999REMMET062METAR ETGQ 031120Z VRB02KT 9999 SCT025 BKN080 16/10 Q1008 BLU;
0157102340999992008090312204+53133+009350FM-15+0061ETGQ V0202701N002110210019N0080001N1+01401+01001999999ADDGA1041+006001999GA2081+021001999GF108991999999999999999999MA1100811999999MW1611REMMET066METAR ETGQ 031220Z 27004KT 8000 -RA SCT020 OVC070 14/10 Q1008 BLU;
0157102340999992008090313204+53133+009350FM-15+0061ETGQ V0202001N000510114019N0070001N1+01301+01101999999ADDGA1021+003001999GA2081+011401999GF108991999999999999999999MA1100811999999MW1611REMMET066METAR ETGQ 031320Z 20001KT 7000 -RA FEW010 OVC038 13/11 Q1008 WHT;
0180102340999992008090314204+53133+009350FM-15+0061ETGQ V0209999C00001006601CN0060001N1+01301+01101999999ADDGA1021+002701999GA2041+006601999GA3081+009601999GF108991999999999999999999MA1100811999999MW1611REMMET073METAR ETGQ 031420Z 00000KT 6000 -RA FEW009 SCT022 OVC032 13/11 Q1008 WHT;
0179102340999992008090315204+53133+009350FM-15+0061ETGQ V0209999C00001002101CN0060001N1+01301+01101999999ADDGA1021+001501999GA2041+002101999GA3081+004501999GF108991999999999999999999MA1100711999999MW1631REMMET072METAR ETGQ 031520Z 00000KT 6000 RA FEW005 SCT007 OVC015 13/11 Q1007 WHT;
0185102340999992008090316204+53133+009350FM-15+0061ETGQ V0201601N001510045019N0080001N1+01301+01101999999ADDGA1021+001801999GA2071+004501999GA3081+015001999GF108991999999999999999999MA1100711999999MW1611REMMET078METAR ETGQ 031620Z 16003KT 8000 -RA FEW006 BKN015 OVC050 13/11 Q1007 RERA WHT;
0180102340999992008090317204+53133+009350FM-15+0061ETGQ V0209999V00101003601CN0070001N1+01301+01201999999ADDGA1021+001801999GA2041+003601999GA3081+015001999GF108991999999999999999999MA1100711999999MW1611REMMET073METAR ETGQ 031720Z VRB02KT 7000 -RA FEW006 SCT012 OVC050 13/12 Q1007 WHT;
0170102340999992008090318204+53133+009350FM-15+0061ETGQ V0209999C000010240019N0090001N1+01301+01101999999ADDGA1041+009001999GA2071+024001999GA3071+048001999GF107991999999999999999999MA1100711999999REMMET069METAR ETGQ 031820Z 00000KT 9000 SCT030 BKN080 BKN160 13/11 Q1007 BLU;
0124102340999992008090404204+53133+009350FM-15+0061ETGQ V0201501N001010042019N0112651N1+01101+00901999999ADDGA1071+004201999GF107991999999999999999999MA1100811999999REMMET055METAR ETGQ 040420Z 15002KT 9999 BKN014 11/09 Q1008 GRN;
0124102340999992008090405204+53133+009350FM-15+0061ETGQ V0201301N001010045019N0112651N1+01101+00901999999ADDGA1071+004501999GF107991999999999999999999MA1100811999999REMMET055METAR ETGQ 040520Z 13002KT 9999 BKN015 11/09 Q1008 WHT;
0125102340999992008090406204+53133+009350FM-15+0061ETGQ V0201501N002112200019N0112651N1+01201+00901999999ADDGA1021+004501999GF102991999999999999999999MA1100811999999REMMET056METAR ETGQ 040620Z 15004KT 9999 FEW015 12/09 Q1008 BLU/;
0125102340999992008090407204+53133+009350FM-15+0061ETGQ V0201601N001512200019N0112651N1+01301+00901999999ADDGA1021+006001999GF102991999999999999999999MA1100811999999REMMET056METAR ETGQ 040720Z 16003KT 9999 FEW020 13/09 Q1008 BLU/;
0124102340999992008090408204+53133+009350FM-15+0061ETGQ V0209999V000510072019N0112651N1+01401+00901999999ADDGA1071+007201999GF107991999999999999999999MA1100811999999REMMET055METAR ETGQ 040820Z VRB01KT 9999 BKN024 14/09 Q1008 WHT;
0124102340999992008090409204+53133+009350FM-15+0061ETGQ V0202301N003110075019N0112651N1+01501+00901999999ADDGA1071+007501999GF107991999999999999999999MA1100911999999REMMET055METAR ETGQ 040920Z 23006KT 9999 BKN025 15/09 Q1009 BLU;
0124102340999992008090410204+53133+009350FM-15+0061ETGQ V0202301N001510102019N0112651N1+01601+00901999999ADDGA1071+010201999GF107991999999999999999999MA1100811999999REMMET055METAR ETGQ 041020Z 23003KT 9999 BKN034 16/09 Q1008 BLU;
0147102340999992008090411204+53133+009350FM-15+0061ETGQ V0202301N002610420019N0112651N1+01601+00901999999ADDGA1041+012001999GA2071+042001999GF107991999999999999999999MA1100811999999REMMET062METAR ETGQ 041120Z 23005KT 9999 SCT040 BKN140 16/09 Q1008 BLU;
0147102340999992008090412204+53133+009350FM-15+0061ETGQ V0202201N002110330019N0112651N1+01701+00901999999ADDGA1041+014101999GA2071+033001999GF107991999999999999999999MA1100811999999REMMET062METAR ETGQ 041220Z 22004KT 9999 SCT047 BKN110 17/09 Q1008 BLU;
0170102340999992008090413204+53133+009350FM-15+0061ETGQ V0202201N00261013501CN0112651N1+01701+00801999999ADDGA1021+009001999GA2041+013501999GA3071+033001999GF107991999999999999999999MA1100811999999REMMET069METAR ETGQ 041320Z 22005KT 9999 FEW030 SCT045 BKN110 17/08 Q1008 BLU;
0147102340999992008090414204+53133+009350FM-15+0061ETGQ V0202401N002610180019N0112651N1+01801+00801999999ADDGA1021+012001999GA2071+018001999GF107991999999999999999999MA1100811999999REMMET062METAR ETGQ 041420Z 24005KT 9999 FEW040 BKN060 18/08 Q1008 BLU;
0148102340999992008090415204+53133+009350FM-15+0061ETGQ V0202301N003110810019N0112651N1+01801+00701999999ADDGA1021+012001999GA2071+081001999GF107991999999999999999999MA1100811999999REMMET063METAR ETGQ 041520Z 23006KT 9999 FEW040 BKN270 18/07 Q1008 BLU/;
0148102340999992008090416204+53133+009350FM-15+0061ETGQ V0202401N002110810019N0112651N1+01701+00701999999ADDGA1021+012001999GA2071+081001999GF107991999999999999999999MA1100811999999REMMET063METAR ETGQ 041620Z 24004KT 9999 FEW040 BKN270 17/07 Q1008 BLU/;
0148102340999992008090417204+53133+009350FM-15+0061ETGQ V0202201N001510810019N0112651N1+01701+00801999999ADDGA1021+012001999GA2071+081001999GF107991999999999999999999MA1100811999999REMMET063METAR ETGQ 041720Z 22003KT 9999 FEW040 BKN270 17/08 Q1008 BLU/;
0125102340999992008090418204+53133+009350FM-15+0061ETGQ V0209999V000510720019N0112651N1+01601+00801999999ADDGA1081+072001999GF108991999999999999999999MA1100811999999REMMET056METAR ETGQ 041820Z VRB01KT 9999 OVC240 16/08 Q1008 BLU/;
0124102340999992008090504204+53133+009350FM-15+0061ETGQ V0201801N000510210019N0112651N1+01301+01101999999ADDGA1071+021001999GF107991999999999999999999MA1100711999999REMMET055METAR ETGQ 050420Z 18001KT 9999 BKN070 13/11 Q1007 BLU;
0148102340999992008090505204+53133+009350FM-15+0061ETGQ V0201601N000510900019N0112651N1+01301+01101999999ADDGA1041+018001999GA2071+090001999GF107991999999999999999999MA1100711999999REMMET063METAR ETGQ 050520Z 16001KT 9999 SCT060 BKN300 13/11 Q1007 BLU/;
0148102340999992008090506204+53133+009350FM-15+0061ETGQ V0209999C000010900019N0112651N1+01401+01101999999ADDGA1041+030001999GA2071+090001999GF107991999999999999999999MA1100711999999REMMET063METAR ETGQ 050620Z 00000KT 9999 SCT100 BKN300 14/11 Q1007 BLU/;
0171102340999992008090507204+53133+009350FM-15+0061ETGQ V0209999C00001027001CN0112651N1+01501+01201999999ADDGA1021+006601999GA2041+027001999GA3071+090001999GF107991999999999999999999MA1100711999999REMMET070METAR ETGQ 050720Z 00000KT 9999 FEW022 SCT090 BKN300 15/12 Q1007 BLU/;
0147102340999992008090508204+53133+009350FM-15+0061ETGQ V0201601N001510360019N0112651N1+01601+01201999999ADDGA1041+007501999GA2071+036001999GF107991999999999999999999MA1100711999999REMMET062METAR ETGQ 050820Z 16003KT 9999 SCT025 BKN120 16/12 Q1007 BLU;
0147102340999992008090509204+53133+009350FM-15+0061ETGQ V0201501N002110360019N0112651N1+01801+01301999999ADDGA1041+009001999GA2071+036001999GF107991999999999999999999MA1100611999999REMMET062METAR ETGQ 050920Z 15004KT 9999 SCT030 BKN120 18/13 Q1006 BLU;
0147102340999992008090510204+53133+009350FM-15+0061ETGQ V0201701N002610360019N0112651N1+01901+01301999999ADDGA1041+006601999GA2071+036001999GF107991999999999999999999MA1100611999999REMMET062METAR ETGQ 051020Z 17005KT 9999 SCT022 BKN120 19/13 Q1006 BLU;
0147102340999992008090511204+53133+009350FM-15+0061ETGQ V0201901N002610270019N0112651N1+01901+01301999999ADDGA1041+007501999GA2071+027001999GF107991999999999999999999MA1100511999999REMMET062METAR ETGQ 051120Z 19005KT 9999 SCT025 BKN090 19/13 Q1005 BLU;
0147102340999992008090512204+53133+009350FM-15+0061ETGQ V0201701N003110270019N0112651N1+02001+01401999999ADDGA1041+006001999GA2071+027001999GF107991999999999999999999MA1100511999999REMMET062METAR ETGQ 051220Z 17006KT 9999 SCT020 BKN090 20/14 Q1005 BLU;
0147102340999992008090513204+53133+009350FM-15+0061ETGQ V0201401N002110210019N0112651N1+02001+01401999999ADDGA1041+006001999GA2071+021001999GF107991999999999999999999MA1100411999999REMMET062METAR ETGQ 051320Z 14004KT 9999 SCT020 BKN070 20/14 Q1004 BLU;
0170102340999992008090514204+53133+009350FM-15+0061ETGQ V0201401N00151021001CN0112651N1+02001+01401999999ADDGA1041+006001999GA2041+021001999GA3071+039001999GF107991999999999999999999MA1100411999999REMMET069METAR ETGQ 051420Z 14003KT 9999 SCT020 SCT070 BKN130 20/14 Q1004 BLU;
0147102340999992008090515204+53133+009350FM-15+0061ETGQ V0201301N003610120019N0112651N1+02101+01401999999ADDGA1071+012001999GA2071+033001999GF107991999999999999999999MA1100201999999REMMET062METAR ETGQ 051520Z 13007KT 9999 BKN040 BKN110 21/14 Q1002 BLU;
0147102340999992008090516204+53133+009350FM-15+0061ETGQ V0209999V001010330019N0112651N1+02101+01501999999ADDGA1021+012001999GA2071+033001999GF107991999999999999999999MA1100201999999REMMET062METAR ETGQ 051620Z VRB02KT 9999 FEW040 BKN110 21/15 Q1002 BLU;
0147102340999992008090517204+53133+009350FM-15+0061ETGQ V0201501N003610330019N0112651N1+02101+01501999999ADDGA1021+012001999GA2071+033001999GF107991999999999999999999MA1100201999999REMMET062METAR ETGQ 051720Z 15007KT 9999 FEW040 BKN110 21/15 Q1002 BLU;
0162102340999992008090518204+53133+009350FM-15+0061ETGQ V0202201N002110066019N0080001N1+01701+01501999999ADDGA1071+006601021GA2071+030001999GF107991999999999999999999MA1100311999999MW1801REMMET071METAR ETGQ 051820Z 22004KT 8000 -SHRA BKN022TCU BKN100 17/15 Q1003 WHT;
0167102340999992008090520334+53133+009350FM-16+0061ETGQ V0203001N003110066019N0080001N1+01601+01501999999ADDGA1071+006601091GA2071+030001999GF107991999999999999999999MA1100201999999MW1801MW2951REMMET070SPECI ETGQ 052033Z 30006KT 8000 -TSRA BKN022CB BKN100 16/15 Q1002 WHT;
0148102340999992008090804204+53133+009350FM-15+0061ETGQ V0201901N000512200019N0112651N1+01401+01101999999ADDGA1021+018001999GA2041+030001999GF104991999999999999999999MA1101491999999REMMET063METAR ETGQ 080420Z 19001KT 9999 FEW060 SCT100 14/11 Q1015 BLU/;
0148102340999992008090805204+53133+009350FM-15+0061ETGQ V0201601N000512200019N0112651N1+01301+01101999999ADDGA1021+018001999GA2041+033001999GF104991999999999999999999MA1101491999999REMMET063METAR ETGQ 080520Z 16001KT 9999 FEW060 SCT110 13/11 Q1015 BLU/;
0147102340999992008090806204+53133+009350FM-15+0061ETGQ V0209999C000010330019N0112651N1+01501+01101999999ADDGA1041+006301999GA2071+033001999GF107991999999999999999999MA1101591999999REMMET062METAR ETGQ 080620Z 00000KT 9999 SCT021 BKN110 15/11 Q1016 BLU;
0147102340999992008090807204+53133+009350FM-15+0061ETGQ V0209999C000010270019N0112651N1+01501+01101999999ADDGA1041+006001999GA2071+027001999GF107991999999999999999999MA1101591999999REMMET062METAR ETGQ 080720Z 00000KT 9999 SCT020 BKN090 15/11 Q1016 BLU;
0147102340999992008090808204+53133+009350FM-15+0061ETGQ V0202201N003110300019N0112651N1+01601+01101999999ADDGA1021+006301999GA2071+030001999GF107991999999999999999999MA1101691999999REMMET062METAR ETGQ 080820Z 22006KT 9999 FEW021 BKN100 16/11 Q1017 BLU;
0147102340999992008090809204+53133+009350FM-15+0061ETGQ V0202101N002610330019N0112651N1+01701+01101999999ADDGA1021+005701999GA2071+033001999GF107991999999999999999999MA1101691999999REMMET062METAR ETGQ 080920Z 21005KT 9999 FEW019 BKN110 17/11 Q1017 BLU;
0125102340999992008090810204+53133+009350FM-15+0061ETGQ V0202201N002612200019N0112651N1+01901+01101999999ADDGA1041+011401999GF104991999999999999999999MA1101691999999REMMET056METAR ETGQ 081020Z 22005KT 9999 SCT038 19/11 Q1017 BLU/;
0125102340999992008090811204+53133+009350FM-15+0061ETGQ V0202201N003612200019N0112651N1+02001+01001999999ADDGA1041+012001999GF104991999999999999999999MA1101691999999REMMET056METAR ETGQ 081120Z 22007KT 9999 SCT040 20/10 Q1017 BLU/;
0125102340999992008090812204+53133+009350FM-15+0061ETGQ V0202401N003112200019N0112651N1+02101+00901999999ADDGA1041+010501999GF104991999999999999999999MA1101691999999REMMET056METAR ETGQ 081220Z 24006KT 9999 SCT035 21/09 Q1017 BLU/;
0148102340999992008090813204+53133+009350FM-15+0061ETGQ V0202401N002612200019N0112651N1+02101+00901999999ADDGA1041+010501999GA2041+090001999GF104991999999999999999999MA1101691999999REMMET063METAR ETGQ 081320Z 24005KT 9999 SCT035 SCT300 21/09 Q1017 BLU/;
0148102340999992008090814204+53133+009350FM-15+0061ETGQ V0202501N002112200019N0112651N1+02201+00901999999ADDGA1041+010501999GA2041+081001999GF104991999999999999999999MA1101691999999REMMET063METAR ETGQ 081420Z 25004KT 9999 SCT035 SCT270 22/09 Q1017 BLU/;
0148102340999992008090815204+53133+009350FM-15+0061ETGQ V0202401N001512200019N0112651N1+02101+00901999999ADDGA1021+013501999GA2041+081001999GF104991999999999999999999MA1101691999999REMMET063METAR ETGQ 081520Z 24003KT 9999 FEW045 SCT270 21/09 Q1017 BLU/;
0125102340999992008090816204+53133+009350FM-15+0061ETGQ V0202301N002112200019N0112651N1+02101+00901999999ADDGA1021+015001999GF102991999999999999999999MA1101691999999REMMET056METAR ETGQ 081620Z 23004KT 9999 FEW050 21/09 Q1017 BLU/;
0148102340999992008090817204+53133+009350FM-15+0061ETGQ V0202401N001012200019N0112651N1+02001+01001999999ADDGA1021+013501999GA2041+024001999GF104991999999999999999999MA1101691999999REMMET063METAR ETGQ 081720Z 24002KT 9999 FEW045 SCT080 20/10 Q1017 BLU/;
0125102340999992008090818204+53133+009350FM-15+0061ETGQ V0209999C000012200019N0112651N1+01701+01001999999ADDGA1021+015001999GF102991999999999999999999MA1101691999999REMMET056METAR ETGQ 081820Z 00000KT 9999 FEW050 17/10 Q1017 BLU/;
0125102340999992008090904204+53133+009350FM-15+0061ETGQ V0209999C000012200019N0112651N1+00901+00901999999ADDGA1021+069001999GF102991999999999999999999MA1101801999999REMMET056METAR ETGQ 090420Z 00000KT 9999 FEW230 09/09 Q1018 BLU/;
0156102340999992008090905204+53133+009350FM-15+0061ETGQ V0209999C000010006019N0050001N1+01001+00901999999ADDGA1071+000601999GA2071+069001999GF107991999999999999999999MA1101801999999MW1101REMMET065METAR ETGQ 090520Z 00000KT 5000 BR BKN002 BKN230 10/09 Q1018 AMB;
0133102340999992008090906204+53133+009350FM-15+0061ETGQ V0209999C000010009019N0030001N1+01001+01001999999ADDGA1071+000901999GF107991999999999999999999MA1101901999999MW1101REMMET058METAR ETGQ 090620Z 00000KT 3000 BR BKN003 10/10 Q1019 YLO;
0124102340999992008090907204+53133+009350FM-15+0061ETGQ V0209999C000010015019N0060001N1+01201+01001999999ADDGA1071+001501999GF107991999999999999999999MA1101801999999REMMET055METAR ETGQ 090720Z 00000KT 6000 BKN005 12/10 Q1018 YLO;
0125102340999992008090908204+53133+009350FM-15+0061ETGQ V0209999C000012200019N0112651N1+01501+01101999999ADDGA1021+001801999GF102991999999999999999999MA1101801999999REMMET056METAR ETGQ 090820Z 00000KT 9999 FEW006 15/11 Q1018 BLU/;
0076102340999992008090909204+53133+009350FM-15+0061ETGQ V0209999C000012200019N0112651N1+01701+01101999999ADDMA1101691999999REMMET049METAR ETGQ 090920Z 00000KT 9999 17/11 Q1017 BLU/;
0125102340999992008090910204+53133+009350FM-15+0061ETGQ V0209999C000012200019N0112651N1+02101+01201999999ADDGA1021+007501999GF102991999999999999999999MA1101591999999REMMET056METAR ETGQ 091020Z 00000KT 9999 FEW025 21/12 Q1016 BLU/;
0125102340999992008090911204+53133+009350FM-15+0061ETGQ V0201601N003112200019N0112651N1+02301+01001999999ADDGA1021+009001999GF102991999999999999999999MA1101591999999REMMET056METAR ETGQ 091120Z 16006KT 9999 FEW030 23/10 Q1016 BLU/;
0125102340999992008090912204+53133+009350FM-15+0061ETGQ V0201401N002612200019N0112651N1+02401+01001999999ADDGA1021+010501999GF102991999999999999999999MA1101591999999REMMET056METAR ETGQ 091220Z 14005KT 9999 FEW035 24/10 Q1016 BLU/;
0148102340999992008090913204+53133+009350FM-15+0061ETGQ V0201501N003612200019N0112651N1+02401+00901999999ADDGA1021+012001999GA2041+042001999GF104991999999999999999999MA1101591999999REMMET063METAR ETGQ 091320Z 15007KT 9999 FEW040 SCT140 24/09 Q1016 BLU/;
0125102340999992008090914204+53133+009350FM-15+0061ETGQ V0203401N001512200019N0112651N1+02501+00901999999ADDGA1021+042001999GF102991999999999999999999MA1101491999999REMMET056METAR ETGQ 091420Z 34003KT 9999 FEW140 25/09 Q1015 BLU/;
0148102340999992008090915204+53133+009350FM-15+0061ETGQ V0201701N001512200019N0112651N1+02501+00901999999ADDGA1021+042001999GA2041+090001999GF104991999999999999999999MA1101491999999REMMET063METAR ETGQ 091520Z 17003KT 9999 FEW140 SCT300 25/09 Q1015 BLU/;
0148102340999992008090916204+53133+009350FM-15+0061ETGQ V0201701N002112200019N0112651N1+02501+00801999999ADDGA1021+042001999GA2041+090001999GF104991999999999999999999MA1101391999999REMMET063METAR ETGQ 091620Z 17004KT 9999 FEW140 SCT300 25/08 Q1014 BLU/;
0148102340999992008090917204+53133+009350FM-15+0061ETGQ V0209999C000010900019N0112651N1+02401+01101999999ADDGA1021+024001999GA2071+090001999GF107991999999999999999999MA1101391999999REMMET063METAR ETGQ 091720Z 00000KT 9999 FEW080 BKN300 24/11 Q1014 BLU/;
0148102340999992008090918204+53133+009350FM-15+0061ETGQ V0201301N001510840019N0112651N1+02201+01001999999ADDGA1021+024001999GA2071+084001999GF107991999999999999999999MA1101391999999REMMET063METAR ETGQ 091820Z 13003KT 9999 FEW080 BKN280 22/10 Q1014 BLU/;
0148102340999992008091004204+53133+009350FM-15+0061ETGQ V0209999C000010750019N0112651N1+01501+01301999999ADDGA1041+045001999GA2071+075001999GF107991999999999999999999MA1101591999999REMMET063METAR ETGQ 100420Z 00000KT 9999 SCT150 BKN250 15/13 Q1016 BLU/;
0148102340999992008091005204+53133+009350FM-15+0061ETGQ V0209999C000010720019N0112651N1+01501+01301999999ADDGA1041+045001999GA2071+072001999GF107991999999999999999999MA1101591999999REMMET063METAR ETGQ 100520Z 00000KT 9999 SCT150 BKN240 15/13 Q1016 BLU/;
0171102340999992008091006204+53133+009350FM-15+0061ETGQ V0209999C00001045001CN0112651N1+01601+01301999999ADDGA1021+012001999GA2041+045001999GA3071+072001999GF107991999999999999999999MA1101691999999REMMET070METAR ETGQ 100620Z 00000KT 9999 FEW040 SCT150 BKN240 16/13 Q1017 BLU/;
0171102340999992008091007204+53133+009350FM-15+0061ETGQ V0209999C00001045001CN0112651N1+01701+01401999999ADDGA1021+012001999GA2041+045001999GA3071+066001999GF107991999999999999999999MA1101691999999REMMET070METAR ETGQ 100720Z 00000KT 9999 FEW040 SCT150 BKN220 17/14 Q1017 BLU/;
0171102340999992008091008204+53133+009350FM-15+0061ETGQ V0201601N00151045001CN0112651N1+02101+01501999999ADDGA1021+012001999GA2041+045001999GA3071+066001999GF107991999999999999999999MA1101691999999REMMET070METAR ETGQ 100820Z 16003KT 9999 FEW040 SCT150 BKN220 21/15 Q1017 BLU/;
0147102340999992008091009204+53133+009350FM-15+0061ETGQ V0209999V000510120019N0112651N1+02001+01501999999ADDGA1071+012001999GA2071+066001999GF107991999999999999999999MA1101691999999REMMET062METAR ETGQ 100920Z VRB01KT 9999 BKN040 BKN220 20/15 Q1017 BLU;
0147102340999992008091010204+53133+009350FM-15+0061ETGQ V0209999C000010135019N0112651N1+02101+01501999999ADDGA1071+013501999GA2071+069001999GF107991999999999999999999MA1101691999999REMMET062METAR ETGQ 101020Z 00000KT 9999 BKN045 BKN230 21/15 Q1017 BLU;
0147102340999992008091011204+53133+009350FM-15+0061ETGQ V0209999V001010135019N0112651N1+02301+01601999999ADDGA1071+013501999GA2071+069001999GF107991999999999999999999MA1101691999999REMMET062METAR ETGQ 101120Z VRB02KT 9999 BKN045 BKN230 23/16 Q1017 BLU;
0124102340999992008091012204+53133+009350FM-15+0061ETGQ V0202101N002610135019N0112651N1+02501+01601999999ADDGA1071+013501999GF107991999999999999999999MA1101591999999REMMET055METAR ETGQ 101220Z 21005KT 9999 BKN045 25/16 Q1016 BLU;
0124102340999992008091013204+53133+009350FM-15+0061ETGQ V0202001N003110135019N0112651N1+02501+01401999999ADDGA1071+013501999GF107991999999999999999999MA1101591999999REMMET055METAR ETGQ 101320Z 20006KT 9999 BKN045 25/14 Q1016 BLU;
0124102340999992008091014204+53133+009350FM-15+0061ETGQ V0202101N003110135019N0112651N1+02501+01401999999ADDGA1071+013501999GF107991999999999999999999MA1101491999999REMMET055METAR ETGQ 101420Z 21006KT 9999 BKN045 25/14 Q1015 BLU;
0125102340999992008091015204+53133+009350FM-15+0061ETGQ V0202101N002112200019N0112651N1+02501+01401999999ADDGA1041+012301999GF104991999999999999999999MA1101491999999REMMET056METAR ETGQ 101520Z 21004KT 9999 SCT041 25/14 Q1015 BLU/;
0125102340999992008091016204+53133+009350FM-15+0061ETGQ V0200601N002112200019N0112651N1+02401+01501999999ADDGA1021+013501999GF102991999999999999999999MA1101491999999REMMET056METAR ETGQ 101620Z 06004KT 9999 FEW045 24/15 Q1015 BLU/;
0125102340999992008091017204+53133+009350FM-15+0061ETGQ V0209999V001012200019N0112651N1+02301+01501999999ADDGA1021+013501999GF102991999999999999999999MA1101491999999REMMET056METAR ETGQ 101720Z VRB02KT 9999 FEW045 23/15 Q1015 BLU/;
0125102340999992008091018204+53133+009350FM-15+0061ETGQ V0209999C000012200019N0112651N1+02201+01501999999ADDGA1021+013501999GF102991999999999999999999MA1101491999999REMMET056METAR ETGQ 101820Z 00000KT 9999 FEW045 22/15 Q1015 BLU/;
0094102340999992008091104204+53133+009350FM-15+0061ETGQ V0209999V000512200019N0015001N1+01501+01401999999ADDMA1101391999999MW1101REMMET061METAR ETGQ 110420Z VRB01KT 1500 R36////// BR 15/14 Q1014 AMB;
0143102340999992008091105204+53133+009350FM-15+0061ETGQ V0209999C000010012019N0012001N1+01501+01401999999ADDGA1071+001201999GF107991999999999999999999MA1101391999999MW1101REMMET068METAR ETGQ 110520Z 00000KT 1200 R36////// BR BKN004 15/14 Q1014 AMB;
0133102340999992008091106204+53133+009350FM-15+0061ETGQ V0201201N001010018019N0025001N1+01601+01501999999ADDGA1071+001801999GF107991999999999999999999MA1101391999999MW1101REMMET058METAR ETGQ 110620Z 12002KT 2500 BR BKN006 16/15 Q1014 YLO;
0124102340999992008091107204+53133+009350FM-15+0061ETGQ V0209999V001010021019N0070001N1+01701+01501999999ADDGA1071+002101999GF107991999999999999999999MA1101391999999REMMET055METAR ETGQ 110720Z VRB02KT 7000 BKN007 17/15 Q1014 GRN;
0124102340999992008091108204+53133+009350FM-15+0061ETGQ V0201601N002110027019N0112651N1+01801+01501999999ADDGA1071+002701999GF107991999999999999999999MA1101391999999REMMET055METAR ETGQ 110820Z 16004KT 9999 BKN009 18/15 Q1014 GRN;
0124102340999992008091109204+53133+009350FM-15+0061ETGQ V0201601N003110030019N0112651N1+01801+01501999999ADDGA1071+003001999GF107991999999999999999999MA1101291999999REMMET055METAR ETGQ 110920Z 16006KT 9999 BKN010 18/15 Q1013 GRN;
0125102340999992008091110204+53133+009350FM-15+0061ETGQ V0209999V000512200019N0112651N1+02201+01601999999ADDGA1021+005401999GF102991999999999999999999MA1101291999999REMMET056METAR ETGQ 111020Z VRB01KT 9999 FEW018 22/16 Q1013 BLU/;
0125102340999992008091111204+53133+009350FM-15+0061ETGQ V0209999V001012200019N0112651N1+02401+01601999999ADDGA1021+007501999GF102991999999999999999999MA1101191999999REMMET056METAR ETGQ 111120Z VRB02KT 9999 FEW025 24/16 Q1012 BLU/;
0125102340999992008091112204+53133+009350FM-15+0061ETGQ V0201201N002612200019N0112651N1+02501+01601999999ADDGA1021+009001999GF102991999999999999999999MA1101081999999REMMET056METAR ETGQ 111220Z 12005KT 9999 FEW030 25/16 Q1011 BLU/;
0148102340999992008091113204+53133+009350FM-15+0061ETGQ V0201101N002612200019N0112651N1+02601+01501999999ADDGA1021+012001999GA2041+042001999GF104991999999999999999999MA1101021999999REMMET063METAR ETGQ 111320Z 11005KT 9999 FEW040 SCT140 26/15 Q1010 BLU/;
0173102340999992008091114204+53133+009350FM-15+0061ETGQ V0201601N00261018001CN0112651N1+02601+01301999999ADDGA1021+012001021GA2041+018001999GA3071+042001999GF107991999999999999999999MA1101021999999REMMET072METAR ETGQ 111420Z 16005KT 9999 FEW040TCU SCT060 BKN140 26/13 Q1010 BLU;
0173102340999992008091115204+53133+009350FM-15+0061ETGQ V0201701N002610150019N0112651N1+02501+01501999999ADDGA1021+010501021GA2071+015001999GA3071+042001999GF107991999999999999999999MA1101021999999REMMET072METAR ETGQ 111520Z 17005KT 9999 FEW035TCU BKN050 BKN140 25/15 Q1010 BLU;
0173102340999992008091116204+53133+009350FM-15+0061ETGQ V0209999V00101018001CN0112651N1+02301+01701999999ADDGA1021+010501021GA2041+018001999GA3071+027001999GF107991999999999999999999MA1100911999999REMMET072METAR ETGQ 111620Z VRB02KT 9999 FEW035TCU SCT060 BKN090 23/17 Q1009 BLU;
0170102340999992008091117204+53133+009350FM-15+0061ETGQ V0202101N00051024001CN0112651N1+02201+01801999999ADDGA1021+010501999GA2041+024001999GA3071+051001999GF107991999999999999999999MA1100911999999REMMET069METAR ETGQ 111720Z 21001KT 9999 FEW035 SCT080 BKN170 22/18 Q1009 BLU;
0148102340999992008091118204+53133+009350FM-15+0061ETGQ V0209999C000012200019N0112651N1+02101+01801999999ADDGA1021+012001999GA2041+066001999GF104991999999999999999999MA1100911999999REMMET063METAR ETGQ 111820Z 00000KT 9999 FEW040 SCT220 21/18 Q1009 BLU/;
0143102340999992008091204204+53133+009350FM-15+0061ETGQ V0209999C000010024019N0015001N1+01701+01701999999ADDGA1081+002401999GF108991999999999999999999MA1100711999999MW1101REMMET068METAR ETGQ 120420Z 00000KT 1500 R36////// BR OVC008 17/17 Q1007 AMB;
0166102340999992008091205204+53133+009350FM-15+0061ETGQ V0209999C000012200019N0015001N1+01601+01601999999ADDGA1041+000901999GA2041+042001999GF104991999999999999999999MA1100711999999MW1101REMMET075METAR ETGQ 120520Z 00000KT 1500 R36////// BR SCT003 SCT140 16/16 Q1007 AMB;
0143102340999992008091206204+53133+009350FM-15+0061ETGQ V0209999C000010003019N0004001N1+01601+01601999999ADDGA1071+000301999GF107991999999999999999999MA1100811999999MW1441REMMET068METAR ETGQ 120620Z 00000KT 0400 R36////// FG BKN001 16/16 Q1008 RED;
0166102340999992008091207204+53133+009350FM-15+0061ETGQ V0209999C000010150019N0030001N1+01601+01601999999ADDGA1041+006001999GA2071+015001999GF107991999999999999999999MA1100911999999MW1101MW2611REMMET069METAR ETGQ 120720Z 00000KT 3000 -RA BR SCT020 BKN050 16/16 Q1009 YLO;
0166102340999992008091208204+53133+009350FM-15+0061ETGQ V0209999C000010075019N0040001N1+01701+01601999999ADDGA1041+000901999GA2081+007501999GF108991999999999999999999MA1100911999999MW1101MW2611REMMET069METAR ETGQ 120820Z 00000KT 4000 -RA BR SCT003 OVC025 17/16 Q1009 GRN;
0157102340999992008091209204+53133+009350FM-15+0061ETGQ V0209999C000010063019N0070001N1+01701+01601999999ADDGA1021+002101999GA2071+006301999GF107991999999999999999999MA1100911999999MW1611REMMET066METAR ETGQ 120920Z 00000KT 7000 -RA FEW007 BKN021 17/16 Q1009 WHT;
0157102340999992008091210204+53133+009350FM-15+0061ETGQ V0209999C000010045019N0060001N1+01701+01601999999ADDGA1041+001501999GA2071+004501999GF107991999999999999999999MA1101021999999MW1611REMMET066METAR ETGQ 121020Z 00000KT 6000 -RA SCT005 BKN015 17/16 Q1010 WHT;
0165102340999992008091211204+53133+009350FM-15+0061ETGQ V0209999C000010036019N0030001N1+01701+01601999999ADDGA1041+002401999GA2071+003601999GF107991999999999999999999MA1101021999999MW1101MW2631REMMET068METAR ETGQ 121120Z 00000KT 3000 RA BR SCT008 BKN012 17/16 Q1010 YLO;
0171102340999992008091212204+53133+009350FM-15+0061ETGQ V0209999C000010042019N0030001N1+01801+01701999999ADDGA1041+001201999GA2071+004201999GF107991999999999999999999MA1101021999999MW1101MW2611REMMET074METAR ETGQ 121220Z 00000KT 3000 -RA BR SCT004 BKN014 18/17 Q1010 RERA YLO;
0166102340999992008091212284+53133+009350FM-16+0061ETGQ V0209999V000510012019N0025001N1+01801+01701999999ADDGA1071+001201999GA2071+003601999GF107991999999999999999999MA1101081999999MW1101MW2651REMMET069SPECI ETGQ 121228Z VRB01KT 2500 +RA BR BKN004 BKN012 18/17 Q1011 YLO;
0171102340999992008091213204+53133+009350FM-15+0061ETGQ V0203101N002610066019N0040001N1+01601+01401999999ADDGA1041+002701999GA2071+006601999GF107991999999999999999999MA1101191999999MW1101MW2611REMMET074METAR ETGQ 121320Z 31005KT 4000 -RA BR SCT009 BKN022 16/14 Q1012 RERA GRN;
0166102340999992008091214204+53133+009350FM-15+0061ETGQ V0200301N000510060019N0040001N1+01501+01401999999ADDGA1041+003001999GA2071+006001999GF107991999999999999999999MA1101191999999MW1101MW2611REMMET069METAR ETGQ 121420Z 03001KT 4000 -RA BR SCT010 BKN020 15/14 Q1012 GRN;
0157102340999992008091215204+53133+009350FM-15+0061ETGQ V0209999C000010069019N0060001N1+01601+01401999999ADDGA1041+003301999GA2071+006901999GF107991999999999999999999MA1101291999999MW1611REMMET066METAR ETGQ 121520Z 00000KT 6000 -RA SCT011 BKN023 16/14 Q1013 WHT;
0124102340999992008091216204+53133+009350FM-15+0061ETGQ V0203101N002110078019N0080001N1+01501+01301999999ADDGA1071+007801999GF107991999999999999999999MA1101291999999REMMET055METAR ETGQ 121620Z 31004KT 8000 BKN026 15/13 Q1013 BLU;
0124102340999992008091217204+53133+009350FM-15+0061ETGQ V0209999C000010078019N0112651N1+01501+01301999999ADDGA1071+007801999GF107991999999999999999999MA1101391999999REMMET055METAR ETGQ 121720Z 00000KT 9999 BKN026 15/13 Q1014 BLU;
0124102340999992008091218204+53133+009350FM-15+0061ETGQ V0203501N001010060019N0112651N1+01501+01301999999ADDGA1071+006001999GF107991999999999999999999MA1101391999999REMMET055METAR ETGQ 121820Z 35002KT 9999 BKN020 15/13 Q1014 WHT;
0125102340999992008091507204+53133+009350FM-15+0061ETGQ V0209999C000012200019N0112651N1+00901+00501999999ADDGA1021+105001999GF102991999999999999999999MA1102401999999REMMET056METAR ETGQ 150720Z 00000KT 9999 FEW350 09/05 Q1024 BLU/;
0148102340999992008091508204+53133+009350FM-15+0061ETGQ V0209999V001012200019N0112651N1+01001+00501999999ADDGA1021+006001999GA2041+045001999GF104991999999999999999999MA1102401999999REMMET063METAR ETGQ 150820Z VRB02KT 9999 FEW020 SCT150 10/05 Q1024 BLU/;
0147102340999992008091509204+53133+009350FM-15+0061ETGQ V0200801N001510135019N0112651N1+01101+00501999999ADDGA1041+007501999GA2071+013501999GF107991999999999999999999MA1102401999999REMMET062METAR ETGQ 150920Z 08003KT 9999 SCT025 BKN045 11/05 Q1024 BLU;
0147102340999992008091510204+53133+009350FM-15+0061ETGQ V0209999V001010180019N0112651N1+01201+00601999999ADDGA1021+009001999GA2071+018001999GF107991999999999999999999MA1102401999999REMMET062METAR ETGQ 151020Z VRB02KT 9999 FEW030 BKN060 12/06 Q1024 BLU;
0147102340999992008091511204+53133+009350FM-15+0061ETGQ V0200301N001510150019N0112651N1+01201+00601999999ADDGA1041+008101999GA2071+015001999GF107991999999999999999999MA1102301999999REMMET062METAR ETGQ 151120Z 03003KT 9999 SCT027 BKN050 12/06 Q1023 BLU;
0147102340999992008091512204+53133+009350FM-15+0061ETGQ V0209999C000010150019N0112651N1+01201+00701999999ADDGA1021+008101999GA2071+015001999GF107991999999999999999999MA1102301999999REMMET062METAR ETGQ 151220Z 00000KT 9999 FEW027 BKN050 12/07 Q1023 BLU;
0147102340999992008091513204+53133+009350FM-15+0061ETGQ V0209999V000510150019N0112651N1+01301+00701999999ADDGA1041+006601999GA2071+015001999GF107991999999999999999999MA1102301999999REMMET062METAR ETGQ 151320Z VRB01KT 9999 SCT022 BKN050 13/07 Q1023 BLU;
0147102340999992008091514204+53133+009350FM-15+0061ETGQ V0200501N001510150019N0112651N1+01301+00501999999ADDGA1041+006601999GA2071+015001999GF107991999999999999999999MA1102301999999REMMET062METAR ETGQ 151420Z 05003KT 9999 SCT022 BKN050 13/05 Q1023 BLU;
0147102340999992008091515204+53133+009350FM-15+0061ETGQ V0200701N001510180019N0112651N1+01301+00601999999ADDGA1041+007501999GA2071+018001999GF107991999999999999999999MA1102301999999REMMET062METAR ETGQ 151520Z 07003KT 9999 SCT025 BKN060 13/06 Q1023 BLU;
0147102340999992008091516204+53133+009350FM-15+0061ETGQ V0209999V000510180019N0112651N1+01301+00601999999ADDGA1041+009001999GA2071+018001999GF107991999999999999999999MA1102301999999REMMET062METAR ETGQ 151620Z VRB01KT 9999 SCT030 BKN060 13/06 Q1023 BLU;
0147102340999992008091517204+53133+009350FM-15+0061ETGQ V0209999C000010090019N0112651N1+01301+00701999999ADDGA1071+009001999GA2071+018001999GF107991999999999999999999MA1102301999999REMMET062METAR ETGQ 151720Z 00000KT 9999 BKN030 BKN060 13/07 Q1023 BLU;
0147102340999992008091518204+53133+009350FM-15+0061ETGQ V0200601N001010105019N0112651N1+01201+00601999999ADDGA1071+010501999GA2071+018001999GF107991999999999999999999MA1102401999999REMMET062METAR ETGQ 151820Z 06002KT 9999 BKN035 BKN060 12/06 Q1024 BLU;
0124102340999992008091604204+53133+009350FM-15+0061ETGQ V0209999C000010180019N0112651N1+00701+00601999999ADDGA1071+018001999GF107991999999999999999999MA1102301999999REMMET055METAR ETGQ 160420Z 00000KT 9999 BKN060 07/06 Q1023 BLU;
0124102340999992008091605204+53133+009350FM-15+0061ETGQ V0209999C000010180019N0112651N1+00801+00701999999ADDGA1071+018001999GF107991999999999999999999MA1102301999999REMMET055METAR ETGQ 160520Z 00000KT 9999 BKN060 08/07 Q1023 BLU;
0124102340999992008091606204+53133+009350FM-15+0061ETGQ V0209999C000010180019N0112651N1+00901+00701999999ADDGA1071+018001999GF107991999999999999999999MA1102401999999REMMET055METAR ETGQ 160620Z 00000KT 9999 BKN060 09/07 Q1024 BLU;
0124102340999992008091607204+53133+009350FM-15+0061ETGQ V0209999C000010180019N0112651N1+00901+00701999999ADDGA1071+018001999GF107991999999999999999999MA1102301999999REMMET055METAR ETGQ 160720Z 00000KT 9999 BKN060 09/07 Q1023 BLU;
0124102340999992008091608204+53133+009350FM-15+0061ETGQ V0209999C000010180019N0112651N1+01001+00701999999ADDGA1071+018001999GF107991999999999999999999MA1102401999999REMMET055METAR ETGQ 160820Z 00000KT 9999 BKN060 10/07 Q1024 BLU;
0124102340999992008091609204+53133+009350FM-15+0061ETGQ V0209999C000010180019N0112651N1+01101+00701999999ADDGA1071+018001999GF107991999999999999999999MA1102401999999REMMET055METAR ETGQ 160920Z 00000KT 9999 BKN060 11/07 Q1024 BLU;
0147102340999992008091610204+53133+009350FM-15+0061ETGQ V0209999C000010180019N0112651N1+01201+00801999999ADDGA1021+006001999GA2071+018001999GF107991999999999999999999MA1102301999999REMMET062METAR ETGQ 161020Z 00000KT 9999 FEW020 BKN060 12/08 Q1023 BLU;
0147102340999992008091611204+53133+009350FM-15+0061ETGQ V0209999C000010150019N0112651N1+01301+00801999999ADDGA1041+009001999GA2071+015001999GF107991999999999999999999MA1102301999999REMMET062METAR ETGQ 161120Z 00000KT 9999 SCT030 BKN050 13/08 Q1023 BLU;
0147102340999992008091612204+53133+009350FM-15+0061ETGQ V0202201N001010180019N0112651N1+01401+00801999999ADDGA1021+007501999GA2071+018001999GF107991999999999999999999MA1102201999999REMMET062METAR ETGQ 161220Z 22002KT 9999 FEW025 BKN060 14/08 Q1022 BLU;
0147102340999992008091613204+53133+009350FM-15+0061ETGQ V0209999C000010180019N0112651N1+01401+00701999999ADDGA1041+009001999GA2071+018001999GF107991999999999999999999MA1102201999999REMMET062METAR ETGQ 161320Z 00000KT 9999 SCT030 BKN060 14/07 Q1022 BLU;
0147102340999992008091614204+53133+009350FM-15+0061ETGQ V0200201N001010180019N0112651N1+01501+00601999999ADDGA1041+009001999GA2071+018001999GF107991999999999999999999MA1102201999999REMMET062METAR ETGQ 161420Z 02002KT 9999 SCT030 BKN060 15/06 Q1022 BLU;
0147102340999992008091615204+53133+009350FM-15+0061ETGQ V0203401N001010180019N0112651N1+01401+00701999999ADDGA1041+010501999GA2071+018001999GF107991999999999999999999MA1102201999999REMMET062METAR ETGQ 161520Z 34002KT 9999 SCT035 BKN060 14/07 Q1022 BLU;
0147102340999992008091616204+53133+009350FM-15+0061ETGQ V0209999C000010180019N0112651N1+01401+00501999999ADDGA1041+010501999GA2071+018001999GF107991999999999999999999MA1102201999999REMMET062METAR ETGQ 161620Z 00000KT 9999 SCT035 BKN060 14/05 Q1022 BLU;
0147102340999992008091617204+53133+009350FM-15+0061ETGQ V0209999C000010180019N0112651N1+01301+00601999999ADDGA1021+012001999GA2071+018001999GF107991999999999999999999MA1102201999999REMMET062METAR ETGQ 161720Z 00000KT 9999 FEW040 BKN060 13/06 Q1022 BLU;
0147102340999992008091618204+53133+009350FM-15+0061ETGQ V0200601N001010180019N0112651N1+01301+00501999999ADDGA1021+012001999GA2071+018001999GF107991999999999999999999MA1102301999999REMMET062METAR ETGQ 161820Z 06002KT 9999 FEW040 BKN060 13/05 Q1023 BLU;
0148102340999992008091704204+53133+009350FM-15+0061ETGQ V0209999C000012200019N0080001N1+00701+00501999999ADDGA1041+018001999GA2041+072001999GF104991999999999999999999MA1102301999999REMMET063METAR ETGQ 170420Z 00000KT 8000 SCT060 SCT240 07/05 Q1023 BLU/;
0148102340999992008091705204+53133+009350FM-15+0061ETGQ V0209999C000010780019N0112651N1+00601+00501999999ADDGA1021+018001999GA2071+078001999GF107991999999999999999999MA1102401999999REMMET063METAR ETGQ 170520Z 00000KT 9999 FEW060 BKN260 06/05 Q1024 BLU/;
0148102340999992008091706204+53133+009350FM-15+0061ETGQ V0201401N001010750019N0112651N1+00701+00501999999ADDGA1021+018001999GA2071+075001999GF107991999999999999999999MA1102401999999REMMET063METAR ETGQ 170620Z 14002KT 9999 FEW060 BKN250 07/05 Q1024 BLU/;
0125102340999992008091707204+53133+009350FM-15+0061ETGQ V0201601N000510750019N0112651N1+00901+00501999999ADDGA1071+075001999GF107991999999999999999999MA1102401999999REMMET056METAR ETGQ 170720Z 16001KT 9999 BKN250 09/05 Q1024 BLU/;
0125102340999992008091708204+53133+009350FM-15+0061ETGQ V0209999C000010750019N0112651N1+01101+00501999999ADDGA1071+075001999GF107991999999999999999999MA1102401999999REMMET056METAR ETGQ 170820Z 00000KT 9999 BKN250 11/05 Q1024 BLU/;
0148102340999992008091709204+53133+009350FM-15+0061ETGQ V0203601N001010900019N0112651N1+01201+00401999999ADDGA1021+009001999GA2071+090001999GF107991999999999999999999MA1102401999999REMMET063METAR ETGQ 170920Z 36002KT 9999 FEW030 BKN300 12/04 Q1024 BLU/;
0148102340999992008091710204+53133+009350FM-15+0061ETGQ V0209999C000010900019N0112651N1+01301+00401999999ADDGA1021+009001999GA2071+090001999GF107991999999999999999999MA1102301999999REMMET063METAR ETGQ 171020Z 00000KT 9999 FEW030 BKN300 13/04 Q1023 BLU/;
0148102340999992008091711204+53133+009350FM-15+0061ETGQ V0201401N002610750019N0112651N1+01401+00401999999ADDGA1041+012601999GA2071+075001999GF107991999999999999999999MA1102301999999REMMET063METAR ETGQ 171120Z 14005KT 9999 SCT042 BKN250 14/04 Q1023 BLU/;
0148102340999992008091712204+53133+009350FM-15+0061ETGQ V0201001N003110750019N0112651N1+01401+00401999999ADDGA1041+012601999GA2071+075001999GF107991999999999999999999MA1102301999999REMMET063METAR ETGQ 171220Z 10006KT 9999 SCT042 BKN250 14/04 Q1023 BLU/;
0148102340999992008091713204+53133+009350FM-15+0061ETGQ V0200801N002610720019N0112651N1+01501+00301999999ADDGA1041+012601999GA2071+072001999GF107991999999999999999999MA1102301999999REMMET063METAR ETGQ 171320Z 08005KT 9999 SCT042 BKN240 15/03 Q1023 BLU/;
0148102340999992008091714204+53133+009350FM-15+0061ETGQ V0201201N003610690019N0112651N1+01401+00301999999ADDGA1041+013501999GA2071+069001999GF107991999999999999999999MA1102201999999REMMET063METAR ETGQ 171420Z 12007KT 9999 SCT045 BKN230 14/03 Q1022 BLU/;
0148102340999992008091715204+53133+009350FM-15+0061ETGQ V0201201N002610660019N0112651N1+01401+00301999999ADDGA1041+013501999GA2071+066001999GF107991999999999999999999MA1102201999999REMMET063METAR ETGQ 171520Z 12005KT 9999 SCT045 BKN220 14/03 Q1022 BLU/;
0171102340999992008091716204+53133+009350FM-15+0061ETGQ V0200901N00211063001CN0112651N1+01401+00301999999ADDGA1021+013501999GA2041+063001999GA3071+084001999GF107991999999999999999999MA1102201999999REMMET070METAR ETGQ 171620Z 09004KT 9999 FEW045 SCT210 BKN280 14/03 Q1022 BLU/;
0171102340999992008091717204+53133+009350FM-15+0061ETGQ V0209999V00051060001CN0112651N1+01201+00301999999ADDGA1021+013501999GA2041+060001999GA3071+081001999GF107991999999999999999999MA1102201999999REMMET070METAR ETGQ 171720Z VRB01KT 9999 FEW045 SCT200 BKN270 12/03 Q1022 BLU/;
0148102340999992008091718204+53133+009350FM-15+0061ETGQ V0209999C000010840019N0112651N1+01101+00401999999ADDGA1021+057001999GA2071+084001999GF107991999999999999999999MA1102301999999REMMET063METAR ETGQ 171820Z 00000KT 9999 FEW190 BKN280 11/04 Q1023 BLU/;
0124102340999992008091804204+53133+009350FM-15+0061ETGQ V0209999C000010510019N0112651N1+00501+00201999999ADDGA1071+051001999GF107991999999999999999999MA1102401999999REMMET055METAR ETGQ 180420Z 00000KT 9999 BKN170 05/02 Q1024 BLU;
0124102340999992008091805204+53133+009350FM-15+0061ETGQ V0209999C000010450019N0112651N1+00501+00201999999ADDGA1071+045001999GF107991999999999999999999MA1102401999999REMMET055METAR ETGQ 180520Z 00000KT 9999 BKN150 05/02 Q1024 BLU;
0124102340999992008091806204+53133+009350FM-15+0061ETGQ V0200801N002610450019N0112651N1+00701+00101999999ADDGA1071+045001999GF107991999999999999999999MA1102401999999REMMET055METAR ETGQ 180620Z 08005KT 9999 BKN150 07/01 Q1024 BLU;
0124102340999992008091807204+53133+009350FM-15+0061ETGQ V0200701N001010510019N0112651N1+00801+00101999999ADDGA1071+051001999GF107991999999999999999999MA1102401999999REMMET055METAR ETGQ 180720Z 07002KT 9999 BKN170 08/01 Q1024 BLU;
0125102340999992008091808204+53133+009350FM-15+0061ETGQ V0209999V001010630019N0112651N1+01001+00201999999ADDGA1071+063001999GF107991999999999999999999MA1102401999999REMMET056METAR ETGQ 180820Z VRB02KT 9999 BKN210 10/02 Q1024 BLU/;
0124102340999992008091809204+53133+009350FM-15+0061ETGQ V0201301N002610450019N0112651N1+01101+00201999999ADDGA1071+045001999GF107991999999999999999999MA1102401999999REMMET055METAR ETGQ 180920Z 13005KT 9999 BKN150 11/02 Q1024 BLU;
0125102340999992008091810204+53133+009350FM-15+0061ETGQ V0201101N002610600019N0112651N1+01201+00101999999ADDGA1071+060001999GF107991999999999999999999MA1102301999999REMMET056METAR ETGQ 181020Z 11005KT 9999 BKN200 12/01 Q1023 BLU/;
0124102340999992008091811204+53133+009350FM-15+0061ETGQ V0201301N003610540019N0112651N1+01301+00001999999ADDGA1071+054001999GF107991999999999999999999MA1102301999999REMMET055METAR ETGQ 181120Z 13007KT 9999 BKN180 13/00 Q1023 BLU;
0125102340999992008091812204+53133+009350FM-15+0061ETGQ V0201101N003112200019N0112651N1+01401+00101999999ADDGA1041+081001999GF104991999999999999999999MA1102301999999REMMET056METAR ETGQ 181220Z 11006KT 9999 SCT270 14/01 Q1023 BLU/;
0125102340999992008091813204+53133+009350FM-15+0061ETGQ V0201301N003612200019N0112651N1+01401+00101999999ADDGA1041+060001999GF104991999999999999999999MA1102201999999REMMET056METAR ETGQ 181320Z 13007KT 9999 SCT200 14/01 Q1022 BLU/;
0125102340999992008091814204+53133+009350FM-15+0061ETGQ V0200801N003112200019N0112651N1+01501+00101999999ADDGA1021+060001999GF102991999999999999999999MA1102201999999REMMET056METAR ETGQ 181420Z 08006KT 9999 FEW200 15/01 Q1022 BLU/;
0125102340999992008091815204+53133+009350FM-15+0061ETGQ V0201201N002612200019N0112651N1+01501+00101999999ADDGA1021+060001999GF102991999999999999999999MA1102201999999REMMET056METAR ETGQ 181520Z 12005KT 9999 FEW200 15/01 Q1022 BLU/;
0125102340999992008091816204+53133+009350FM-15+0061ETGQ V0201301N002612200019N0112651N1+01501+00101999999ADDGA1021+060001999GF102991999999999999999999MA1102201999999REMMET056METAR ETGQ 181620Z 13005KT 9999 FEW200 15/01 Q1022 BLU/;
0125102340999992008091817204+53133+009350FM-15+0061ETGQ V0201401N000512200019N0112651N1+01401+00201999999ADDGA1021+060001999GF102991999999999999999999MA1102301999999REMMET056METAR ETGQ 181720Z 14001KT 9999 FEW200 14/02 Q1023 BLU/;
0125102340999992008091818204+53133+009350FM-15+0061ETGQ V0209999C000012200019N0112651N1+01201+00401999999ADDGA1021+060001999GF102991999999999999999999MA1102301999999REMMET056METAR ETGQ 181820Z 00000KT 9999 FEW200 12/04 Q1023 BLU/;
0076102340999992008091904204+53133+009350FM-15+0061ETGQ V0209999C000012200019N0080001N1+00301+00301999999ADDMA1102301999999REMMET049METAR ETGQ 190420Z 00000KT 8000 03/03 Q1023 BLU/;
0125102340999992008091905204+53133+009350FM-15+0061ETGQ V0209999C000012200019N0080001N1+00401+00301999999ADDGA1021+001501999GF102991999999999999999999MA1102401999999REMMET056METAR ETGQ 190520Z 00000KT 8000 FEW005 04/03 Q1024 BLU/;
0148102340999992008091906204+53133+009350FM-15+0061ETGQ V0209999C000010900019N0080001N1+00401+00401999999ADDGA1021+001501999GA2071+090001999GF107991999999999999999999MA1102401999999REMMET063METAR ETGQ 190620Z 00000KT 8000 FEW005 BKN300 04/04 Q1024 BLU/;
0148102340999992008091907204+53133+009350FM-15+0061ETGQ V0209999C000010900019N0112651N1+00701+00501999999ADDGA1021+001501999GA2071+090001999GF107991999999999999999999MA1102511999999REMMET063METAR ETGQ 190720Z 00000KT 9999 FEW005 BKN300 07/05 Q1025 BLU/;
0125102340999992008091908204+53133+009350FM-15+0061ETGQ V0209999C000011050019N0112651N1+00901+00401999999ADDGA1071+105001999GF107991999999999999999999MA1102511999999REMMET056METAR ETGQ 190820Z 00000KT 9999 BKN350 09/04 Q1025 BLU/;
0125102340999992008091909204+53133+009350FM-15+0061ETGQ V0203001N000511050019N0112651N1+01101+00401999999ADDGA1071+105001999GF107991999999999999999999MA1102511999999REMMET056METAR ETGQ 190920Z 30001KT 9999 BKN350 11/04 Q1025 BLU/;
0125102340999992008091910204+53133+009350FM-15+0061ETGQ V0209999V000511050019N0112651N1+01501+00501999999ADDGA1071+105001999GF107991999999999999999999MA1102511999999REMMET056METAR ETGQ 191020Z VRB01KT 9999 BKN350 15/05 Q1025 BLU/;
0148102340999992008091911204+53133+009350FM-15+0061ETGQ V0200601N001511050019N0112651N1+01601+00401999999ADDGA1041+063001999GA2071+105001999GF107991999999999999999999MA1102511999999REMMET063METAR ETGQ 191120Z 06003KT 9999 SCT210 BKN350 16/04 Q1025 BLU/;
0171102340999992008091912204+53133+009350FM-15+0061ETGQ V0200601N00211066001CN0112651N1+01601+00301999999ADDGA1021+036001999GA2041+066001999GA3071+105001999GF107991999999999999999999MA1102511999999REMMET070METAR ETGQ 191220Z 06004KT 9999 FEW120 SCT220 BKN350 16/03 Q1025 BLU/;
0148102340999992008091913204+53133+009350FM-15+0061ETGQ V0209999V001011050019N0112651N1+01701+00301999999ADDGA1041+063001999GA2071+105001999GF107991999999999999999999MA1102511999999REMMET063METAR ETGQ 191320Z VRB02KT 9999 SCT210 BKN350 17/03 Q1025 BLU/;
0148102340999992008091914204+53133+009350FM-15+0061ETGQ V0200801N001511050019N0112651N1+01701+00201999999ADDGA1041+063001999GA2071+105001999GF107991999999999999999999MA1102511999999REMMET063METAR ETGQ 191420Z 08003KT 9999 SCT210 BKN350 17/02 Q1025 BLU/;
0125102340999992008091915204+53133+009350FM-15+0061ETGQ V0201001N001510600019N0112651N1+01601+00201999999ADDGA1071+060001999GF107991999999999999999999MA1102511999999REMMET056METAR ETGQ 191520Z 10003KT 9999 BKN200 16/02 Q1025 BLU/;
0171102340999992008091916204+53133+009350FM-15+0061ETGQ V0200701N00051057001CN0112651N1+01601+00401999999ADDGA1041+015001999GA2041+057001999GA3071+075001999GF107991999999999999999999MA1102611999999REMMET070METAR ETGQ 191620Z 07001KT 9999 SCT050 SCT190 BKN250 16/04 Q1026 BLU/;
0171102340999992008091917204+53133+009350FM-15+0061ETGQ V0209999C00001054001CN0112651N1+01501+00501999999ADDGA1021+015001999GA2041+054001999GA3071+075001999GF107991999999999999999999MA1102611999999REMMET070METAR ETGQ 191720Z 00000KT 9999 FEW050 SCT180 BKN250 15/05 Q1026 BLU/;
0124102340999992008091918204+53133+009350FM-15+0061ETGQ V0209999C000010510019N0112651N1+01401+00501999999ADDGA1071+051001999GF107991999999999999999999MA1102711999999REMMET055METAR ETGQ 191820Z 00000KT 9999 BKN170 14/05 Q1027 BLU;
0133102340999992008092204204+53133+009350FM-15+0061ETGQ V0209999C000010030019N0020001N1+00901+00801999999ADDGA1081+003001999GF108991999999999999999999MA1102001999999MW1101REMMET058METAR ETGQ 220420Z 00000KT 2000 BR OVC010 09/08 Q1020 YLO;
0133102340999992008092205204+53133+009350FM-15+0061ETGQ V0209999C000010024019N0020001N1+00901+00801999999ADDGA1071+002401999GF107991999999999999999999MA1102001999999MW1101REMMET058METAR ETGQ 220520Z 00000KT 2000 BR BKN008 09/08 Q1020 YLO;
0156102340999992008092206204+53133+009350FM-15+0061ETGQ V0209999C000010120019N0040001N1+00901+00801999999ADDGA1021+003601999GA2071+012001999GF107991999999999999999999MA1102101999999MW1101REMMET065METAR ETGQ 220620Z 00000KT 4000 BR FEW012 BKN040 09/08 Q1021 GRN;
0147102340999992008092207204+53133+009350FM-15+0061ETGQ V0203401N001010180019N0080001N1+01001+00801999999ADDGA1021+003001999GA2071+018001999GF107991999999999999999999MA1102101999999REMMET062METAR ETGQ 220720Z 34002KT 8000 FEW010 BKN060 10/08 Q1021 BLU;
0147102340999992008092208204+53133+009350FM-15+0061ETGQ V0203401N000510180019N0080001N1+01101+00801999999ADDGA1021+004201999GA2071+018001999GF107991999999999999999999MA1102101999999REMMET062METAR ETGQ 220820Z 34001KT 8000 FEW014 BKN060 11/08 Q1021 BLU;
0148102340999992008092209204+53133+009350FM-15+0061ETGQ V0203101N002612200019N0112651N1+01201+00901999999ADDGA1021+005101999GA2041+018001999GF104991999999999999999999MA1102101999999REMMET063METAR ETGQ 220920Z 31005KT 9999 FEW017 SCT060 12/09 Q1021 BLU/;
0148102340999992008092210204+53133+009350FM-15+0061ETGQ V0203501N002612200019N0112651N1+01401+00801999999ADDGA1021+007501999GA2041+018001999GF104991999999999999999999MA1102001999999REMMET063METAR ETGQ 221020Z 35005KT 9999 FEW025 SCT060 14/08 Q1020 BLU/;
0147102340999992008092211204+53133+009350FM-15+0061ETGQ V0200101N003110180019N0112651N1+01501+00701999999ADDGA1021+007501999GA2071+018001999GF107991999999999999999999MA1102001999999REMMET062METAR ETGQ 221120Z 01006KT 9999 FEW025 BKN060 15/07 Q1020 BLU;
0124102340999992008092212204+53133+009350FM-15+0061ETGQ V0200201N002610108019N0112651N1+01401+00701999999ADDGA1071+010801999GF107991999999999999999999MA1102001999999REMMET055METAR ETGQ 221220Z 02005KT 9999 BKN036 14/07 Q1020 BLU;
0147102340999992008092213204+53133+009350FM-15+0061ETGQ V0203401N002610150019N0112651N1+01401+00801999999ADDGA1041+009901999GA2071+015001999GF107991999999999999999999MA1101901999999REMMET062METAR ETGQ 221320Z 34005KT 9999 SCT033 BKN050 14/08 Q1019 BLU;
0124102340999992008092214204+53133+009350FM-15+0061ETGQ V0203201N003110138019N0112651N1+01401+00801999999ADDGA1071+013801999GF107991999999999999999999MA1101901999999REMMET055METAR ETGQ 221420Z 32006KT 9999 BKN046 14/08 Q1019 BLU;
0125102340999992008092215204+53133+009350FM-15+0061ETGQ V0203401N004112200019N0112651N1+01401+00701999999ADDGA1041+015001999GF104991999999999999999999MA1101901999999REMMET056METAR ETGQ 221520Z 34008KT 9999 SCT050 14/07 Q1019 BLU/;
0125102340999992008092216204+53133+009350FM-15+0061ETGQ V0203401N002112200019N0112651N1+01401+00701999999ADDGA1041+018001999GF104991999999999999999999MA1101901999999REMMET056METAR ETGQ 221620Z 34004KT 9999 SCT060 14/07 Q1019 BLU/;
0125102340999992008092217204+53133+009350FM-15+0061ETGQ V0203501N000512200019N0112651N1+01301+00701999999ADDGA1021+018001999GF102991999999999999999999MA1101901999999REMMET056METAR ETGQ 221720Z 35001KT 9999 FEW060 13/07 Q1019 BLU/;
0125102340999992008092218204+53133+009350FM-15+0061ETGQ V0203001N001512200019N0112651N1+01201+00701999999ADDGA1041+018001999GF104991999999999999999999MA1102001999999REMMET056METAR ETGQ 221820Z 30003KT 9999 SCT060 12/07 Q1020 BLU/;
0147102340999992008092304204+53133+009350FM-15+0061ETGQ V0209999C000010300019N0060001N1+01001+00901999999ADDGA1041+004501999GA2071+030001999GF107991999999999999999999MA1101801999999REMMET062METAR ETGQ 230420Z 00000KT 6000 SCT015 BKN100 10/09 Q1018 WHT;
0124102340999992008092305204+53133+009350FM-15+0061ETGQ V0209999C000010042019N0060001N1+01001+00901999999ADDGA1071+004201999GF107991999999999999999999MA1101801999999REMMET055METAR ETGQ 230520Z 00000KT 6000 BKN014 10/09 Q1018 GRN;
0124102340999992008092306204+53133+009350FM-15+0061ETGQ V0209999C000010042019N0060001N1+01101+00901999999ADDGA1071+004201999GF107991999999999999999999MA1101801999999REMMET055METAR ETGQ 230620Z 00000KT 6000 BKN014 11/09 Q1018 GRN;
0124102340999992008092307204+53133+009350FM-15+0061ETGQ V0203301N001510042019N0080001N1+01201+00901999999ADDGA1071+004201999GF107991999999999999999999MA1101801999999REMMET055METAR ETGQ 230720Z 33003KT 8000 BKN014 12/09 Q1018 GRN;
0124102340999992008092308204+53133+009350FM-15+0061ETGQ V0203601N000510042019N0080001N1+01201+00901999999ADDGA1071+004201999GF107991999999999999999999MA1101801999999REMMET055METAR ETGQ 230820Z 36001KT 8000 BKN014 12/09 Q1018 GRN;
0124102340999992008092309204+53133+009350FM-15+0061ETGQ V0203201N001510060019N0080001N1+01301+00901999999ADDGA1071+006001999GF107991999999999999999999MA1101801999999REMMET055METAR ETGQ 230920Z 32003KT 8000 BKN020 13/09 Q1018 WHT;
0124102340999992008092310204+53133+009350FM-15+0061ETGQ V0203201N001510075019N0080001N1+01301+00901999999ADDGA1071+007501999GF107991999999999999999999MA1101801999999REMMET055METAR ETGQ 231020Z 32003KT 8000 BKN025 13/09 Q1018 BLU;
0147102340999992008092311204+53133+009350FM-15+0061ETGQ V0203201N002610120019N0112651N1+01401+00801999999ADDGA1041+007501999GA2071+012001999GF107991999999999999999999MA1101801999999REMMET062METAR ETGQ 231120Z 32005KT 9999 SCT025 BKN040 14/08 Q1018 BLU;
0124102340999992008092312204+53133+009350FM-15+0061ETGQ V0203101N001510096019N0112651N1+01401+00801999999ADDGA1071+009601999GF107991999999999999999999MA1101801999999REMMET055METAR ETGQ 231220Z 31003KT 9999 BKN032 14/08 Q1018 BLU;
0147102340999992008092313204+53133+009350FM-15+0061ETGQ V0203301N003110126019N0112651N1+01401+00801999999ADDGA1021+009001999GA2071+012601999GF107991999999999999999999MA1101691999999REMMET062METAR ETGQ 231320Z 33006KT 9999 FEW030 BKN042 14/08 Q1017 BLU;
0124102340999992008092314204+53133+009350FM-15+0061ETGQ V0203301N002610144019N0112651N1+01401+00801999999ADDGA1071+014401999GF107991999999999999999999MA1101691999999REMMET055METAR ETGQ 231420Z 33005KT 9999 BKN048 14/08 Q1017 BLU;
0124102340999992008092315204+53133+009350FM-15+0061ETGQ V0203401N002110147019N0112651N1+01301+01001999999ADDGA1081+014701999GF108991999999999999999999MA1101691999999REMMET055METAR ETGQ 231520Z 34004KT 9999 OVC049 13/10 Q1017 BLU;
0143102340999992008092316204+53133+009350FM-15+0061ETGQ V0209999C000010108019N0050001N1+01201+01001999999ADDGA1081+010801999GF108991999999999999999999MA1101691999999MW1101MW2611REMMET062METAR ETGQ 231620Z 00000KT 5000 -RA BR OVC036 12/10 Q1017 WHT;
0143102340999992008092317204+53133+009350FM-15+0061ETGQ V0209999C000010093019N0040001N1+01201+01101999999ADDGA1081+009301999GF108991999999999999999999MA1101691999999MW1101MW2611REMMET062METAR ETGQ 231720Z 00000KT 4000 -RA BR OVC031 12/11 Q1017 GRN;
0133102340999992008092318204+53133+009350FM-15+0061ETGQ V0209999C000010054019N0050001N1+01201+01101999999ADDGA1071+005401999GF107991999999999999999999MA1101691999999MW1101REMMET058METAR ETGQ 231820Z 00000KT 5000 BR BKN018 12/11 Q1017 WHT;
0133102340999992008092404204+53133+009350FM-15+0061ETGQ V0209999C000010030019N0020001N1+01101+01001999999ADDGA1071+003001999GF107991999999999999999999MA1101901999999MW1101REMMET058METAR ETGQ 240420Z 00000KT 2000 BR BKN010 11/10 Q1019 YLO;
0156102340999992008092405204+53133+009350FM-15+0061ETGQ V0209999C000010120019N0020001N1+01101+01001999999ADDGA1041+003601999GA2081+012001999GF108991999999999999999999MA1102001999999MW1101REMMET065METAR ETGQ 240520Z 00000KT 2000 BR SCT012 OVC040 11/10 Q1020 YLO;
0156102340999992008092406204+53133+009350FM-15+0061ETGQ V0209999C000010180019N0025001N1+01101+01001999999ADDGA1021+009001999GA2071+018001999GF107991999999999999999999MA1102001999999MW1101REMMET065METAR ETGQ 240620Z 00000KT 2500 BR FEW030 BKN060 11/10 Q1020 YLO;
0156102340999992008092407204+53133+009350FM-15+0061ETGQ V0209999C000010180019N0030001N1+01201+01101999999ADDGA1021+006601999GA2071+018001999GF107991999999999999999999MA1102101999999MW1101REMMET065METAR ETGQ 240720Z 00000KT 3000 BR FEW022 BKN060 12/11 Q1021 YLO;
0156102340999992008092408204+53133+009350FM-15+0061ETGQ V0209999C000010150019N0040001N1+01301+01101999999ADDGA1041+002401999GA2071+015001999GF107991999999999999999999MA1102201999999MW1101REMMET065METAR ETGQ 240820Z 00000KT 4000 BR SCT008 BKN050 13/11 Q1022 GRN;
0147102340999992008092409204+53133+009350FM-15+0061ETGQ V0209999V000510150019N0112651N1+01401+01001999999ADDGA1041+006001999GA2071+015001999GF107991999999999999999999MA1102201999999REMMET062METAR ETGQ 240920Z VRB01KT 9999 SCT020 BKN050 14/10 Q1022 BLU;
0147102340999992008092410204+53133+009350FM-15+0061ETGQ V0209999V001010135019N0112651N1+01501+00901999999ADDGA1041+006001999GA2071+013501999GF107991999999999999999999MA1102201999999REMMET062METAR ETGQ 241020Z VRB02KT 9999 SCT020 BKN045 15/09 Q1022 BLU;
0147102340999992008092411204+53133+009350FM-15+0061ETGQ V0209999C000010066019N0112651N1+01601+01001999999ADDGA1071+006601999GA2071+036001999GF107991999999999999999999MA1102201999999REMMET062METAR ETGQ 241120Z 00000KT 9999 BKN022 BKN120 16/10 Q1022 WHT;
0147102340999992008092412204+53133+009350FM-15+0061ETGQ V0209999V001010180019N0112651N1+01601+01001999999ADDGA1041+007501999GA2071+018001999GF107991999999999999999999MA1102201999999REMMET062METAR ETGQ 241220Z VRB02KT 9999 SCT025 BKN060 16/10 Q1022 BLU;
0147102340999992008092413204+53133+009350FM-15+0061ETGQ V0200501N001510138019N0112651N1+01401+01001999999ADDGA1041+006601999GA2071+013801999GF107991999999999999999999MA1102201999999REMMET062METAR ETGQ 241320Z 05003KT 9999 SCT022 BKN046 14/10 Q1022 BLU;
0147102340999992008092414204+53133+009350FM-15+0061ETGQ V0200701N000510150019N0112651N1+01501+01001999999ADDGA1041+007501999GA2071+015001999GF107991999999999999999999MA1102201999999REMMET062METAR ETGQ 241420Z 07001KT 9999 SCT025 BKN050 15/10 Q1022 BLU;
0147102340999992008092415204+53133+009350FM-15+0061ETGQ V0200301N000510180019N0112651N1+01501+01001999999ADDGA1021+007501999GA2071+018001999GF107991999999999999999999MA1102201999999REMMET062METAR ETGQ 241520Z 03001KT 9999 FEW025 BKN060 15/10 Q1022 BLU;
0147102340999992008092416204+53133+009350FM-15+0061ETGQ V0200901N001010210019N0112651N1+01501+01001999999ADDGA1021+006001999GA2071+021001999GF107991999999999999999999MA1102301999999REMMET062METAR ETGQ 241620Z 09002KT 9999 FEW020 BKN070 15/10 Q1023 BLU;
0124102340999992008092417204+53133+009350FM-15+0061ETGQ V0200701N002610078019N0112651N1+01401+01001999999ADDGA1071+007801999GF107991999999999999999999MA1102401999999REMMET055METAR ETGQ 241720Z 07005KT 9999 BKN026 14/10 Q1024 BLU;
0147102340999992008092418204+53133+009350FM-15+0061ETGQ V0200301N001010210019N0112651N1+01301+01001999999ADDGA1041+007501999GA2071+021001999GF107991999999999999999999MA1102401999999REMMET062METAR ETGQ 241820Z 03002KT 9999 SCT025 BKN070 13/10 Q1024 BLU;
0124102340999992008092504204+53133+009350FM-15+0061ETGQ V0209999C000010180019N0080001N1+00801+00701999999ADDGA1071+018001999GF107991999999999999999999MA1102711999999REMMET055METAR ETGQ 250420Z 00000KT 8000 BKN060 08/07 Q1027 BLU;
0125102340999992008092505204+53133+009350FM-15+0061ETGQ V0209999C000012200019N0080001N1+00801+00701999999ADDGA1021+018001999GF102991999999999999999999MA1102811999999REMMET056METAR ETGQ 250520Z 00000KT 8000 FEW060 08/07 Q1028 BLU/;
0125102340999992008092506204+53133+009350FM-15+0061ETGQ V0209999C000012200019N0112651N1+00801+00801999999ADDGA1021+001801999GF102991999999999999999999MA1102811999999REMMET056METAR ETGQ 250620Z 00000KT 9999 FEW006 08/08 Q1028 BLU/;
0125102340999992008092507204+53133+009350FM-15+0061ETGQ V0209999C000012200019N0112651N1+01001+00901999999ADDGA1021+002101999GF102991999999999999999999MA1102811999999REMMET056METAR ETGQ 250720Z 00000KT 9999 FEW007 10/09 Q1028 BLU/;
0125102340999992008092508204+53133+009350FM-15+0061ETGQ V0209999C000012200019N0112651N1+01201+00901999999ADDGA1021+002101999GF102991999999999999999999MA1102911999999REMMET056METAR ETGQ 250820Z 00000KT 9999 FEW007 12/09 Q1029 BLU/;
0125102340999992008092509204+53133+009350FM-15+0061ETGQ V0209999C000012200019N0112651N1+01401+00901999999ADDGA1041+013801999GF104991999999999999999999MA1102911999999REMMET056METAR ETGQ 250920Z 00000KT 9999 SCT046 14/09 Q1029 BLU/;
0124102340999992008092510204+53133+009350FM-15+0061ETGQ V0200301N001510105019N0112651N1+01501+00801999999ADDGA1071+010501999GF107991999999999999999999MA1102811999999REMMET055METAR ETGQ 251020Z 03003KT 9999 BKN035 15/08 Q1028 BLU;
0147102340999992008092511204+53133+009350FM-15+0061ETGQ V0200601N003110210019N0112651N1+01601+00801999999ADDGA1041+010501999GA2071+021001999GF107991999999999999999999MA1102811999999REMMET062METAR ETGQ 251120Z 06006KT 9999 SCT035 BKN070 16/08 Q1028 BLU;
0147102340999992008092512204+53133+009350FM-15+0061ETGQ V0200901N003110210019N0112651N1+01601+00801999999ADDGA1041+010801999GA2071+021001999GF107991999999999999999999MA1102911999999REMMET062METAR ETGQ 251220Z 09006KT 9999 SCT036 BKN070 16/08 Q1029 BLU;
0148102340999992008092513204+53133+009350FM-15+0061ETGQ V0200901N003612200019N0112651N1+01601+00801999999ADDGA1021+012301999GA2041+021001999GF104991999999999999999999MA1102911999999REMMET063METAR ETGQ 251320Z 09007KT 9999 FEW041 SCT070 16/08 Q1029 BLU/;
0147102340999992008092514204+53133+009350FM-15+0061ETGQ V0200801N003110150019N0112651N1+01501+00801999999ADDGA1021+012601999GA2071+015001999GF107991999999999999999999MA1102911999999REMMET062METAR ETGQ 251420Z 08006KT 9999 FEW042 BKN050 15/08 Q1029 BLU;
0148102340999992008092515204+53133+009350FM-15+0061ETGQ V0200901N002112200019N0112651N1+01501+00701999999ADDGA1021+012001999GA2041+018001999GF104991999999999999999999MA1102911999999REMMET063METAR ETGQ 251520Z 09004KT 9999 FEW040 SCT060 15/07 Q1029 BLU/;
0147102340999992008092516204+53133+009350FM-15+0061ETGQ V0200901N001510180019N0112651N1+01501+00701999999ADDGA1041+011101999GA2071+018001999GF107991999999999999999999MA1102911999999REMMET062METAR ETGQ 251620Z 09003KT 9999 SCT037 BKN060 15/07 Q1029 BLU;
0148102340999992008092517204+53133+009350FM-15+0061ETGQ V0200601N000512200019N0112651N1+01401+00701999999ADDGA1021+011101999GA2041+018001999GF104991999999999999999999MA1103011999999REMMET063METAR ETGQ 251720Z 06001KT 9999 FEW037 SCT060 14/07 Q1030 BLU/;
0125102340999992008092518204+53133+009350FM-15+0061ETGQ V0200601N001512200019N0112651N1+01301+00601999999ADDGA1021+018001999GF102991999999999999999999MA1103121999999REMMET056METAR ETGQ 251820Z 06003KT 9999 FEW060 13/06 Q1031 BLU/;
0076102340999992008092604204+53133+009350FM-15+0061ETGQ V0209999V001012200019N0112651N1+00701+00601999999ADDMA1103291999999REMMET049METAR ETGQ 260420Z VRB02KT 9999 07/06 Q1033 BLU/;
0076102340999992008092605204+53133+009350FM-15+0061ETGQ V0209999C000012200019N0112651N1+00601+00501999999ADDMA1103391999999REMMET049METAR ETGQ 260520Z 00000KT 9999 06/05 Q1034 BLU/;
0076102340999992008092606204+53133+009350FM-15+0061ETGQ V0209999C000012200019N0112651N1+00701+00601999999ADDMA1103391999999REMMET049METAR ETGQ 260620Z 00000KT 9999 07/06 Q1034 BLU/;
0076102340999992008092607204+53133+009350FM-15+0061ETGQ V0209999C000012200019N0112651N1+00901+00701999999ADDMA1103491999999REMMET049METAR ETGQ 260720Z 00000KT 9999 09/07 Q1035 BLU/;
0076102340999992008092608204+53133+009350FM-15+0061ETGQ V0209999C000012200019N0112651N1+01101+00701999999ADDMA1103491999999REMMET049METAR ETGQ 260820Z 00000KT 9999 11/07 Q1035 BLU/;
0125102340999992008092609204+53133+009350FM-15+0061ETGQ V0209999C000012200019N0112651N1+01401+00701999999ADDGA1021+008401999GF102991999999999999999999MA1103391999999REMMET056METAR ETGQ 260920Z 00000KT 9999 FEW028 14/07 Q1034 BLU/;
0125102340999992008092610204+53133+009350FM-15+0061ETGQ V0200901N003612200019N0112651N1+01601+00501999999ADDGA1021+010501999GF102991999999999999999999MA1103391999999REMMET056METAR ETGQ 261020Z 09007KT 9999 FEW035 16/05 Q1034 BLU/;
0125102340999992008092611204+53133+009350FM-15+0061ETGQ V0200601N003112200019N0112651N1+01701+00301999999ADDGA1021+015001999GF102991999999999999999999MA1103391999999REMMET056METAR ETGQ 261120Z 06006KT 9999 FEW050 17/03 Q1034 BLU/;
0125102340999992008092612204+53133+009350FM-15+0061ETGQ V0200801N003112200019N0112651N1+01701+00201999999ADDGA1021+015001999GF102991999999999999999999MA1103391999999REMMET056METAR ETGQ 261220Z 08006KT 9999 FEW050 17/02 Q1034 BLU/;
0125102340999992008092613204+53133+009350FM-15+0061ETGQ V0201101N003112200019N0112651N1+01801+00401999999ADDGA1021+015001999GF102991999999999999999999MA1103291999999REMMET056METAR ETGQ 261320Z 11006KT 9999 FEW050 18/04 Q1033 BLU/;
0125102340999992008092614204+53133+009350FM-15+0061ETGQ V0200801N002612200019N0112651N1+01801+00401999999ADDGA1021+015001999GF102991999999999999999999MA1103291999999REMMET056METAR ETGQ 261420Z 08005KT 9999 FEW050 18/04 Q1033 BLU/;
0125102340999992008092615204+53133+009350FM-15+0061ETGQ V0200701N003112200019N0112651N1+01801+00401999999ADDGA1021+015001999GF102991999999999999999999MA1103291999999REMMET056METAR ETGQ 261520Z 07006KT 9999 FEW050 18/04 Q1033 BLU/;
0125102340999992008092616204+53133+009350FM-15+0061ETGQ V0200601N002112200019N0112651N1+01701+00501999999ADDGA1021+015001999GF102991999999999999999999MA1103291999999REMMET056METAR ETGQ 261620Z 06004KT 9999 FEW050 17/05 Q1033 BLU/;
0125102340999992008092617204+53133+009350FM-15+0061ETGQ V0209999C000012200019N0112651N1+01601+00601999999ADDGA1021+015001999GF102991999999999999999999MA1103291999999REMMET056METAR ETGQ 261720Z 00000KT 9999 FEW050 16/06 Q1033 BLU/;
0125102340999992008092618204+53133+009350FM-15+0061ETGQ V0209999C000012200019N0112651N1+01301+00701999999ADDGA1021+045001999GF102991999999999999999999MA1103291999999REMMET056METAR ETGQ 261820Z 00000KT 9999 FEW150 13/07 Q1033 BLU/;
0144102340999992008092904204+53133+009350FM-15+0061ETGQ V0209999C000010390019N0020001N1+00701+00601999999ADDGA1071+039001999GF107991999999999999999999MA1101901999999MW1101MW2401REMMET063METAR ETGQ 290420Z 00000KT 2000 VCFG BR BKN130 07/06 Q1019 YLO;
0133102340999992008092905204+53133+009350FM-15+0061ETGQ V0209999C000010003019N0008001N1+00601+00501999999ADDGA1071+000301999GF107991999999999999999999MA1101901999999MW1441REMMET058METAR ETGQ 290520Z 00000KT 0800 FG BKN001 06/05 Q1019 RED;
0156102340999992008092906204+53133+009350FM-15+0061ETGQ V0209999C000010390019N0015001N1+00601+00601999999ADDGA1021+000901999GA2071+039001999GF107991999999999999999999MA1101901999999MW1101REMMET065METAR ETGQ 290620Z 00000KT 1500 BR FEW003 BKN130 06/06 Q1019 AMB;
0133102340999992008092907204+53133+009350FM-15+0061ETGQ V0209999C000010012019N0020001N1+00801+00601999999ADDGA1071+001201999GF107991999999999999999999MA1101901999999MW1101REMMET058METAR ETGQ 290720Z 00000KT 2000 BR BKN004 08/06 Q1019 YLO;
0133102340999992008092908204+53133+009350FM-15+0061ETGQ V0209999C000010012019N0025001N1+00901+00701999999ADDGA1071+001201999GF107991999999999999999999MA1101901999999MW1101REMMET058METAR ETGQ 290820Z 00000KT 2500 BR BKN004 09/07 Q1019 YLO;
0156102340999992008092909204+53133+009350FM-15+0061ETGQ V0209999C000012200019N0040001N1+01001+00701999999ADDGA1041+054001999GA2041+075001999GF104991999999999999999999MA1101801999999MW1101REMMET065METAR ETGQ 290920Z 00000KT 4000 BR SCT180 SCT250 10/07 Q1018 GRN;
0156102340999992008092910204+53133+009350FM-15+0061ETGQ V0209999C000010480019N0050001N1+01201+00801999999ADDGA1041+010501999GA2071+048001999GF107991999999999999999999MA1101801999999MW1051REMMET065METAR ETGQ 291020Z 00000KT 5000 HZ SCT035 BKN160 12/08 Q1018 WHT;
0156102340999992008092911204+53133+009350FM-15+0061ETGQ V0209999C000010510019N0050001N1+01301+00901999999ADDGA1041+039001999GA2071+051001999GF107991999999999999999999MA1101691999999MW1051REMMET065METAR ETGQ 291120Z 00000KT 5000 HZ SCT130 BKN170 13/09 Q1017 WHT;
0124102340999992008092912204+53133+009350FM-15+0061ETGQ V0209999C000010480019N0080001N1+01501+00901999999ADDGA1071+048001999GF107991999999999999999999MA1101591999999REMMET055METAR ETGQ 291220Z 00000KT 8000 BKN160 15/09 Q1016 BLU;
0124102340999992008092913204+53133+009350FM-15+0061ETGQ V0209999C000010480019N0080001N1+01501+00901999999ADDGA1071+048001999GF107991999999999999999999MA1101491999999REMMET055METAR ETGQ 291320Z 00000KT 8000 BKN160 15/09 Q1015 BLU;
0148102340999992008092915204+53133+009350FM-15+0061ETGQ V0209999C000010780019N0112651N1+01601+00801999999ADDGA1041+009601999GA2071+078001999GF107991999999999999999999MA1101491999999REMMET063METAR ETGQ 291520Z 00000KT 9999 SCT032 BKN260 16/08 Q1015 BLU/;
0157102340999992008092916204+53133+009350FM-15+0061ETGQ V0203301N004110057019N0070001N1+01301+00901999999ADDGA1071+005701999GA2071+018001999GF107991999999999999999999MA1101491999999MW1611REMMET066METAR ETGQ 291620Z 33008KT 7000 -RA BKN019 BKN060 13/09 Q1015 WHT;
0147102340999992008092917204+53133+009350FM-15+0061ETGQ V0209999C000010180019N0112651N1+01101+00901999999ADDGA1021+007501999GA2071+018001999GF107991999999999999999999MA1101491999999REMMET062METAR ETGQ 291720Z 00000KT 9999 FEW025 BKN060 11/09 Q1015 BLU;
0124102340999992008092918204+53133+009350FM-15+0061ETGQ V0209999C000010150019N0080001N1+01201+00901999999ADDGA1071+015001999GF107991999999999999999999MA1101591999999REMMET055METAR ETGQ 291820Z 00000KT 8000 BKN050 12/09 Q1016 BLU;
0124102340999992008093004204+53133+009350FM-15+0061ETGQ V0209999C000010300019N0080001N1+00801+00601999999ADDGA1071+030001999GF107991999999999999999999MA1101291999999REMMET055METAR ETGQ 300420Z 00000KT 8000 BKN100 08/06 Q1013 BLU;
0124102340999992008093005204+53133+009350FM-15+0061ETGQ V0209999V001010240019N0080001N1+00901+00601999999ADDGA1071+024001999GF107991999999999999999999MA1101291999999REMMET055METAR ETGQ 300520Z VRB02KT 8000 BKN080 09/06 Q1013 BLU;
0124102340999992008093006204+53133+009350FM-15+0061ETGQ V0209999V001010051019N0112651N1+00901+00601999999ADDGA1071+005101999GF107991999999999999999999MA1101191999999REMMET055METAR ETGQ 300620Z VRB02KT 9999 BKN017 09/06 Q1012 WHT;
0147102340999992008093007204+53133+009350FM-15+0061ETGQ V0202001N002110180019N0112651N1+01001+00701999999ADDGA1041+004501999GA2071+018001999GF107991999999999999999999MA1101081999999REMMET062METAR ETGQ 300720Z 20004KT 9999 SCT015 BKN060 10/07 Q1011 BLU;
0157102340999992008093008204+53133+009350FM-15+0061ETGQ V0202101N003110138019N0070001N1+01001+00701999999ADDGA1041+006001999GA2081+013801999GF108991999999999999999999MA1101081999999MW1611REMMET066METAR ETGQ 300820Z 21006KT 7000 -RA SCT020 OVC046 10/07 Q1011 WHT;
0157102340999992008093009204+53133+009350FM-15+0061ETGQ V0202201N002110180019N0080001N1+01001+00801999999ADDGA1041+004801999GA2081+018001999GF108991999999999999999999MA1101081999999MW1611REMMET066METAR ETGQ 300920Z 22004KT 8000 -RA SCT016 OVC060 10/08 Q1011 BLU;
0147102340999992008093010204+53133+009350FM-15+0061ETGQ V0201401N002610180019N0112651N1+01101+00801999999ADDGA1041+006901999GA2071+018001999GF107991999999999999999999MA1101021999999REMMET062METAR ETGQ 301020Z 14005KT 9999 SCT023 BKN060 11/08 Q1010 BLU;
0124102340999992008093011204+53133+009350FM-15+0061ETGQ V0202601N003610075019N0112651N1+01201+00801999999ADDGA1071+007501999GF107991999999999999999999MA1101021999999REMMET055METAR ETGQ 301120Z 26007KT 9999 BKN025 12/08 Q1010 BLU;
0181102340999992008093012204+53133+009350FM-15+0061ETGQ V0202401N004610150019N0112651N1+01201+00801999999ADDGA1021+006001999GA2071+015001999GA3071+021001999GF107991999999999999999999MA1100911999999OC100981REMMET072METAR ETGQ 301220Z 24009G19KT 9999 FEW020 BKN050 BKN070 12/08 Q1009 BLU;
0158102340999992008093013204+53133+009350FM-15+0061ETGQ V0202201N004110150019N0112651N1+01201+00901999999ADDGA1071+015001999GA2071+021001999GF107991999999999999999999MA1100811999999OC101031REMMET065METAR ETGQ 301320Z 22008G20KT 9999 BKN050 BKN070 12/09 Q1008 BLU;
0147102340999992008093014204+53133+009350FM-15+0061ETGQ V0202201N003610105019N0112651N1+01201+00901999999ADDGA1071+010501999GA2071+018001999GF107991999999999999999999MA1100711999999REMMET062METAR ETGQ 301420Z 22007KT 9999 BKN035 BKN060 12/09 Q1007 BLU;
0170102340999992008093015204+53133+009350FM-15+0061ETGQ V0202301N003110150019N0112651N1+01201+00901999999ADDGA1041+004801999GA2071+015001999GA3071+021001999GF107991999999999999999999MA1100611999999REMMET069METAR ETGQ 301520Z 23006KT 9999 SCT016 BKN050 BKN070 12/09 Q1006 BLU;
0157102340999992008093016204+53133+009350FM-15+0061ETGQ V0202101N004110180019N0112651N1+01201+00901999999ADDGA1041+006001999GA2071+018001999GF107991999999999999999999MA1100511999999MW1611REMMET066METAR ETGQ 301620Z 21008KT 9999 -RA SCT020 BKN060 12/09 Q1005 BLU;
0180102340999992008093017204+53133+009350FM-15+0061ETGQ V0202201N003610096019N0112651N1+01201+00901999999ADDGA1021+003001999GA2071+009601999GA3081+018001999GF108991999999999999999999MA1100511999999MW1611REMMET073METAR ETGQ 301720Z 22007KT 9999 -RA FEW010 BKN032 OVC060 12/09 Q1005 BLU;
0191102340999992008093018204+53133+009350FM-15+0061ETGQ V0202201N00411009601CN0080001N1+01201+01001999999ADDGA1021+003001999GA2041+009601999GA3081+018001999GF108991999999999999999999MA1100511999999MW1611OC101031REMMET076METAR ETGQ 301820Z 22008G20KT 8000 -RA FEW010 SCT032 OVC060 12/10 Q1005 BLU;
0145102340999992008100104204+53133+009350FM-15+0061ETGQ V0202401N004610330019N0080001N1+01301+01001999999ADDGA1071+033001999GF107991999999999999999999MA1100001999999MW1611OC100981REMMET062METAR ETGQ 010420Z 24009G19KT 8000 -RA BKN110 13/10 Q1000 BLU;
0135102340999992008100105204+53133+009350FM-15+0061ETGQ V0202401N004110180019N0112651N1+01301+01001999999ADDGA1071+018001999GF107991999999999999999999MA1100001999999OC101081REMMET058METAR ETGQ 010520Z 24008G21KT 9999 BKN060 13/10 Q1000 BLU;
0158102340999992008100106204+53133+009350FM-15+0061ETGQ V0202401N005110210019N0112651N1+01301+01001999999ADDGA1041+006001999GA2071+021001999GF107991999999999999999999MA1100001999999OC101031REMMET065METAR ETGQ 010620Z 24010G20KT 9999 SCT020 BKN070 13/10 Q1000 BLU;
0158102340999992008100107204+53133+009350FM-15+0061ETGQ V0202201N005110240019N0112651N1+01301+01001999999ADDGA1021+006001999GA2071+024001999GF107991999999999999999999MA1100001999999OC101131REMMET065METAR ETGQ 010720Z 22010G22KT 9999 FEW020 BKN080 13/10 Q1000 BLU;
0158102340999992008100108204+53133+009350FM-15+0061ETGQ V0202301N005110330019N0112651N1+01401+01001999999ADDGA1021+009001999GA2071+033001999GF107991999999999999999999MA1100001999999OC101081REMMET065METAR ETGQ 010820Z 23010G21KT 9999 FEW030 BKN110 14/10 Q1000 BLU;
0159102340999992008100109204+53133+009350FM-15+0061ETGQ V0202401N005112200019N0112651N1+01401+01001999999ADDGA1041+010801999GA2041+033001999GF104991999999999999999999MA1100001999999OC101081REMMET066METAR ETGQ 010920Z 24010G21KT 9999 SCT036 SCT110 14/10 Q1000 BLU/;
0168102340999992008100110204+53133+009350FM-15+0061ETGQ V0202401N004110150019N0112651N1+01501+01001999999ADDGA1041+007501999GA2071+015001999GF107991999999999999999999MA1100001999999MW1611OC100981REMMET069METAR ETGQ 011020Z 24008G19KT 9999 -RA SCT025 BKN050 15/10 Q1000 BLU;
0168102340999992008100111204+53133+009350FM-15+0061ETGQ V0202401N004610144019N0112651N1+01501+01101999999ADDGA1041+008701999GA2071+014401999GF107991999999999999999999MA1100001999999MW1611OC101031REMMET069METAR ETGQ 011120Z 24009G20KT 9999 -RA SCT029 BKN048 15/11 Q1000 BLU;
0135102340999992008100112204+53133+009350FM-15+0061ETGQ V0202401N005110114019N0112651N1+01601+01101999999ADDGA1071+011401999GF107991999999999999999999MA1100001999999OC101131REMMET058METAR ETGQ 011220Z 24010G22KT 9999 BKN038 16/11 Q1000 BLU;
0158102340999992008100113204+53133+009350FM-15+0061ETGQ V0202701N005110090019N0112651N1+01601+01001999999ADDGA1021+003001999GA2071+009001999GF107991999999999999999999MA1100001999999OC101081REMMET065METAR ETGQ 011320Z 27010G21KT 9999 FEW010 BKN030 16/10 Q1000 BLU;
0150102340999992008100114204+53133+009350FM-15+0061ETGQ V0202201N004110081019N0112651N1+01501+01101999999ADDGA1021+003001999GA2071+008101021GF107991999999999999999999MA1100001999999REMMET065METAR ETGQ 011420Z 22008KT 9999 FEW010 BKN027TCU 15/11 Q1000 BLU;
0166102340999992008100115204+53133+009350FM-15+0061ETGQ V0202601N004110060019N0112651N1+01201+01001999999ADDGA1021+003001999GA2071+006001091GF107991999999999999999999MA1100101999999MW1801REMMET075METAR ETGQ 011520Z 26008KT 9999 -SHRA FEW010 BKN020CB 12/10 Q1001 RERA WHT;
0170102340999992008100116204+53133+009350FM-15+0061ETGQ V0202501N00261012001CN0112651N1+01301+01001999999ADDGA1021+007501999GA2041+012001999GA3071+018001999GF107991999999999999999999MA1100101999999REMMET069METAR ETGQ 011620Z 25005KT 9999 FEW025 SCT040 BKN060 13/10 Q1001 BLU;
0148102340999992008100117204+53133+009350FM-15+0061ETGQ V0202401N002612200019N0112651N1+01301+00801999999ADDGA1021+007501999GA2041+018001999GF104991999999999999999999MA1100201999999REMMET063METAR ETGQ 011720Z 24005KT 9999 FEW025 SCT060 13/08 Q1002 BLU/;
0148102340999992008100118204+53133+009350FM-15+0061ETGQ V0202701N003112200019N0112651N1+01301+00801999999ADDGA1021+012001999GA2041+018001999GF104991999999999999999999MA1100201999999REMMET063METAR ETGQ 011820Z 27006KT 9999 FEW040 SCT060 13/08 Q1002 BLU/;
0124102340999992008100204204+53133+009350FM-15+0061ETGQ V0202201N003110330019N0112651N1+01101+00701999999ADDGA1071+033001999GF107991999999999999999999MA1100311999999REMMET055METAR ETGQ 020420Z 22006KT 9999 BKN110 11/07 Q1003 BLU;
0124102340999992008100205204+53133+009350FM-15+0061ETGQ V0202201N003110270019N0112651N1+01001+00701999999ADDGA1071+027001999GF107991999999999999999999MA1100311999999REMMET055METAR ETGQ 020520Z 22006KT 9999 BKN090 10/07 Q1003 BLU;
0124102340999992008100206204+53133+009350FM-15+0061ETGQ V0202201N002610150019N0112651N1+01001+00601999999ADDGA1071+015001999GF107991999999999999999999MA1100411999999REMMET055METAR ETGQ 020620Z 22005KT 9999 BKN050 10/06 Q1004 BLU;
0148102340999992008100207204+53133+009350FM-15+0061ETGQ V0202201N003112200019N0112651N1+01101+00601999999ADDGA1021+009901999GA2041+015001999GF104991999999999999999999MA1100411999999REMMET063METAR ETGQ 020720Z 22006KT 9999 FEW033 SCT050 11/06 Q1004 BLU/;
0125102340999992008100208204+53133+009350FM-15+0061ETGQ V0202801N003612200019N0112651N1+01101+00601999999ADDGA1041+018001999GF104991999999999999999999MA1100511999999REMMET056METAR ETGQ 020820Z 28007KT 9999 SCT060 11/06 Q1005 BLU/;
0159102340999992008100209204+53133+009350FM-15+0061ETGQ V0202201N004612200019N0112651N1+01301+00601999999ADDGA1021+009001999GA2041+015001999GF104991999999999999999999MA1100411999999OC101181REMMET066METAR ETGQ 020920Z 22009G23KT 9999 FEW030 SCT050 13/06 Q1004 BLU/;
0158102340999992008100210204+53133+009350FM-15+0061ETGQ V0202201N005110129019N0112651N1+01301+00601999999ADDGA1021+007501999GA2071+012901999GF107991999999999999999999MA1100511999999OC101031REMMET065METAR ETGQ 021020Z 22010G20KT 9999 FEW025 BKN043 13/06 Q1005 BLU;
0124102340999992008100211204+53133+009350FM-15+0061ETGQ V0202401N004610102019N0112651N1+01201+00701999999ADDGA1071+010201999GF107991999999999999999999MA1100411999999REMMET055METAR ETGQ 021120Z 24009KT 9999 BKN034 12/07 Q1004 BLU;
0138102340999992008100212204+53133+009350FM-15+0061ETGQ V0202301N004612200019N0112651N1+01301+00601999999ADDGA1041+010501091GF104991999999999999999999MA1100411999999OC101031REMMET061METAR ETGQ 021220Z 23009G20KT 9999 SCT035CB 13/06 Q1004 BLU/;
0144102340999992008100213204+53133+009350FM-15+0061ETGQ V0202401N002112200019N0112651N1+01201+00701999999ADDGA1041+008701091GF104991999999999999999999MA1100411999999MW1801REMMET069METAR ETGQ 021320Z 24004KT 9999 -SHRA SCT029CB 12/07 Q1004 RERA BLU/;
0150102340999992008100214204+53133+009350FM-15+0061ETGQ V0201901N003112200019N0112651N1+01201+00501999999ADDGA1041+007501091GA2041+015001999GF104991999999999999999999MA1100411999999REMMET065METAR ETGQ 021420Z 19006KT 9999 SCT025CB SCT050 12/05 Q1004 BLU/;
0173102340999992008100215204+53133+009350FM-15+0061ETGQ V0202601N003612200019N0112651N1+01201+00501999999ADDGA1021+006001999GA2021+009001091GA3041+015001999GF104991999999999999999999MA1100411999999REMMET072METAR ETGQ 021520Z 26007KT 9999 FEW020 FEW030CB SCT050 12/05 Q1004 BLU/;
0149102340999992008100216204+53133+009350FM-15+0061ETGQ V0209999V001010180019N0112651N1+01101+00501999999ADDGA1021+009001091GA2071+018001999GF107991999999999999999999MA1100411999999REMMET064METAR ETGQ 021620Z VRB02KT 9999 FEW030CB BKN060 11/05 Q1004 BLU;
0173102340999992008100217204+53133+009350FM-15+0061ETGQ V0202201N00151018001CN0112651N1+01101+00501999999ADDGA1021+009001021GA2041+018001999GA3071+030001999GF107991999999999999999999MA1100511999999REMMET072METAR ETGQ 021720Z 22003KT 9999 FEW030TCU SCT060 BKN100 11/05 Q1005 BLU;
0170102340999992008100218204+53133+009350FM-15+0061ETGQ V0202201N00311018001CN0112651N1+01001+00501999999ADDGA1021+009001999GA2041+018001999GA3071+039001999GF107991999999999999999999MA1100511999999REMMET069METAR ETGQ 021820Z 22006KT 9999 FEW030 SCT060 BKN130 10/05 Q1005 BLU;
0124102340999992008100604204+53133+009350FM-15+0061ETGQ V0202101N002110099019N0112651N1+01401+01301999999ADDGA1081+009901999GF108991999999999999999999MA1100811999999REMMET055METAR ETGQ 060420Z 21004KT 9999 OVC033 14/13 Q1008 BLU;
0148102340999992008100605204+53133+009350FM-15+0061ETGQ V0202201N003110099019N0050001N1+01401+01301999999ADDGA1081+009901999GF108991999999999999999999MA1100911999999MW1101MW2611REMMET067METAR ETGQ 060520Z 22006KT 5000 -RA BR OVC033 14/13 Q1009 RERA WHT;
0134102340999992008100606204+53133+009350FM-15+0061ETGQ V0209999C000010099019N0060001N1+01401+01301999999ADDGA1081+009901999GF108991999999999999999999MA1101021999999MW1611REMMET059METAR ETGQ 060620Z 00000KT 6000 -RA OVC033 14/13 Q1010 WHT;
0134102340999992008100607204+53133+009350FM-15+0061ETGQ V0202001N001510102019N0080001N1+01401+01301999999ADDGA1081+010201999GF108991999999999999999999MA1101081999999MW1611REMMET059METAR ETGQ 060720Z 20003KT 8000 -RA OVC034 14/13 Q1011 BLU;
0124102340999992008100608204+53133+009350FM-15+0061ETGQ V0209999V001010105019N0112651N1+01501+01301999999ADDGA1081+010501999GF108991999999999999999999MA1101191999999REMMET055METAR ETGQ 060820Z VRB02KT 9999 OVC035 15/13 Q1012 BLU;
0124102340999992008100609204+53133+009350FM-15+0061ETGQ V0209999V001010090019N0112651N1+01601+01301999999ADDGA1071+009001999GF107991999999999999999999MA1101291999999REMMET055METAR ETGQ 060920Z VRB02KT 9999 BKN030 16/13 Q1013 BLU;
0124102340999992008100610204+53133+009350FM-15+0061ETGQ V0202401N001510099019N0112651N1+01601+01201999999ADDGA1071+009901999GF107991999999999999999999MA1101291999999REMMET055METAR ETGQ 061020Z 24003KT 9999 BKN033 16/12 Q1013 BLU;
0124102340999992008100611204+53133+009350FM-15+0061ETGQ V0203501N001510099019N0112651N1+01601+01201999999ADDGA1071+009901999GF107991999999999999999999MA1101391999999REMMET055METAR ETGQ 061120Z 35003KT 9999 BKN033 16/12 Q1014 BLU;
0124102340999992008100612204+53133+009350FM-15+0061ETGQ V0203301N002610105019N0112651N1+01501+01201999999ADDGA1071+010501999GF107991999999999999999999MA1101391999999REMMET055METAR ETGQ 061220Z 33005KT 9999 BKN035 15/12 Q1014 BLU;
0170102340999992008100613204+53133+009350FM-15+0061ETGQ V0200201N001510105019N0112651N1+01501+01301999999ADDGA1021+003001999GA2071+010501999GA3071+021001999GF107991999999999999999999MA1101391999999REMMET069METAR ETGQ 061320Z 02003KT 9999 FEW010 BKN035 BKN070 15/13 Q1014 BLU;
0159102340999992008100614204+53133+009350FM-15+0061ETGQ V0203501N001010090019N0112651N1+01501+01201999999ADDGA1041+004501999GA2071+009001999GF107991999999999999999999MA1101491999999MW1801REMMET068METAR ETGQ 061420Z 35002KT 9999 -SHRA SCT015 BKN030 15/12 Q1015 BLU;
0159102340999992008100615204+53133+009350FM-15+0061ETGQ V0202001N001510078019N0112651N1+01601+01301999999ADDGA1041+004501999GA2071+007801999GF107991999999999999999999MA1101491999999MW1801REMMET068METAR ETGQ 061520Z 20003KT 9999 -SHRA SCT015 BKN026 16/13 Q1015 BLU;
0124102340999992008100616204+53133+009350FM-15+0061ETGQ V0202201N002610105019N0112651N1+01501+01201999999ADDGA1071+010501999GF107991999999999999999999MA1101491999999REMMET055METAR ETGQ 061620Z 22005KT 9999 BKN035 15/12 Q1015 BLU;
0147102340999992008100617204+53133+009350FM-15+0061ETGQ V0209999C000010147019N0112651N1+01401+01201999999ADDGA1041+010801999GA2071+014701999GF107991999999999999999999MA1101591999999REMMET062METAR ETGQ 061720Z 00000KT 9999 SCT036 BKN049 14/12 Q1016 BLU;
0170102340999992008100618204+53133+009350FM-15+0061ETGQ V0209999C000010180019N0112651N1+01401+01201999999ADDGA1021+010801999GA2071+018001999GA3071+024001999GF107991999999999999999999MA1101591999999REMMET069METAR ETGQ 061820Z 00000KT 9999 FEW036 BKN060 BKN080 14/12 Q1016 BLU;
0147102340999992008100704204+53133+009350FM-15+0061ETGQ V0201601N000510111019N0112651N1+01301+01101999999ADDGA1021+008101999GA2071+011101999GF107991999999999999999999MA1101691999999REMMET062METAR ETGQ 070420Z 16001KT 9999 FEW027 BKN037 13/11 Q1017 BLU;
0147102340999992008100705204+53133+009350FM-15+0061ETGQ V0209999C000010210019N0112651N1+01301+01201999999ADDGA1041+004501999GA2071+021001999GF107991999999999999999999MA1101591999999REMMET062METAR ETGQ 070520Z 00000KT 9999 SCT015 BKN070 13/12 Q1016 BLU;
0147102340999992008100706204+53133+009350FM-15+0061ETGQ V0201401N001510210019N0112651N1+01301+01101999999ADDGA1041+005101999GA2071+021001999GF107991999999999999999999MA1101591999999REMMET062METAR ETGQ 070620Z 14003KT 9999 SCT017 BKN070 13/11 Q1016 BLU;
0147102340999992008100707204+53133+009350FM-15+0061ETGQ V0201501N001010210019N0112651N1+01401+01201999999ADDGA1041+005401999GA2071+021001999GF107991999999999999999999MA1101691999999REMMET062METAR ETGQ 070720Z 15002KT 9999 SCT018 BKN070 14/12 Q1017 BLU;
0147102340999992008100708204+53133+009350FM-15+0061ETGQ V0201501N001510180019N0112651N1+01401+01201999999ADDGA1041+005401999GA2071+018001999GF107991999999999999999999MA1101591999999REMMET062METAR ETGQ 070820Z 15003KT 9999 SCT018 BKN060 14/12 Q1016 BLU;
0125102340999992008100709204+53133+009350FM-15+0061ETGQ V0201401N001512200019N0112651N1+01701+01201999999ADDGA1041+015001999GF104991999999999999999999MA1101591999999REMMET056METAR ETGQ 070920Z 14003KT 9999 SCT050 17/12 Q1016 BLU/;
0125102340999992008100710204+53133+009350FM-15+0061ETGQ V0209999V000512200019N0112651N1+01701+01201999999ADDGA1041+009001999GF104991999999999999999999MA1101591999999REMMET056METAR ETGQ 071020Z VRB01KT 9999 SCT030 17/12 Q1016 BLU/;
0147102340999992008100711204+53133+009350FM-15+0061ETGQ V0201601N001510123019N0112651N1+01701+01201999999ADDGA1041+007501999GA2071+012301999GF107991999999999999999999MA1101491999999REMMET062METAR ETGQ 071120Z 16003KT 9999 SCT025 BKN041 17/12 Q1015 BLU;
0147102340999992008100712204+53133+009350FM-15+0061ETGQ V0201501N001510138019N0112651N1+01801+01201999999ADDGA1041+007501999GA2071+013801999GF107991999999999999999999MA1101491999999REMMET062METAR ETGQ 071220Z 15003KT 9999 SCT025 BKN046 18/12 Q1015 BLU;
0147102340999992008100713204+53133+009350FM-15+0061ETGQ V0201501N002610150019N0112651N1+01801+01201999999ADDGA1041+009001999GA2071+015001999GF107991999999999999999999MA1101391999999REMMET062METAR ETGQ 071320Z 15005KT 9999 SCT030 BKN050 18/12 Q1014 BLU;
0124102340999992008100714204+53133+009350FM-15+0061ETGQ V0201501N002110102019N0112651N1+01801+01201999999ADDGA1071+010201999GF107991999999999999999999MA1101391999999REMMET055METAR ETGQ 071420Z 15004KT 9999 BKN034 18/12 Q1014 BLU;
0124102340999992008100715204+53133+009350FM-15+0061ETGQ V0209999V001010099019N0112651N1+01801+01201999999ADDGA1071+009901999GF107991999999999999999999MA1101391999999REMMET055METAR ETGQ 071520Z VRB02KT 9999 BKN033 18/12 Q1014 BLU;
0124102340999992008100716204+53133+009350FM-15+0061ETGQ V0201701N001010111019N0112651N1+01801+01201999999ADDGA1071+011101999GF107991999999999999999999MA1101291999999REMMET055METAR ETGQ 071620Z 17002KT 9999 BKN037 18/12 Q1013 BLU;
0124102340999992008100717204+53133+009350FM-15+0061ETGQ V0209999C000010111019N0112651N1+01701+01201999999ADDGA1071+011101999GF107991999999999999999999MA1101291999999REMMET055METAR ETGQ 071720Z 00000KT 9999 BKN037 17/12 Q1013 BLU;
0134102340999992008100718204+53133+009350FM-15+0061ETGQ V0209999C000010114019N0112651N1+01601+01301999999ADDGA1071+011401999GF107991999999999999999999MA1101291999999MW1611REMMET059METAR ETGQ 071820Z 00000KT 9999 -RA BKN038 16/13 Q1013 BLU;
0124102340999992008100804204+53133+009350FM-15+0061ETGQ V0209999C000010270019N0112651N1+01301+01201999999ADDGA1071+027001999GF107991999999999999999999MA1101291999999REMMET055METAR ETGQ 080420Z 00000KT 9999 BKN090 13/12 Q1013 BLU;
0147102340999992008100805204+53133+009350FM-15+0061ETGQ V0201701N000510300019N0112651N1+01301+01201999999ADDGA1041+009001999GA2071+030001999GF107991999999999999999999MA1101291999999REMMET062METAR ETGQ 080520Z 17001KT 9999 SCT030 BKN100 13/12 Q1013 BLU;
0124102340999992008100806204+53133+009350FM-15+0061ETGQ V0201501N000510210019N0112651N1+01401+01201999999ADDGA1071+021001999GF107991999999999999999999MA1101391999999REMMET055METAR ETGQ 080620Z 15001KT 9999 BKN070 14/12 Q1014 BLU;
0124102340999992008100807204+53133+009350FM-15+0061ETGQ V0201501N002110210019N0112651N1+01401+01201999999ADDGA1071+021001999GF107991999999999999999999MA1101391999999REMMET055METAR ETGQ 080720Z 15004KT 9999 BKN070 14/12 Q1014 BLU;
0134102340999992008100808204+53133+009350FM-15+0061ETGQ V0209999C000010240019N0112651N1+01401+01201999999ADDGA1071+024001999GF107991999999999999999999MA1101491999999MW1611REMMET059METAR ETGQ 080820Z 00000KT 9999 -RA BKN080 14/12 Q1015 BLU;
0124102340999992008100809204+53133+009350FM-15+0061ETGQ V0209999C000010270019N0112651N1+01501+01301999999ADDGA1071+027001999GF107991999999999999999999MA1101491999999REMMET055METAR ETGQ 080920Z 00000KT 9999 BKN090 15/13 Q1015 BLU;
0147102340999992008100811204+53133+009350FM-15+0061ETGQ V0209999C000010210019N0112651N1+01601+01301999999ADDGA1041+009001999GA2071+021001999GF107991999999999999999999MA1101591999999REMMET062METAR ETGQ 081120Z 00000KT 9999 SCT030 BKN070 16/13 Q1016 BLU;
0170102340999992008100812204+53133+009350FM-15+0061ETGQ V0209999C000010063019N0112651N1+01701+01301999999ADDGA1021+003601999GA2071+006301999GA3071+021001999GF107991999999999999999999MA1101591999999REMMET069METAR ETGQ 081220Z 00000KT 9999 FEW012 BKN021 BKN070 17/13 Q1016 WHT;
0157102340999992008100813204+53133+009350FM-15+0061ETGQ V0203201N004110030019N0070001N1+01301+01101999999ADDGA1021+002401999GA2081+003001999GF108991999999999999999999MA1101691999999MW1511REMMET066METAR ETGQ 081320Z 32008KT 7000 -DZ FEW008 OVC010 13/11 Q1017 GRN;
0188102340999992008100814204+53133+009350FM-15+0061ETGQ V0203301N002110030019N0070001N1+01301+01101999999ADDGA1021+002401999GA2071+003001999GA3081+004801999GF108991999999999999999999MA1101801999999MW1511MW2611REMMET075METAR ETGQ 081420Z 33004KT 7000 -RADZ FEW008 BKN010 OVC016 13/11 Q1018 GRN;
0180102340999992008100815204+53133+009350FM-15+0061ETGQ V0203301N002110027019N0070001N1+01301+01101999999ADDGA1021+002101999GA2071+002701999GA3081+004801999GF108991999999999999999999MA1101901999999MW1511REMMET073METAR ETGQ 081520Z 33004KT 7000 -DZ FEW007 BKN009 OVC016 13/11 Q1019 GRN;
0188102340999992008100816204+53133+009350FM-15+0061ETGQ V0203301N001510027019N0060001N1+01201+01001999999ADDGA1021+001801999GA2071+002701999GA3081+006001999GF108991999999999999999999MA1101901999999MW1511MW2611REMMET075METAR ETGQ 081620Z 33003KT 6000 -DZRA FEW006 BKN009 OVC020 12/10 Q1019 GRN;
0188102340999992008100817204+53133+009350FM-15+0061ETGQ V0209999C000010027019N0060001N1+01101+01001999999ADDGA1021+001801999GA2071+002701999GA3081+004801999GF108991999999999999999999MA1102001999999MW1511MW2611REMMET075METAR ETGQ 081720Z 00000KT 6000 -DZRA FEW006 BKN009 OVC016 11/10 Q1020 GRN;
0174102340999992008100818204+53133+009350FM-15+0061ETGQ V0202201N000510033019N0050001N1+01201+01101999999ADDGA1071+003301999GA2081+006301999GF108991999999999999999999MA1102101999999MW1101MW2511MW3611REMMET071METAR ETGQ 081820Z 22001KT 5000 -DZRA BR BKN011 OVC021 12/11 Q1021 GRN;
0124102340999992008100904204+53133+009350FM-15+0061ETGQ V0203101N001010138019N0112651N1+01101+01001999999ADDGA1071+013801999GF107991999999999999999999MA1102611999999REMMET055METAR ETGQ 090420Z 31002KT 9999 BKN046 11/10 Q1026 BLU;
0124102340999992008100905204+53133+009350FM-15+0061ETGQ V0203201N002610180019N0112651N1+01101+00901999999ADDGA1071+018001999GF107991999999999999999999MA1102711999999REMMET055METAR ETGQ 090520Z 32005KT 9999 BKN060 11/09 Q1027 BLU;
0147102340999992008100906204+53133+009350FM-15+0061ETGQ V0209999C000010180019N0112651N1+01101+00901999999ADDGA1041+007801999GA2071+018001999GF107991999999999999999999MA1102811999999REMMET062METAR ETGQ 090620Z 00000KT 9999 SCT026 BKN060 11/09 Q1028 BLU;
0147102340999992008100907204+53133+009350FM-15+0061ETGQ V0203201N000510180019N0112651N1+01201+00901999999ADDGA1041+007801999GA2071+018001999GF107991999999999999999999MA1102911999999REMMET062METAR ETGQ 090720Z 32001KT 9999 SCT026 BKN060 12/09 Q1029 BLU;
0124102340999992008100908204+53133+009350FM-15+0061ETGQ V0203401N002110090019N0112651N1+01201+01001999999ADDGA1071+009001999GF107991999999999999999999MA1103011999999REMMET055METAR ETGQ 090820Z 34004KT 9999 BKN030 12/10 Q1030 BLU;
0147102340999992008100909204+53133+009350FM-15+0061ETGQ V0203401N000510150019N0112651N1+01301+01001999999ADDGA1041+007801999GA2071+015001999GF107991999999999999999999MA1103011999999REMMET062METAR ETGQ 090920Z 34001KT 9999 SCT026 BKN050 13/10 Q1030 BLU;
0124102340999992008100910204+53133+009350FM-15+0061ETGQ V0203201N001510090019N0112651N1+01401+01001999999ADDGA1071+009001999GF107991999999999999999999MA1103121999999REMMET055METAR ETGQ 091020Z 32003KT 9999 BKN030 14/10 Q1031 BLU;
0124102340999992008100911204+53133+009350FM-15+0061ETGQ V0203201N001510090019N0112651N1+01401+01001999999ADDGA1071+009001999GF107991999999999999999999MA1103121999999REMMET055METAR ETGQ 091120Z 32003KT 9999 BKN030 14/10 Q1031 BLU;
0124102340999992008100912204+53133+009350FM-15+0061ETGQ V0203101N001510099019N0112651N1+01501+00901999999ADDGA1071+009901999GF107991999999999999999999MA1103121999999REMMET055METAR ETGQ 091220Z 31003KT 9999 BKN033 15/09 Q1031 BLU;
0147102340999992008100913204+53133+009350FM-15+0061ETGQ V0203201N002110099019N0112651N1+01601+00901999999ADDGA1021+007501999GA2071+009901999GF107991999999999999999999MA1103121999999REMMET062METAR ETGQ 091320Z 32004KT 9999 FEW025 BKN033 16/09 Q1031 BLU;
0147102340999992008100914204+53133+009350FM-15+0061ETGQ V0203401N003110114019N0112651N1+01601+00901999999ADDGA1041+008401999GA2071+011401999GF107991999999999999999999MA1103121999999REMMET062METAR ETGQ 091420Z 34006KT 9999 SCT028 BKN038 16/09 Q1031 BLU;
0148102340999992008100915204+53133+009350FM-15+0061ETGQ V0203201N002112200019N0112651N1+01601+00901999999ADDGA1021+008401999GA2041+012601999GF104991999999999999999999MA1103121999999REMMET063METAR ETGQ 091520Z 32004KT 9999 FEW028 SCT042 16/09 Q1031 BLU/;
0125102340999992008100916204+53133+009350FM-15+0061ETGQ V0203201N001012200019N0112651N1+01501+00901999999ADDGA1021+008401999GF102991999999999999999999MA1103181999999REMMET056METAR ETGQ 091620Z 32002KT 9999 FEW028 15/09 Q1032 BLU/;
0148102340999992008100917204+53133+009350FM-15+0061ETGQ V0209999C000012200019N0112651N1+01201+00901999999ADDGA1021+012601999GA2041+075001999GF104991999999999999999999MA1103181999999REMMET063METAR ETGQ 091720Z 00000KT 9999 FEW042 SCT250 12/09 Q1032 BLU/;
0124102340999992008100918204+53133+009350FM-15+0061ETGQ V0209999C000010114019N0112651N1+01101+00901999999ADDGA1071+011401999GF107991999999999999999999MA1103291999999REMMET055METAR ETGQ 091820Z 00000KT 9999 BKN038 11/09 Q1033 BLU;
0132102340999992008101004204+53133+009350FM-15+0061ETGQ V0209999C000010001519N0003001N1+00801+00801999999ADDGA1091+000151999GF109991999999000251999999MA1103391999999MW1451REMMET057METAR ETGQ 100420Z 00000KT 0300 FG VV000 08/08 Q1034 RED;
0132102340999992008101005204+53133+009350FM-15+0061ETGQ V0209999C000010001519N0002001N1+00901+00801999999ADDGA1091+000151999GF109991999999000251999999MA1103391999999MW1451REMMET057METAR ETGQ 100520Z 00000KT 0200 FG VV000 09/08 Q1034 RED;
0132102340999992008101006204+53133+009350FM-15+0061ETGQ V0209999C000010001519N0002001N1+00801+00801999999ADDGA1091+000151999GF109991999999000251999999MA1103491999999MW1451REMMET057METAR ETGQ 100620Z 00000KT 0200 FG VV000 08/08 Q1035 RED;
0133102340999992008101007204+53133+009350FM-15+0061ETGQ V0209999C000010009019N0010001N1+00901+00901999999ADDGA1081+000901999GF108991999999999999999999MA1103491999999MW1101REMMET058METAR ETGQ 100720Z 00000KT 1000 BR OVC003 09/09 Q1035 AMB;
0133102340999992008101008204+53133+009350FM-15+0061ETGQ V0209999C000010012019N0012001N1+01001+00901999999ADDGA1081+001201999GF108991999999999999999999MA1103491999999MW1101REMMET058METAR ETGQ 100820Z 00000KT 1200 BR OVC004 10/09 Q1035 AMB;
0156102340999992008101009204+53133+009350FM-15+0061ETGQ V0209999C000010480019N0025001N1+01101+00901999999ADDGA1041+001801999GA2071+048001999GF107991999999999999999999MA1103491999999MW1101REMMET065METAR ETGQ 100920Z 00000KT 2500 BR SCT006 BKN160 11/09 Q1035 YLO;
0156102340999992008101010204+53133+009350FM-15+0061ETGQ V0209999C000011050019N0040001N1+01201+01001999999ADDGA1021+048001999GA2071+105001999GF107991999999999999999999MA1103491999999MW1101REMMET065METAR ETGQ 101020Z 00000KT 4000 BR FEW160 BKN350 12/10 Q1035 GRN;
0156102340999992008101011204+53133+009350FM-15+0061ETGQ V0209999V000511050019N0050001N1+01401+01001999999ADDGA1021+018001999GA2071+105001999GF107991999999999999999999MA1103391999999MW1051REMMET065METAR ETGQ 101120Z VRB01KT 5000 HZ FEW060 BKN350 14/10 Q1034 WHT;
0148102340999992008101012204+53133+009350FM-15+0061ETGQ V0209999C000011050019N0090001N1+01701+01001999999ADDGA1021+018001999GA2071+105001999GF107991999999999999999999MA1103291999999REMMET063METAR ETGQ 101220Z 00000KT 9000 FEW060 BKN350 17/10 Q1033 BLU/;
0148102340999992008101013204+53133+009350FM-15+0061ETGQ V0209999C000011050019N0112651N1+01801+01001999999ADDGA1021+018001999GA2071+105001999GF107991999999999999999999MA1103181999999REMMET063METAR ETGQ 101320Z 00000KT 9999 FEW060 BKN350 18/10 Q1032 BLU/;
0148102340999992008101014204+53133+009350FM-15+0061ETGQ V0209999C000011050019N0112651N1+01901+01001999999ADDGA1021+010801999GA2071+105001999GF107991999999999999999999MA1103181999999REMMET063METAR ETGQ 101420Z 00000KT 9999 FEW036 BKN350 19/10 Q1032 BLU/;
0148102340999992008101015204+53133+009350FM-15+0061ETGQ V0202101N000510900019N0112651N1+01901+01001999999ADDGA1021+010801999GA2071+090001999GF107991999999999999999999MA1103181999999REMMET063METAR ETGQ 101520Z 21001KT 9999 FEW036 BKN300 19/10 Q1032 BLU/;
0148102340999992008101016204+53133+009350FM-15+0061ETGQ V0209999C000010900019N0112651N1+01801+01001999999ADDGA1041+011101999GA2071+090001999GF107991999999999999999999MA1103181999999REMMET063METAR ETGQ 101620Z 00000KT 9999 SCT037 BKN300 18/10 Q1032 BLU/;
0140102340999992008101017204+53133+009350FM-15+0061ETGQ V0209999C00001220001CN0112651N1+01601+01101999999ADDGA1071+010501999GA2041+084001999MA1103181999999REMMET062METAR ETGQ 101720Z 00000KT 9999 BKN035 SCT280 16/11 Q1032 BLU;EQDQ01+000042SCOTCV
0148102340999992008101018204+53133+009350FM-15+0061ETGQ V0209999C000012200019N0112651N1+01401+01101999999ADDGA1041+009901999GA2041+084001999GF104991999999999999999999MA1103181999999REMMET063METAR ETGQ 101820Z 00000KT 9999 SCT033 SCT280 14/11 Q1032 BLU/;
0133102340999992008101304204+53133+009350FM-15+0061ETGQ V0209999C000010012019N0035001N1+01101+01001999999ADDGA1071+001201999GF107991999999999999999999MA1102301999999MW1101REMMET058METAR ETGQ 130420Z 00000KT 3500 BR BKN004 11/10 Q1023 YLO;
0133102340999992008101305204+53133+009350FM-15+0061ETGQ V0201601N001510012019N0020001N1+01101+01001999999ADDGA1081+001201999GF108991999999999999999999MA1102201999999MW1101REMMET058METAR ETGQ 130520Z 16003KT 2000 BR OVC004 11/10 Q1022 YLO;
0133102340999992008101306204+53133+009350FM-15+0061ETGQ V0202701N001010009019N0030001N1+01001+00901999999ADDGA1081+000901999GF108991999999999999999999MA1102201999999MW1101REMMET058METAR ETGQ 130620Z 27002KT 3000 BR OVC003 10/09 Q1022 YLO;
0133102340999992008101307204+53133+009350FM-15+0061ETGQ V0202001N000510012019N0030001N1+01101+01001999999ADDGA1081+001201999GF108991999999999999999999MA1102201999999MW1101REMMET058METAR ETGQ 130720Z 20001KT 3000 BR OVC004 11/10 Q1022 YLO;
0156102340999992008101308204+53133+009350FM-15+0061ETGQ V0209999C000010510019N0050001N1+01201+01001999999ADDGA1041+001801999GA2071+051001999GF107991999999999999999999MA1102201999999MW1101REMMET065METAR ETGQ 130820Z 00000KT 5000 BR SCT006 BKN170 12/10 Q1022 WHT;
0147102340999992008101309204+53133+009350FM-15+0061ETGQ V0201801N001010450019N0070001N1+01401+01101999999ADDGA1041+003001999GA2071+045001999GF107991999999999999999999MA1102201999999REMMET062METAR ETGQ 130920Z 18002KT 7000 SCT010 BKN150 14/11 Q1022 WHT;
0148102340999992008101310204+53133+009350FM-15+0061ETGQ V0201401N001012200019N0112651N1+01501+01101999999ADDGA1041+042001999GA2041+090001999GF104991999999999999999999MA1102101999999REMMET063METAR ETGQ 131020Z 14002KT 9999 SCT140 SCT300 15/11 Q1021 BLU/;
0124102340999992008101311204+53133+009350FM-15+0061ETGQ V0201401N001510450019N0112651N1+01701+01201999999ADDGA1071+045001999GF107991999999999999999999MA1102101999999REMMET055METAR ETGQ 131120Z 14003KT 9999 BKN150 17/12 Q1021 BLU;
0147102340999992008101312204+53133+009350FM-15+0061ETGQ V0201501N001510450019N0112651N1+01901+01301999999ADDGA1041+039001999GA2071+045001999GF107991999999999999999999MA1102001999999REMMET062METAR ETGQ 131220Z 15003KT 9999 SCT130 BKN150 19/13 Q1020 BLU;
0171102340999992008101313204+53133+009350FM-15+0061ETGQ V0209999C00001045001CN0112651N1+02001+01201999999ADDGA1021+018001999GA2041+045001999GA3071+075001999GF107991999999999999999999MA1101901999999REMMET070METAR ETGQ 131320Z 00000KT 9999 FEW060 SCT150 BKN250 20/12 Q1019 BLU/;
0171102340999992008101314204+53133+009350FM-15+0061ETGQ V0202001N00151030001CN0112651N1+02001+01201999999ADDGA1021+018001999GA2041+030001999GA3071+075001999GF107991999999999999999999MA1101901999999REMMET070METAR ETGQ 131420Z 20003KT 9999 FEW060 SCT100 BKN250 20/12 Q1019 BLU/;
0171102340999992008101315204+53133+009350FM-15+0061ETGQ V0209999C00001027001CN0112651N1+02001+01301999999ADDGA1021+015001999GA2041+027001999GA3071+060001999GF107991999999999999999999MA1101801999999REMMET070METAR ETGQ 131520Z 00000KT 9999 FEW050 SCT090 BKN200 20/13 Q1018 BLU/;
0147102340999992008101316204+53133+009350FM-15+0061ETGQ V0209999V000510270019N0112651N1+01901+01101999999ADDGA1021+015001999GA2071+027001999GF107991999999999999999999MA1101801999999REMMET062METAR ETGQ 131620Z VRB01KT 9999 FEW050 BKN090 19/11 Q1018 BLU;
0147102340999992008101317204+53133+009350FM-15+0061ETGQ V0209999C000010420019N0112651N1+01801+01101999999ADDGA1021+030001999GA2071+042001999GF107991999999999999999999MA1101901999999REMMET062METAR ETGQ 131720Z 00000KT 9999 FEW100 BKN140 18/11 Q1019 BLU;
0148102340999992008101318204+53133+009350FM-15+0061ETGQ V0209999C000012200019N0112651N1+01701+01301999999ADDGA1021+024001999GA2041+027001999GF104991999999999999999999MA1101901999999REMMET063METAR ETGQ 131820Z 00000KT 9999 FEW080 SCT090 17/13 Q1019 BLU/;
0124102340999992008101404204+53133+009350FM-15+0061ETGQ V0203501N000510111019N0112651N1+01401+01301999999ADDGA1071+011101999GF107991999999999999999999MA1102001999999REMMET055METAR ETGQ 140420Z 35001KT 9999 BKN037 14/13 Q1020 BLU;
0124102340999992008101405204+53133+009350FM-15+0061ETGQ V0209999C000010114019N0112651N1+01501+01301999999ADDGA1071+011401999GF107991999999999999999999MA1102001999999REMMET055METAR ETGQ 140520Z 00000KT 9999 BKN038 15/13 Q1020 BLU;
0148102340999992008101406204+53133+009350FM-15+0061ETGQ V0209999C000010720019N0112651N1+01401+01201999999ADDGA1041+012001999GA2071+072001999GF107991999999999999999999MA1102001999999REMMET063METAR ETGQ 140620Z 00000KT 9999 SCT040 BKN240 14/12 Q1020 BLU/;
0148102340999992008101407204+53133+009350FM-15+0061ETGQ V0209999C000010720019N0112651N1+01501+01301999999ADDGA1041+008101999GA2071+072001999GF107991999999999999999999MA1102101999999REMMET063METAR ETGQ 140720Z 00000KT 9999 SCT027 BKN240 15/13 Q1021 BLU/;
0124102340999992008101408204+53133+009350FM-15+0061ETGQ V0209999C000010126019N0112651N1+01601+01201999999ADDGA1071+012601999GF107991999999999999999999MA1102101999999REMMET055METAR ETGQ 140820Z 00000KT 9999 BKN042 16/12 Q1021 BLU;
0124102340999992008101409204+53133+009350FM-15+0061ETGQ V0202901N001010138019N0112651N1+01701+01101999999ADDGA1071+013801999GF107991999999999999999999MA1102101999999REMMET055METAR ETGQ 140920Z 29002KT 9999 BKN046 17/11 Q1021 BLU;
0147102340999992008101410204+53133+009350FM-15+0061ETGQ V0203201N001510129019N0112651N1+01701+01101999999ADDGA1021+007501999GA2071+012901999GF107991999999999999999999MA1102201999999REMMET062METAR ETGQ 141020Z 32003KT 9999 FEW025 BKN043 17/11 Q1022 BLU;
0147102340999992008101411204+53133+009350FM-15+0061ETGQ V0203101N002610132019N0112651N1+01701+01101999999ADDGA1021+007501999GA2071+013201999GF107991999999999999999999MA1102201999999REMMET062METAR ETGQ 141120Z 31005KT 9999 FEW025 BKN044 17/11 Q1022 BLU;
0124102340999992008101412204+53133+009350FM-15+0061ETGQ V0203101N002110120019N0112651N1+01601+01101999999ADDGA1071+012001999GF107991999999999999999999MA1102201999999REMMET055METAR ETGQ 141220Z 31004KT 9999 BKN040 16/11 Q1022 BLU;
0124102340999992008101413204+53133+009350FM-15+0061ETGQ V0202901N001010138019N0112651N1+01701+01101999999ADDGA1071+013801999GF107991999999999999999999MA1102101999999REMMET055METAR ETGQ 141320Z 29002KT 9999 BKN046 17/11 Q1021 BLU;
0147102340999992008101414204+53133+009350FM-15+0061ETGQ V0209999C000010138019N0112651N1+01701+01001999999ADDGA1021+010501999GA2071+013801999GF107991999999999999999999MA1102101999999REMMET062METAR ETGQ 141420Z 00000KT 9999 FEW035 BKN046 17/10 Q1021 BLU;
0150102340999992008101415204+53133+009350FM-15+0061ETGQ V0209999C000010144019N0112651N1+01701+01001999999ADDGA1021+010501021GA2071+014401999GF107991999999999999999999MA1102101999999REMMET065METAR ETGQ 141520Z 00000KT 9999 FEW035TCU BKN048 17/10 Q1021 BLU;
0174102340999992008101416204+53133+009350FM-15+0061ETGQ V0209999C00001015001CN0112651N1+01501+01001999999ADDGA1021+011401021GA2041+015001999GA3071+087001999GF107991999999999999999999MA1102001999999REMMET073METAR ETGQ 141620Z 00000KT 9999 FEW038TCU SCT050 BKN290 15/10 Q1020 BLU/;
0147102340999992008101417204+53133+009350FM-15+0061ETGQ V0209999C000010114019N0112651N1+01401+01001999999ADDGA1071+011401999GA2071+054001999GF107991999999999999999999MA1102101999999REMMET062METAR ETGQ 141720Z 00000KT 9999 BKN038 BKN180 14/10 Q1021 BLU;
0170102340999992008101418204+53133+009350FM-15+0061ETGQ V0209999C000010480019N0112651N1+01401+01001999999ADDGA1021+011401999GA2071+048001999GA3071+057001999GF107991999999999999999999MA1102101999999REMMET069METAR ETGQ 141820Z 00000KT 9999 FEW038 BKN160 BKN190 14/10 Q1021 BLU;
0124102340999992008101504204+53133+009350FM-15+0061ETGQ V0209999C000010117019N0060001N1+01101+00901999999ADDGA1071+011701999GF107991999999999999999999MA1101901999999REMMET055METAR ETGQ 150420Z 00000KT 6000 BKN039 11/09 Q1019 WHT;
0147102340999992008101505204+53133+009350FM-15+0061ETGQ V0209999C000010117019N0060001N1+01101+00901999999ADDGA1071+011701999GA2071+027001999GF107991999999999999999999MA1101801999999REMMET062METAR ETGQ 150520Z 00000KT 6000 BKN039 BKN090 11/09 Q1018 WHT;
0124102340999992008101506204+53133+009350FM-15+0061ETGQ V0209999C000010102019N0080001N1+01201+01001999999ADDGA1071+010201999GF107991999999999999999999MA1101801999999REMMET055METAR ETGQ 150620Z 00000KT 8000 BKN034 12/10 Q1018 BLU;
0124102340999992008101507204+53133+009350FM-15+0061ETGQ V0209999C000010105019N0090001N1+01201+01001999999ADDGA1071+010501999GF107991999999999999999999MA1101901999999REMMET055METAR ETGQ 150720Z 00000KT 9000 BKN035 12/10 Q1019 BLU;
0124102340999992008101508204+53133+009350FM-15+0061ETGQ V0209999C000010102019N0112651N1+01301+01001999999ADDGA1071+010201999GF107991999999999999999999MA1101901999999REMMET055METAR ETGQ 150820Z 00000KT 9999 BKN034 13/10 Q1019 BLU;
0124102340999992008101509204+53133+009350FM-15+0061ETGQ V0209999C000010099019N0112651N1+01401+01101999999ADDGA1071+009901999GF107991999999999999999999MA1101801999999REMMET055METAR ETGQ 150920Z 00000KT 9999 BKN033 14/11 Q1018 BLU;
0124102340999992008101510204+53133+009350FM-15+0061ETGQ V0202201N002110099019N0112651N1+01501+01101999999ADDGA1071+009901999GF107991999999999999999999MA1101801999999REMMET055METAR ETGQ 151020Z 22004KT 9999 BKN033 15/11 Q1018 BLU;
0124102340999992008101511204+53133+009350FM-15+0061ETGQ V0202101N002110105019N0112651N1+01501+01101999999ADDGA1071+010501999GF107991999999999999999999MA1101801999999REMMET055METAR ETGQ 151120Z 21004KT 9999 BKN035 15/11 Q1018 BLU;
0124102340999992008101512204+53133+009350FM-15+0061ETGQ V0202201N002110102019N0112651N1+01501+01101999999ADDGA1071+010201999GF107991999999999999999999MA1101691999999REMMET055METAR ETGQ 151220Z 22004KT 9999 BKN034 15/11 Q1017 BLU;
0124102340999992008101513204+53133+009350FM-15+0061ETGQ V0202301N002110093019N0112651N1+01501+01001999999ADDGA1071+009301999GF107991999999999999999999MA1101591999999REMMET055METAR ETGQ 151320Z 23004KT 9999 BKN031 15/10 Q1016 BLU;
0124102340999992008101514204+53133+009350FM-15+0061ETGQ V0201901N000510081019N0112651N1+01501+01101999999ADDGA1071+008101999GF107991999999999999999999MA1101591999999REMMET055METAR ETGQ 151420Z 19001KT 9999 BKN027 15/11 Q1016 BLU;
0124102340999992008101515204+53133+009350FM-15+0061ETGQ V0202101N001010072019N0112651N1+01501+01101999999ADDGA1071+007201999GF107991999999999999999999MA1101491999999REMMET055METAR ETGQ 151520Z 21002KT 9999 BKN024 15/11 Q1015 WHT;
0124102340999992008101516204+53133+009350FM-15+0061ETGQ V0202101N002110069019N0112651N1+01501+01101999999ADDGA1071+006901999GF107991999999999999999999MA1101491999999REMMET055METAR ETGQ 151620Z 21004KT 9999 BKN023 15/11 Q1015 WHT;
0157102340999992008101517204+53133+009350FM-15+0061ETGQ V0201801N001510066019N0112651N1+01401+01201999999ADDGA1041+005401999GA2081+006601999GF108991999999999999999999MA1101391999999MW1611REMMET066METAR ETGQ 151720Z 18003KT 9999 -RA SCT018 OVC022 14/12 Q1014 WHT;
0170102340999992008101518204+53133+009350FM-15+0061ETGQ V0202301N001510075019N0112651N1+01501+01201999999ADDGA1021+005101999GA2071+007501999GA3071+013801999GF107991999999999999999999MA1101391999999REMMET069METAR ETGQ 151820Z 23003KT 9999 FEW017 BKN025 BKN046 15/12 Q1014 BLU;
0124102340999992008101604204+53133+009350FM-15+0061ETGQ V0209999C000010054019N0112651N1+01201+01101999999ADDGA1071+005401999GF107991999999999999999999MA1101191999999REMMET055METAR ETGQ 160420Z 00000KT 9999 BKN018 12/11 Q1012 WHT;
0147102340999992008101605204+53133+009350FM-15+0061ETGQ V0202301N001010180019N0112651N1+01301+01001999999ADDGA1041+006601999GA2071+018001999GF107991999999999999999999MA1101191999999REMMET062METAR ETGQ 160520Z 23002KT 9999 SCT022 BKN060 13/10 Q1012 BLU;
0147102340999992008101606204+53133+009350FM-15+0061ETGQ V0202301N001510180019N0112651N1+01301+00901999999ADDGA1021+007501999GA2071+018001999GF107991999999999999999999MA1101081999999REMMET062METAR ETGQ 160620Z 23003KT 9999 FEW025 BKN060 13/09 Q1011 BLU;
0124102340999992008101607204+53133+009350FM-15+0061ETGQ V0209999V001010180019N0112651N1+01301+00901999999ADDGA1071+018001999GF107991999999999999999999MA1101191999999REMMET055METAR ETGQ 160720Z VRB02KT 9999 BKN060 13/09 Q1012 BLU;
0134102340999992008101608204+53133+009350FM-15+0061ETGQ V0202201N001510147019N0112651N1+01201+01001999999ADDGA1071+014701999GF107991999999999999999999MA1101081999999MW1511REMMET059METAR ETGQ 160820Z 22003KT 9999 -DZ BKN049 12/10 Q1011 BLU;
0134102340999992008101609204+53133+009350FM-15+0061ETGQ V0209999C000010090019N0112651N1+01201+01001999999ADDGA1071+009001999GF107991999999999999999999MA1101081999999MW1611REMMET059METAR ETGQ 160920Z 00000KT 9999 -RA BKN030 12/10 Q1011 BLU;
0134102340999992008101610204+53133+009350FM-15+0061ETGQ V0209999V000510090019N0112651N1+01201+01001999999ADDGA1071+009001999GF107991999999999999999999MA1101081999999MW1611REMMET059METAR ETGQ 161020Z VRB01KT 9999 -RA BKN030 12/10 Q1011 BLU;
0157102340999992008101611204+53133+009350FM-15+0061ETGQ V0209999C000010150019N0080001N1+01201+01101999999ADDGA1021+009001999GA2071+015001999GF107991999999999999999999MA1101021999999MW1611REMMET066METAR ETGQ 161120Z 00000KT 8000 -RA FEW030 BKN050 12/11 Q1010 BLU;
0157102340999992008101612204+53133+009350FM-15+0061ETGQ V0202801N003110099019N0060001N1+01201+01001999999ADDGA1041+005101999GA2081+009901999GF108991999999999999999999MA1101081999999MW1611REMMET066METAR ETGQ 161220Z 28006KT 6000 -RA SCT017 OVC033 12/10 Q1011 WHT;
0157102340999992008101613204+53133+009350FM-15+0061ETGQ V0202901N000510120019N0060001N1+01001+00801999999ADDGA1021+006001999GA2081+012001999GF108991999999999999999999MA1101081999999MW1611REMMET066METAR ETGQ 161320Z 29001KT 6000 -RA FEW020 OVC040 10/08 Q1011 WHT;
0147102340999992008101614204+53133+009350FM-15+0061ETGQ V0202501N000510135019N0080001N1+01001+00801999999ADDGA1021+012001999GA2071+013501999GF107991999999999999999999MA1101081999999REMMET062METAR ETGQ 161420Z 25001KT 8000 FEW040 BKN045 10/08 Q1011 BLU;
0147102340999992008101615204+53133+009350FM-15+0061ETGQ V0202301N001510135019N0112651N1+01001+00801999999ADDGA1041+007501999GA2071+013501999GF107991999999999999999999MA1101081999999REMMET062METAR ETGQ 161520Z 23003KT 9999 SCT025 BKN045 10/08 Q1011 BLU;
0158102340999992008101616134+53133+009350FM-16+0061ETGQ V0203001N002110090019N0080001N1+01001+00801999999ADDGA1021+006001091GA2071+009001999GF107991999999999999999999MA1101191999999MW1171REMMET067SPECI ETGQ 161613Z 30004KT 8000 TS FEW020CB BKN030 10/08 Q1012 BLU;
0153102340999992008101616204+53133+009350FM-15+0061ETGQ V0201901N002110045019N0030001N1+01001+00801999999ADDGA1071+004501091GF107991999999999999999999MA1101191999999MW1101MW2801MW3951REMMET066METAR ETGQ 161620Z 19004KT 3000 -TSRA BR BKN015CB 10/08 Q1012 YLO;
0130102340999992008101617204+53133+009350FM-15+0061ETGQ V0209999C000012200019N0112651N1+00801+00601999999ADDGA1041+036001999GF104991999999999999999999MA1101291999999REMMET061METAR ETGQ 161720Z 00000KT 9999 SCT120 08/06 Q1013 RETS BLU/;
0130102340999992008101618204+53133+009350FM-15+0061ETGQ V0209999C000012200019N0112651N1+00801+00701999999ADDGA1041+012001999GF104991999999999999999999MA1101391999999REMMET061METAR ETGQ 161820Z 00000KT 9999 SCT040 08/07 Q1014 RETS BLU/;
0130102340999992008101704204+53133+009350FM-15+0061ETGQ V0202001N000512200019N0112651N1+00601+00401999999ADDGA1041+012001999GF104991999999999999999999MA1101801999999REMMET061METAR ETGQ 170420Z 20001KT 9999 SCT040 06/04 Q1018 RETS BLU/;
0125102340999992008101705204+53133+009350FM-15+0061ETGQ V0209999V000512200019N0112651N1+00501+00401999999ADDGA1041+015001999GF104991999999999999999999MA1101801999999REMMET056METAR ETGQ 170520Z VRB01KT 9999 SCT050 05/04 Q1018 BLU/;
0125102340999992008101706204+53133+009350FM-15+0061ETGQ V0209999V001012200019N0112651N1+00601+00401999999ADDGA1041+015001999GF104991999999999999999999MA1101901999999REMMET056METAR ETGQ 170620Z VRB02KT 9999 SCT050 06/04 Q1019 BLU/;
0148102340999992008101707204+53133+009350FM-15+0061ETGQ V0209999C000012200019N0112651N1+00701+00501999999ADDGA1021+009001999GA2041+018001999GF104991999999999999999999MA1101901999999REMMET063METAR ETGQ 170720Z 00000KT 9999 FEW030 SCT060 07/05 Q1019 BLU/;
0125102340999992008101708204+53133+009350FM-15+0061ETGQ V0209999C000012200019N0112651N1+00801+00501999999ADDGA1041+015001999GF104991999999999999999999MA1102001999999REMMET056METAR ETGQ 170820Z 00000KT 9999 SCT050 08/05 Q1020 BLU/;
0125102340999992008101709204+53133+009350FM-15+0061ETGQ V0209999V000512200019N0112651N1+01001+00501999999ADDGA1041+015001999GF104991999999999999999999MA1102001999999REMMET056METAR ETGQ 170920Z VRB01KT 9999 SCT050 10/05 Q1020 BLU/;
0125102340999992008101710204+53133+009350FM-15+0061ETGQ V0202201N002612200019N0112651N1+01201+00601999999ADDGA1041+012601999GF104991999999999999999999MA1102001999999REMMET056METAR ETGQ 171020Z 22005KT 9999 SCT042 12/06 Q1020 BLU/;
0125102340999992008101711204+53133+009350FM-15+0061ETGQ V0202801N001512200019N0112651N1+01301+00501999999ADDGA1041+010201999GF104991999999999999999999MA1101901999999REMMET056METAR ETGQ 171120Z 28003KT 9999 SCT034 13/05 Q1019 BLU/;
0148102340999992008101712204+53133+009350FM-15+0061ETGQ V0203101N002612200019N0112651N1+01201+00401999999ADDGA1041+011101999GA2041+018001999GF104991999999999999999999MA1102001999999REMMET063METAR ETGQ 171220Z 31005KT 9999 SCT037 SCT060 12/04 Q1020 BLU/;
0124102340999992008101713204+53133+009350FM-15+0061ETGQ V0203501N000510114019N0112651N1+01201+00401999999ADDGA1071+011401999GF107991999999999999999999MA1102001999999REMMET055METAR ETGQ 171320Z 35001KT 9999 BKN038 12/04 Q1020 BLU;
0124102340999992008101714204+53133+009350FM-15+0061ETGQ V0203001N000510180019N0112651N1+01201+00401999999ADDGA1071+018001999GF107991999999999999999999MA1102001999999REMMET055METAR ETGQ 171420Z 30001KT 9999 BKN060 12/04 Q1020 BLU;
0124102340999992008101715204+53133+009350FM-15+0061ETGQ V0209999C000010180019N0112651N1+01201+00501999999ADDGA1071+018001999GF107991999999999999999999MA1102001999999REMMET055METAR ETGQ 171520Z 00000KT 9999 BKN060 12/05 Q1020 BLU;
0125102340999992008101716204+53133+009350FM-15+0061ETGQ V0209999C000012200019N0112651N1+01001+00501999999ADDGA1041+018001999GF104991999999999999999999MA1102001999999REMMET056METAR ETGQ 171620Z 00000KT 9999 SCT060 10/05 Q1020 BLU/;
0125102340999992008101717204+53133+009350FM-15+0061ETGQ V0209999C000012200019N0112651N1+00901+00501999999ADDGA1021+018001999GF102991999999999999999999MA1102101999999REMMET056METAR ETGQ 171720Z 00000KT 9999 FEW060 09/05 Q1021 BLU/;
0076102340999992008101718204+53133+009350FM-15+0061ETGQ V0209999C000012200019N0112651N1+00801+00501999999ADDMA1102101999999REMMET049METAR ETGQ 171820Z 00000KT 9999 08/05 Q1021 BLU/;
0143102340999992008102004204+53133+009350FM-15+0061ETGQ V0209999C000012200019N0008001N1+00301+00301999999ADDGA1041+000601999GF104991999999999999999999MA1102001999999MW1441REMMET068METAR ETGQ 200420Z 00000KT 0800 R36////// FG SCT002 03/03 Q1020 AMB;
0094102340999992008102005204+53133+009350FM-15+0061ETGQ V0209999C000012200019N0008001N1+00301+00301999999ADDMA1101901999999MW1441REMMET061METAR ETGQ 200520Z 00000KT 0800 R36////// FG 03/03 Q1019 AMB;
0143102340999992008102006204+53133+009350FM-15+0061ETGQ V0209999C000012200019N0008001N1+00301+00301999999ADDGA1041+000301999GF104991999999999999999999MA1101901999999MW1441REMMET068METAR ETGQ 200620Z 00000KT 0800 R36////// FG SCT001 03/03 Q1019 AMB;
0143102340999992008102007204+53133+009350FM-15+0061ETGQ V0209999C000012200019N0006001N1+00301+00301999999ADDGA1041+000601999GF104991999999999999999999MA1102001999999MW1441REMMET068METAR ETGQ 200720Z 00000KT 0600 R36////// FG SCT002 03/03 Q1020 RED;
0133102340999992008102008204+53133+009350FM-15+0061ETGQ V0209999C000012200019N0040001N1+00501+00401999999ADDGA1021+000901999GF102991999999999999999999MA1101901999999MW1101REMMET058METAR ETGQ 200820Z 00000KT 4000 BR FEW003 05/04 Q1019 GRN;
0076102340999992008102009204+53133+009350FM-15+0061ETGQ V0209999C000012200019N0112651N1+00601+00501999999ADDMA1101901999999REMMET049METAR ETGQ 200920Z 00000KT 9999 06/05 Q1019 BLU/;
0125102340999992008102010204+53133+009350FM-15+0061ETGQ V0202201N003112200019N0112651N1+01301+00701999999ADDGA1021+013501999GF102991999999999999999999MA1101801999999REMMET056METAR ETGQ 201020Z 22006KT 9999 FEW045 13/07 Q1018 BLU/;
0076102340999992008102011204+53133+009350FM-15+0061ETGQ V0202201N002612200019N0112651N1+01601+00701999999ADDMA1101691999999REMMET049METAR ETGQ 201120Z 22005KT 9999 16/07 Q1017 BLU/;
0125102340999992008102013204+53133+009350FM-15+0061ETGQ V0202401N003612200019N0112651N1+01901+00901999999ADDGA1021+012001999GF102991999999999999999999MA1101491999999REMMET056METAR ETGQ 201320Z 24007KT 9999 FEW040 19/09 Q1015 BLU/;
0125102340999992008102014204+53133+009350FM-15+0061ETGQ V0202301N002112200019N0112651N1+01901+00901999999ADDGA1021+012001999GF102991999999999999999999MA1101391999999REMMET056METAR ETGQ 201420Z 23004KT 9999 FEW040 19/09 Q1014 BLU/;
0125102340999992008102015204+53133+009350FM-15+0061ETGQ V0201801N001512200019N0112651N1+01801+01001999999ADDGA1021+012001999GF102991999999999999999999MA1101391999999REMMET056METAR ETGQ 201520Z 18003KT 9999 FEW040 18/10 Q1014 BLU/;
0125102340999992008102016204+53133+009350FM-15+0061ETGQ V0201801N003112200019N0112651N1+01701+01001999999ADDGA1041+090001999GF104991999999999999999999MA1101291999999REMMET056METAR ETGQ 201620Z 18006KT 9999 SCT300 17/10 Q1013 BLU/;
0125102340999992008102017204+53133+009350FM-15+0061ETGQ V0201501N001512200019N0112651N1+01601+01001999999ADDGA1041+090001999GF104991999999999999999999MA1101291999999REMMET056METAR ETGQ 201720Z 15003KT 9999 SCT300 16/10 Q1013 BLU/;
0125102340999992008102018204+53133+009350FM-15+0061ETGQ V0201401N002112200019N0112651N1+01601+01101999999ADDGA1041+090001999GF104991999999999999999999MA1101291999999REMMET056METAR ETGQ 201820Z 14004KT 9999 SCT300 16/11 Q1013 BLU/;
0124102340999992008102104204+53133+009350FM-15+0061ETGQ V0201701N002110090019N0112651N1+01601+01201999999ADDGA1071+009001999GF107991999999999999999999MA1100911999999REMMET055METAR ETGQ 210420Z 17004KT 9999 BKN030 16/12 Q1009 BLU;
0124102340999992008102105204+53133+009350FM-15+0061ETGQ V0201701N002110111019N0112651N1+01601+01201999999ADDGA1071+011101999GF107991999999999999999999MA1100911999999REMMET055METAR ETGQ 210520Z 17004KT 9999 BKN037 16/12 Q1009 BLU;
0147102340999992008102106204+53133+009350FM-15+0061ETGQ V0209999V001010420019N0112651N1+01601+01201999999ADDGA1041+010501999GA2071+042001999GF107991999999999999999999MA1100911999999REMMET062METAR ETGQ 210620Z VRB02KT 9999 SCT035 BKN140 16/12 Q1009 BLU;
0147102340999992008102107204+53133+009350FM-15+0061ETGQ V0202201N002610540019N0112651N1+01701+01101999999ADDGA1021+010501999GA2071+054001999GF107991999999999999999999MA1100911999999REMMET062METAR ETGQ 210720Z 22005KT 9999 FEW035 BKN180 17/11 Q1009 BLU;
0147102340999992008102108204+53133+009350FM-15+0061ETGQ V0202201N003110480019N0112651N1+01701+01101999999ADDGA1041+011401999GA2071+048001999GF107991999999999999999999MA1100911999999REMMET062METAR ETGQ 210820Z 22006KT 9999 SCT038 BKN160 17/11 Q1009 BLU;
0181102340999992008102109204+53133+009350FM-15+0061ETGQ V0202201N00361021001CN0112651N1+01701+01101999999ADDGA1021+011101999GA2041+021001999GA3071+048001999GF107991999999999999999999MA1100911999999OC100981REMMET072METAR ETGQ 210920Z 22007G19KT 9999 FEW037 SCT070 BKN160 17/11 Q1009 BLU;
0124102340999992008102110204+53133+009350FM-15+0061ETGQ V0203201N005710090019N0112651N1+01301+00901999999ADDGA1071+009001999GF107991999999999999999999MA1101021999999REMMET055METAR ETGQ 211020Z 32011KT 9999 BKN030 13/09 Q1010 BLU;
0180102340999992008102111204+53133+009350FM-15+0061ETGQ V0203501N00151004801CN0080001N1+01101+01001999999ADDGA1021+003601999GA2041+004801999GA3071+006901999GF107991999999999999999999MA1101081999999MW1611REMMET073METAR ETGQ 211120Z 35003KT 8000 -RA FEW012 SCT016 BKN023 11/10 Q1011 WHT;
0157102340999992008102112204+53133+009350FM-15+0061ETGQ V0209999V000510042019N0070001N1+01101+01001999999ADDGA1041+002101999GA2081+004201999GF108991999999999999999999MA1101191999999MW1611REMMET066METAR ETGQ 211220Z VRB01KT 7000 -RA SCT007 OVC014 11/10 Q1012 GRN;
0157102340999992008102113204+53133+009350FM-15+0061ETGQ V0209999C000010135019N0112651N1+01101+01001999999ADDGA1041+007501999GA2071+013501999GF107991999999999999999999MA1101191999999MW1611REMMET066METAR ETGQ 211320Z 00000KT 9999 -RA SCT025 BKN045 11/10 Q1012 BLU;
0134102340999992008102114204+53133+009350FM-15+0061ETGQ V0209999C000010135019N0112651N1+01101+00901999999ADDGA1071+013501999GF107991999999999999999999MA1101291999999MW1611REMMET059METAR ETGQ 211420Z 00000KT 9999 -RA BKN045 11/09 Q1013 BLU;
0147102340999992008102115204+53133+009350FM-15+0061ETGQ V0209999C000010141019N0080001N1+01101+00901999999ADDGA1021+003601999GA2081+014101999GF108991999999999999999999MA1101291999999REMMET062METAR ETGQ 211520Z 00000KT 8000 FEW012 OVC047 11/09 Q1013 BLU;
0124102340999992008102116204+53133+009350FM-15+0061ETGQ V0209999C000010150019N0080001N1+01101+00901999999ADDGA1081+015001999GF108991999999999999999999MA1101291999999REMMET055METAR ETGQ 211620Z 00000KT 8000 OVC050 11/09 Q1013 BLU;
0124102340999992008102117204+53133+009350FM-15+0061ETGQ V0209999C000010150019N0112651N1+01001+00901999999ADDGA1071+015001999GF107991999999999999999999MA1101491999999REMMET055METAR ETGQ 211720Z 00000KT 9999 BKN050 10/09 Q1015 BLU;
0124102340999992008102118204+53133+009350FM-15+0061ETGQ V0209999C000010120019N0112651N1+01001+00901999999ADDGA1071+012001999GF107991999999999999999999MA1101491999999REMMET055METAR ETGQ 211820Z 00000KT 9999 BKN040 10/09 Q1015 BLU;
0147102340999992008102204204+53133+009350FM-15+0061ETGQ V0209999C000010180019N0080001N1+00801+00801999999ADDGA1021+001501999GA2071+018001999GF107991999999999999999999MA1101901999999REMMET062METAR ETGQ 220420Z 00000KT 8000 FEW005 BKN060 08/08 Q1019 BLU;
0147102340999992008102205204+53133+009350FM-15+0061ETGQ V0209999C000010210019N0080001N1+00801+00701999999ADDGA1021+001501999GA2071+021001999GF107991999999999999999999MA1101901999999REMMET062METAR ETGQ 220520Z 00000KT 8000 FEW005 BKN070 08/07 Q1019 BLU;
0147102340999992008102206204+53133+009350FM-15+0061ETGQ V0209999C000010210019N0060001N1+00801+00701999999ADDGA1021+002401999GA2071+021001999GF107991999999999999999999MA1102001999999REMMET062METAR ETGQ 220620Z 00000KT 6000 FEW008 BKN070 08/07 Q1020 WHT;
0147102340999992008102207204+53133+009350FM-15+0061ETGQ V0209999C000010210019N0060001N1+00801+00701999999ADDGA1021+002401999GA2071+021001999GF107991999999999999999999MA1102101999999REMMET062METAR ETGQ 220720Z 00000KT 6000 FEW008 BKN070 08/07 Q1021 WHT;
0147102340999992008102208204+53133+009350FM-15+0061ETGQ V0209999C000010300019N0080001N1+00901+00801999999ADDGA1021+003001999GA2071+030001999GF107991999999999999999999MA1102201999999REMMET062METAR ETGQ 220820Z 00000KT 8000 FEW010 BKN100 09/08 Q1022 BLU;
0147102340999992008102209204+53133+009350FM-15+0061ETGQ V0209999C000010240019N0080001N1+00901+00801999999ADDGA1021+003001999GA2071+024001999GF107991999999999999999999MA1102201999999REMMET062METAR ETGQ 220920Z 00000KT 8000 FEW010 BKN080 09/08 Q1022 BLU;
0170102340999992008102210204+53133+009350FM-15+0061ETGQ V0209999C00001012001CN0080001N1+01001+00801999999ADDGA1021+004501999GA2041+012001999GA3071+033001999GF107991999999999999999999MA1102301999999REMMET069METAR ETGQ 221020Z 00000KT 8000 FEW015 SCT040 BKN110 10/08 Q1023 BLU;
0147102340999992008102211204+53133+009350FM-15+0061ETGQ V0209999C000010330019N0112651N1+01101+00701999999ADDGA1021+004501999GA2071+033001999GF107991999999999999999999MA1102301999999REMMET062METAR ETGQ 221120Z 00000KT 9999 FEW015 BKN110 11/07 Q1023 BLU;
0147102340999992008102212204+53133+009350FM-15+0061ETGQ V0209999C000010300019N0112651N1+01101+00601999999ADDGA1021+006001999GA2071+030001999GF107991999999999999999999MA1102301999999REMMET062METAR ETGQ 221220Z 00000KT 9999 FEW020 BKN100 11/06 Q1023 BLU;
0147102340999992008102213204+53133+009350FM-15+0061ETGQ V0209999C000010300019N0112651N1+01101+00601999999ADDGA1021+007501999GA2071+030001999GF107991999999999999999999MA1102301999999REMMET062METAR ETGQ 221320Z 00000KT 9999 FEW025 BKN100 11/06 Q1023 BLU;
0124102340999992008102214204+53133+009350FM-15+0061ETGQ V0203201N000510090019N0112651N1+01201+00601999999ADDGA1071+009001999GF107991999999999999999999MA1102401999999REMMET055METAR ETGQ 221420Z 32001KT 9999 BKN030 12/06 Q1024 BLU;
0147102340999992008102215204+53133+009350FM-15+0061ETGQ V0209999C000010090019N0112651N1+01101+00601999999ADDGA1071+009001999GA2071+033001999GF107991999999999999999999MA1102401999999REMMET062METAR ETGQ 221520Z 00000KT 9999 BKN030 BKN110 11/06 Q1024 BLU;
0148102340999992008102216204+53133+009350FM-15+0061ETGQ V0202401N001012200019N0112651N1+01101+00601999999ADDGA1041+010501999GA2041+033001999GF104991999999999999999999MA1102511999999REMMET063METAR ETGQ 221620Z 24002KT 9999 SCT035 SCT110 11/06 Q1025 BLU/;
0147102340999992008102217204+53133+009350FM-15+0061ETGQ V0202501N001510450019N0112651N1+01001+00601999999ADDGA1021+009001999GA2071+045001999GF107991999999999999999999MA1102611999999REMMET062METAR ETGQ 221720Z 25003KT 9999 FEW030 BKN150 10/06 Q1026 BLU;
0125102340999992008102218204+53133+009350FM-15+0061ETGQ V0202501N001010600019N0112651N1+00901+00601999999ADDGA1071+060001999GF107991999999999999999999MA1102711999999REMMET056METAR ETGQ 221820Z 25002KT 9999 BKN200 09/06 Q1027 BLU/;
0124102340999992008102304204+53133+009350FM-15+0061ETGQ V0209999C000010033019N0080001N1+00601+00501999999ADDGA1071+003301999GF107991999999999999999999MA1103011999999REMMET055METAR ETGQ 230420Z 00000KT 8000 BKN011 06/05 Q1030 GRN;
0124102340999992008102305204+53133+009350FM-15+0061ETGQ V0209999C000010045019N0060001N1+00601+00501999999ADDGA1081+004501999GF108991999999999999999999MA1103011999999REMMET055METAR ETGQ 230520Z 00000KT 6000 OVC015 06/05 Q1030 WHT;
0124102340999992008102306204+53133+009350FM-15+0061ETGQ V0209999C000010045019N0060001N1+00601+00501999999ADDGA1071+004501999GF107991999999999999999999MA1103011999999REMMET055METAR ETGQ 230620Z 00000KT 6000 BKN015 06/05 Q1030 WHT;
0124102340999992008102308204+53133+009350FM-15+0061ETGQ V0209999C000010045019N0080001N1+00801+00501999999ADDGA1071+004501999GF107991999999999999999999MA1103121999999REMMET055METAR ETGQ 230820Z 00000KT 8000 BKN015 08/05 Q1031 WHT;
0124102340999992008102309204+53133+009350FM-15+0061ETGQ V0201701N001510054019N0112651N1+00901+00501999999ADDGA1071+005401999GF107991999999999999999999MA1103121999999REMMET055METAR ETGQ 230920Z 17003KT 9999 BKN018 09/05 Q1031 WHT;
0125102340999992008102310204+53133+009350FM-15+0061ETGQ V0201601N001512200019N0112651N1+01001+00501999999ADDGA1041+006001999GF104991999999999999999999MA1103011999999REMMET056METAR ETGQ 231020Z 16003KT 9999 SCT020 10/05 Q1030 BLU/;
0125102340999992008102311204+53133+009350FM-15+0061ETGQ V0201601N002612200019N0112651N1+01101+00501999999ADDGA1041+007501999GF104991999999999999999999MA1103011999999REMMET056METAR ETGQ 231120Z 16005KT 9999 SCT025 11/05 Q1030 BLU/;
0125102340999992008102312204+53133+009350FM-15+0061ETGQ V0201501N002112200019N0112651N1+01201+00501999999ADDGA1041+008401999GF104991999999999999999999MA1102911999999REMMET056METAR ETGQ 231220Z 15004KT 9999 SCT028 12/05 Q1029 BLU/;
0125102340999992008102313204+53133+009350FM-15+0061ETGQ V0201601N002612200019N0112651N1+01201+00401999999ADDGA1041+009601999GF104991999999999999999999MA1102811999999REMMET056METAR ETGQ 231320Z 16005KT 9999 SCT032 12/04 Q1028 BLU/;
0125102340999992008102314204+53133+009350FM-15+0061ETGQ V0201501N002612200019N0112651N1+01201+00401999999ADDGA1041+010501999GF104991999999999999999999MA1102711999999REMMET056METAR ETGQ 231420Z 15005KT 9999 SCT035 12/04 Q1027 BLU/;
0125102340999992008102315204+53133+009350FM-15+0061ETGQ V0201501N002112200019N0112651N1+01201+00401999999ADDGA1021+090001999GF102991999999999999999999MA1102711999999REMMET056METAR ETGQ 231520Z 15004KT 9999 FEW300 12/04 Q1027 BLU/;
0125102340999992008102316204+53133+009350FM-15+0061ETGQ V0201501N002612200019N0112651N1+01101+00401999999ADDGA1021+090001999GF102991999999999999999999MA1102711999999REMMET056METAR ETGQ 231620Z 15005KT 9999 FEW300 11/04 Q1027 BLU/;
0125102340999992008102317204+53133+009350FM-15+0061ETGQ V0201401N002612200019N0112651N1+00901+00401999999ADDGA1021+090001999GF102991999999999999999999MA1102711999999REMMET056METAR ETGQ 231720Z 14005KT 9999 FEW300 09/04 Q1027 BLU/;
0125102340999992008102318204+53133+009350FM-15+0061ETGQ V0209999V000512200019N0112651N1+00801+00401999999ADDGA1021+090001999GF102991999999999999999999MA1102711999999REMMET056METAR ETGQ 231820Z VRB01KT 9999 FEW300 08/04 Q1027 BLU/;
0124102340999992008102404204+53133+009350FM-15+0061ETGQ V0209999V000512200019N0060001N1+00401+00301999999ADDGA1041+000601999GF104991999999999999999999MA1102511999999REMMET055METAR ETGQ 240420Z VRB01KT 6000 SCT002 04/03 Q1025 WHT;
0124102340999992008102405204+53133+009350FM-15+0061ETGQ V0201601N001510003019N0060001N1+00301+00301999999ADDGA1071+000301999GF107991999999999999999999MA1102511999999REMMET055METAR ETGQ 240520Z 16003KT 6000 BKN001 03/03 Q1025 RED;
0133102340999992008102406204+53133+009350FM-15+0061ETGQ V0201601N001510006019N0030001N1+00301+00301999999ADDGA1071+000601999GF107991999999999999999999MA1102511999999MW1101REMMET058METAR ETGQ 240620Z 16003KT 3000 BR BKN002 03/03 Q1025 AMB;
0156102340999992008102407204+53133+009350FM-15+0061ETGQ V0201601N001512200019N0040001N1+00401+00301999999ADDGA1041+000601999GA2041+042001999GF104991999999999999999999MA1102511999999MW1101REMMET065METAR ETGQ 240720Z 16003KT 4000 BR SCT002 SCT140 04/03 Q1025 GRN;
0148102340999992008102408204+53133+009350FM-15+0061ETGQ V0209999C000012200019N0080001N1+00501+00301999999ADDGA1021+001501999GA2041+042001999GF104991999999999999999999MA1102511999999REMMET063METAR ETGQ 240820Z 00000KT 8000 FEW005 SCT140 05/03 Q1025 BLU/;
0125102340999992008102409204+53133+009350FM-15+0061ETGQ V0209999C000012200019N0112651N1+00601+00401999999ADDGA1041+042001999GF104991999999999999999999MA1102511999999REMMET056METAR ETGQ 240920Z 00000KT 9999 SCT140 06/04 Q1025 BLU/;
0124102340999992008102410204+53133+009350FM-15+0061ETGQ V0209999C000010420019N0112651N1+00801+00401999999ADDGA1071+042001999GF107991999999999999999999MA1102511999999REMMET055METAR ETGQ 241020Z 00000KT 9999 BKN140 08/04 Q1025 BLU;
0124102340999992008102411204+53133+009350FM-15+0061ETGQ V0209999V001010420019N0112651N1+01001+00501999999ADDGA1071+042001999GF107991999999999999999999MA1102511999999REMMET055METAR ETGQ 241120Z VRB02KT 9999 BKN140 10/05 Q1025 BLU;
0124102340999992008102412204+53133+009350FM-15+0061ETGQ V0202401N002110420019N0112651N1+01201+00501999999ADDGA1071+042001999GF107991999999999999999999MA1102511999999REMMET055METAR ETGQ 241220Z 24004KT 9999 BKN140 12/05 Q1025 BLU;
0124102340999992008102413204+53133+009350FM-15+0061ETGQ V0202401N001010420019N0112651N1+01301+00501999999ADDGA1071+042001999GF107991999999999999999999MA1102401999999REMMET055METAR ETGQ 241320Z 24002KT 9999 BKN140 13/05 Q1024 BLU;
0124102340999992008102414204+53133+009350FM-15+0061ETGQ V0202401N000510450019N0112651N1+01301+00501999999ADDGA1071+045001999GF107991999999999999999999MA1102401999999REMMET055METAR ETGQ 241420Z 24001KT 9999 BKN150 13/05 Q1024 BLU;
0148102340999992008102415204+53133+009350FM-15+0061ETGQ V0202301N001010600019N0112651N1+01201+00501999999ADDGA1041+045001999GA2071+060001999GF107991999999999999999999MA1102511999999REMMET063METAR ETGQ 241520Z 23002KT 9999 SCT150 BKN200 12/05 Q1025 BLU/;
0124102340999992008102416204+53133+009350FM-15+0061ETGQ V0209999C000010360019N0112651N1+01101+00501999999ADDGA1071+036001999GF107991999999999999999999MA1102511999999REMMET055METAR ETGQ 241620Z 00000KT 9999 BKN120 11/05 Q1025 BLU;
0157102340999992008102417204+53133+009350FM-15+0061ETGQ V0209999C000010270019N0112651N1+01101+00501999999ADDGA1021+018001999GA2071+027001999GF107991999999999999999999MA1102611999999MW1611REMMET066METAR ETGQ 241720Z 00000KT 9999 -RA FEW060 BKN090 11/05 Q1026 BLU;
0157102340999992008102418204+53133+009350FM-15+0061ETGQ V0201501N000510270019N0112651N1+01101+00601999999ADDGA1021+018001999GA2071+027001999GF107991999999999999999999MA1102711999999MW1611REMMET066METAR ETGQ 241820Z 15001KT 9999 -RA FEW060 BKN090 11/06 Q1027 BLU;
0180102340999992008102705204+53133+009350FM-15+0061ETGQ V0209999C00001005401CN0080001N1+01101+00901999999ADDGA1021+002701999GA2041+005401999GA3071+015001999GF107991999999999999999999MA1100911999999MW1611REMMET073METAR ETGQ 270520Z 00000KT 8000 -RA FEW009 SCT018 BKN050 11/09 Q1009 BLU;
0166102340999992008102706204+53133+009350FM-15+0061ETGQ V0209999C000010150019N0040001N1+01001+00901999999ADDGA1041+005401999GA2071+015001999GF107991999999999999999999MA1100811999999MW1101MW2611REMMET069METAR ETGQ 270620Z 00000KT 4000 -RA BR SCT018 BKN050 10/09 Q1008 GRN;
0188102340999992008102707204+53133+009350FM-15+0061ETGQ V0209999C00001009001CN0040001N1+01001+00901999999ADDGA1021+003001999GA2041+009001999GA3071+012001999GF107991999999999999999999MA1100811999999MW1101MW2631REMMET075METAR ETGQ 270720Z 00000KT 4000 RA BR FEW010 SCT030 BKN040 10/09 Q1008 GRN;
0165102340999992008102708204+53133+009350FM-15+0061ETGQ V0209999C000010090019N0035001N1+01101+00901999999ADDGA1021+003001999GA2071+009001999GF107991999999999999999999MA1100811999999MW1101MW2631REMMET068METAR ETGQ 270820Z 00000KT 3500 RA BR FEW010 BKN030 11/09 Q1008 YLO;
0165102340999992008102709204+53133+009350FM-15+0061ETGQ V0202701N002110018019N0035001N1+01101+01001999999ADDGA1071+001801999GA2071+009001999GF107991999999999999999999MA1100811999999MW1101MW2631REMMET068METAR ETGQ 270920Z 27004KT 3500 RA BR BKN006 BKN030 11/10 Q1008 YLO;
0165102340999992008102710204+53133+009350FM-15+0061ETGQ V0209999C000010018019N0035001N1+01001+00901999999ADDGA1071+001801999GA2071+009001999GF107991999999999999999999MA1100811999999MW1101MW2631REMMET068METAR ETGQ 271020Z 00000KT 3500 RA BR BKN006 BKN030 10/09 Q1008 YLO;
0157102340999992008102711204+53133+009350FM-15+0061ETGQ V0209999C000010105019N0080001N1+01001+00901999999ADDGA1041+004501999GA2081+010501999GF108991999999999999999999MA1100811999999MW1611REMMET066METAR ETGQ 271120Z 00000KT 8000 -RA SCT015 OVC035 10/09 Q1008 BLU;
0147102340999992008102712204+53133+009350FM-15+0061ETGQ V0209999C000010120019N0090001N1+01101+00901999999ADDGA1041+006001999GA2071+012001999GF107991999999999999999999MA1100811999999REMMET062METAR ETGQ 271220Z 00000KT 9000 SCT020 BKN040 11/09 Q1008 BLU;
0170102340999992008102713204+53133+009350FM-15+0061ETGQ V0202401N001510120019N0090001N1+01201+00801999999ADDGA1041+006001999GA2071+012001999GA3071+024001999GF107991999999999999999999MA1100711999999REMMET069METAR ETGQ 271320Z 24003KT 9000 SCT020 BKN040 BKN080 12/08 Q1007 BLU;
0170102340999992008102714204+53133+009350FM-15+0061ETGQ V0202101N00211012001CN0112651N1+01201+00801999999ADDGA1041+006001999GA2041+012001999GA3071+024001999GF107991999999999999999999MA1100711999999REMMET069METAR ETGQ 271420Z 21004KT 9999 SCT020 SCT040 BKN080 12/08 Q1007 BLU;
0170102340999992008102715204+53133+009350FM-15+0061ETGQ V0202201N00211012001CN0112651N1+01101+00701999999ADDGA1041+006001999GA2041+012001999GA3071+024001999GF107991999999999999999999MA1100711999999REMMET069METAR ETGQ 271520Z 22004KT 9999 SCT020 SCT040 BKN080 11/07 Q1007 BLU;
0170102340999992008102717204+53133+009350FM-15+0061ETGQ V0203201N00101012001CN0112651N1+00901+00601999999ADDGA1041+006001999GA2041+012001999GA3071+024001999GF107991999999999999999999MA1100811999999REMMET069METAR ETGQ 271720Z 32002KT 9999 SCT020 SCT040 BKN080 09/06 Q1008 BLU;
0170102340999992008102718204+53133+009350FM-15+0061ETGQ V0209999C00001011401CN0112651N1+00801+00701999999ADDGA1041+006001999GA2041+011401999GA3071+024001999GF107991999999999999999999MA1100911999999REMMET069METAR ETGQ 271820Z 00000KT 9999 SCT020 SCT038 BKN080 08/07 Q1009 BLU;
0170102340999992008102719204+53133+009350FM-15+0061ETGQ V0209999C00001012001CN0112651N1+00701+00601999999ADDGA1021+006001999GA2041+012001999GA3071+024001999GF107991999999999999999999MA1100911999999REMMET069METAR ETGQ 271920Z 00000KT 9999 FEW020 SCT040 BKN080 07/06 Q1009 BLU;
0166102340999992008102805204+53133+009350FM-15+0061ETGQ V0209999C000010060019N0040001N1+00601+00501999999ADDGA1041+003001999GA2081+006001999GF108991999999999999999999MA1101021999999MW1101MW2611REMMET069METAR ETGQ 280520Z 00000KT 4000 -RA BR SCT010 OVC020 06/05 Q1010 GRN;
0179102340999992008102806204+53133+009350FM-15+0061ETGQ V0209999C000010015019N0030001N1+00501+00501999999ADDGA1071+001501999GA2071+007501999GA3081+024001999GF108991999999999999999999MA1101021999999MW1101REMMET072METAR ETGQ 280620Z 00000KT 3000 BR BKN005 BKN025 OVC080 05/05 Q1010 YLO;
0179102340999992008102807204+53133+009350FM-15+0061ETGQ V0209999C00001009001CN0030001N1+00501+00501999999ADDGA1041+001501999GA2041+009001999GA3071+024001999GF107991999999999999999999MA1101081999999MW1101REMMET072METAR ETGQ 280720Z 00000KT 3000 BR SCT005 SCT030 BKN080 05/05 Q1011 YLO;
0179102340999992008102808204+53133+009350FM-15+0061ETGQ V0209999C00001010501CN0030001N1+00601+00501999999ADDGA1041+002101999GA2041+010501999GA3071+024001999GF107991999999999999999999MA1101081999999MW1101REMMET072METAR ETGQ 280820Z 00000KT 3000 BR SCT007 SCT035 BKN080 06/05 Q1011 YLO;
0179102340999992008102809204+53133+009350FM-15+0061ETGQ V0209999C00001012001CN0040001N1+00701+00501999999ADDGA1041+002401999GA2041+012001999GA3071+024001999GF107991999999999999999999MA1101081999999MW1101REMMET072METAR ETGQ 280920Z 00000KT 4000 BR SCT008 SCT040 BKN080 07/05 Q1011 GRN;
0147102340999992008102810204+53133+009350FM-15+0061ETGQ V0209999C000010240019N0080001N1+00801+00401999999ADDGA1041+004501999GA2071+024001999GF107991999999999999999999MA1101021999999REMMET062METAR ETGQ 281020Z 00000KT 8000 SCT015 BKN080 08/04 Q1010 BLU;
0148102340999992008102811204+53133+009350FM-15+0061ETGQ V0209999C000010660019N0090001N1+00901+00301999999ADDGA1041+006001999GA2071+066001999GF107991999999999999999999MA1101021999999REMMET063METAR ETGQ 281120Z 00000KT 9000 SCT020 BKN220 09/03 Q1010 BLU/;
0171102340999992008102812204+53133+009350FM-15+0061ETGQ V0200601N00101015001CN0112651N1+00901+00301999999ADDGA1021+006601999GA2041+015001999GA3071+066001999GF107991999999999999999999MA1100911999999REMMET070METAR ETGQ 281220Z 06002KT 9999 FEW022 SCT050 BKN220 09/03 Q1009 BLU/;
0147102340999992008102813204+53133+009350FM-15+0061ETGQ V0203401N000510540019N0112651N1+00901+00301999999ADDGA1021+007501999GA2071+054001999GF107991999999999999999999MA1100911999999REMMET062METAR ETGQ 281320Z 34001KT 9999 FEW025 BKN180 09/03 Q1009 BLU;
0147102340999992008102814204+53133+009350FM-15+0061ETGQ V0209999C000010540019N0112651N1+00901+00201999999ADDGA1021+009001999GA2071+054001999GF107991999999999999999999MA1100911999999REMMET062METAR ETGQ 281420Z 00000KT 9999 FEW030 BKN180 09/02 Q1009 BLU;
0170102340999992008102815204+53133+009350FM-15+0061ETGQ V0209999C00001015001CN0112651N1+00901+00201999999ADDGA1021+009001999GA2041+015001999GA3071+048001999GF107991999999999999999999MA1101021999999REMMET069METAR ETGQ 281520Z 00000KT 9999 FEW030 SCT050 BKN160 09/02 Q1010 BLU;
0171102340999992008102816204+53133+009350FM-15+0061ETGQ V0209999C00001024001CN0112651N1+00801+00301999999ADDGA1021+009301999GA2041+024001999GA3071+063001999GF107991999999999999999999MA1100911999999REMMET070METAR ETGQ 281620Z 00000KT 9999 FEW031 SCT080 BKN210 08/03 Q1009 BLU/;
0148102340999992008102817204+53133+009350FM-15+0061ETGQ V0209999C000010600019N0112651N1+00701+00401999999ADDGA1021+012001999GA2071+060001999GF107991999999999999999999MA1101021999999REMMET063METAR ETGQ 281720Z 00000KT 9999 FEW040 BKN200 07/04 Q1010 BLU/;
0148102340999992008102818204+53133+009350FM-15+0061ETGQ V0201601N000510600019N0112651N1+00601+00401999999ADDGA1021+024001999GA2071+060001999GF107991999999999999999999MA1101021999999REMMET063METAR ETGQ 281820Z 16001KT 9999 FEW080 BKN200 06/04 Q1010 BLU/;
0124102340999992008102819204+53133+009350FM-15+0061ETGQ V0209999C000010570019N0112651N1+00501+00401999999ADDGA1071+057001999GF107991999999999999999999MA1101021999999REMMET055METAR ETGQ 281920Z 00000KT 9999 BKN190 05/04 Q1010 BLU;
0132102340999992008102905204+53133+009350FM-15+0061ETGQ V0209999C000010006019N0015001N1+00301+00201999999ADDGA1091+000601999GF109991999999000251999999MA1101021999999MW1101REMMET057METAR ETGQ 290520Z 00000KT 1500 BR VV002 03/02 Q1010 AMB;
0133102340999992008102906204+53133+009350FM-15+0061ETGQ V0209999C000010009019N0018001N1+00301+00301999999ADDGA1071+000901999GF107991999999999999999999MA1101021999999MW1101REMMET058METAR ETGQ 290620Z 00000KT 1800 BR BKN003 03/03 Q1010 YLO;
0133102340999992008102907204+53133+009350FM-15+0061ETGQ V0209999C000010012019N0027001N1+00301+00301999999ADDGA1071+001201999GF107991999999999999999999MA1101021999999MW1101REMMET058METAR ETGQ 290720Z 00000KT 2700 BR BKN004 03/03 Q1010 YLO;
0133102340999992008102908204+53133+009350FM-15+0061ETGQ V0209999C000010012019N0030001N1+00401+00301999999ADDGA1081+001201999GF108991999999999999999999MA1101021999999MW1101REMMET058METAR ETGQ 290820Z 00000KT 3000 BR OVC004 04/03 Q1010 YLO;
0133102340999992008102909204+53133+009350FM-15+0061ETGQ V0209999C000010021019N0040001N1+00401+00301999999ADDGA1071+002101999GF107991999999999999999999MA1101021999999MW1101REMMET058METAR ETGQ 290920Z 00000KT 4000 BR BKN007 04/03 Q1010 GRN;
0130102340999992008102910204+53133+009350FM-15+0061ETGQ V0209999C00001220001CN0050001N1+00501+00301999999ADDGA1071+002401999GA2041+030001999MA1100911999999MW1101REMMET065METAR ETGQ 291020Z 00000KT 5000 BR BKN008 SCT100 05/03 Q1009 GRN;
0148102340999992008102911204+53133+009350FM-15+0061ETGQ V0209999C000010750019N0080001N1+00701+00301999999ADDGA1021+003001999GA2071+075001999GF107991999999999999999999MA1100811999999REMMET063METAR ETGQ 291120Z 00000KT 8000 FEW010 BKN250 07/03 Q1008 BLU/;
0170102340999992008102912204+53133+009350FM-15+0061ETGQ V0203201N000510300019N0090001N1+00701+00301999999ADDGA1021+004501999GA2071+030001999GA3071+075001999GF107991999999999999999999MA1100811999999REMMET069METAR ETGQ 291220Z 32001KT 9000 FEW015 BKN100 BKN250 07/03 Q1008 BLU;
0171102340999992008102913204+53133+009350FM-15+0061ETGQ V0203201N00051030001CN0112651N1+00801+00301999999ADDGA1021+004501999GA2041+030001999GA3071+075001999GF107991999999999999999999MA1100711999999REMMET070METAR ETGQ 291320Z 32001KT 9999 FEW015 SCT100 BKN250 08/03 Q1007 BLU/;
0174102340999992008102914204+53133+009350FM-15+0061ETGQ V0203001N00051027001CN0112651N1+00801+00301999999ADDGA1021+007501021GA2041+027001999GA3071+060001999GF107991999999999999999999MA1100711999999REMMET073METAR ETGQ 291420Z 30001KT 9999 FEW025TCU SCT090 BKN200 08/03 Q1007 BLU/;
0171102340999992008102915204+53133+009350FM-15+0061ETGQ V0209999C00001027001CN0112651N1+00801+00301999999ADDGA1041+015001999GA2041+027001999GA3071+060001999GF107991999999999999999999MA1100611999999REMMET070METAR ETGQ 291520Z 00000KT 9999 SCT050 SCT090 BKN200 08/03 Q1006 BLU/;
0170102340999992008102916204+53133+009350FM-15+0061ETGQ V0209999C000010150019N0090001N1+00701+00301999999ADDGA1071+015001999GA2041+027001999GA3071+060001999GF107991999999999999999999MA1100511999999REMMET069METAR ETGQ 291620Z 00000KT 9000 BKN050 SCT090 BKN200 07/03 Q1005 BLU;
0170102340999992008102917204+53133+009350FM-15+0061ETGQ V0209999C000010240019N0112651N1+00601+00301999999ADDGA1021+015001999GA2071+024001999GA3071+060001999GF107991999999999999999999MA1100511999999REMMET069METAR ETGQ 291720Z 00000KT 9999 FEW050 BKN080 BKN200 06/03 Q1005 BLU;
0147102340999992008102918204+53133+009350FM-15+0061ETGQ V0209999C000010240019N0112651N1+00601+00301999999ADDGA1021+015001999GA2071+024001999GF107991999999999999999999MA1100511999999REMMET062METAR ETGQ 291820Z 00000KT 9999 FEW050 BKN080 06/03 Q1005 BLU;
0147102340999992008102919204+53133+009350FM-15+0061ETGQ V0209999C000010270019N0112651N1+00601+00301999999ADDGA1021+018001999GA2081+027001999GF108991999999999999999999MA1100311999999REMMET062METAR ETGQ 291920Z 00000KT 9999 FEW060 OVC090 06/03 Q1003 BLU;
0166102340999992008103005204+53133+009350FM-15+0061ETGQ V0203301N000510105019N0025001N1+00401+00301999999ADDGA1041+003901999GA2071+010501999GF107991999999999999999999MA1099701999999MW1101MW2611REMMET069METAR ETGQ 300520Z 33001KT 2500 -RA BR SCT013 BKN035 04/03 Q0997 YLO;
0166102340999992008103006204+53133+009350FM-15+0061ETGQ V0203401N000510120019N0050001N1+00401+00301999999ADDGA1041+003901999GA2071+012001999GF107991999999999999999999MA1099701999999MW1101MW2611REMMET069METAR ETGQ 300620Z 34001KT 5000 -RA BR SCT013 BKN040 04/03 Q0997 WHT;
0180102340999992008103007204+53133+009350FM-15+0061ETGQ V0209999C00001006601CN0080001N1+00401+00201999999ADDGA1021+003001999GA2041+006601999GA3071+010501999GF107991999999999999999999MA1099701999999MW1611REMMET073METAR ETGQ 300720Z 00000KT 8000 -RA FEW010 SCT022 BKN035 04/02 Q0997 BLU;
0165102340999992008103008204+53133+009350FM-15+0061ETGQ V0203101N000510045019N0060001N1+00501+00301999999ADDGA1021+003001999GA2071+004501999GF107991999999999999999999MA1099701999999MW1511MW2611REMMET068METAR ETGQ 300820Z 31001KT 6000 -RADZ FEW010 BKN015 05/03 Q0997 WHT;
0165102340999992008103009204+53133+009350FM-15+0061ETGQ V0203301N000510039019N0070001N1+00501+00201999999ADDGA1021+003001999GA2071+003901999GF107991999999999999999999MA1099701999999MW1511MW2611REMMET068METAR ETGQ 300920Z 33001KT 7000 -RADZ FEW010 BKN013 05/02 Q0997 GRN;
0147102340999992008103010204+53133+009350FM-15+0061ETGQ V0209999C000010045019N0080001N1+00501+00201999999ADDGA1021+003301999GA2071+004501999GF107991999999999999999999MA1099701999999REMMET062METAR ETGQ 301020Z 00000KT 8000 FEW011 BKN015 05/02 Q0997 WHT;
0188102340999992008103011204+53133+009350FM-15+0061ETGQ V0209999C00001004501CN0090001N1+00501+00301999999ADDGA1021+003601999GA2041+004501999GA3071+006901999GF107991999999999999999999MA1099701999999MW1511MW2611REMMET075METAR ETGQ 301120Z 00000KT 9000 -RADZ FEW012 SCT015 BKN023 05/03 Q0997 WHT;
0188102340999992008103012204+53133+009350FM-15+0061ETGQ V0209999C000010042019N0070001N1+00501+00301999999ADDGA1021+003001999GA2071+004201999GA3071+006901999GF107991999999999999999999MA1099801999999MW1511MW2611REMMET075METAR ETGQ 301220Z 00000KT 7000 -RADZ FEW010 BKN014 BKN023 05/03 Q0998 GRN;
0188102340999992008103013204+53133+009350FM-15+0061ETGQ V0209999C00001004201CN0080001N1+00501+00301999999ADDGA1021+003001999GA2041+004201999GA3071+006901999GF107991999999999999999999MA1099701999999MW1511MW2611REMMET075METAR ETGQ 301320Z 00000KT 8000 -RADZ FEW010 SCT014 BKN023 05/03 Q0997 WHT;
0188102340999992008103014204+53133+009350FM-15+0061ETGQ V0209999C00001004501CN0080001N1+00501+00301999999ADDGA1021+003001999GA2041+004501999GA3071+006901999GF107991999999999999999999MA1099801999999MW1511MW2611REMMET075METAR ETGQ 301420Z 00000KT 8000 -RADZ FEW010 SCT015 BKN023 05/03 Q0998 WHT;
0170102340999992008103015204+53133+009350FM-15+0061ETGQ V0209999C00001005401CN0090001N1+00501+00301999999ADDGA1021+003001999GA2041+005401999GA3071+008401999GF107991999999999999999999MA1099801999999REMMET069METAR ETGQ 301520Z 00000KT 9000 FEW010 SCT018 BKN028 05/03 Q0998 BLU;
0170102340999992008103016204+53133+009350FM-15+0061ETGQ V0209999C00001006001CN0090001N1+00501+00301999999ADDGA1021+003001999GA2041+006001999GA3071+009901999GF107991999999999999999999MA1099801999999REMMET069METAR ETGQ 301620Z 00000KT 9000 FEW010 SCT020 BKN033 05/03 Q0998 BLU;
0170102340999992008103017204+53133+009350FM-15+0061ETGQ V0209999C00001006001CN0090001N1+00501+00301999999ADDGA1021+003001999GA2041+006001999GA3071+009901999GF107991999999999999999999MA1099901999999REMMET069METAR ETGQ 301720Z 00000KT 9000 FEW010 SCT020 BKN033 05/03 Q0999 BLU;
0147102340999992008103018204+53133+009350FM-15+0061ETGQ V0209999C000010108019N0112651N1+00501+00301999999ADDGA1041+006001999GA2071+010801999GF107991999999999999999999MA1100001999999REMMET062METAR ETGQ 301820Z 00000KT 9999 SCT020 BKN036 05/03 Q1000 BLU;
0147102340999992008103019204+53133+009350FM-15+0061ETGQ V0209999C000010105019N0112651N1+00501+00301999999ADDGA1041+006001999GA2071+010501999GF107991999999999999999999MA1100001999999REMMET062METAR ETGQ 301920Z 00000KT 9999 SCT020 BKN035 05/03 Q1000 BLU;
0180102340999992008103105204+53133+009350FM-15+0061ETGQ V0201201N003110120019N0080001N1+00501+00201999999ADDGA1021+005701999GA2071+012001999GA3071+024001999GF107991999999999999999999MA1100201999999MW1611REMMET073METAR ETGQ 310520Z 12006KT 8000 -RA FEW019 BKN040 BKN080 05/02 Q1002 BLU;
0157102340999992008103106204+53133+009350FM-15+0061ETGQ V0201101N001510120019N0070001N1+00501+00301999999ADDGA1041+005101999GA2071+012001999GF107991999999999999999999MA1100311999999MW1611REMMET066METAR ETGQ 310620Z 11003KT 7000 -RA SCT017 BKN040 05/03 Q1003 WHT;
0157102340999992008103107204+53133+009350FM-15+0061ETGQ V0200901N000510051019N0070001N1+00501+00301999999ADDGA1021+003001999GA2071+005101999GF107991999999999999999999MA1100311999999MW1611REMMET066METAR ETGQ 310720Z 09001KT 7000 -RA FEW010 BKN017 05/03 Q1003 WHT;
0170102340999992008103108204+53133+009350FM-15+0061ETGQ V0201201N00211004501CN0070001N1+00501+00301999999ADDGA1021+003001999GA2041+004501999GA3071+010501999GF107991999999999999999999MA1100411999999REMMET069METAR ETGQ 310820Z 12004KT 7000 FEW010 SCT015 BKN035 05/03 Q1004 WHT;
0170102340999992008103109204+53133+009350FM-15+0061ETGQ V0201201N00101005401CN0112651N1+00601+00401999999ADDGA1021+003901999GA2041+005401999GA3071+009901999GF107991999999999999999999MA1100411999999REMMET069METAR ETGQ 310920Z 12002KT 9999 FEW013 SCT018 BKN033 06/04 Q1004 BLU;
0147102340999992008103110204+53133+009350FM-15+0061ETGQ V0201701N002110108019N0112651N1+00701+00401999999ADDGA1021+004201999GA2071+010801999GF107991999999999999999999MA1100511999999REMMET062METAR ETGQ 311020Z 17004KT 9999 FEW014 BKN036 07/04 Q1005 BLU;
0147102340999992008103111204+53133+009350FM-15+0061ETGQ V0201701N002610108019N0112651N1+00701+00401999999ADDGA1021+003001999GA2071+010801999GF107991999999999999999999MA1100611999999REMMET062METAR ETGQ 311120Z 17005KT 9999 FEW010 BKN036 07/04 Q1006 BLU;
0147102340999992008103112204+53133+009350FM-15+0061ETGQ V0201401N001510105019N0112651N1+00801+00401999999ADDGA1021+006001999GA2071+010501999GF107991999999999999999999MA1100511999999REMMET062METAR ETGQ 311220Z 14003KT 9999 FEW020 BKN035 08/04 Q1005 BLU;
0147102340999992008103113204+53133+009350FM-15+0061ETGQ V0201701N002110105019N0112651N1+00901+00501999999ADDGA1021+006001999GA2071+010501999GF107991999999999999999999MA1100611999999REMMET062METAR ETGQ 311320Z 17004KT 9999 FEW020 BKN035 09/05 Q1006 BLU;
0170102340999992008103114204+53133+009350FM-15+0061ETGQ V0202001N00261010501CN0112651N1+01001+00501999999ADDGA1021+006001999GA2041+010501999GA3071+036001999GF107991999999999999999999MA1100611999999REMMET069METAR ETGQ 311420Z 20005KT 9999 FEW020 SCT035 BKN120 10/05 Q1006 BLU;
0148102340999992008103115204+53133+009350FM-15+0061ETGQ V0201401N001512200019N0112651N1+01001+00501999999ADDGA1021+006601999GA2041+008701999GF104991999999999999999999MA1100611999999REMMET063METAR ETGQ 311520Z 14003KT 9999 FEW022 SCT029 10/05 Q1006 BLU/;
0148102340999992008103116204+53133+009350FM-15+0061ETGQ V0201301N001012200019N0112651N1+00901+00501999999ADDGA1041+009001999GA2041+012001999GF104991999999999999999999MA1100611999999REMMET063METAR ETGQ 311620Z 13002KT 9999 SCT030 SCT040 09/05 Q1006 BLU/;
0147102340999992008103117204+53133+009350FM-15+0061ETGQ V0201401N000510450019N0112651N1+00801+00501999999ADDGA1021+012001999GA2071+045001999GF107991999999999999999999MA1100711999999REMMET062METAR ETGQ 311720Z 14001KT 9999 FEW040 BKN150 08/05 Q1007 BLU;
0147102340999992008103118204+53133+009350FM-15+0061ETGQ V0209999C000010450019N0112651N1+00801+00501999999ADDGA1021+012001999GA2071+045001999GF107991999999999999999999MA1100811999999REMMET062METAR ETGQ 311820Z 00000KT 9999 FEW040 BKN150 08/05 Q1008 BLU;
0124102340999992008103119204+53133+009350FM-15+0061ETGQ V0201001N001010390019N0112651N1+00801+00501999999ADDGA1071+039001999GF107991999999999999999999MA1100811999999REMMET055METAR ETGQ 311920Z 10002KT 9999 BKN130 08/05 Q1008 BLU;
0124102340999992008110305204+53133+009350FM-15+0061ETGQ V0209999C000010048019N0080001N1+00901+00701999999ADDGA1081+004801999GF108991999999999999999999MA1101081999999REMMET055METAR ETGQ 030520Z 00000KT 8000 OVC016 09/07 Q1011 WHT;
0124102340999992008110306204+53133+009350FM-15+0061ETGQ V0209999C000010036019N0080001N1+01001+00801999999ADDGA1081+003601999GF108991999999999999999999MA1101191999999REMMET055METAR ETGQ 030620Z 00000KT 8000 OVC012 10/08 Q1012 GRN;
0147102340999992008110307204+53133+009350FM-15+0061ETGQ V0200701N001510057019N0112651N1+01001+00701999999ADDGA1041+004801999GA2081+005701999GF108991999999999999999999MA1101191999999REMMET062METAR ETGQ 030720Z 07003KT 9999 SCT016 OVC019 10/07 Q1012 WHT;
0124102340999992008110308204+53133+009350FM-15+0061ETGQ V0201501N001010057019N0112651N1+01001+00701999999ADDGA1081+005701999GF108991999999999999999999MA1101291999999REMMET055METAR ETGQ 030820Z 15002KT 9999 OVC019 10/07 Q1013 WHT;
0124102340999992008110309204+53133+009350FM-15+0061ETGQ V0209999C000010069019N0112651N1+01001+00801999999ADDGA1081+006901999GF108991999999999999999999MA1101291999999REMMET055METAR ETGQ 030920Z 00000KT 9999 OVC023 10/08 Q1013 WHT;
0124102340999992008110310204+53133+009350FM-15+0061ETGQ V0209999C000010063019N0112651N1+01101+00801999999ADDGA1081+006301999GF108991999999999999999999MA1101291999999REMMET055METAR ETGQ 031020Z 00000KT 9999 OVC021 11/08 Q1013 WHT;
0124102340999992008110311204+53133+009350FM-15+0061ETGQ V0201001N001510060019N0112651N1+01201+00801999999ADDGA1071+006001999GF107991999999999999999999MA1101291999999REMMET055METAR ETGQ 031120Z 10003KT 9999 BKN020 12/08 Q1013 WHT;
0147102340999992008110312204+53133+009350FM-15+0061ETGQ V0201201N001510510019N0112651N1+01301+00801999999ADDGA1041+006001999GA2071+051001999GF107991999999999999999999MA1101291999999REMMET062METAR ETGQ 031220Z 12003KT 9999 SCT020 BKN170 13/08 Q1013 BLU;
0147102340999992008110313204+53133+009350FM-15+0061ETGQ V0201201N001510510019N0112651N1+01201+00801999999ADDGA1041+006901999GA2071+051001999GF107991999999999999999999MA1101291999999REMMET062METAR ETGQ 031320Z 12003KT 9999 SCT023 BKN170 12/08 Q1013 BLU;
0147102340999992008110314204+53133+009350FM-15+0061ETGQ V0201001N000510450019N0112651N1+01301+00901999999ADDGA1041+006901999GA2071+045001999GF107991999999999999999999MA1101291999999REMMET062METAR ETGQ 031420Z 10001KT 9999 SCT023 BKN150 13/09 Q1013 BLU;
0124102340999992008110315204+53133+009350FM-15+0061ETGQ V0209999C000010420019N0112651N1+01201+00901999999ADDGA1071+042001999GF107991999999999999999999MA1101291999999REMMET055METAR ETGQ 031520Z 00000KT 9999 BKN140 12/09 Q1013 BLU;
0124102340999992008110316204+53133+009350FM-15+0061ETGQ V0209999C000010420019N0112651N1+01101+00801999999ADDGA1071+042001999GF107991999999999999999999MA1101391999999REMMET055METAR ETGQ 031620Z 00000KT 9999 BKN140 11/08 Q1014 BLU;
0124102340999992008110317204+53133+009350FM-15+0061ETGQ V0201701N000510420019N0112651N1+01101+00801999999ADDGA1071+042001999GF107991999999999999999999MA1101391999999REMMET055METAR ETGQ 031720Z 17001KT 9999 BKN140 11/08 Q1014 BLU;
0124102340999992008110318204+53133+009350FM-15+0061ETGQ V0201501N001510450019N0112651N1+01001+00801999999ADDGA1071+045001999GF107991999999999999999999MA1101491999999REMMET055METAR ETGQ 031820Z 15003KT 9999 BKN150 10/08 Q1015 BLU;
0124102340999992008110319204+53133+009350FM-15+0061ETGQ V0209999C000010420019N0090001N1+00901+00701999999ADDGA1071+042001999GF107991999999999999999999MA1101591999999REMMET055METAR ETGQ 031920Z 00000KT 9000 BKN140 09/07 Q1016 BLU;
0133102340999992008110405204+53133+009350FM-15+0061ETGQ V0209999C000010003019N0030001N1+00701+00701999999ADDGA1081+000301999GF108991999999999999999999MA1101901999999MW1101REMMET058METAR ETGQ 040520Z 00000KT 3000 BR OVC001 07/07 Q1019 RED;
0133102340999992008110406204+53133+009350FM-15+0061ETGQ V0209999C000010003019N0020001N1+00601+00601999999ADDGA1081+000301999GF108991999999999999999999MA1101901999999MW1101REMMET058METAR ETGQ 040620Z 00000KT 2000 BR OVC001 06/06 Q1019 RED;
0133102340999992008110407204+53133+009350FM-15+0061ETGQ V0209999C000010003019N0007001N1+00601+00601999999ADDGA1081+000301999GF108991999999999999999999MA1102001999999MW1441REMMET058METAR ETGQ 040720Z 00000KT 0700 FG OVC001 06/06 Q1020 RED;
0133102340999992008110408204+53133+009350FM-15+0061ETGQ V0209999C000010009019N0020001N1+00701+00701999999ADDGA1081+000901999GF108991999999999999999999MA1102001999999MW1101REMMET058METAR ETGQ 040820Z 00000KT 2000 BR OVC003 07/07 Q1020 YLO;
0133102340999992008110409204+53133+009350FM-15+0061ETGQ V0203401N000510003019N0015001N1+00701+00701999999ADDGA1081+000301999GF108991999999999999999999MA1102001999999MW1101REMMET058METAR ETGQ 040920Z 34001KT 1500 BR OVC001 07/07 Q1020 RED;
0133102340999992008110410204+53133+009350FM-15+0061ETGQ V0209999C000010012019N0030001N1+00701+00701999999ADDGA1081+001201999GF108991999999999999999999MA1101901999999MW1101REMMET058METAR ETGQ 041020Z 00000KT 3000 BR OVC004 07/07 Q1019 YLO;
0124102340999992008110411204+53133+009350FM-15+0061ETGQ V0209999C000010012019N0060001N1+00801+00801999999ADDGA1071+001201999GF107991999999999999999999MA1101901999999REMMET055METAR ETGQ 041120Z 00000KT 6000 BKN004 08/08 Q1019 YLO;
0125102340999992008110412204+53133+009350FM-15+0061ETGQ V0209999C000012200019N0112651N1+01001+00801999999ADDGA1041+030001999GF104991999999999999999999MA1101801999999REMMET056METAR ETGQ 041220Z 00000KT 9999 SCT100 10/08 Q1018 BLU/;
0125102340999992008110413204+53133+009350FM-15+0061ETGQ V0209999C000012200019N0112651N1+01201+00801999999ADDGA1041+075001999GF104991999999999999999999MA1101801999999REMMET056METAR ETGQ 041320Z 00000KT 9999 SCT250 12/08 Q1018 BLU/;
0125102340999992008110414204+53133+009350FM-15+0061ETGQ V0209999C000012200019N0112651N1+01301+00901999999ADDGA1041+075001999GF104991999999999999999999MA1101691999999REMMET056METAR ETGQ 041420Z 00000KT 9999 SCT250 13/09 Q1017 BLU/;
0125102340999992008110415204+53133+009350FM-15+0061ETGQ V0209999C000010810019N0112651N1+01201+00901999999ADDGA1071+081001999GF107991999999999999999999MA1101691999999REMMET056METAR ETGQ 041520Z 00000KT 9999 BKN270 12/09 Q1017 BLU/;
0125102340999992008110416204+53133+009350FM-15+0061ETGQ V0209999C000010810019N0112651N1+01001+00801999999ADDGA1071+081001999GF107991999999999999999999MA1101591999999REMMET056METAR ETGQ 041620Z 00000KT 9999 BKN270 10/08 Q1016 BLU/;
0125102340999992008110417204+53133+009350FM-15+0061ETGQ V0209999C000010810019N0112651N1+00901+00801999999ADDGA1071+081001999GF107991999999999999999999MA1101591999999REMMET056METAR ETGQ 041720Z 00000KT 9999 BKN270 09/08 Q1016 BLU/;
0125102340999992008110418204+53133+009350FM-15+0061ETGQ V0209999C000010810019N0112651N1+00901+00801999999ADDGA1071+081001999GF107991999999999999999999MA1101591999999REMMET056METAR ETGQ 041820Z 00000KT 9999 BKN270 09/08 Q1016 BLU/;
0125102340999992008110419204+53133+009350FM-15+0061ETGQ V0209999C000010750019N0112651N1+00901+00801999999ADDGA1071+075001999GF107991999999999999999999MA1101491999999REMMET056METAR ETGQ 041920Z 00000KT 9999 BKN250 09/08 Q1015 BLU/;
0124102340999992008110505204+53133+009350FM-15+0061ETGQ V0203601N001510060019N0080001N1+00801+00701999999ADDGA1081+006001999GF108991999999999999999999MA1101191999999REMMET055METAR ETGQ 050520Z 36003KT 8000 OVC020 08/07 Q1012 WHT;
0124102340999992008110506204+53133+009350FM-15+0061ETGQ V0209999C000010054019N0080001N1+00801+00601999999ADDGA1081+005401999GF108991999999999999999999MA1101081999999REMMET055METAR ETGQ 050620Z 00000KT 8000 OVC018 08/06 Q1011 WHT;
0124102340999992008110507204+53133+009350FM-15+0061ETGQ V0209999C000010051019N0080001N1+00801+00701999999ADDGA1081+005101999GF108991999999999999999999MA1101191999999REMMET055METAR ETGQ 050720Z 00000KT 8000 OVC017 08/07 Q1012 WHT;
0124102340999992008110508204+53133+009350FM-15+0061ETGQ V0209999C000010051019N0080001N1+00901+00701999999ADDGA1081+005101999GF108991999999999999999999MA1101191999999REMMET055METAR ETGQ 050820Z 00000KT 8000 OVC017 09/07 Q1012 WHT;
0124102340999992008110509204+53133+009350FM-15+0061ETGQ V0209999C000010051019N0080001N1+00901+00701999999ADDGA1081+005101999GF108991999999999999999999MA1101191999999REMMET055METAR ETGQ 050920Z 00000KT 8000 OVC017 09/07 Q1012 WHT;
0124102340999992008110510204+53133+009350FM-15+0061ETGQ V0209999C000010054019N0080001N1+01001+00701999999ADDGA1081+005401999GF108991999999999999999999MA1101191999999REMMET055METAR ETGQ 051020Z 00000KT 8000 OVC018 10/07 Q1012 WHT;
0124102340999992008110511204+53133+009350FM-15+0061ETGQ V0209999C000010054019N0080001N1+01001+00701999999ADDGA1081+005401999GF108991999999999999999999MA1101191999999REMMET055METAR ETGQ 051120Z 00000KT 8000 OVC018 10/07 Q1012 WHT;
0124102340999992008110512204+53133+009350FM-15+0061ETGQ V0209999C000010060019N0080001N1+01001+00801999999ADDGA1081+006001999GF108991999999999999999999MA1101291999999REMMET055METAR ETGQ 051220Z 00000KT 8000 OVC020 10/08 Q1013 WHT;
0124102340999992008110513204+53133+009350FM-15+0061ETGQ V0203401N001510066019N0080001N1+01001+00801999999ADDGA1081+006601999GF108991999999999999999999MA1101291999999REMMET055METAR ETGQ 051320Z 34003KT 8000 OVC022 10/08 Q1013 WHT;
0124102340999992008110514204+53133+009350FM-15+0061ETGQ V0209999C000010069019N0080001N1+01101+00801999999ADDGA1081+006901999GF108991999999999999999999MA1101291999999REMMET055METAR ETGQ 051420Z 00000KT 8000 OVC023 11/08 Q1013 WHT;
0124102340999992008110515204+53133+009350FM-15+0061ETGQ V0209999C000010069019N0080001N1+01101+00801999999ADDGA1081+006901999GF108991999999999999999999MA1101291999999REMMET055METAR ETGQ 051520Z 00000KT 8000 OVC023 11/08 Q1013 WHT;
0124102340999992008110516204+53133+009350FM-15+0061ETGQ V0209999C000010066019N0080001N1+01001+00801999999ADDGA1081+006601999GF108991999999999999999999MA1101291999999REMMET055METAR ETGQ 051620Z 00000KT 8000 OVC022 10/08 Q1013 WHT;
0124102340999992008110517204+53133+009350FM-15+0061ETGQ V0209999C000010069019N0080001N1+01001+00801999999ADDGA1081+006901999GF108991999999999999999999MA1101391999999REMMET055METAR ETGQ 051720Z 00000KT 8000 OVC023 10/08 Q1014 WHT;
0124102340999992008110518204+53133+009350FM-15+0061ETGQ V0209999C000010069019N0080001N1+01001+00801999999ADDGA1081+006901999GF108991999999999999999999MA1101391999999REMMET055METAR ETGQ 051820Z 00000KT 8000 OVC023 10/08 Q1014 WHT;
0124102340999992008110519204+53133+009350FM-15+0061ETGQ V0209999C000010069019N0080001N1+01001+00801999999ADDGA1081+006901999GF108991999999999999999999MA1101491999999REMMET055METAR ETGQ 051920Z 00000KT 8000 OVC023 10/08 Q1015 WHT;
0124102340999992008110605204+53133+009350FM-15+0061ETGQ V0209999V000510054019N0080001N1+01001+00701999999ADDGA1081+005401999GF108991999999999999999999MA1101591999999REMMET055METAR ETGQ 060520Z VRB01KT 8000 OVC018 10/07 Q1016 WHT;
0124102340999992008110606204+53133+009350FM-15+0061ETGQ V0209999C000010048019N0080001N1+00901+00701999999ADDGA1081+004801999GF108991999999999999999999MA1101591999999REMMET055METAR ETGQ 060620Z 00000KT 8000 OVC016 09/07 Q1016 WHT;
0124102340999992008110607204+53133+009350FM-15+0061ETGQ V0209999C000010042019N0080001N1+01001+00701999999ADDGA1071+004201999GF107991999999999999999999MA1101691999999REMMET055METAR ETGQ 060720Z 00000KT 8000 BKN014 10/07 Q1017 GRN;
0124102340999992008110608204+53133+009350FM-15+0061ETGQ V0201401N001510042019N0080001N1+01001+00701999999ADDGA1071+004201999GF107991999999999999999999MA1101691999999REMMET055METAR ETGQ 060820Z 14003KT 8000 BKN014 10/07 Q1017 GRN;
0124102340999992008110609204+53133+009350FM-15+0061ETGQ V0201501N001510045019N0112651N1+01001+00701999999ADDGA1071+004501999GF107991999999999999999999MA1101691999999REMMET055METAR ETGQ 060920Z 15003KT 9999 BKN015 10/07 Q1017 WHT;
0124102340999992008110610204+53133+009350FM-15+0061ETGQ V0201601N001010045019N0112651N1+01101+00701999999ADDGA1071+004501999GF107991999999999999999999MA1101691999999REMMET055METAR ETGQ 061020Z 16002KT 9999 BKN015 11/07 Q1017 WHT;
0124102340999992008110611204+53133+009350FM-15+0061ETGQ V0209999C000010048019N0112651N1+01101+00701999999ADDGA1071+004801999GF107991999999999999999999MA1101591999999REMMET055METAR ETGQ 061120Z 00000KT 9999 BKN016 11/07 Q1016 WHT;
0124102340999992008110612204+53133+009350FM-15+0061ETGQ V0209999C000010051019N0112651N1+01101+00701999999ADDGA1071+005101999GF107991999999999999999999MA1101591999999REMMET055METAR ETGQ 061220Z 00000KT 9999 BKN017 11/07 Q1016 WHT;
0124102340999992008110614204+53133+009350FM-15+0061ETGQ V0201101N001510060019N0112651N1+01201+00701999999ADDGA1071+006001999GF107991999999999999999999MA1101591999999REMMET055METAR ETGQ 061420Z 11003KT 9999 BKN020 12/07 Q1016 WHT;
0124102340999992008110615204+53133+009350FM-15+0061ETGQ V0201301N001010054019N0112651N1+01101+00701999999ADDGA1071+005401999GF107991999999999999999999MA1101491999999REMMET055METAR ETGQ 061520Z 13002KT 9999 BKN018 11/07 Q1015 WHT;
0124102340999992008110616204+53133+009350FM-15+0061ETGQ V0201301N000510054019N0112651N1+01101+00701999999ADDGA1081+005401999GF108991999999999999999999MA1101491999999REMMET055METAR ETGQ 061620Z 13001KT 9999 OVC018 11/07 Q1015 WHT;
0124102340999992008110617204+53133+009350FM-15+0061ETGQ V0209999C000010054019N0080001N1+01101+00701999999ADDGA1081+005401999GF108991999999999999999999MA1101491999999REMMET055METAR ETGQ 061720Z 00000KT 8000 OVC018 11/07 Q1015 WHT;
0124102340999992008110618204+53133+009350FM-15+0061ETGQ V0209999C000010069019N0080001N1+01001+00701999999ADDGA1081+006901999GF108991999999999999999999MA1101491999999REMMET055METAR ETGQ 061820Z 00000KT 8000 OVC023 10/07 Q1015 WHT;
0124102340999992008110619204+53133+009350FM-15+0061ETGQ V0209999C000010075019N0080001N1+01001+00701999999ADDGA1081+007501999GF108991999999999999999999MA1101491999999REMMET055METAR ETGQ 061920Z 00000KT 8000 OVC025 10/07 Q1015 BLU;
0124102340999992008110705204+53133+009350FM-15+0061ETGQ V0209999V000510141019N0080001N1+01001+00701999999ADDGA1071+014101999GF107991999999999999999999MA1101391999999REMMET055METAR ETGQ 070520Z VRB01KT 8000 BKN047 10/07 Q1014 BLU;
0147102340999992008110706204+53133+009350FM-15+0061ETGQ V0209999V001010150019N0080001N1+01001+00701999999ADDGA1041+007501999GA2071+015001999GF107991999999999999999999MA1101391999999REMMET062METAR ETGQ 070620Z VRB02KT 8000 SCT025 BKN050 10/07 Q1014 BLU;
0148102340999992008110707204+53133+009350FM-15+0061ETGQ V0209999V001012200019N0080001N1+01001+00701999999ADDGA1041+007801999GA2041+015001999GF104991999999999999999999MA1101391999999REMMET063METAR ETGQ 070720Z VRB02KT 8000 SCT026 SCT050 10/07 Q1014 BLU/;
0147102340999992008110708204+53133+009350FM-15+0061ETGQ V0201601N000510150019N0112651N1+01101+00701999999ADDGA1021+008101999GA2071+015001999GF107991999999999999999999MA1101491999999REMMET062METAR ETGQ 070820Z 16001KT 9999 FEW027 BKN050 11/07 Q1015 BLU;
0124102340999992008110709204+53133+009350FM-15+0061ETGQ V0202401N002610060019N0112651N1+01101+00701999999ADDGA1071+006001999GF107991999999999999999999MA1101491999999REMMET055METAR ETGQ 070920Z 24005KT 9999 BKN020 11/07 Q1015 WHT;
0124102340999992008110710204+53133+009350FM-15+0061ETGQ V0209999C000010180019N0112651N1+01101+00701999999ADDGA1071+018001999GF107991999999999999999999MA1101491999999REMMET055METAR ETGQ 071020Z 00000KT 9999 BKN060 11/07 Q1015 BLU;
0147102340999992008110711204+53133+009350FM-15+0061ETGQ V0202201N000510180019N0112651N1+01201+00701999999ADDGA1041+006001999GA2071+018001999GF107991999999999999999999MA1101491999999REMMET062METAR ETGQ 071120Z 22001KT 9999 SCT020 BKN060 12/07 Q1015 BLU;
0147102340999992008110712204+53133+009350FM-15+0061ETGQ V0209999C000010180019N0112651N1+01301+00701999999ADDGA1021+007501999GA2071+018001999GF107991999999999999999999MA1101491999999REMMET062METAR ETGQ 071220Z 00000KT 9999 FEW025 BKN060 13/07 Q1015 BLU;
0124102340999992008110713204+53133+009350FM-15+0061ETGQ V0209999C000010180019N0112651N1+01301+00701999999ADDGA1071+018001999GF107991999999999999999999MA1101391999999REMMET055METAR ETGQ 071320Z 00000KT 9999 BKN060 13/07 Q1014 BLU;
0124102340999992008110714204+53133+009350FM-15+0061ETGQ V0203001N000510084019N0112651N1+01301+00701999999ADDGA1071+008401999GF107991999999999999999999MA1101391999999REMMET055METAR ETGQ 071420Z 30001KT 9999 BKN028 13/07 Q1014 BLU;
0124102340999992008110715204+53133+009350FM-15+0061ETGQ V0209999C000010099019N0112651N1+01301+00801999999ADDGA1071+009901999GF107991999999999999999999MA1101491999999REMMET055METAR ETGQ 071520Z 00000KT 9999 BKN033 13/08 Q1015 BLU;
0147102340999992008110716204+53133+009350FM-15+0061ETGQ V0201301N002110180019N0080001N1+01301+00701999999ADDGA1041+007501999GA2071+018001999GF107991999999999999999999MA1101491999999REMMET062METAR ETGQ 071620Z 13004KT 8000 SCT025 BKN060 13/07 Q1015 BLU;
0125102340999992008110717204+53133+009350FM-15+0061ETGQ V0201501N002112200019N0112651N1+01201+00701999999ADDGA1041+015001999GF104991999999999999999999MA1101491999999REMMET056METAR ETGQ 071720Z 15004KT 9999 SCT050 12/07 Q1015 BLU/;
0124102340999992008110718204+53133+009350FM-15+0061ETGQ V0201501N001510180019N0112651N1+01201+00801999999ADDGA1071+018001999GF107991999999999999999999MA1101591999999REMMET055METAR ETGQ 071820Z 15003KT 9999 BKN060 12/08 Q1016 BLU;
0124102340999992008110719204+53133+009350FM-15+0061ETGQ V0209999V000510180019N0112651N1+01101+00801999999ADDGA1071+018001999GF107991999999999999999999MA1101591999999REMMET055METAR ETGQ 071920Z VRB01KT 9999 BKN060 11/08 Q1016 BLU;
0124102340999992008111005204+53133+009350FM-15+0061ETGQ V0201601N002110114019N0112651N1+01301+00901999999ADDGA1071+011401999GF107991999999999999999999MA1101691999999REMMET055METAR ETGQ 100520Z 16004KT 9999 BKN038 13/09 Q1017 BLU;
0135102340999992008111006204+53133+009350FM-15+0061ETGQ V0202001N003610105019N0112651N1+01401+00901999999ADDGA1071+010501999GF107991999999999999999999MA1101691999999OC100931REMMET058METAR ETGQ 100620Z 20007G18KT 9999 BKN035 14/09 Q1017 BLU;
0134102340999992008111007204+53133+009350FM-15+0061ETGQ V0202001N003110081019N0112651N1+01401+00901999999ADDGA1071+008101999GF107991999999999999999999MA1101691999999MW1611REMMET059METAR ETGQ 100720Z 20006KT 9999 -RA BKN027 14/09 Q1017 BLU;
0124102340999992008111008204+53133+009350FM-15+0061ETGQ V0202301N004110084019N0112651N1+01301+00901999999ADDGA1071+008401999GF107991999999999999999999MA1101801999999REMMET055METAR ETGQ 100820Z 23008KT 9999 BKN028 13/09 Q1018 BLU;
0124102340999992008111009204+53133+009350FM-15+0061ETGQ V0202101N003610093019N0112651N1+01401+00901999999ADDGA1071+009301999GF107991999999999999999999MA1101901999999REMMET055METAR ETGQ 100920Z 21007KT 9999 BKN031 14/09 Q1019 BLU;
0124102340999992008111010204+53133+009350FM-15+0061ETGQ V0202201N003610078019N0112651N1+01401+00901999999ADDGA1071+007801999GF107991999999999999999999MA1101901999999REMMET055METAR ETGQ 101020Z 22007KT 9999 BKN026 14/09 Q1019 BLU;
0124102340999992008111011204+53133+009350FM-15+0061ETGQ V0202101N003110078019N0112651N1+01501+00901999999ADDGA1071+007801999GF107991999999999999999999MA1101801999999REMMET055METAR ETGQ 101120Z 21006KT 9999 BKN026 15/09 Q1018 BLU;
0124102340999992008111012204+53133+009350FM-15+0061ETGQ V0202201N003610087019N0112651N1+01501+00901999999ADDGA1071+008701999GF107991999999999999999999MA1101691999999REMMET055METAR ETGQ 101220Z 22007KT 9999 BKN029 15/09 Q1017 BLU;
0124102340999992008111013204+53133+009350FM-15+0061ETGQ V0201901N003110084019N0112651N1+01501+00901999999ADDGA1071+008401999GF107991999999999999999999MA1101591999999REMMET055METAR ETGQ 101320Z 19006KT 9999 BKN028 15/09 Q1016 BLU;
0124102340999992008111014204+53133+009350FM-15+0061ETGQ V0202201N003610084019N0112651N1+01501+00901999999ADDGA1071+008401999GF107991999999999999999999MA1101591999999REMMET055METAR ETGQ 101420Z 22007KT 9999 BKN028 15/09 Q1016 BLU;
0124102340999992008111015204+53133+009350FM-15+0061ETGQ V0201601N003110096019N0112651N1+01501+00901999999ADDGA1071+009601999GF107991999999999999999999MA1101491999999REMMET055METAR ETGQ 101520Z 16006KT 9999 BKN032 15/09 Q1015 BLU;
0124102340999992008111016204+53133+009350FM-15+0061ETGQ V0201701N003110111019N0112651N1+01501+00901999999ADDGA1071+011101999GF107991999999999999999999MA1101491999999REMMET055METAR ETGQ 101620Z 17006KT 9999 BKN037 15/09 Q1015 BLU;
0124102340999992008111017204+53133+009350FM-15+0061ETGQ V0202001N003610120019N0112651N1+01601+00901999999ADDGA1071+012001999GF107991999999999999999999MA1101491999999REMMET055METAR ETGQ 101720Z 20007KT 9999 BKN040 16/09 Q1015 BLU;
0147102340999992008111018204+53133+009350FM-15+0061ETGQ V0202101N003610450019N0112651N1+01601+00801999999ADDGA1041+013501999GA2071+045001999GF107991999999999999999999MA1101391999999REMMET062METAR ETGQ 101820Z 21007KT 9999 SCT045 BKN150 16/08 Q1014 BLU;
0135102340999992008111019204+53133+009350FM-15+0061ETGQ V0202101N003610111019N0112651N1+01601+00901999999ADDGA1071+011101999GF107991999999999999999999MA1101391999999OC101081REMMET058METAR ETGQ 101920Z 21007G21KT 9999 BKN037 16/09 Q1014 BLU;
0124102340999992008111105204+53133+009350FM-15+0061ETGQ V0201701N003110126019N0112651N1+01401+00801999999ADDGA1071+012601999GF107991999999999999999999MA1100811999999REMMET055METAR ETGQ 110520Z 17006KT 9999 BKN042 14/08 Q1008 BLU;
0134102340999992008111106204+53133+009350FM-15+0061ETGQ V0201601N003110108019N0090001N1+01301+00901999999ADDGA1081+010801999GF108991999999999999999999MA1100811999999MW1611REMMET059METAR ETGQ 110620Z 16006KT 9000 -RA OVC036 13/09 Q1008 BLU;
0124102340999992008111107204+53133+009350FM-15+0061ETGQ V0201801N004110099019N0112651N1+01401+00901999999ADDGA1071+009901999GF107991999999999999999999MA1100811999999REMMET055METAR ETGQ 110720Z 18008KT 9999 BKN033 14/09 Q1008 BLU;
0124102340999992008111108204+53133+009350FM-15+0061ETGQ V0202301N004110096019N0112651N1+01401+00901999999ADDGA1071+009601999GF107991999999999999999999MA1100911999999REMMET055METAR ETGQ 110820Z 23008KT 9999 BKN032 14/09 Q1009 BLU;
0127102340999992008111109204+53133+009350FM-15+0061ETGQ V0202601N004610096019N0112651N1+01401+00901999999ADDGA1071+009601021GF107991999999999999999999MA1101021999999REMMET058METAR ETGQ 110920Z 26009KT 9999 BKN032TCU 14/09 Q1010 BLU;
0162102340999992008111110204+53133+009350FM-15+0061ETGQ V0203001N002110099019N0112651N1+01001+00801999999ADDGA1071+009901021GA2071+033001999GF107991999999999999999999MA1101191999999MW1801REMMET071METAR ETGQ 111020Z 30004KT 9999 -SHRA BKN033TCU BKN110 10/08 Q1012 BLU;
0147102340999992008111111204+53133+009350FM-15+0061ETGQ V0202601N002610105019N0112651N1+01201+00601999999ADDGA1071+010501999GA2071+075001999GF107991999999999999999999MA1101191999999REMMET062METAR ETGQ 111120Z 26005KT 9999 BKN035 BKN250 12/06 Q1012 BLU;
0148102340999992008111112204+53133+009350FM-15+0061ETGQ V0202601N003610750019N0112651N1+01301+00501999999ADDGA1041+009001999GA2071+075001999GF107991999999999999999999MA1101291999999REMMET063METAR ETGQ 111220Z 26007KT 9999 SCT030 BKN250 13/05 Q1013 BLU/;
0148102340999992008111113204+53133+009350FM-15+0061ETGQ V0202501N002110750019N0112651N1+01301+00301999999ADDGA1041+010501999GA2071+075001999GF107991999999999999999999MA1101291999999REMMET063METAR ETGQ 111320Z 25004KT 9999 SCT035 BKN250 13/03 Q1013 BLU/;
0148102340999992008111114204+53133+009350FM-15+0061ETGQ V0202401N002610600019N0112651N1+01201+00301999999ADDGA1041+012001999GA2071+060001999GF107991999999999999999999MA1101291999999REMMET063METAR ETGQ 111420Z 24005KT 9999 SCT040 BKN200 12/03 Q1013 BLU/;
0124102340999992008111115204+53133+009350FM-15+0061ETGQ V0202501N002110150019N0112651N1+01201+00401999999ADDGA1071+015001999GF107991999999999999999999MA1101391999999REMMET055METAR ETGQ 111520Z 25004KT 9999 BKN050 12/04 Q1014 BLU;
0135102340999992008111116204+53133+009350FM-15+0061ETGQ V0202501N003610150019N0112651N1+01201+00301999999ADDGA1071+015001999GF107991999999999999999999MA1101391999999OC100871REMMET058METAR ETGQ 111620Z 25007G17KT 9999 BKN050 12/03 Q1014 BLU;
0124102340999992008111117204+53133+009350FM-15+0061ETGQ V0202201N002610150019N0112651N1+01101+00301999999ADDGA1071+015001999GF107991999999999999999999MA1101491999999REMMET055METAR ETGQ 111720Z 22005KT 9999 BKN050 11/03 Q1015 BLU;
0124102340999992008111118204+53133+009350FM-15+0061ETGQ V0202301N002110150019N0112651N1+01101+00401999999ADDGA1071+015001999GF107991999999999999999999MA1101491999999REMMET055METAR ETGQ 111820Z 23004KT 9999 BKN050 11/04 Q1015 BLU;
0124102340999992008111119204+53133+009350FM-15+0061ETGQ V0202201N003110180019N0112651N1+01101+00401999999ADDGA1071+018001999GF107991999999999999999999MA1101491999999REMMET055METAR ETGQ 111920Z 22006KT 9999 BKN060 11/04 Q1015 BLU;
0147102340999992008111205204+53133+009350FM-15+0061ETGQ V0209999V001010270019N0112651N1+00801+00501999999ADDGA1041+011101999GA2071+027001999GF107991999999999999999999MA1101591999999REMMET062METAR ETGQ 120520Z VRB02KT 9999 SCT037 BKN090 08/05 Q1016 BLU;
0125102340999992008111206204+53133+009350FM-15+0061ETGQ V0201601N002112200019N0112651N1+00801+00501999999ADDGA1041+012001999GF104991999999999999999999MA1101591999999REMMET056METAR ETGQ 120620Z 16004KT 9999 SCT040 08/05 Q1016 BLU/;
0125102340999992008111209204+53133+009350FM-15+0061ETGQ V0202101N001512200019N0112651N1+01001+00501999999ADDGA1041+013501999GF104991999999999999999999MA1101691999999REMMET056METAR ETGQ 120920Z 21003KT 9999 SCT045 10/05 Q1017 BLU/;
0124102340999992008111210204+53133+009350FM-15+0061ETGQ V0202401N002610072019N0112651N1+01001+00501999999ADDGA1071+007201999GF107991999999999999999999MA1101801999999REMMET055METAR ETGQ 121020Z 24005KT 9999 BKN024 10/05 Q1018 WHT;
0148102340999992008111211204+53133+009350FM-15+0061ETGQ V0202101N002612200019N0112651N1+01101+00601999999ADDGA1021+009001999GA2041+027001999GF104991999999999999999999MA1101801999999REMMET063METAR ETGQ 121120Z 21005KT 9999 FEW030 SCT090 11/06 Q1018 BLU/;
0148102340999992008111212204+53133+009350FM-15+0061ETGQ V0202201N002612200019N0112651N1+01101+00601999999ADDGA1041+009001999GA2041+024001999GF104991999999999999999999MA1101801999999REMMET063METAR ETGQ 121220Z 22005KT 9999 SCT030 SCT080 11/06 Q1018 BLU/;
0148102340999992008111213204+53133+009350FM-15+0061ETGQ V0202201N003112200019N0112651N1+01101+00501999999ADDGA1021+009001999GA2041+018001999GF104991999999999999999999MA1101691999999REMMET063METAR ETGQ 121320Z 22006KT 9999 FEW030 SCT060 11/05 Q1017 BLU/;
0148102340999992008111214204+53133+009350FM-15+0061ETGQ V0202201N002112200019N0112651N1+01101+00501999999ADDGA1021+009001999GA2041+015001999GF104991999999999999999999MA1101691999999REMMET063METAR ETGQ 121420Z 22004KT 9999 FEW030 SCT050 11/05 Q1017 BLU/;
0124102340999992008111215204+53133+009350FM-15+0061ETGQ V0202201N003110150019N0112651N1+01101+00501999999ADDGA1071+015001999GF107991999999999999999999MA1101801999999REMMET055METAR ETGQ 121520Z 22006KT 9999 BKN050 11/05 Q1018 BLU;
0124102340999992008111216204+53133+009350FM-15+0061ETGQ V0202201N003110150019N0112651N1+01001+00501999999ADDGA1071+015001999GF107991999999999999999999MA1101801999999REMMET055METAR ETGQ 121620Z 22006KT 9999 BKN050 10/05 Q1018 BLU;
0124102340999992008111217204+53133+009350FM-15+0061ETGQ V0202101N001510150019N0112651N1+00901+00501999999ADDGA1071+015001999GF107991999999999999999999MA1101901999999REMMET055METAR ETGQ 121720Z 21003KT 9999 BKN050 09/05 Q1019 BLU;
0124102340999992008111218204+53133+009350FM-15+0061ETGQ V0201701N001510150019N0112651N1+00901+00501999999ADDGA1071+015001999GF107991999999999999999999MA1102001999999REMMET055METAR ETGQ 121820Z 17003KT 9999 BKN050 09/05 Q1020 BLU;
0124102340999992008111219204+53133+009350FM-15+0061ETGQ V0202101N001510150019N0112651N1+00801+00501999999ADDGA1071+015001999GF107991999999999999999999MA1102001999999REMMET055METAR ETGQ 121920Z 21003KT 9999 BKN050 08/05 Q1020 BLU;
0124102340999992008111305204+53133+009350FM-15+0061ETGQ V0200101N000510021019N0080001N1+00501+00401999999ADDGA1071+002101999GF107991999999999999999999MA1102401999999REMMET055METAR ETGQ 130520Z 01001KT 8000 BKN007 05/04 Q1024 GRN;
0124102340999992008111306204+53133+009350FM-15+0061ETGQ V0200601N001510024019N0080001N1+00501+00401999999ADDGA1071+002401999GF107991999999999999999999MA1102401999999REMMET055METAR ETGQ 130620Z 06003KT 8000 BKN008 05/04 Q1024 GRN;
0124102340999992008111307204+53133+009350FM-15+0061ETGQ V0201501N001010114019N0080001N1+00601+00401999999ADDGA1071+011401999GF107991999999999999999999MA1102401999999REMMET055METAR ETGQ 130720Z 15002KT 8000 BKN038 06/04 Q1024 BLU;
0147102340999992008111308204+53133+009350FM-15+0061ETGQ V0201301N001010150019N0080001N1+00601+00401999999ADDGA1041+002401999GA2071+015001999GF107991999999999999999999MA1102511999999REMMET062METAR ETGQ 130820Z 13002KT 8000 SCT008 BKN050 06/04 Q1025 BLU;
0147102340999992008111309204+53133+009350FM-15+0061ETGQ V0201701N001510180019N0112651N1+00701+00401999999ADDGA1041+009901999GA2071+018001999GF107991999999999999999999MA1102511999999REMMET062METAR ETGQ 130920Z 17003KT 9999 SCT033 BKN060 07/04 Q1025 BLU;
0124102340999992008111310204+53133+009350FM-15+0061ETGQ V0209999V001010180019N0112651N1+00801+00501999999ADDGA1071+018001999GF107991999999999999999999MA1102511999999REMMET055METAR ETGQ 131020Z VRB02KT 9999 BKN060 08/05 Q1025 BLU;
0147102340999992008111311204+53133+009350FM-15+0061ETGQ V0209999V001010180019N0112651N1+00801+00501999999ADDGA1041+009301999GA2071+018001999GF107991999999999999999999MA1102511999999REMMET062METAR ETGQ 131120Z VRB02KT 9999 SCT031 BKN060 08/05 Q1025 BLU;
0147102340999992008111312204+53133+009350FM-15+0061ETGQ V0203601N000510180019N0112651N1+00901+00501999999ADDGA1021+009001999GA2071+018001999GF107991999999999999999999MA1102511999999REMMET062METAR ETGQ 131220Z 36001KT 9999 FEW030 BKN060 09/05 Q1025 BLU;
0147102340999992008111313204+53133+009350FM-15+0061ETGQ V0209999V001010180019N0112651N1+00901+00501999999ADDGA1021+009001999GA2071+018001999GF107991999999999999999999MA1102511999999REMMET062METAR ETGQ 131320Z VRB02KT 9999 FEW030 BKN060 09/05 Q1025 BLU;
0124102340999992008111314204+53133+009350FM-15+0061ETGQ V0203301N001510180019N0112651N1+00901+00501999999ADDGA1071+018001999GF107991999999999999999999MA1102511999999REMMET055METAR ETGQ 131420Z 33003KT 9999 BKN060 09/05 Q1025 BLU;
0124102340999992008111315204+53133+009350FM-15+0061ETGQ V0202601N000510180019N0112651N1+00901+00501999999ADDGA1071+018001999GF107991999999999999999999MA1102611999999REMMET055METAR ETGQ 131520Z 26001KT 9999 BKN060 09/05 Q1026 BLU;
0124102340999992008111316204+53133+009350FM-15+0061ETGQ V0200401N000510180019N0112651N1+00801+00501999999ADDGA1071+018001999GF107991999999999999999999MA1102611999999REMMET055METAR ETGQ 131620Z 04001KT 9999 BKN060 08/05 Q1026 BLU;
0124102340999992008111317204+53133+009350FM-15+0061ETGQ V0201101N001010180019N0112651N1+00801+00501999999ADDGA1071+018001999GF107991999999999999999999MA1102611999999REMMET055METAR ETGQ 131720Z 11002KT 9999 BKN060 08/05 Q1026 BLU;
0124102340999992008111318204+53133+009350FM-15+0061ETGQ V0201801N000510180019N0112651N1+00801+00501999999ADDGA1071+018001999GF107991999999999999999999MA1102711999999REMMET055METAR ETGQ 131820Z 18001KT 9999 BKN060 08/05 Q1027 BLU;
0124102340999992008111319204+53133+009350FM-15+0061ETGQ V0202601N001010180019N0112651N1+00701+00501999999ADDGA1071+018001999GF107991999999999999999999MA1102711999999REMMET055METAR ETGQ 131920Z 26002KT 9999 BKN060 07/05 Q1027 BLU;
0133102340999992008111405204+53133+009350FM-15+0061ETGQ V0201401N001510012019N0030001N1+00201+00201999999ADDGA1081+001201999GF108991999999999999999999MA1102811999999MW1101REMMET058METAR ETGQ 140520Z 14003KT 3000 BR OVC004 02/02 Q1028 YLO;
0133102340999992008111406204+53133+009350FM-15+0061ETGQ V0201601N001510012019N0030001N1+00201+00201999999ADDGA1081+001201999GF108991999999999999999999MA1102811999999MW1101REMMET058METAR ETGQ 140620Z 16003KT 3000 BR OVC004 02/02 Q1028 YLO;
0133102340999992008111407204+53133+009350FM-15+0061ETGQ V0201601N001010015019N0030001N1+00201+00201999999ADDGA1081+001501999GF108991999999999999999999MA1102811999999MW1101REMMET058METAR ETGQ 140720Z 16002KT 3000 BR OVC005 02/02 Q1028 YLO;
0147102340999992008111408204+53133+009350FM-15+0061ETGQ V0201501N002110300019N0070001N1+00301+00201999999ADDGA1041+001501999GA2071+030001999GF107991999999999999999999MA1102811999999REMMET062METAR ETGQ 140820Z 15004KT 7000 SCT005 BKN100 03/02 Q1028 WHT;
0124102340999992008111409204+53133+009350FM-15+0061ETGQ V0201501N002110123019N0080001N1+00401+00201999999ADDGA1071+012301999GF107991999999999999999999MA1102811999999REMMET055METAR ETGQ 140920Z 15004KT 8000 BKN041 04/02 Q1028 BLU;
0124102340999992008111410204+53133+009350FM-15+0061ETGQ V0201601N001510270019N0080001N1+00601+00201999999ADDGA1071+027001999GF107991999999999999999999MA1102811999999REMMET055METAR ETGQ 141020Z 16003KT 8000 BKN090 06/02 Q1028 BLU;
0124102340999992008111411204+53133+009350FM-15+0061ETGQ V0202301N003110111019N0112651N1+00901+00101999999ADDGA1071+011101999GF107991999999999999999999MA1102711999999REMMET055METAR ETGQ 141120Z 23006KT 9999 BKN037 09/01 Q1027 BLU;
0124102340999992008111412204+53133+009350FM-15+0061ETGQ V0202201N003110075019N0112651N1+00901+00201999999ADDGA1071+007501999GF107991999999999999999999MA1102711999999REMMET055METAR ETGQ 141220Z 22006KT 9999 BKN025 09/02 Q1027 BLU;
0124102340999992008111413204+53133+009350FM-15+0061ETGQ V0202301N003610075019N0112651N1+00901+00201999999ADDGA1071+007501999GF107991999999999999999999MA1102711999999REMMET055METAR ETGQ 141320Z 23007KT 9999 BKN025 09/02 Q1027 BLU;
0124102340999992008111414204+53133+009350FM-15+0061ETGQ V0202101N003110078019N0112651N1+00801+00301999999ADDGA1081+007801999GF108991999999999999999999MA1102711999999REMMET055METAR ETGQ 141420Z 21006KT 9999 OVC026 08/03 Q1027 BLU;
0124102340999992008111415204+53133+009350FM-15+0061ETGQ V0201501N001510066019N0112651N1+00801+00401999999ADDGA1081+006601999GF108991999999999999999999MA1102711999999REMMET055METAR ETGQ 141520Z 15003KT 9999 OVC022 08/04 Q1027 WHT;
0124102340999992008111416204+53133+009350FM-15+0061ETGQ V0201601N001510066019N0112651N1+00801+00401999999ADDGA1081+006601999GF108991999999999999999999MA1102711999999REMMET055METAR ETGQ 141620Z 16003KT 9999 OVC022 08/04 Q1027 WHT;
0124102340999992008111417204+53133+009350FM-15+0061ETGQ V0202301N001510069019N0112651N1+00801+00401999999ADDGA1081+006901999GF108991999999999999999999MA1102711999999REMMET055METAR ETGQ 141720Z 23003KT 9999 OVC023 08/04 Q1027 WHT;
0124102340999992008111418204+53133+009350FM-15+0061ETGQ V0202101N002110060019N0112651N1+00801+00401999999ADDGA1081+006001999GF108991999999999999999999MA1102811999999REMMET055METAR ETGQ 141820Z 21004KT 9999 OVC020 08/04 Q1028 WHT;
0124102340999992008111419204+53133+009350FM-15+0061ETGQ V0202201N002110060019N0112651N1+00801+00401999999ADDGA1081+006001999GF108991999999999999999999MA1102811999999REMMET055METAR ETGQ 141920Z 22004KT 9999 OVC020 08/04 Q1028 WHT;
0124102340999992008111705204+53133+009350FM-15+0061ETGQ V0201901N001012200019N0060001N1+00201+00201999999ADDGA1021+012001999GF102991999999999999999999MA1103291999999REMMET055METAR ETGQ 170520Z 19002KT 6000 FEW040 02/02 Q1033 WHT;
0147102340999992008111706204+53133+009350FM-15+0061ETGQ V0209999V000512200019N0060001N1+00201+00201999999ADDGA1021+000301999GA2041+015001999GF104991999999999999999999MA1103291999999REMMET062METAR ETGQ 170620Z VRB01KT 6000 FEW001 SCT050 02/02 Q1033 WHT;
0147102340999992008111707204+53133+009350FM-15+0061ETGQ V0209999V001010144019N0060001N1+00201+00201999999ADDGA1021+000901999GA2071+014401999GF107991999999999999999999MA1103391999999REMMET062METAR ETGQ 170720Z VRB02KT 6000 FEW003 BKN048 02/02 Q1034 WHT;
0147102340999992008111708204+53133+009350FM-15+0061ETGQ V0202101N001010138019N0060001N1+00201+00201999999ADDGA1021+000901999GA2071+013801999GF107991999999999999999999MA1103391999999REMMET062METAR ETGQ 170820Z 21002KT 6000 FEW003 BKN046 02/02 Q1034 WHT;
0147102340999992008111709204+53133+009350FM-15+0061ETGQ V0209999V001012200019N0070001N1+00401+00201999999ADDGA1021+001201999GA2041+013801999GF104991999999999999999999MA1103391999999REMMET062METAR ETGQ 170920Z VRB02KT 7000 FEW004 SCT046 04/02 Q1034 WHT;
0124102340999992008111710204+53133+009350FM-15+0061ETGQ V0200101N001012200019N0070001N1+00501+00201999999ADDGA1021+001501999GF102991999999999999999999MA1103291999999REMMET055METAR ETGQ 171020Z 01002KT 7000 FEW005 05/02 Q1033 WHT;
0124102340999992008111711204+53133+009350FM-15+0061ETGQ V0200201N001010180019N0080001N1+00601+00301999999ADDGA1071+018001999GF107991999999999999999999MA1103181999999REMMET055METAR ETGQ 171120Z 02002KT 8000 BKN060 06/03 Q1032 BLU;
0124102340999992008111712204+53133+009350FM-15+0061ETGQ V0200101N001510180019N0112651N1+00701+00301999999ADDGA1071+018001999GF107991999999999999999999MA1103181999999REMMET055METAR ETGQ 171220Z 01003KT 9999 BKN060 07/03 Q1032 BLU;
0124102340999992008111713204+53133+009350FM-15+0061ETGQ V0209999V001010150019N0112651N1+00701+00301999999ADDGA1071+015001999GF107991999999999999999999MA1103121999999REMMET055METAR ETGQ 171320Z VRB02KT 9999 BKN050 07/03 Q1031 BLU;
0124102340999992008111714204+53133+009350FM-15+0061ETGQ V0202801N001010150019N0112651N1+00701+00301999999ADDGA1071+015001999GF107991999999999999999999MA1103011999999REMMET055METAR ETGQ 171420Z 28002KT 9999 BKN050 07/03 Q1030 BLU;
0124102340999992008111715204+53133+009350FM-15+0061ETGQ V0200701N001010150019N0112651N1+00701+00301999999ADDGA1071+015001999GF107991999999999999999999MA1102911999999REMMET055METAR ETGQ 171520Z 07002KT 9999 BKN050 07/03 Q1029 BLU;
0124102340999992008111716204+53133+009350FM-15+0061ETGQ V0203601N001010141019N0112651N1+00601+00401999999ADDGA1071+014101999GF107991999999999999999999MA1102911999999REMMET055METAR ETGQ 171620Z 36002KT 9999 BKN047 06/04 Q1029 BLU;
0124102340999992008111717204+53133+009350FM-15+0061ETGQ V0200401N001010141019N0112651N1+00601+00401999999ADDGA1071+014101999GF107991999999999999999999MA1102811999999REMMET055METAR ETGQ 171720Z 04002KT 9999 BKN047 06/04 Q1028 BLU;
0148102340999992008111719204+53133+009350FM-15+0061ETGQ V0201601N001510660019N0112651N1+00501+00301999999ADDGA1041+013501999GA2071+066001999GF107991999999999999999999MA1102611999999REMMET063METAR ETGQ 171920Z 16003KT 9999 SCT045 BKN220 05/03 Q1026 BLU/;
0124102340999992008111805204+53133+009350FM-15+0061ETGQ V0201601N001510270019N0080001N1+00301+00101999999ADDGA1071+027001999GF107991999999999999999999MA1101591999999REMMET055METAR ETGQ 180520Z 16003KT 8000 BKN090 03/01 Q1016 BLU;
0124102340999992008111806204+53133+009350FM-15+0061ETGQ V0209999V001010240019N0080001N1+00301+00101999999ADDGA1071+024001999GF107991999999999999999999MA1101591999999REMMET055METAR ETGQ 180620Z VRB02KT 8000 BKN080 03/01 Q1016 BLU;
0147102340999992008111807204+53133+009350FM-15+0061ETGQ V0201501N001510270019N0112651N1+00301+00101999999ADDGA1021+015001999GA2071+027001999GF107991999999999999999999MA1101591999999REMMET062METAR ETGQ 180720Z 15003KT 9999 FEW050 BKN090 03/01 Q1016 BLU;
0147102340999992008111808204+53133+009350FM-15+0061ETGQ V0201601N001510270019N0112651N1+00401+00101999999ADDGA1021+015001999GA2071+027001999GF107991999999999999999999MA1101491999999REMMET062METAR ETGQ 180820Z 16003KT 9999 FEW050 BKN090 04/01 Q1015 BLU;
0124102340999992008111809204+53133+009350FM-15+0061ETGQ V0202001N001510090019N0112651N1+00501+00101999999ADDGA1071+009001999GF107991999999999999999999MA1101491999999REMMET055METAR ETGQ 180920Z 20003KT 9999 BKN030 05/01 Q1015 BLU;
0134102340999992008111810204+53133+009350FM-15+0061ETGQ V0202301N002110069019N0112651N1+00501+00201999999ADDGA1071+006901999GF107991999999999999999999MA1101491999999MW1611REMMET059METAR ETGQ 181020Z 23004KT 9999 -RA BKN023 05/02 Q1015 WHT;
0157102340999992008111811204+53133+009350FM-15+0061ETGQ V0202001N002110120019N0112651N1+00501+00201999999ADDGA1021+006001999GA2071+012001999GF107991999999999999999999MA1101391999999MW1611REMMET066METAR ETGQ 181120Z 20004KT 9999 -RA FEW020 BKN040 05/02 Q1014 BLU;
0147102340999992008111812204+53133+009350FM-15+0061ETGQ V0202101N003110150019N0112651N1+00601+00301999999ADDGA1021+007501999GA2071+015001999GF107991999999999999999999MA1101391999999REMMET062METAR ETGQ 181220Z 21006KT 9999 FEW025 BKN050 06/03 Q1014 BLU;
0147102340999992008111813204+53133+009350FM-15+0061ETGQ V0202201N002610240019N0112651N1+00701+00301999999ADDGA1021+006001999GA2071+024001999GF107991999999999999999999MA1101291999999REMMET062METAR ETGQ 181320Z 22005KT 9999 FEW020 BKN080 07/03 Q1013 BLU;
0147102340999992008111814204+53133+009350FM-15+0061ETGQ V0202201N002110150019N0112651N1+00701+00401999999ADDGA1041+007501999GA2071+015001999GF107991999999999999999999MA1101291999999REMMET062METAR ETGQ 181420Z 22004KT 9999 SCT025 BKN050 07/04 Q1013 BLU;
0124102340999992008111815204+53133+009350FM-15+0061ETGQ V0202201N003110129019N0112651N1+00701+00401999999ADDGA1071+012901999GF107991999999999999999999MA1101391999999REMMET055METAR ETGQ 181520Z 22006KT 9999 BKN043 07/04 Q1014 BLU;
0124102340999992008111816204+53133+009350FM-15+0061ETGQ V0202201N003110081019N0112651N1+00701+00401999999ADDGA1071+008101999GF107991999999999999999999MA1101391999999REMMET055METAR ETGQ 181620Z 22006KT 9999 BKN027 07/04 Q1014 BLU;
0124102340999992008111817204+53133+009350FM-15+0061ETGQ V0202201N003110069019N0112651N1+00701+00401999999ADDGA1071+006901999GF107991999999999999999999MA1101391999999REMMET055METAR ETGQ 181720Z 22006KT 9999 BKN023 07/04 Q1014 WHT;
0124102340999992008111818204+53133+009350FM-15+0061ETGQ V0202201N003110057019N0112651N1+00701+00501999999ADDGA1071+005701999GF107991999999999999999999MA1101391999999REMMET055METAR ETGQ 181820Z 22006KT 9999 BKN019 07/05 Q1014 WHT;
0134102340999992008111819204+53133+009350FM-15+0061ETGQ V0202401N002110051019N0080001N1+00701+00501999999ADDGA1081+005101999GF108991999999999999999999MA1101491999999MW1611REMMET059METAR ETGQ 181920Z 24004KT 8000 -RA OVC017 07/05 Q1015 WHT;
0124102340999992008111905204+53133+009350FM-15+0061ETGQ V0202301N001510300019N0080001N1+00501+00401999999ADDGA1071+030001999GF107991999999999999999999MA1101901999999REMMET055METAR ETGQ 190520Z 23003KT 8000 BKN100 05/04 Q1019 BLU;
0147102340999992008111906204+53133+009350FM-15+0061ETGQ V0202201N001510300019N0080001N1+00501+00401999999ADDGA1041+012001999GA2071+030001999GF107991999999999999999999MA1101901999999REMMET062METAR ETGQ 190620Z 22003KT 8000 SCT040 BKN100 05/04 Q1019 BLU;
0124102340999992008111907204+53133+009350FM-15+0061ETGQ V0202201N001510105019N0112651N1+00601+00301999999ADDGA1071+010501999GF107991999999999999999999MA1101901999999REMMET055METAR ETGQ 190720Z 22003KT 9999 BKN035 06/03 Q1019 BLU;
0147102340999992008111908204+53133+009350FM-15+0061ETGQ V0209999V001010120019N0112651N1+00701+00401999999ADDGA1041+009001999GA2071+012001999GF107991999999999999999999MA1102001999999REMMET062METAR ETGQ 190820Z VRB02KT 9999 SCT030 BKN040 07/04 Q1020 BLU;
0124102340999992008111909204+53133+009350FM-15+0061ETGQ V0202301N002110072019N0112651N1+00701+00401999999ADDGA1071+007201999GF107991999999999999999999MA1102001999999REMMET055METAR ETGQ 190920Z 23004KT 9999 BKN024 07/04 Q1020 WHT;
0147102340999992008111910204+53133+009350FM-15+0061ETGQ V0209999V001010075019N0112651N1+00801+00401999999ADDGA1071+007501999GA2071+009601999GF107991999999999999999999MA1102001999999REMMET062METAR ETGQ 191020Z VRB02KT 9999 BKN025 BKN032 08/04 Q1020 BLU;
0147102340999992008111911204+53133+009350FM-15+0061ETGQ V0202401N002110138019N0112651N1+00901+00501999999ADDGA1021+006001999GA2071+013801999GF107991999999999999999999MA1101901999999REMMET062METAR ETGQ 191120Z 24004KT 9999 FEW020 BKN046 09/05 Q1019 BLU;
0147102340999992008111912204+53133+009350FM-15+0061ETGQ V0202501N002610120019N0112651N1+01001+00501999999ADDGA1041+009001999GA2071+012001999GF107991999999999999999999MA1101901999999REMMET062METAR ETGQ 191220Z 25005KT 9999 SCT030 BKN040 10/05 Q1019 BLU;
0147102340999992008111913204+53133+009350FM-15+0061ETGQ V0202301N002610129019N0112651N1+01001+00501999999ADDGA1021+009001999GA2071+012901999GF107991999999999999999999MA1101801999999REMMET062METAR ETGQ 191320Z 23005KT 9999 FEW030 BKN043 10/05 Q1018 BLU;
0147102340999992008111914204+53133+009350FM-15+0061ETGQ V0202501N002110180019N0112651N1+01001+00401999999ADDGA1041+010501999GA2071+018001999GF107991999999999999999999MA1101801999999REMMET062METAR ETGQ 191420Z 25004KT 9999 SCT035 BKN060 10/04 Q1018 BLU;
0124102340999992008111915204+53133+009350FM-15+0061ETGQ V0202601N002110141019N0112651N1+01001+00401999999ADDGA1071+014101999GF107991999999999999999999MA1101801999999REMMET055METAR ETGQ 191520Z 26004KT 9999 BKN047 10/04 Q1018 BLU;
0124102340999992008111916204+53133+009350FM-15+0061ETGQ V0202501N002110105019N0112651N1+01001+00401999999ADDGA1071+010501999GF107991999999999999999999MA1101801999999REMMET055METAR ETGQ 191620Z 25004KT 9999 BKN035 10/04 Q1018 BLU;
0124102340999992008111917204+53133+009350FM-15+0061ETGQ V0202401N002610096019N0112651N1+00901+00401999999ADDGA1071+009601999GF107991999999999999999999MA1101801999999REMMET055METAR ETGQ 191720Z 24005KT 9999 BKN032 09/04 Q1018 BLU;
0124102340999992008111918204+53133+009350FM-15+0061ETGQ V0202601N002610102019N0112651N1+00901+00501999999ADDGA1071+010201999GF107991999999999999999999MA1101801999999REMMET055METAR ETGQ 191820Z 26005KT 9999 BKN034 09/05 Q1018 BLU;
0124102340999992008111919204+53133+009350FM-15+0061ETGQ V0202601N004110099019N0112651N1+00901+00501999999ADDGA1071+009901999GF107991999999999999999999MA1101801999999REMMET055METAR ETGQ 191920Z 26008KT 9999 BKN033 09/05 Q1018 BLU;
0147102340999992008112005204+53133+009350FM-15+0061ETGQ V0202501N003110510019N0080001N1+01001+00601999999ADDGA1041+009001999GA2071+051001999GF107991999999999999999999MA1101291999999REMMET062METAR ETGQ 200520Z 25006KT 8000 SCT030 BKN170 10/06 Q1013 BLU;
0124102340999992008112006204+53133+009350FM-15+0061ETGQ V0202501N002610090019N0080001N1+01001+00601999999ADDGA1071+009001999GF107991999999999999999999MA1101291999999REMMET055METAR ETGQ 200620Z 25005KT 8000 BKN030 10/06 Q1013 BLU;
0157102340999992008112007204+53133+009350FM-15+0061ETGQ V0202701N003110105019N0080001N1+01001+00601999999ADDGA1071+010501999GA2081+012001999GF108991999999999999999999MA1101291999999MW1511REMMET066METAR ETGQ 200720Z 27006KT 8000 -DZ BKN035 OVC040 10/06 Q1013 BLU;
0129102340999992008112008204+53133+009350FM-15+0061ETGQ V0202601N003610090019N0080001N1+01001+00601999999ADDGA1081+009001999GF108991999999999999999999MA1101291999999REMMET060METAR ETGQ 200820Z 26007KT 8000 OVC030 10/06 Q1013 REDS BLU;
0124102340999992008112009204+53133+009350FM-15+0061ETGQ V0202501N004610090019N0112651N1+01001+00701999999ADDGA1071+009001999GF107991999999999999999999MA1101191999999REMMET055METAR ETGQ 200920Z 25009KT 9999 BKN030 10/07 Q1012 BLU;
0135102340999992008112010204+53133+009350FM-15+0061ETGQ V0202501N004110084019N0112651N1+01001+00701999999ADDGA1081+008401999GF108991999999999999999999MA1101291999999OC100931REMMET058METAR ETGQ 201020Z 25008G18KT 9999 OVC028 10/07 Q1013 BLU;
0124102340999992008112011204+53133+009350FM-15+0061ETGQ V0202601N003110072019N0112651N1+01001+00701999999ADDGA1081+007201999GF108991999999999999999999MA1101291999999REMMET055METAR ETGQ 201120Z 26006KT 9999 OVC024 10/07 Q1013 WHT;
0124102340999992008112012204+53133+009350FM-15+0061ETGQ V0202501N002110057019N0112651N1+00901+00801999999ADDGA1081+005701999GF108991999999999999999999MA1101191999999REMMET055METAR ETGQ 201220Z 25004KT 9999 OVC019 09/08 Q1012 WHT;
0124102340999992008112013204+53133+009350FM-15+0061ETGQ V0202301N001510087019N0112651N1+01001+00801999999ADDGA1071+008701999GF107991999999999999999999MA1101191999999REMMET055METAR ETGQ 201320Z 23003KT 9999 BKN029 10/08 Q1012 BLU;
0147102340999992008112014204+53133+009350FM-15+0061ETGQ V0202701N002610132019N0112651N1+01101+00601999999ADDGA1021+007501999GA2071+013201999GF107991999999999999999999MA1101081999999REMMET062METAR ETGQ 201420Z 27005KT 9999 FEW025 BKN044 11/06 Q1011 BLU;
0124102340999992008112016204+53133+009350FM-15+0061ETGQ V0202501N003110096019N0112651N1+01101+00601999999ADDGA1071+009601999GF107991999999999999999999MA1101021999999REMMET055METAR ETGQ 201620Z 25006KT 9999 BKN032 11/06 Q1010 BLU;
0124102340999992008112017204+53133+009350FM-15+0061ETGQ V0202901N004110087019N0112651N1+01001+00701999999ADDGA1071+008701999GF107991999999999999999999MA1101081999999REMMET055METAR ETGQ 201720Z 29008KT 9999 BKN029 10/07 Q1011 BLU;
0147102340999992008112018204+53133+009350FM-15+0061ETGQ V0203001N003110180019N0112651N1+01001+00601999999ADDGA1041+009001999GA2071+018001999GF107991999999999999999999MA1101081999999REMMET062METAR ETGQ 201820Z 30006KT 9999 SCT030 BKN060 10/06 Q1011 BLU;
0147102340999992008112019204+53133+009350FM-15+0061ETGQ V0203001N002610180019N0112651N1+00901+00501999999ADDGA1041+011401999GA2071+018001999GF107991999999999999999999MA1101021999999REMMET062METAR ETGQ 201920Z 30005KT 9999 SCT038 BKN060 09/05 Q1010 BLU;
0124102340999992008112105204+53133+009350FM-15+0061ETGQ V0202501N003110105019N0080001N1+00801+00501999999ADDGA1081+010501999GF108991999999999999999999MA1100311999999REMMET055METAR ETGQ 210520Z 25006KT 8000 OVC035 08/05 Q1003 BLU;
0147102340999992008112106204+53133+009350FM-15+0061ETGQ V0202501N003110105019N0080001N1+00801+00501999999ADDGA1071+010501999GA2081+013501999GF108991999999999999999999MA1100101999999REMMET062METAR ETGQ 210620Z 25006KT 8000 BKN035 OVC045 08/05 Q1001 BLU;
0159102340999992008112107204+53133+009350FM-15+0061ETGQ V0202701N003610105019N0112651N1+00901+00401999999ADDGA1041+007501999GA2081+010501999GF108991999999999999999999MA1100001999999MW1801REMMET068METAR ETGQ 210720Z 27007KT 9999 -SHRA SCT025 OVC035 09/04 Q1000 BLU;
0147102340999992008112108204+53133+009350FM-15+0061ETGQ V0203001N004110090019N0080001N1+00701+00401999999ADDGA1041+006001999GA2071+009001999GF107991999999999999999999MA1100101999999REMMET062METAR ETGQ 210820Z 30008KT 8000 SCT020 BKN030 07/04 Q1001 BLU;
0172102340999992008112109204+53133+009350FM-15+0061ETGQ V0203301N006710075019N0060001N1+00501+00301999999ADDGA1041+005401021GA2071+007501999GF107991999999999999999999MA1100101999999MW1811OC101231REMMET073METAR ETGQ 210920Z 33013G24KT 6000 SHRA SCT018TCU BKN025 05/03 Q1001 WHT;
0135102340999992008112110204+53133+009350FM-15+0061ETGQ V0203001N005710060019N0112651N1+00601+00301999999ADDGA1071+006001999GF107991999999999999999999MA1100101999999OC101181REMMET058METAR ETGQ 211020Z 30011G23KT 9999 BKN020 06/03 Q1001 WHT;
0158102340999992008112111204+53133+009350FM-15+0061ETGQ V0203001N005710090019N0112651N1+00701+00201999999ADDGA1041+006601999GA2071+009001999GF107991999999999999999999MA1100001999999OC101341REMMET065METAR ETGQ 211120Z 30011G26KT 9999 SCT022 BKN030 07/02 Q1000 BLU;
0158102340999992008112112204+53133+009350FM-15+0061ETGQ V0203201N011310081019N0112651N1+00601+00101999999ADDGA1021+006001999GA2071+008101999GF107991999999999999999999MA1100001999999OC102111REMMET065METAR ETGQ 211220Z 32022G41KT 9999 FEW020 BKN027 06/01 Q1000 BLU;
0160102340999992008112113204+53133+009350FM-15+0061ETGQ V0203201N008212200019N0112651N1+00501+00001999999ADDGA1041+006001999GA2041+012601999GF104991999999999999999999MA1100201999999OC101591REMMET067METAR ETGQ 211320Z 32016G31KT 9999 SCT020 SCT042 05/M00 Q1002 BLU/;
0149102340999992008112114204+53133+009350FM-15+0061ETGQ V0203201N006710045019N0080001N1+00401-00101999999ADDGA1071+004501091GF107991999999999999999999MA1100411999999MW1811OC101291REMMET066METAR ETGQ 211420Z 32013G25KT 8000 SHRA BKN015CB 04/M01 Q1004 WHT;
0147102340999992008112115204+53133+009350FM-15+0061ETGQ V0202901N002610033019N0050001N1+00301+00101999999ADDGA1071+003301091GF107991999999999999999999MA1100511999999MW1101MW2801REMMET066METAR ETGQ 211520Z 29005KT 5000 -SHRA BR BKN011CB 03/01 Q1005 GRN;
0148102340999992008112116204+53133+009350FM-15+0061ETGQ V0203301N004610144019N0112651N1+00301-00101999999ADDGA1021+007501999GA2071+014401999GF107991999999999999999999MA1100611999999REMMET063METAR ETGQ 211620Z 33009KT 9999 FEW025 BKN048 03/M01 Q1006 BLU;
0148102340999992008112117204+53133+009350FM-15+0061ETGQ V0203101N004110180019N0112651N1+00301-00201999999ADDGA1041+009001999GA2071+018001999GF107991999999999999999999MA1100611999999REMMET063METAR ETGQ 211720Z 31008KT 9999 SCT030 BKN060 03/M02 Q1006 BLU;
0133102340999992008112118204+53133+009350FM-15+0061ETGQ V0203501N002610090019N0090001N1+00101+00001999999ADDGA1071+009001021GF107991999999999999999999MA1100711999999REMMET064METAR ETGQ 211820Z 35005KT 9000 BKN030TCU 01/M00 Q1007 RESN BLU;
0125102340999992008112119204+53133+009350FM-15+0061ETGQ V0209999V000510099019N0112651N1+00201-00101999999ADDGA1071+009901999GF107991999999999999999999MA1100711999999REMMET056METAR ETGQ 211920Z VRB01KT 9999 BKN033 02/M01 Q1007 BLU;
0124102340999992008112405204+53133+009350FM-15+0061ETGQ V0202401N002610084019N0112651N1+00301+00101999999ADDGA1071+008401999GF107991999999999999999999MA1098821999999REMMET055METAR ETGQ 240520Z 24005KT 9999 BKN028 03/01 Q0988 BLU;
0124102340999992008112406204+53133+009350FM-15+0061ETGQ V0202201N001510084019N0112651N1+00301+00101999999ADDGA1071+008401999GF107991999999999999999999MA1098821999999REMMET055METAR ETGQ 240620Z 22003KT 9999 BKN028 03/01 Q0988 BLU;
0147102340999992008112407204+53133+009350FM-15+0061ETGQ V0202201N002610150019N0112651N1+00301+00101999999ADDGA1041+007501999GA2071+015001999GF107991999999999999999999MA1098921999999REMMET062METAR ETGQ 240720Z 22005KT 9999 SCT025 BKN050 03/01 Q0989 BLU;
0124102340999992008112408204+53133+009350FM-15+0061ETGQ V0202201N003110093019N0112651N1+00401+00101999999ADDGA1071+009301999GF107991999999999999999999MA1098921999999REMMET055METAR ETGQ 240820Z 22006KT 9999 BKN031 04/01 Q0989 BLU;
0124102340999992008112409204+53133+009350FM-15+0061ETGQ V0202401N002610090019N0112651N1+00401+00101999999ADDGA1071+009001999GF107991999999999999999999MA1098981999999REMMET055METAR ETGQ 240920Z 24005KT 9999 BKN030 04/01 Q0990 BLU;
0124102340999992008112410204+53133+009350FM-15+0061ETGQ V0202401N002610099019N0112651N1+00501+00101999999ADDGA1071+009901999GF107991999999999999999999MA1099091999999REMMET055METAR ETGQ 241020Z 24005KT 9999 BKN033 05/01 Q0991 BLU;
0124102340999992008112411204+53133+009350FM-15+0061ETGQ V0202401N003110102019N0112651N1+00501+00101999999ADDGA1071+010201999GF107991999999999999999999MA1099191999999REMMET055METAR ETGQ 241120Z 24006KT 9999 BKN034 05/01 Q0992 BLU;
0134102340999992008112412204+53133+009350FM-15+0061ETGQ V0202201N002610081019N0112651N1+00501+00101999999ADDGA1071+008101999GF107991999999999999999999MA1099191999999MW1611REMMET059METAR ETGQ 241220Z 22005KT 9999 -RA BKN027 05/01 Q0992 BLU;
0124102340999992008112413204+53133+009350FM-15+0061ETGQ V0202301N001510075019N0112651N1+00401+00201999999ADDGA1071+007501999GF107991999999999999999999MA1099291999999REMMET055METAR ETGQ 241320Z 23003KT 9999 BKN025 04/02 Q0993 BLU;
0157102340999992008112414204+53133+009350FM-15+0061ETGQ V0203201N002110060019N0080001N1+00301+00201999999ADDGA1041+003901999GA2081+006001999GF108991999999999999999999MA1099391999999MW1611REMMET066METAR ETGQ 241420Z 32004KT 8000 -RA SCT013 OVC020 03/02 Q0994 WHT;
0157102340999992008112415204+53133+009350FM-15+0061ETGQ V0203301N003610024019N0080001N1+00201+00101999999ADDGA1071+002401999GA2081+003301999GF108991999999999999999999MA1099491999999MW1611REMMET066METAR ETGQ 241520Z 33007KT 8000 -RA BKN008 OVC011 02/01 Q0995 GRN;
0157102340999992008112416204+53133+009350FM-15+0061ETGQ V0203501N003610036019N0080001N1+00201+00001999999ADDGA1071+003601999GA2081+005101999GF108991999999999999999999MA1099701999999MW1611REMMET066METAR ETGQ 241620Z 35007KT 8000 -RA BKN012 OVC017 02/00 Q0997 GRN;
0135102340999992008112417204+53133+009350FM-15+0061ETGQ V0203601N003610060019N0080001N1+00201-00101999999ADDGA1081+006001999GF108991999999999999999999MA1099901999999MW1611REMMET060METAR ETGQ 241720Z 36007KT 8000 -RA OVC020 02/M01 Q0999 WHT;
0148102340999992008112418204+53133+009350FM-15+0061ETGQ V0200101N003610360019N0112651N1+00101-00201999999ADDGA1041+009001999GA2071+036001999GF107991999999999999999999MA1100001999999REMMET063METAR ETGQ 241820Z 01007KT 9999 SCT030 BKN120 01/M02 Q1000 BLU;
0126102340999992008112419204+53133+009350FM-15+0061ETGQ V0203301N002612200019N0112651N1+00001-00201999999ADDGA1041+006001999GF104991999999999999999999MA1100101999999REMMET057METAR ETGQ 241920Z 33005KT 9999 SCT020 00/M02 Q1001 BLU/;
0144102340999992008112505204+53133+009350FM-15+0061ETGQ V0202401N002110048019N0112651N1-00101-00201999999ADDGA1081+004801999GF108991999999999999999999MA1100711999999MW1611MW2711REMMET063METAR ETGQ 250520Z 24004KT 9999 -RASN OVC016 M01/M02 Q1007 WHT;
0145102340999992008112506204+53133+009350FM-15+0061ETGQ V0209999C000010024019N0050001N1+00001-00201999999ADDGA1081+002401999GF108991999999999999999999MA1100811999999MW1101MW2711REMMET064METAR ETGQ 250620Z 00000KT 5000 -SN BR OVC008 M00/M02 Q1008 GRN;
0135102340999992008112507204+53133+009350FM-15+0061ETGQ V0202201N000510036019N0050001N1+00001-00101999999ADDGA1071+003601999GF107991999999999999999999MA1100911999999MW1101REMMET060METAR ETGQ 250720Z 22001KT 5000 BR BKN012 M00/M01 Q1009 GRN;
0145102340999992008112508204+53133+009350FM-15+0061ETGQ V0209999C000010033019N0035001N1+00001-00101999999ADDGA1081+003301999GF108991999999999999999999MA1101021999999MW1101MW2711REMMET064METAR ETGQ 250820Z 00000KT 3500 -SN BR OVC011 M00/M01 Q1010 YLO;
0134102340999992008112509204+53133+009350FM-15+0061ETGQ V0202201N000510030019N0050001N1+00001-00101999999ADDGA1081+003001999GF108991999999999999999999MA1101081999999MW1101REMMET059METAR ETGQ 250920Z 22001KT 5000 BR OVC010 00/M01 Q1011 GRN;
0125102340999992008112510204+53133+009350FM-15+0061ETGQ V0209999C000010036019N0070001N1+00101+00001999999ADDGA1081+003601999GF108991999999999999999999MA1101081999999REMMET056METAR ETGQ 251020Z 00000KT 7000 OVC012 01/M00 Q1011 GRN;
0124102340999992008112511204+53133+009350FM-15+0061ETGQ V0209999C000010033019N0070001N1+00201+00001999999ADDGA1081+003301999GF108991999999999999999999MA1101191999999REMMET055METAR ETGQ 251120Z 00000KT 7000 OVC011 02/00 Q1012 GRN;
0124102340999992008112512204+53133+009350FM-15+0061ETGQ V0209999C000010036019N0070001N1+00201+00001999999ADDGA1081+003601999GF108991999999999999999999MA1101191999999REMMET055METAR ETGQ 251220Z 00000KT 7000 OVC012 02/00 Q1012 GRN;
0124102340999992008112513204+53133+009350FM-15+0061ETGQ V0209999C000010033019N0080001N1+00301+00001999999ADDGA1081+003301999GF108991999999999999999999MA1101291999999REMMET055METAR ETGQ 251320Z 00000KT 8000 OVC011 03/00 Q1013 GRN;
0147102340999992008112514204+53133+009350FM-15+0061ETGQ V0202201N000510033019N0080001N1+00301+00101999999ADDGA1071+003301999GA2081+005401999GF108991999999999999999999MA1101391999999REMMET062METAR ETGQ 251420Z 22001KT 8000 BKN011 OVC018 03/01 Q1014 GRN;
0124102340999992008112515204+53133+009350FM-15+0061ETGQ V0209999C000010039019N0060001N1+00301+00101999999ADDGA1081+003901999GF108991999999999999999999MA1101491999999REMMET055METAR ETGQ 251520Z 00000KT 6000 OVC013 03/01 Q1015 GRN;
0124102340999992008112516204+53133+009350FM-15+0061ETGQ V0209999C000010036019N0060001N1+00301+00101999999ADDGA1081+003601999GF108991999999999999999999MA1101591999999REMMET055METAR ETGQ 251620Z 00000KT 6000 OVC012 03/01 Q1016 GRN;
0124102340999992008112517204+53133+009350FM-15+0061ETGQ V0209999C000010036019N0060001N1+00301+00101999999ADDGA1081+003601999GF108991999999999999999999MA1101691999999REMMET055METAR ETGQ 251720Z 00000KT 6000 OVC012 03/01 Q1017 GRN;
0124102340999992008112518204+53133+009350FM-15+0061ETGQ V0209999C000010036019N0060001N1+00301+00101999999ADDGA1081+003601999GF108991999999999999999999MA1101801999999REMMET055METAR ETGQ 251820Z 00000KT 6000 OVC012 03/01 Q1018 GRN;
0124102340999992008112519204+53133+009350FM-15+0061ETGQ V0209999C000010042019N0060001N1+00301+00101999999ADDGA1081+004201999GF108991999999999999999999MA1101901999999REMMET055METAR ETGQ 251920Z 00000KT 6000 OVC014 03/01 Q1019 GRN;
0124102340999992008112605204+53133+009350FM-15+0061ETGQ V0209999C000010039019N0060001N1+00301+00101999999ADDGA1081+003901999GF108991999999999999999999MA1102401999999REMMET055METAR ETGQ 260520Z 00000KT 6000 OVC013 03/01 Q1024 GRN;
0124102340999992008112606204+53133+009350FM-15+0061ETGQ V0209999C000010036019N0080001N1+00301+00101999999ADDGA1081+003601999GF108991999999999999999999MA1102511999999REMMET055METAR ETGQ 260620Z 00000KT 8000 OVC012 03/01 Q1025 GRN;
0124102340999992008112607204+53133+009350FM-15+0061ETGQ V0202401N001510042019N0080001N1+00301+00101999999ADDGA1081+004201999GF108991999999999999999999MA1102511999999REMMET055METAR ETGQ 260720Z 24003KT 8000 OVC014 03/01 Q1025 GRN;
0124102340999992008112608204+53133+009350FM-15+0061ETGQ V0202201N001510042019N0080001N1+00201+00101999999ADDGA1071+004201999GF107991999999999999999999MA1102611999999REMMET055METAR ETGQ 260820Z 22003KT 8000 BKN014 02/01 Q1026 GRN;
0124102340999992008112609204+53133+009350FM-15+0061ETGQ V0202401N001510042019N0080001N1+00301+00101999999ADDGA1071+004201999GF107991999999999999999999MA1102711999999REMMET055METAR ETGQ 260920Z 24003KT 8000 BKN014 03/01 Q1027 GRN;
0124102340999992008112610204+53133+009350FM-15+0061ETGQ V0202401N002110042019N0112651N1+00301+00101999999ADDGA1071+004201999GF107991999999999999999999MA1102711999999REMMET055METAR ETGQ 261020Z 24004KT 9999 BKN014 03/01 Q1027 GRN;
0124102340999992008112611204+53133+009350FM-15+0061ETGQ V0202301N001510048019N0112651N1+00401+00101999999ADDGA1071+004801999GF107991999999999999999999MA1102711999999REMMET055METAR ETGQ 261120Z 23003KT 9999 BKN016 04/01 Q1027 WHT;
0147102340999992008112612204+53133+009350FM-15+0061ETGQ V0202201N001510240019N0112651N1+00401+00101999999ADDGA1021+004501999GA2071+024001999GF107991999999999999999999MA1102611999999REMMET062METAR ETGQ 261220Z 22003KT 9999 FEW015 BKN080 04/01 Q1026 BLU;
0148102340999992008112613204+53133+009350FM-15+0061ETGQ V0202101N002612200019N0112651N1+00401+00101999999ADDGA1021+003601999GA2041+024001999GF104991999999999999999999MA1102611999999REMMET063METAR ETGQ 261320Z 21005KT 9999 FEW012 SCT080 04/01 Q1026 BLU/;
0147102340999992008112614204+53133+009350FM-15+0061ETGQ V0202401N002110180019N0112651N1+00401+00101999999ADDGA1021+003601999GA2071+018001999GF107991999999999999999999MA1102611999999REMMET062METAR ETGQ 261420Z 24004KT 9999 FEW012 BKN060 04/01 Q1026 BLU;
0124102340999992008112615204+53133+009350FM-15+0061ETGQ V0202201N002610240019N0112651N1+00301+00001999999ADDGA1071+024001999GF107991999999999999999999MA1102611999999REMMET055METAR ETGQ 261520Z 22005KT 9999 BKN080 03/00 Q1026 BLU;
0124102340999992008112616204+53133+009350FM-15+0061ETGQ V0202001N002110150019N0112651N1+00301+00001999999ADDGA1071+015001999GF107991999999999999999999MA1102611999999REMMET055METAR ETGQ 261620Z 20004KT 9999 BKN050 03/00 Q1026 BLU;
0147102340999992008112617204+53133+009350FM-15+0061ETGQ V0202201N002110300019N0112651N1+00201+00001999999ADDGA1021+003001999GA2071+030001999GF107991999999999999999999MA1102611999999REMMET062METAR ETGQ 261720Z 22004KT 9999 FEW010 BKN100 02/00 Q1026 BLU;
0124102340999992008112618204+53133+009350FM-15+0061ETGQ V0202001N002110270019N0112651N1+00201+00001999999ADDGA1071+027001999GF107991999999999999999999MA1102711999999REMMET055METAR ETGQ 261820Z 20004KT 9999 BKN090 02/00 Q1027 BLU;
0124102340999992008112619204+53133+009350FM-15+0061ETGQ V0202101N001010270019N0112651N1+00201+00001999999ADDGA1071+027001999GF107991999999999999999999MA1102711999999REMMET055METAR ETGQ 261920Z 21002KT 9999 BKN090 02/00 Q1027 BLU;
0124102340999992008112705204+53133+009350FM-15+0061ETGQ V0209999V001010054019N0112651N1+00301+00001999999ADDGA1071+005401999GF107991999999999999999999MA1102301999999REMMET055METAR ETGQ 270520Z VRB02KT 9999 BKN018 03/00 Q1023 WHT;
0124102340999992008112706204+53133+009350FM-15+0061ETGQ V0202001N001510057019N0112651N1+00301+00001999999ADDGA1071+005701999GF107991999999999999999999MA1102301999999REMMET055METAR ETGQ 270620Z 20003KT 9999 BKN019 03/00 Q1023 WHT;
0124102340999992008112707204+53133+009350FM-15+0061ETGQ V0202201N001510051019N0112651N1+00301+00101999999ADDGA1071+005101999GF107991999999999999999999MA1102301999999REMMET055METAR ETGQ 270720Z 22003KT 9999 BKN017 03/01 Q1023 WHT;
0124102340999992008112708204+53133+009350FM-15+0061ETGQ V0202201N001010042019N0112651N1+00301+00001999999ADDGA1071+004201999GF107991999999999999999999MA1102301999999REMMET055METAR ETGQ 270820Z 22002KT 9999 BKN014 03/00 Q1023 GRN;
0134102340999992008112709204+53133+009350FM-15+0061ETGQ V0209999C000010036019N0112651N1+00301+00101999999ADDGA1071+003601999GF107991999999999999999999MA1102301999999MW1611REMMET059METAR ETGQ 270920Z 00000KT 9999 -RA BKN012 03/01 Q1023 GRN;
0147102340999992008112710204+53133+009350FM-15+0061ETGQ V0202401N001510048019N0112651N1+00401+00101999999ADDGA1071+004801999GA2071+014401999GF107991999999999999999999MA1102201999999REMMET062METAR ETGQ 271020Z 24003KT 9999 BKN016 BKN048 04/01 Q1022 WHT;
0147102340999992008112711204+53133+009350FM-15+0061ETGQ V0202601N001510150019N0112651N1+00501+00101999999ADDGA1041+004501999GA2071+015001999GF107991999999999999999999MA1102101999999REMMET062METAR ETGQ 271120Z 26003KT 9999 SCT015 BKN050 05/01 Q1021 BLU;
0148102340999992008112712204+53133+009350FM-15+0061ETGQ V0202201N003612200019N0112651N1+00501+00101999999ADDGA1041+015001999GA2041+027001999GF104991999999999999999999MA1102001999999REMMET063METAR ETGQ 271220Z 22007KT 9999 SCT050 SCT090 05/01 Q1020 BLU/;
0148102340999992008112713204+53133+009350FM-15+0061ETGQ V0202401N003612200019N0112651N1+00401+00101999999ADDGA1041+005101999GA2041+018001999GF104991999999999999999999MA1102001999999REMMET063METAR ETGQ 271320Z 24007KT 9999 SCT017 SCT060 04/01 Q1020 BLU/;
0148102340999992008112714204+53133+009350FM-15+0061ETGQ V0202301N001512200019N0112651N1+00401+00101999999ADDGA1041+005101999GA2041+027001999GF104991999999999999999999MA1101901999999REMMET063METAR ETGQ 271420Z 23003KT 9999 SCT017 SCT090 04/01 Q1019 BLU/;
0147102340999992008112715204+53133+009350FM-15+0061ETGQ V0202201N000510270019N0112651N1+00401+00101999999ADDGA1021+005101999GA2071+027001999GF107991999999999999999999MA1101901999999REMMET062METAR ETGQ 271520Z 22001KT 9999 FEW017 BKN090 04/01 Q1019 BLU;
0124102340999992008112716204+53133+009350FM-15+0061ETGQ V0209999C000010270019N0112651N1+00401+00101999999ADDGA1071+027001999GF107991999999999999999999MA1101801999999REMMET055METAR ETGQ 271620Z 00000KT 9999 BKN090 04/01 Q1018 BLU;
0125102340999992008112717204+53133+009350FM-15+0061ETGQ V0209999V000510240019N0112651N1+00501-00101999999ADDGA1071+024001999GF107991999999999999999999MA1101801999999REMMET056METAR ETGQ 271720Z VRB01KT 9999 BKN080 05/M01 Q1018 BLU;
0125102340999992008112718204+53133+009350FM-15+0061ETGQ V0201801N001510240019N0112651N1+00501-00101999999ADDGA1071+024001999GF107991999999999999999999MA1101691999999REMMET056METAR ETGQ 271820Z 18003KT 9999 BKN080 05/M01 Q1017 BLU;
0125102340999992008112719204+53133+009350FM-15+0061ETGQ V0201601N002110240019N0112651N1+00501-00101999999ADDGA1071+024001999GF107991999999999999999999MA1101591999999REMMET056METAR ETGQ 271920Z 16004KT 9999 BKN080 05/M01 Q1016 BLU;
0125102340999992008112805204+53133+009350FM-15+0061ETGQ V0201901N001510057019N0112651N1+00001-00201999999ADDGA1071+005701999GF107991999999999999999999MA1101021999999REMMET056METAR ETGQ 280520Z 19003KT 9999 BKN019 00/M02 Q1010 WHT;
0125102340999992008112806204+53133+009350FM-15+0061ETGQ V0201701N001010045019N0112651N1+00001-00201999999ADDGA1071+004501999GF107991999999999999999999MA1100911999999REMMET056METAR ETGQ 280620Z 17002KT 9999 BKN015 00/M02 Q1009 WHT;
0125102340999992008112807204+53133+009350FM-15+0061ETGQ V0201601N001010042019N0112651N1+00001-00301999999ADDGA1081+004201999GF108991999999999999999999MA1100811999999REMMET056METAR ETGQ 280720Z 16002KT 9999 OVC014 00/M03 Q1008 GRN;
0125102340999992008112808204+53133+009350FM-15+0061ETGQ V0209999V001010045019N0112651N1+00101-00201999999ADDGA1081+004501999GF108991999999999999999999MA1100811999999REMMET056METAR ETGQ 280820Z VRB02KT 9999 OVC015 01/M02 Q1008 WHT;
0125102340999992008112809204+53133+009350FM-15+0061ETGQ V0209999V001010045019N0112651N1+00101-00301999999ADDGA1071+004501999GF107991999999999999999999MA1100811999999REMMET056METAR ETGQ 280920Z VRB02KT 9999 BKN015 01/M03 Q1008 WHT;
0125102340999992008112810204+53133+009350FM-15+0061ETGQ V0201601N002610048019N0112651N1+00101-00301999999ADDGA1071+004801999GF107991999999999999999999MA1100711999999REMMET056METAR ETGQ 281020Z 16005KT 9999 BKN016 01/M03 Q1007 WHT;
0125102340999992008112811204+53133+009350FM-15+0061ETGQ V0201501N002110045019N0112651N1+00101-00301999999ADDGA1071+004501999GF107991999999999999999999MA1100611999999REMMET056METAR ETGQ 281120Z 15004KT 9999 BKN015 01/M03 Q1006 WHT;
0125102340999992008112812204+53133+009350FM-15+0061ETGQ V0201701N002110045019N0112651N1+00101-00201999999ADDGA1071+004501999GF107991999999999999999999MA1100511999999REMMET056METAR ETGQ 281220Z 17004KT 9999 BKN015 01/M02 Q1005 WHT;
0125102340999992008112813204+53133+009350FM-15+0061ETGQ V0209999V001010039019N0112651N1+00101-00201999999ADDGA1071+003901999GF107991999999999999999999MA1100411999999REMMET056METAR ETGQ 281320Z VRB02KT 9999 BKN013 01/M02 Q1004 GRN;
0125102340999992008112814204+53133+009350FM-15+0061ETGQ V0201001N001510042019N0112651N1+00101-00201999999ADDGA1081+004201999GF108991999999999999999999MA1100311999999REMMET056METAR ETGQ 281420Z 10003KT 9999 OVC014 01/M02 Q1003 GRN;
0125102340999992008112815204+53133+009350FM-15+0061ETGQ V0201301N001010039019N0112651N1+00001-00301999999ADDGA1081+003901999GF108991999999999999999999MA1100311999999REMMET056METAR ETGQ 281520Z 13002KT 9999 OVC013 00/M03 Q1003 GRN;
0125102340999992008112816204+53133+009350FM-15+0061ETGQ V0209999V000510039019N0080001N1+00001-00301999999ADDGA1081+003901999GF108991999999999999999999MA1100201999999REMMET056METAR ETGQ 281620Z VRB01KT 8000 OVC013 00/M03 Q1002 GRN;
0125102340999992008112817204+53133+009350FM-15+0061ETGQ V0201601N000510039019N0080001N1+00001-00301999999ADDGA1081+003901999GF108991999999999999999999MA1100201999999REMMET056METAR ETGQ 281720Z 16001KT 8000 OVC013 00/M03 Q1002 GRN;
0148102340999992008112818204+53133+009350FM-15+0061ETGQ V0209999C000010039019N0080001N1+00001-00301999999ADDGA1071+003901999GA2071+027001999GF107991999999999999999999MA1100101999999REMMET063METAR ETGQ 281820Z 00000KT 8000 BKN013 BKN090 00/M03 Q1001 GRN;
0135102340999992008120105204+53133+009350FM-15+0061ETGQ V0209999C000012200019N0020001N1-00201-00201999999ADDGA1041+000301999GF104991999999999999999999MA1099801999999MW1101REMMET060METAR ETGQ 010520Z 00000KT 2000 BR SCT001 M02/M02 Q0998 YLO;
0135102340999992008120106204+53133+009350FM-15+0061ETGQ V0209999C000012200019N0020001N1-00201-00201999999ADDGA1041+000301999GF104991999999999999999999MA1099701999999MW1101REMMET060METAR ETGQ 010620Z 00000KT 2000 BR SCT001 M02/M02 Q0997 YLO;
0137102340999992008120107204+53133+009350FM-15+0061ETGQ V0209999C000010003019N0006001N1-00201-00201999999ADDGA1071+000301999GF107991999999999999999999MA1099801999999MW1481REMMET062METAR ETGQ 010720Z 00000KT 0600 FZFG BKN001 M02/M02 Q0998 RED;
0137102340999992008120108204+53133+009350FM-15+0061ETGQ V0209999C000010003019N0006001N1-00101-00101999999ADDGA1071+000301999GF107991999999999999999999MA1099801999999MW1481REMMET062METAR ETGQ 010820Z 00000KT 0600 FZFG BKN001 M01/M01 Q0998 RED;
0137102340999992008120109204+53133+009350FM-15+0061ETGQ V0209999C000010003019N0003001N1-00101-00101999999ADDGA1071+000301999GF107991999999999999999999MA1099801999999MW1481REMMET062METAR ETGQ 010920Z 00000KT 0300 FZFG BKN001 M01/M01 Q0998 RED;
0137102340999992008120110204+53133+009350FM-15+0061ETGQ V0209999C000010003019N0003001N1-00101-00101999999ADDGA1081+000301999GF108991999999999999999999MA1099801999999MW1481REMMET062METAR ETGQ 011020Z 00000KT 0300 FZFG OVC001 M01/M01 Q0998 RED;
0135102340999992008120111204+53133+009350FM-15+0061ETGQ V0209999C000010030019N0030001N1+00001+00001999999ADDGA1071+003001999GF107991999999999999999999MA1099801999999MW1101REMMET060METAR ETGQ 011120Z 00000KT 3000 BR BKN010 M00/M00 Q0998 YLO;
0156102340999992008120112204+53133+009350FM-15+0061ETGQ V0209999C000012200019N0050001N1+00101+00101999999ADDGA1041+001501999GA2041+036001999GF104991999999999999999999MA1099801999999MW1101REMMET065METAR ETGQ 011220Z 00000KT 5000 BR SCT005 SCT120 01/01 Q0998 WHT;
0124102340999992008120113204+53133+009350FM-15+0061ETGQ V0209999C000010450019N0060001N1+00201+00001999999ADDGA1071+045001999GF107991999999999999999999MA1099801999999REMMET055METAR ETGQ 011320Z 00000KT 6000 BKN150 02/00 Q0998 WHT;
0124102340999992008120114204+53133+009350FM-15+0061ETGQ V0209999C000010480019N0060001N1+00101+00001999999ADDGA1071+048001999GF107991999999999999999999MA1099801999999REMMET055METAR ETGQ 011420Z 00000KT 6000 BKN160 01/00 Q0998 WHT;
0125102340999992008120115204+53133+009350FM-15+0061ETGQ V0209999C000010300019N0060001N1+00101+00001999999ADDGA1071+030001999GF107991999999999999999999MA1099901999999REMMET056METAR ETGQ 011520Z 00000KT 6000 BKN100 01/M00 Q0999 WHT;
0134102340999992008120116204+53133+009350FM-15+0061ETGQ V0209999C000010240019N0050001N1+00101+00001999999ADDGA1071+024001999GF107991999999999999999999MA1100001999999MW1101REMMET059METAR ETGQ 011620Z 00000KT 5000 BR BKN080 01/M00 Q1000 WHT;
0133102340999992008120117204+53133+009350FM-15+0061ETGQ V0209999C000010051019N0050001N1+00101+00001999999ADDGA1071+005101999GF107991999999999999999999MA1100001999999MW1101REMMET058METAR ETGQ 011720Z 00000KT 5000 BR BKN017 01/00 Q1000 WHT;
0133102340999992008120118204+53133+009350FM-15+0061ETGQ V0209999C000010051019N0050001N1+00101+00001999999ADDGA1071+005101999GF107991999999999999999999MA1100101999999MW1101REMMET058METAR ETGQ 011820Z 00000KT 5000 BR BKN017 01/00 Q1001 WHT;
0133102340999992008120119204+53133+009350FM-15+0061ETGQ V0209999C000010042019N0050001N1+00201+00101999999ADDGA1071+004201999GF107991999999999999999999MA1100101999999MW1101REMMET058METAR ETGQ 011920Z 00000KT 5000 BR BKN014 02/01 Q1001 GRN;
0134102340999992008120205204+53133+009350FM-15+0061ETGQ V0209999V000510039019N0080001N1+00301+00101999999ADDGA1081+003901999GF108991999999999999999999MA1100511999999MW1611REMMET059METAR ETGQ 020520Z VRB01KT 8000 -RA OVC013 03/01 Q1005 GRN;
0124102340999992008120206204+53133+009350FM-15+0061ETGQ V0202401N000510045019N0080001N1+00301+00201999999ADDGA1081+004501999GF108991999999999999999999MA1100511999999REMMET055METAR ETGQ 020620Z 24001KT 8000 OVC015 03/02 Q1005 WHT;
0157102340999992008120207204+53133+009350FM-15+0061ETGQ V0202201N001510084019N0080001N1+00301+00201999999ADDGA1041+004501999GA2081+008401999GF108991999999999999999999MA1100611999999MW1611REMMET066METAR ETGQ 020720Z 22003KT 8000 -RA SCT015 OVC028 03/02 Q1006 BLU;
0124102340999992008120208204+53133+009350FM-15+0061ETGQ V0202301N001010087019N0080001N1+00301+00201999999ADDGA1071+008701999GF107991999999999999999999MA1100611999999REMMET055METAR ETGQ 020820Z 23002KT 8000 BKN029 03/02 Q1006 BLU;
0124102340999992008120209204+53133+009350FM-15+0061ETGQ V0202101N002110066019N0080001N1+00401+00201999999ADDGA1071+006601999GF107991999999999999999999MA1100711999999REMMET055METAR ETGQ 020920Z 21004KT 8000 BKN022 04/02 Q1007 WHT;
0147102340999992008120210204+53133+009350FM-15+0061ETGQ V0202201N002610105019N0112651N1+00401+00201999999ADDGA1041+006001999GA2071+010501999GF107991999999999999999999MA1100711999999REMMET062METAR ETGQ 021020Z 22005KT 9999 SCT020 BKN035 04/02 Q1007 BLU;
0124102340999992008120211204+53133+009350FM-15+0061ETGQ V0202401N002110075019N0080001N1+00401+00201999999ADDGA1071+007501999GF107991999999999999999999MA1100711999999REMMET055METAR ETGQ 021120Z 24004KT 8000 BKN025 04/02 Q1007 BLU;
0147102340999992008120212204+53133+009350FM-15+0061ETGQ V0202401N002610075019N0112651N1+00501+00201999999ADDGA1021+004501999GA2071+007501999GF107991999999999999999999MA1100711999999REMMET062METAR ETGQ 021220Z 24005KT 9999 FEW015 BKN025 05/02 Q1007 BLU;
0124102340999992008120213204+53133+009350FM-15+0061ETGQ V0202401N004110090019N0112651N1+00401+00101999999ADDGA1071+009001999GF107991999999999999999999MA1100811999999REMMET055METAR ETGQ 021320Z 24008KT 9999 BKN030 04/01 Q1008 BLU;
0147102340999992008120214204+53133+009350FM-15+0061ETGQ V0202401N003610087019N0112651N1+00401+00001999999ADDGA1071+008701999GA2071+024001999GF107991999999999999999999MA1100811999999REMMET062METAR ETGQ 021420Z 24007KT 9999 BKN029 BKN080 04/00 Q1008 BLU;
0149102340999992008120215204+53133+009350FM-15+0061ETGQ V0202201N002612200019N0112651N1+00401+00001999999ADDGA1021+006601999GA2041+012601999GF104991999999999999999999MA1100811999999REMMET064METAR ETGQ 021520Z 22005KT 9999 FEW022 SCT042 04/M00 Q1008 BLU/;
0124102340999992008120216204+53133+009350FM-15+0061ETGQ V0201801N001510054019N0112651N1+00301+00001999999ADDGA1071+005401999GF107991999999999999999999MA1100811999999REMMET055METAR ETGQ 021620Z 18003KT 9999 BKN018 03/00 Q1008 WHT;
0148102340999992008120217204+53133+009350FM-15+0061ETGQ V0202001N002110078019N0112651N1+00301+00001999999ADDGA1021+006001999GA2071+007801999GF107991999999999999999999MA1100811999999REMMET063METAR ETGQ 021720Z 20004KT 9999 FEW020 BKN026 03/M00 Q1008 BLU;
0148102340999992008120218204+53133+009350FM-15+0061ETGQ V0201601N001010138019N0112651N1+00301+00001999999ADDGA1041+009601999GA2071+013801999GF107991999999999999999999MA1100811999999REMMET063METAR ETGQ 021820Z 16002KT 9999 SCT032 BKN046 03/M00 Q1008 BLU;
0125102340999992008120219204+53133+009350FM-15+0061ETGQ V0201801N001010060019N0112651N1+00301+00001999999ADDGA1071+006001999GF107991999999999999999999MA1100711999999REMMET056METAR ETGQ 021920Z 18002KT 9999 BKN020 03/M00 Q1007 WHT;
0124102340999992008120305204+53133+009350FM-15+0061ETGQ V0201701N002610045019N0060001N1+00301+00101999999ADDGA1081+004501999GF108991999999999999999999MA1099701999999REMMET055METAR ETGQ 030520Z 17005KT 6000 OVC015 03/01 Q0997 WHT;
0124102340999992008120306204+53133+009350FM-15+0061ETGQ V0201701N002110045019N0080001N1+00301+00101999999ADDGA1081+004501999GF108991999999999999999999MA1099701999999REMMET055METAR ETGQ 030620Z 17004KT 8000 OVC015 03/01 Q0997 WHT;
0157102340999992008120307204+53133+009350FM-15+0061ETGQ V0201301N002110036019N0080001N1+00301+00101999999ADDGA1071+003601999GA2081+004801999GF108991999999999999999999MA1099701999999MW1611REMMET066METAR ETGQ 030720Z 13004KT 8000 -RA BKN012 OVC016 03/01 Q0997 GRN;
0157102340999992008120308204+53133+009350FM-15+0061ETGQ V0209999V001010042019N0080001N1+00301+00101999999ADDGA1071+004201999GA2081+005101999GF108991999999999999999999MA1099701999999MW1611REMMET066METAR ETGQ 030820Z VRB02KT 8000 -RA BKN014 OVC017 03/01 Q0997 GRN;
0157102340999992008120309204+53133+009350FM-15+0061ETGQ V0209999V000510042019N0080001N1+00301+00101999999ADDGA1071+004201999GA2081+005401999GF108991999999999999999999MA1099701999999MW1611REMMET066METAR ETGQ 030920Z VRB01KT 8000 -RA BKN014 OVC018 03/01 Q0997 GRN;
0157102340999992008120310204+53133+009350FM-15+0061ETGQ V0209999V000510045019N0112651N1+00301+00101999999ADDGA1071+004501999GA2081+006001999GF108991999999999999999999MA1099701999999MW1611REMMET066METAR ETGQ 031020Z VRB01KT 9999 -RA BKN015 OVC020 03/01 Q0997 WHT;
0156102340999992008120311204+53133+009350FM-15+0061ETGQ V0202401N001010036019N0112651N1+00301+00101999999ADDGA1071+003601999GA2081+005101999GF108991999999999999999999MA1099701999999MW1631REMMET065METAR ETGQ 031120Z 24002KT 9999 RA BKN012 OVC017 03/01 Q0997 GRN;
0139102340999992008120312204+53133+009350FM-15+0061ETGQ V0202301N002610033019N0112651N1+00301+00101999999ADDGA1081+003301999GF108991999999999999999999MA1099701999999MW1611REMMET064METAR ETGQ 031220Z 23005KT 9999 -RA OVC011 03/01 Q0997 RERA GRN;
0134102340999992008120313204+53133+009350FM-15+0061ETGQ V0203001N003610048019N0112651N1+00301+00101999999ADDGA1071+004801999GF107991999999999999999999MA1099701999999MW1611REMMET059METAR ETGQ 031320Z 30007KT 9999 -RA BKN016 03/01 Q0997 WHT;
0170102340999992008120314204+53133+009350FM-15+0061ETGQ V0209999C000010114019N0112651N1+00201+00101999999ADDGA1021+004801999GA2071+011401999GA3071+015001999GF107991999999999999999999MA1099701999999REMMET069METAR ETGQ 031420Z 00000KT 9999 FEW016 BKN038 BKN050 02/01 Q0997 BLU;
0124102340999992008120315204+53133+009350FM-15+0061ETGQ V0203301N001010063019N0112651N1+00201+00101999999ADDGA1071+006301999GF107991999999999999999999MA1100001999999REMMET055METAR ETGQ 031520Z 33002KT 9999 BKN021 02/01 Q1000 WHT;
0124102340999992008120316204+53133+009350FM-15+0061ETGQ V0203101N001010051019N0112651N1+00201+00001999999ADDGA1071+005101999GF107991999999999999999999MA1100101999999REMMET055METAR ETGQ 031620Z 31002KT 9999 BKN017 02/00 Q1001 WHT;
0125102340999992008120317204+53133+009350FM-15+0061ETGQ V0203401N001010045019N0112651N1+00201+00001999999ADDGA1071+004501999GF107991999999999999999999MA1100201999999REMMET056METAR ETGQ 031720Z 34002KT 9999 BKN015 02/M00 Q1002 WHT;
0125102340999992008120318204+53133+009350FM-15+0061ETGQ V0203501N001010051019N0112651N1+00201-00101999999ADDGA1071+005101999GF107991999999999999999999MA1100201999999REMMET056METAR ETGQ 031820Z 35002KT 9999 BKN017 02/M01 Q1002 WHT;
0125102340999992008120319204+53133+009350FM-15+0061ETGQ V0209999C000010054019N0112651N1+00101-00101999999ADDGA1071+005401999GF107991999999999999999999MA1100311999999REMMET056METAR ETGQ 031920Z 00000KT 9999 BKN018 01/M01 Q1003 WHT;
0149102340999992008120405204+53133+009350FM-15+0061ETGQ V0201801N000510018019N0080001N1-00101-00201999999ADDGA1071+001801999GA2071+005401999GF107991999999999999999999MA1100201999999REMMET064METAR ETGQ 040520Z 18001KT 8000 BKN006 BKN018 M01/M02 Q1002 YLO;
0149102340999992008120406204+53133+009350FM-15+0061ETGQ V0209999C000010039019N0080001N1-00101-00201999999ADDGA1041+002101999GA2081+003901999GF108991999999999999999999MA1100101999999REMMET064METAR ETGQ 040620Z 00000KT 8000 SCT007 OVC013 M01/M02 Q1001 GRN;
0148102340999992008120407204+53133+009350FM-15+0061ETGQ V0209999C000010036019N0080001N1+00001-00101999999ADDGA1041+002401999GA2071+003601999GF107991999999999999999999MA1100001999999REMMET063METAR ETGQ 040720Z 00000KT 8000 SCT008 BKN012 00/M01 Q1000 GRN;
0148102340999992008120408204+53133+009350FM-15+0061ETGQ V0201501N003110075019N0080001N1+00101+00001999999ADDGA1041+005401999GA2071+007501999GF107991999999999999999999MA1099801999999REMMET063METAR ETGQ 040820Z 15006KT 8000 SCT018 BKN025 01/M00 Q0998 BLU;
0147102340999992008120409204+53133+009350FM-15+0061ETGQ V0202001N001510075019N0112651N1+00201+00001999999ADDGA1041+006001999GA2071+007501999GF107991999999999999999999MA1099591999999REMMET062METAR ETGQ 040920Z 20003KT 9999 SCT020 BKN025 02/00 Q0996 BLU;
0147102340999992008120410204+53133+009350FM-15+0061ETGQ V0201601N003110096019N0112651N1+00301+00101999999ADDGA1041+006001999GA2071+009601999GF107991999999999999999999MA1099491999999REMMET062METAR ETGQ 041020Z 16006KT 9999 SCT020 BKN032 03/01 Q0995 BLU;
0157102340999992008120411204+53133+009350FM-15+0061ETGQ V0201701N002110075019N0112651N1+00401+00201999999ADDGA1041+006001999GA2071+007501999GF107991999999999999999999MA1099291999999MW1611REMMET066METAR ETGQ 041120Z 17004KT 9999 -RA SCT020 BKN025 04/02 Q0993 BLU;
0157102340999992008120412204+53133+009350FM-15+0061ETGQ V0202301N001010054019N0080001N1+00401+00301999999ADDGA1041+003601999GA2081+005401999GF108991999999999999999999MA1099191999999MW1611REMMET066METAR ETGQ 041220Z 23002KT 8000 -RA SCT012 OVC018 04/03 Q0992 WHT;
0157102340999992008120413204+53133+009350FM-15+0061ETGQ V0201601N002110099019N0080001N1+00401+00301999999ADDGA1041+005401999GA2081+009901999GF108991999999999999999999MA1099091999999MW1611REMMET066METAR ETGQ 041320Z 16004KT 8000 -RA SCT018 OVC033 04/03 Q0991 BLU;
0157102340999992008120414204+53133+009350FM-15+0061ETGQ V0201601N002610108019N0080001N1+00401+00201999999ADDGA1041+004501999GA2081+010801999GF108991999999999999999999MA1098921999999MW1611REMMET066METAR ETGQ 041420Z 16005KT 8000 -RA SCT015 OVC036 04/02 Q0989 BLU;
0124102340999992008120415204+53133+009350FM-15+0061ETGQ V0201801N002610072019N0080001N1+00501+00201999999ADDGA1071+007201999GF107991999999999999999999MA1098921999999REMMET055METAR ETGQ 041520Z 18005KT 8000 BKN024 05/02 Q0989 WHT;
0124102340999992008120416204+53133+009350FM-15+0061ETGQ V0201601N002610063019N0080001N1+00501+00201999999ADDGA1071+006301999GF107991999999999999999999MA1098821999999REMMET055METAR ETGQ 041620Z 16005KT 8000 BKN021 05/02 Q0988 WHT;
0124102340999992008120417204+53133+009350FM-15+0061ETGQ V0201701N002610066019N0112651N1+00501+00201999999ADDGA1071+006601999GF107991999999999999999999MA1098821999999REMMET055METAR ETGQ 041720Z 17005KT 9999 BKN022 05/02 Q0988 WHT;
0147102340999992008120418204+53133+009350FM-15+0061ETGQ V0200601N002110063019N0112651N1+00501+00301999999ADDGA1071+006301999GA2071+024001999GF107991999999999999999999MA1098821999999REMMET062METAR ETGQ 041820Z 06004KT 9999 BKN021 BKN080 05/03 Q0988 WHT;
0170102340999992008120419204+53133+009350FM-15+0061ETGQ V0201501N00051011101CN0112651N1+00501+00301999999ADDGA1021+005701999GA2041+011101999GA3071+021001999GF107991999999999999999999MA1098821999999REMMET069METAR ETGQ 041920Z 15001KT 9999 FEW019 SCT037 BKN070 05/03 Q0988 BLU;
0147102340999992008120505204+53133+009350FM-15+0061ETGQ V0201601N002110060019N0112651N1+00501+00401999999ADDGA1071+006001999GA2071+015001999GF107991999999999999999999MA1098711999999REMMET062METAR ETGQ 050520Z 16004KT 9999 BKN020 BKN050 05/04 Q0987 WHT;
0147102340999992008120506204+53133+009350FM-15+0061ETGQ V0201701N001010240019N0112651N1+00601+00301999999ADDGA1041+006001999GA2081+024001999GF108991999999999999999999MA1098821999999REMMET062METAR ETGQ 050620Z 17002KT 9999 SCT020 OVC080 06/03 Q0988 BLU;
0147102340999992008120507204+53133+009350FM-15+0061ETGQ V0201501N002110150019N0112651N1+00601+00301999999ADDGA1041+007501999GA2071+015001999GF107991999999999999999999MA1098821999999REMMET062METAR ETGQ 050720Z 15004KT 9999 SCT025 BKN050 06/03 Q0988 BLU;
0147102340999992008120508204+53133+009350FM-15+0061ETGQ V0201701N002110144019N0112651N1+00601+00301999999ADDGA1041+006901999GA2071+014401999GF107991999999999999999999MA1098921999999REMMET062METAR ETGQ 050820Z 17004KT 9999 SCT023 BKN048 06/03 Q0989 BLU;
0170102340999992008120509204+53133+009350FM-15+0061ETGQ V0201601N002110120019N0112651N1+00701+00301999999ADDGA1021+006001999GA2071+012001999GA3071+027001999GF107991999999999999999999MA1098921999999REMMET069METAR ETGQ 050920Z 16004KT 9999 FEW020 BKN040 BKN090 07/03 Q0989 BLU;
0170102340999992008120510204+53133+009350FM-15+0061ETGQ V0201601N002610120019N0112651N1+00701+00301999999ADDGA1021+006001999GA2071+012001999GA3071+024001999GF107991999999999999999999MA1098921999999REMMET069METAR ETGQ 051020Z 16005KT 9999 FEW020 BKN040 BKN080 07/03 Q0989 BLU;
0147102340999992008120511204+53133+009350FM-15+0061ETGQ V0202201N002610084019N0112651N1+00601+00301999999ADDGA1041+005401999GA2071+008401999GF107991999999999999999999MA1098981999999REMMET062METAR ETGQ 051120Z 22005KT 9999 SCT018 BKN028 06/03 Q0990 BLU;
0147102340999992008120512204+53133+009350FM-15+0061ETGQ V0202201N002610090019N0112651N1+00701+00301999999ADDGA1041+005401999GA2071+009001999GF107991999999999999999999MA1098981999999REMMET062METAR ETGQ 051220Z 22005KT 9999 SCT018 BKN030 07/03 Q0990 BLU;
0170102340999992008120513204+53133+009350FM-15+0061ETGQ V0202201N002110105019N0112651N1+00801+00301999999ADDGA1041+006601999GA2071+010501999GA3071+027001999GF107991999999999999999999MA1099091999999REMMET069METAR ETGQ 051320Z 22004KT 9999 SCT022 BKN035 BKN090 08/03 Q0991 BLU;
0170102340999992008120514204+53133+009350FM-15+0061ETGQ V0202001N001510105019N0112651N1+00801+00301999999ADDGA1041+006601999GA2071+010501999GA3071+027001999GF107991999999999999999999MA1099091999999REMMET069METAR ETGQ 051420Z 20003KT 9999 SCT022 BKN035 BKN090 08/03 Q0991 BLU;
0170102340999992008120515204+53133+009350FM-15+0061ETGQ V0201701N001510117019N0112651N1+00701+00301999999ADDGA1021+006601999GA2071+011701999GA3071+036001999GF107991999999999999999999MA1099091999999REMMET069METAR ETGQ 051520Z 17003KT 9999 FEW022 BKN039 BKN120 07/03 Q0991 BLU;
0159102340999992008120516204+53133+009350FM-15+0061ETGQ V0201801N001010102019N0112651N1+00601+00401999999ADDGA1041+006001999GA2071+010201999GF107991999999999999999999MA1099191999999MW1801REMMET068METAR ETGQ 051620Z 18002KT 9999 -SHRA SCT020 BKN034 06/04 Q0992 BLU;
0147102340999992008120517204+53133+009350FM-15+0061ETGQ V0201601N001010087019N0112651N1+00601+00401999999ADDGA1041+006001999GA2071+008701999GF107991999999999999999999MA1099191999999REMMET062METAR ETGQ 051720Z 16002KT 9999 SCT020 BKN029 06/04 Q0992 BLU;
0147102340999992008120518204+53133+009350FM-15+0061ETGQ V0201501N000510099019N0112651N1+00601+00301999999ADDGA1041+006001999GA2071+009901999GF107991999999999999999999MA1099191999999REMMET062METAR ETGQ 051820Z 15001KT 9999 SCT020 BKN033 06/03 Q0992 BLU;
0147102340999992008120519204+53133+009350FM-15+0061ETGQ V0201501N001010105019N0112651N1+00601+00301999999ADDGA1041+006001999GA2071+010501999GF107991999999999999999999MA1099291999999REMMET062METAR ETGQ 051920Z 15002KT 9999 SCT020 BKN035 06/03 Q0993 BLU;
0137102340999992008120805204+53133+009350FM-15+0061ETGQ V0202701N001010003019N0006001N1+00001+00001999999ADDGA1081+000301999GF108991999999999999999999MA1102911999999MW1481REMMET062METAR ETGQ 080520Z 27002KT 0600 FZFG OVC001 M00/M00 Q1029 RED;
0137102340999992008120806204+53133+009350FM-15+0061ETGQ V0202601N000510003019N0006001N1-00101-00101999999ADDGA1081+000301999GF108991999999999999999999MA1102911999999MW1481REMMET062METAR ETGQ 080620Z 26001KT 0600 FZFG OVC001 M01/M01 Q1029 RED;
0137102340999992008120807204+53133+009350FM-15+0061ETGQ V0202801N000510003019N0006001N1-00101-00101999999ADDGA1081+000301999GF108991999999999999999999MA1102811999999MW1481REMMET062METAR ETGQ 080720Z 28001KT 0600 FZFG OVC001 M01/M01 Q1028 RED;
0137102340999992008120808204+53133+009350FM-15+0061ETGQ V0209999C000010003019N0005001N1+00001+00001999999ADDGA1081+000301999GF108991999999999999999999MA1102811999999MW1481REMMET062METAR ETGQ 080820Z 00000KT 0500 FZFG OVC001 M00/M00 Q1028 RED;
0137102340999992008120809204+53133+009350FM-15+0061ETGQ V0202401N000510003019N0004001N1+00001+00001999999ADDGA1081+000301999GF108991999999999999999999MA1102811999999MW1481REMMET062METAR ETGQ 080920Z 24001KT 0400 FZFG OVC001 M00/M00 Q1028 RED;
0135102340999992008120810204+53133+009350FM-15+0061ETGQ V0209999C000010009019N0012001N1+00001+00001999999ADDGA1081+000901999GF108991999999999999999999MA1102811999999MW1101REMMET060METAR ETGQ 081020Z 00000KT 1200 BR OVC003 M00/M00 Q1028 AMB;
0133102340999992008120811204+53133+009350FM-15+0061ETGQ V0209999C000010006019N0012001N1+00001+00001999999ADDGA1081+000601999GF108991999999999999999999MA1102711999999MW1101REMMET058METAR ETGQ 081120Z 00000KT 1200 BR OVC002 00/00 Q1027 AMB;
0133102340999992008120812204+53133+009350FM-15+0061ETGQ V0209999C000010006019N0015001N1+00001+00001999999ADDGA1081+000601999GF108991999999999999999999MA1102611999999MW1101REMMET058METAR ETGQ 081220Z 00000KT 1500 BR OVC002 00/00 Q1026 AMB;
0133102340999992008120813204+53133+009350FM-15+0061ETGQ V0209999C000010009019N0025001N1+00101+00101999999ADDGA1081+000901999GF108991999999999999999999MA1102511999999MW1101REMMET058METAR ETGQ 081320Z 00000KT 2500 BR OVC003 01/01 Q1025 YLO;
0133102340999992008120814204+53133+009350FM-15+0061ETGQ V0209999V000510006019N0020001N1+00101+00101999999ADDGA1081+000601999GF108991999999999999999999MA1102511999999MW1101REMMET058METAR ETGQ 081420Z VRB01KT 2000 BR OVC002 01/01 Q1025 AMB;
0133102340999992008120815204+53133+009350FM-15+0061ETGQ V0209999V001010003019N0008001N1+00101+00101999999ADDGA1081+000301999GF108991999999999999999999MA1102401999999MW1441REMMET058METAR ETGQ 081520Z VRB02KT 0800 FG OVC001 01/01 Q1024 RED;
0133102340999992008120816204+53133+009350FM-15+0061ETGQ V0209999V000510003019N0008001N1+00101+00101999999ADDGA1081+000301999GF108991999999999999999999MA1102401999999MW1441REMMET058METAR ETGQ 081620Z VRB01KT 0800 FG OVC001 01/01 Q1024 RED;
0132102340999992008120817204+53133+009350FM-15+0061ETGQ V0201601N001510001519N0003001N1+00101+00101999999ADDGA1091+000151999GF109991999999000251999999MA1102301999999MW1451REMMET057METAR ETGQ 081720Z 16003KT 0300 FG VV000 01/01 Q1023 RED;
0133102340999992008120818204+53133+009350FM-15+0061ETGQ V0201601N002110009019N0030001N1+00101+00101999999ADDGA1081+000901999GF108991999999999999999999MA1102301999999MW1101REMMET058METAR ETGQ 081820Z 16004KT 3000 BR OVC003 01/01 Q1023 YLO;
0133102340999992008120819204+53133+009350FM-15+0061ETGQ V0201601N001510012019N0040001N1+00101+00101999999ADDGA1081+001201999GF108991999999999999999999MA1102201999999MW1101REMMET058METAR ETGQ 081920Z 16003KT 4000 BR OVC004 01/01 Q1022 YLO;
0126102340999992008120905204+53133+009350FM-15+0061ETGQ V0202201N000510036019N0080001N1+00001-00201999999ADDGA1081+003601999GF108991999999999999999999MA1101691999999REMMET057METAR ETGQ 090520Z 22001KT 8000 OVC012 M00/M02 Q1017 GRN;
0126102340999992008120906204+53133+009350FM-15+0061ETGQ V0209999V001010030019N0080001N1+00001-00201999999ADDGA1081+003001999GF108991999999999999999999MA1101691999999REMMET057METAR ETGQ 090620Z VRB02KT 8000 OVC010 M00/M02 Q1017 GRN;
0125102340999992008120907204+53133+009350FM-15+0061ETGQ V0201601N002610036019N0080001N1+00001-00201999999ADDGA1081+003601999GF108991999999999999999999MA1101591999999REMMET056METAR ETGQ 090720Z 16005KT 8000 OVC012 00/M02 Q1016 GRN;
0125102340999992008120908204+53133+009350FM-15+0061ETGQ V0209999C000010036019N0080001N1+00101-00101999999ADDGA1081+003601999GF108991999999999999999999MA1101591999999REMMET056METAR ETGQ 090820Z 00000KT 8000 OVC012 01/M01 Q1016 GRN;
0125102340999992008120909204+53133+009350FM-15+0061ETGQ V0209999V000510036019N0080001N1+00101-00101999999ADDGA1081+003601999GF108991999999999999999999MA1101591999999REMMET056METAR ETGQ 090920Z VRB01KT 8000 OVC012 01/M01 Q1016 GRN;
0125102340999992008120910204+53133+009350FM-15+0061ETGQ V0202601N001510042019N0112651N1+00201-00101999999ADDGA1081+004201999GF108991999999999999999999MA1101491999999REMMET056METAR ETGQ 091020Z 26003KT 9999 OVC014 02/M01 Q1015 GRN;
0125102340999992008120911204+53133+009350FM-15+0061ETGQ V0202301N002610039019N0112651N1+00201-00101999999ADDGA1081+003901999GF108991999999999999999999MA1101391999999REMMET056METAR ETGQ 091120Z 23005KT 9999 OVC013 02/M01 Q1014 GRN;
0125102340999992008120912204+53133+009350FM-15+0061ETGQ V0202401N001510036019N0112651N1+00201-00101999999ADDGA1081+003601999GF108991999999999999999999MA1101391999999REMMET056METAR ETGQ 091220Z 24003KT 9999 OVC012 02/M01 Q1014 GRN;
0125102340999992008120913204+53133+009350FM-15+0061ETGQ V0202201N002610039019N0112651N1+00201-00101999999ADDGA1081+003901999GF108991999999999999999999MA1101291999999REMMET056METAR ETGQ 091320Z 22005KT 9999 OVC013 02/M01 Q1013 GRN;
0148102340999992008120914204+53133+009350FM-15+0061ETGQ V0202201N003110063019N0090001N1+00201-00101999999ADDGA1041+003601999GA2081+006301999GF108991999999999999999999MA1101291999999REMMET063METAR ETGQ 091420Z 22006KT 9000 SCT012 OVC021 02/M01 Q1013 WHT;
0148102340999992008120915204+53133+009350FM-15+0061ETGQ V0202301N002110066019N0090001N1+00201-00101999999ADDGA1041+003601999GA2081+006601999GF108991999999999999999999MA1101291999999REMMET063METAR ETGQ 091520Z 23004KT 9000 SCT012 OVC022 02/M01 Q1013 WHT;
0148102340999992008120916204+53133+009350FM-15+0061ETGQ V0202201N002110057019N0080001N1+00201-00101999999ADDGA1021+003601999GA2081+005701999GF108991999999999999999999MA1101291999999REMMET063METAR ETGQ 091620Z 22004KT 8000 FEW012 OVC019 02/M01 Q1013 WHT;
0143102340999992008120917204+53133+009350FM-15+0061ETGQ V0202201N002110039019N0080001N1+00101+00001999999ADDGA1081+003901999GF108991999999999999999999MA1101291999999MW1611MW2711REMMET062METAR ETGQ 091720Z 22004KT 8000 -RASN OVC013 01/M00 Q1013 GRN;
0166102340999992008120918204+53133+009350FM-15+0061ETGQ V0202101N001510045019N0080001N1+00101+00001999999ADDGA1041+002401999GA2081+004501999GF108991999999999999999999MA1101291999999MW1611MW2711REMMET069METAR ETGQ 091820Z 21003KT 8000 -RASN SCT008 OVC015 01/M00 Q1013 WHT;
0148102340999992008120919204+53133+009350FM-15+0061ETGQ V0202301N000510048019N0080001N1+00101+00001999999ADDGA1041+002401999GA2081+004801999GF108991999999999999999999MA1101291999999REMMET063METAR ETGQ 091920Z 23001KT 8000 SCT008 OVC016 01/M00 Q1013 WHT;
0134102340999992008121005204+53133+009350FM-15+0061ETGQ V0209999C000010021019N0060001N1+00201+00101999999ADDGA1081+002101999GF108991999999999999999999MA1101391999999MW1511REMMET059METAR ETGQ 100520Z 00000KT 6000 -DZ OVC007 02/01 Q1014 GRN;
0124102340999992008121006204+53133+009350FM-15+0061ETGQ V0203101N000510027019N0060001N1+00301+00101999999ADDGA1081+002701999GF108991999999999999999999MA1101391999999REMMET055METAR ETGQ 100620Z 31001KT 6000 OVC009 03/01 Q1014 GRN;
0134102340999992008121007204+53133+009350FM-15+0061ETGQ V0209999C000010030019N0060001N1+00201+00101999999ADDGA1081+003001999GF108991999999999999999999MA1101391999999MW1511REMMET059METAR ETGQ 100720Z 00000KT 6000 -DZ OVC010 02/01 Q1014 GRN;
0134102340999992008121008204+53133+009350FM-15+0061ETGQ V0209999C000010024019N0050001N1+00201+00101999999ADDGA1081+002401999GF108991999999999999999999MA1101391999999MW1511REMMET059METAR ETGQ 100820Z 00000KT 5000 -DZ OVC008 02/01 Q1014 GRN;
0143102340999992008121009204+53133+009350FM-15+0061ETGQ V0209999C000010018019N0030001N1+00201+00101999999ADDGA1081+001801999GF108991999999999999999999MA1101391999999MW1101MW2511REMMET062METAR ETGQ 100920Z 00000KT 3000 -DZ BR OVC006 02/01 Q1014 YLO;
0156102340999992008121010204+53133+009350FM-15+0061ETGQ V0209999C000010027019N0040001N1+00301+00201999999ADDGA1041+001501999GA2081+002701999GF108991999999999999999999MA1101391999999MW1101REMMET065METAR ETGQ 101020Z 00000KT 4000 BR SCT005 OVC009 03/02 Q1014 GRN;
0124102340999992008121011204+53133+009350FM-15+0061ETGQ V0209999C000010030019N0060001N1+00301+00201999999ADDGA1081+003001999GF108991999999999999999999MA1101391999999REMMET055METAR ETGQ 101120Z 00000KT 6000 OVC010 03/02 Q1014 GRN;
0124102340999992008121012204+53133+009350FM-15+0061ETGQ V0209999C000010024019N0060001N1+00301+00101999999ADDGA1081+002401999GF108991999999999999999999MA1101291999999REMMET055METAR ETGQ 101220Z 00000KT 6000 OVC008 03/01 Q1013 GRN;
0147102340999992008121013204+53133+009350FM-15+0061ETGQ V0209999C000010051019N0060001N1+00301+00201999999ADDGA1041+002701999GA2071+005101999GF107991999999999999999999MA1101291999999REMMET062METAR ETGQ 101320Z 00000KT 6000 SCT009 BKN017 03/02 Q1013 WHT;
0147102340999992008121014204+53133+009350FM-15+0061ETGQ V0209999C000010057019N0080001N1+00301+00101999999ADDGA1021+002701999GA2071+005701999GF107991999999999999999999MA1101291999999REMMET062METAR ETGQ 101420Z 00000KT 8000 FEW009 BKN019 03/01 Q1013 WHT;
0147102340999992008121015204+53133+009350FM-15+0061ETGQ V0209999C000010066019N0090001N1+00301+00101999999ADDGA1021+003601999GA2071+006601999GF107991999999999999999999MA1101291999999REMMET062METAR ETGQ 101520Z 00000KT 9000 FEW012 BKN022 03/01 Q1013 WHT;
0170102340999992008121016204+53133+009350FM-15+0061ETGQ V0209999C000010078019N0090001N1+00301+00101999999ADDGA1021+004801999GA2071+007801999GA3071+015001999GF107991999999999999999999MA1101191999999REMMET069METAR ETGQ 101620Z 00000KT 9000 FEW016 BKN026 BKN050 03/01 Q1012 BLU;
0147102340999992008121017204+53133+009350FM-15+0061ETGQ V0209999C000010033019N0070001N1+00301+00101999999ADDGA1071+003301999GA2071+006601999GF107991999999999999999999MA1101291999999REMMET062METAR ETGQ 101720Z 00000KT 7000 BKN011 BKN022 03/01 Q1013 GRN;
0170102340999992008121018204+53133+009350FM-15+0061ETGQ V0209999C00001004501CN0070001N1+00301+00101999999ADDGA1021+003001999GA2041+004501999GA3071+007201999GF107991999999999999999999MA1101191999999REMMET069METAR ETGQ 101820Z 00000KT 7000 FEW010 SCT015 BKN024 03/01 Q1012 WHT;
0170102340999992008121019204+53133+009350FM-15+0061ETGQ V0209999C00001004801CN0060001N1+00301+00101999999ADDGA1021+002101999GA2041+004801999GA3071+007801999GF107991999999999999999999MA1101291999999REMMET069METAR ETGQ 101920Z 00000KT 6000 FEW007 SCT016 BKN026 03/01 Q1013 WHT;
0125102340999992008121105204+53133+009350FM-15+0061ETGQ V0201501N001010027019N0080001N1+00101+00001999999ADDGA1081+002701999GF108991999999999999999999MA1101081999999REMMET056METAR ETGQ 110520Z 15002KT 8000 OVC009 01/M00 Q1011 GRN;
0125102340999992008121106204+53133+009350FM-15+0061ETGQ V0209999V000510024019N0080001N1+00101+00001999999ADDGA1081+002401999GF108991999999999999999999MA1101191999999REMMET056METAR ETGQ 110620Z VRB01KT 8000 OVC008 01/M00 Q1012 GRN;
0125102340999992008121107204+53133+009350FM-15+0061ETGQ V0209999C000010024019N0080001N1+00101-00101999999ADDGA1081+002401999GF108991999999999999999999MA1101191999999REMMET056METAR ETGQ 110720Z 00000KT 8000 OVC008 01/M01 Q1012 GRN;
0125102340999992008121108204+53133+009350FM-15+0061ETGQ V0209999C000010030019N0080001N1+00101-00101999999ADDGA1081+003001999GF108991999999999999999999MA1101191999999REMMET056METAR ETGQ 110820Z 00000KT 8000 OVC010 01/M01 Q1012 GRN;
0125102340999992008121109204+53133+009350FM-15+0061ETGQ V0209999C000010027019N0080001N1+00101-00101999999ADDGA1081+002701999GF108991999999999999999999MA1101191999999REMMET056METAR ETGQ 110920Z 00000KT 8000 OVC009 01/M01 Q1012 GRN;
0125102340999992008121110204+53133+009350FM-15+0061ETGQ V0209999C000010033019N0080001N1+00201-00101999999ADDGA1081+003301999GF108991999999999999999999MA1101291999999REMMET056METAR ETGQ 111020Z 00000KT 8000 OVC011 02/M01 Q1013 GRN;
0125102340999992008121111204+53133+009350FM-15+0061ETGQ V0209999C000010033019N0080001N1+00201-00101999999ADDGA1081+003301999GF108991999999999999999999MA1101291999999REMMET056METAR ETGQ 111120Z 00000KT 8000 OVC011 02/M01 Q1013 GRN;
0125102340999992008121112204+53133+009350FM-15+0061ETGQ V0209999C000010036019N0112651N1+00201-00101999999ADDGA1081+003601999GF108991999999999999999999MA1101191999999REMMET056METAR ETGQ 111220Z 00000KT 9999 OVC012 02/M01 Q1012 GRN;
0125102340999992008121113204+53133+009350FM-15+0061ETGQ V0209999C000010036019N0112651N1+00201-00101999999ADDGA1071+003601999GF107991999999999999999999MA1101291999999REMMET056METAR ETGQ 111320Z 00000KT 9999 BKN012 02/M01 Q1013 GRN;
0125102340999992008121114204+53133+009350FM-15+0061ETGQ V0209999C000010039019N0112651N1+00201-00101999999ADDGA1071+003901999GF107991999999999999999999MA1101291999999REMMET056METAR ETGQ 111420Z 00000KT 9999 BKN013 02/M01 Q1013 GRN;
0125102340999992008121115204+53133+009350FM-15+0061ETGQ V0209999C000010042019N0112651N1+00201-00101999999ADDGA1071+004201999GF107991999999999999999999MA1101291999999REMMET056METAR ETGQ 111520Z 00000KT 9999 BKN014 02/M01 Q1013 GRN;
0125102340999992008121116204+53133+009350FM-15+0061ETGQ V0209999C000010039019N0112651N1+00201+00001999999ADDGA1071+003901999GF107991999999999999999999MA1101291999999REMMET056METAR ETGQ 111620Z 00000KT 9999 BKN013 02/M00 Q1013 GRN;
0125102340999992008121117204+53133+009350FM-15+0061ETGQ V0209999C000010042019N0112651N1+00201+00001999999ADDGA1071+004201999GF107991999999999999999999MA1101291999999REMMET056METAR ETGQ 111720Z 00000KT 9999 BKN014 02/M00 Q1013 GRN;
0125102340999992008121118204+53133+009350FM-15+0061ETGQ V0202401N001010045019N0112651N1+00201+00001999999ADDGA1071+004501999GF107991999999999999999999MA1101291999999REMMET056METAR ETGQ 111820Z 24002KT 9999 BKN015 02/M00 Q1013 WHT;
0125102340999992008121119204+53133+009350FM-15+0061ETGQ V0209999V001010045019N0112651N1+00201+00001999999ADDGA1071+004501999GF107991999999999999999999MA1101391999999REMMET056METAR ETGQ 111920Z VRB02KT 9999 BKN015 02/M00 Q1014 WHT;
0150102340999992008121205204+53133+009350FM-15+0061ETGQ V0209999C000012200019N0080001N1-00101-00201999999ADDGA1041+003601999GA2041+006601999GF104991999999999999999999MA1101691999999REMMET065METAR ETGQ 120520Z 00000KT 8000 SCT012 SCT022 M01/M02 Q1017 BLU/;
0126102340999992008121206204+53133+009350FM-15+0061ETGQ V0209999C000010042019N0080001N1-00101-00201999999ADDGA1071+004201999GF107991999999999999999999MA1101691999999REMMET057METAR ETGQ 120620Z 00000KT 8000 BKN014 M01/M02 Q1017 GRN;
0126102340999992008121207204+53133+009350FM-15+0061ETGQ V0209999C000010042019N0080001N1-00101-00301999999ADDGA1081+004201999GF108991999999999999999999MA1101801999999REMMET057METAR ETGQ 120720Z 00000KT 8000 OVC014 M01/M03 Q1018 GRN;
0126102340999992008121208204+53133+009350FM-15+0061ETGQ V0209999C000010054019N0080001N1+00001-00201999999ADDGA1071+005401999GF107991999999999999999999MA1101801999999REMMET057METAR ETGQ 120820Z 00000KT 8000 BKN018 M00/M02 Q1018 WHT;
0125102340999992008121209204+53133+009350FM-15+0061ETGQ V0209999C000010048019N0112651N1+00001-00201999999ADDGA1071+004801999GF107991999999999999999999MA1101901999999REMMET056METAR ETGQ 120920Z 00000KT 9999 BKN016 00/M02 Q1019 WHT;
0125102340999992008121210204+53133+009350FM-15+0061ETGQ V0209999C000010042019N0112651N1+00101-00201999999ADDGA1081+004201999GF108991999999999999999999MA1101901999999REMMET056METAR ETGQ 121020Z 00000KT 9999 OVC014 01/M02 Q1019 GRN;
0125102340999992008121211204+53133+009350FM-15+0061ETGQ V0202201N002110045019N0112651N1+00101-00301999999ADDGA1081+004501999GF108991999999999999999999MA1102001999999REMMET056METAR ETGQ 121120Z 22004KT 9999 OVC015 01/M03 Q1020 WHT;
0125102340999992008121213204+53133+009350FM-15+0061ETGQ V0202301N001510045019N0112651N1+00101-00301999999ADDGA1081+004501999GF108991999999999999999999MA1101901999999REMMET056METAR ETGQ 121320Z 23003KT 9999 OVC015 01/M03 Q1019 WHT;
0125102340999992008121214204+53133+009350FM-15+0061ETGQ V0202701N001510045019N0112651N1+00101-00301999999ADDGA1081+004501999GF108991999999999999999999MA1101901999999REMMET056METAR ETGQ 121420Z 27003KT 9999 OVC015 01/M03 Q1019 WHT;
0125102340999992008121215204+53133+009350FM-15+0061ETGQ V0209999V001010045019N0112651N1+00001-00301999999ADDGA1081+004501999GF108991999999999999999999MA1102001999999REMMET056METAR ETGQ 121520Z VRB02KT 9999 OVC015 00/M03 Q1020 WHT;
0125102340999992008121216204+53133+009350FM-15+0061ETGQ V0202101N001510042019N0080001N1+00001-00301999999ADDGA1081+004201999GF108991999999999999999999MA1102001999999REMMET056METAR ETGQ 121620Z 21003KT 8000 OVC014 00/M03 Q1020 GRN;
0125102340999992008121217204+53133+009350FM-15+0061ETGQ V0201401N001510042019N0080001N1+00001-00301999999ADDGA1081+004201999GF108991999999999999999999MA1102001999999REMMET056METAR ETGQ 121720Z 14003KT 8000 OVC014 00/M03 Q1020 GRN;
0125102340999992008121218204+53133+009350FM-15+0061ETGQ V0202101N002110042019N0080001N1+00001-00301999999ADDGA1081+004201999GF108991999999999999999999MA1102001999999REMMET056METAR ETGQ 121820Z 21004KT 8000 OVC014 00/M03 Q1020 GRN;
0126102340999992008121219204+53133+009350FM-15+0061ETGQ V0201701N002110039019N0080001N1+00001-00301999999ADDGA1081+003901999GF108991999999999999999999MA1102001999999REMMET057METAR ETGQ 121920Z 17004KT 8000 OVC013 M00/M03 Q1020 GRN;
0078102340999992008121505204+53133+009350FM-15+0061ETGQ V0209999C000012200019N0080001N1-00201-00301999999ADDMA1101021999999REMMET051METAR ETGQ 150520Z 00000KT 8000 M02/M03 Q1010 BLU/;
0078102340999992008121506204+53133+009350FM-15+0061ETGQ V0209999C000012200019N0080001N1-00201-00201999999ADDMA1101081999999REMMET051METAR ETGQ 150620Z 00000KT 8000 M02/M02 Q1011 BLU/;
0127102340999992008121507204+53133+009350FM-15+0061ETGQ V0209999C000012200019N0080001N1-00201-00301999999ADDGA1041+075001999GF104991999999999999999999MA1101191999999REMMET058METAR ETGQ 150720Z 00000KT 8000 SCT250 M02/M03 Q1012 BLU/;
0127102340999992008121508204+53133+009350FM-15+0061ETGQ V0209999C000012200019N0080001N1-00201-00301999999ADDGA1041+075001999GF104991999999999999999999MA1101291999999REMMET058METAR ETGQ 150820Z 00000KT 8000 SCT250 M02/M03 Q1013 BLU/;
0150102340999992008121509204+53133+009350FM-15+0061ETGQ V0209999C000012200019N0080001N1-00101-00201999999ADDGA1021+002101999GA2041+075001999GF104991999999999999999999MA1101291999999REMMET065METAR ETGQ 150920Z 00000KT 8000 FEW007 SCT250 M01/M02 Q1013 BLU/;
0126102340999992008121510204+53133+009350FM-15+0061ETGQ V0209999C000012200019N0080001N1+00201-00101999999ADDGA1041+105001999GF104991999999999999999999MA1101291999999REMMET057METAR ETGQ 151020Z 00000KT 8000 SCT350 02/M01 Q1013 BLU/;
0126102340999992008121511204+53133+009350FM-15+0061ETGQ V0203301N000512200019N0080001N1+00201+00001999999ADDGA1041+090001999GF104991999999999999999999MA1101391999999REMMET057METAR ETGQ 151120Z 33001KT 8000 SCT340 02/M00 Q1014 BLU/;
0126102340999992008121512204+53133+009350FM-15+0061ETGQ V0209999C000012200019N0112651N1+00301+00001999999ADDGA1041+105001999GF104991999999999999999999MA1101391999999REMMET057METAR ETGQ 151220Z 00000KT 9999 SCT360 03/M00 Q1014 BLU/;
0126102340999992008121513204+53133+009350FM-15+0061ETGQ V0209999C000012200019N0112651N1+00401+00001999999ADDGA1021+105001999GF102991999999999999999999MA1101391999999REMMET057METAR ETGQ 151320Z 00000KT 9999 FEW350 04/M00 Q1014 BLU/;
0125102340999992008121514204+53133+009350FM-15+0061ETGQ V0209999V001012200019N0112651N1+00401+00001999999ADDGA1021+105001999GF102991999999999999999999MA1101391999999REMMET056METAR ETGQ 151420Z VRB02KT 9999 FEW350 04/00 Q1014 BLU/;
0125102340999992008121515204+53133+009350FM-15+0061ETGQ V0201601N001012200019N0112651N1+00301+00001999999ADDGA1021+105001999GF102991999999999999999999MA1101391999999REMMET056METAR ETGQ 151520Z 16002KT 9999 FEW350 03/00 Q1014 BLU/;
0125102340999992008121516204+53133+009350FM-15+0061ETGQ V0209999C000012200019N0112651N1+00201+00001999999ADDGA1021+105001999GF102991999999999999999999MA1101491999999REMMET056METAR ETGQ 151620Z 00000KT 9999 FEW350 02/00 Q1015 BLU/;
0134102340999992008121517204+53133+009350FM-15+0061ETGQ V0202801N001010024019N0050001N1+00001-00101999999ADDGA1071+002401999GF107991999999999999999999MA1101591999999MW1101REMMET059METAR ETGQ 151720Z 28002KT 5000 BR BKN008 00/M01 Q1016 GRN;
0134102340999992008121518204+53133+009350FM-15+0061ETGQ V0203301N001010018019N0050001N1+00001+00001999999ADDGA1071+001801999GF107991999999999999999999MA1101591999999MW1101REMMET059METAR ETGQ 151820Z 33002KT 5000 BR BKN006 00/M00 Q1016 YLO;
0134102340999992008121519204+53133+009350FM-15+0061ETGQ V0203301N002110015019N0050001N1+00101+00001999999ADDGA1081+001501999GF108991999999999999999999MA1101691999999MW1101REMMET059METAR ETGQ 151920Z 33004KT 5000 BR OVC005 01/M00 Q1017 YLO;
0125102340999992008121605204+53133+009350FM-15+0061ETGQ V0203501N002110012019N0080001N1+00001-00101999999ADDGA1071+001201999GF107991999999999999999999MA1101691999999REMMET056METAR ETGQ 160520Z 35004KT 8000 BKN004 00/M01 Q1017 YLO;
0126102340999992008121606204+53133+009350FM-15+0061ETGQ V0200401N001010015019N0060001N1+00001-00101999999ADDGA1071+001501999GF107991999999999999999999MA1101691999999REMMET057METAR ETGQ 160620Z 04002KT 6000 BKN005 M00/M01 Q1017 YLO;
0126102340999992008121607204+53133+009350FM-15+0061ETGQ V0203601N001010018019N0070001N1+00001-00101999999ADDGA1081+001801999GF108991999999999999999999MA1101691999999REMMET057METAR ETGQ 160720Z 36002KT 7000 OVC006 M00/M01 Q1017 YLO;
0126102340999992008121608204+53133+009350FM-15+0061ETGQ V0209999C000010021019N0070001N1+00001-00201999999ADDGA1081+002101999GF108991999999999999999999MA1101691999999REMMET057METAR ETGQ 160820Z 00000KT 7000 OVC007 M00/M02 Q1017 GRN;
0126102340999992008121609204+53133+009350FM-15+0061ETGQ V0209999C000010021019N0070001N1+00001-00101999999ADDGA1081+002101999GF108991999999999999999999MA1101691999999REMMET057METAR ETGQ 160920Z 00000KT 7000 OVC007 M00/M01 Q1017 GRN;
0125102340999992008121610204+53133+009350FM-15+0061ETGQ V0203001N000510018019N0070001N1+00001-00101999999ADDGA1081+001801999GF108991999999999999999999MA1101691999999REMMET056METAR ETGQ 161020Z 30001KT 7000 OVC006 00/M01 Q1017 YLO;
0125102340999992008121611204+53133+009350FM-15+0061ETGQ V0203201N000510018019N0070001N1+00001-00101999999ADDGA1081+001801999GF108991999999999999999999MA1101591999999REMMET056METAR ETGQ 161120Z 32001KT 7000 OVC006 00/M01 Q1016 YLO;
0125102340999992008121612204+53133+009350FM-15+0061ETGQ V0209999C000010018019N0070001N1+00001-00101999999ADDGA1081+001801999GF108991999999999999999999MA1101491999999REMMET056METAR ETGQ 161220Z 00000KT 7000 OVC006 00/M01 Q1015 YLO;
0125102340999992008121613204+53133+009350FM-15+0061ETGQ V0209999C000010021019N0070001N1+00001-00101999999ADDGA1081+002101999GF108991999999999999999999MA1101491999999REMMET056METAR ETGQ 161320Z 00000KT 7000 OVC007 00/M01 Q1015 GRN;
0125102340999992008121614204+53133+009350FM-15+0061ETGQ V0203201N000510021019N0070001N1+00101+00001999999ADDGA1081+002101999GF108991999999999999999999MA1101391999999REMMET056METAR ETGQ 161420Z 32001KT 7000 OVC007 01/M00 Q1014 GRN;
0134102340999992008121615204+53133+009350FM-15+0061ETGQ V0202901N001010018019N0050001N1+00001+00001999999ADDGA1081+001801999GF108991999999999999999999MA1101391999999MW1101REMMET059METAR ETGQ 161520Z 29002KT 5000 BR OVC006 00/M00 Q1014 YLO;
0134102340999992008121616204+53133+009350FM-15+0061ETGQ V0209999C000010018019N0050001N1+00101+00001999999ADDGA1081+001801999GF108991999999999999999999MA1101391999999MW1101REMMET059METAR ETGQ 161620Z 00000KT 5000 BR OVC006 01/M00 Q1014 YLO;
0134102340999992008121617204+53133+009350FM-15+0061ETGQ V0209999C000010018019N0050001N1+00001-00101999999ADDGA1081+001801999GF108991999999999999999999MA1101391999999MW1101REMMET059METAR ETGQ 161720Z 00000KT 5000 BR OVC006 00/M01 Q1014 YLO;
0134102340999992008121618204+53133+009350FM-15+0061ETGQ V0209999C000010018019N0050001N1+00101+00001999999ADDGA1081+001801999GF108991999999999999999999MA1101391999999MW1101REMMET059METAR ETGQ 161820Z 00000KT 5000 BR OVC006 01/M00 Q1014 YLO;
0134102340999992008121619204+53133+009350FM-15+0061ETGQ V0209999C000010018019N0050001N1+00101+00001999999ADDGA1081+001801999GF108991999999999999999999MA1101291999999MW1101REMMET059METAR ETGQ 161920Z 00000KT 5000 BR OVC006 01/M00 Q1013 YLO;
0126102340999992008121705204+53133+009350FM-15+0061ETGQ V0203201N001010015019N0060001N1-00101-00201999999ADDGA1081+001501999GF108991999999999999999999MA1101191999999REMMET057METAR ETGQ 170520Z 32002KT 6000 OVC005 M01/M02 Q1012 YLO;
0126102340999992008121706204+53133+009350FM-15+0061ETGQ V0209999C000010018019N0060001N1-00201-00301999999ADDGA1081+001801999GF108991999999999999999999MA1101191999999REMMET057METAR ETGQ 170620Z 00000KT 6000 OVC006 M02/M03 Q1012 YLO;
0126102340999992008121707204+53133+009350FM-15+0061ETGQ V0209999C000010021019N0080001N1-00101-00301999999ADDGA1081+002101999GF108991999999999999999999MA1101191999999REMMET057METAR ETGQ 170720Z 00000KT 8000 OVC007 M01/M03 Q1012 GRN;
0126102340999992008121708204+53133+009350FM-15+0061ETGQ V0201901N000510021019N0080001N1-00101-00301999999ADDGA1071+002101999GF107991999999999999999999MA1101191999999REMMET057METAR ETGQ 170820Z 19001KT 8000 BKN007 M01/M03 Q1012 GRN;
0126102340999992008121709204+53133+009350FM-15+0061ETGQ V0202401N000510024019N0080001N1-00101-00301999999ADDGA1071+002401999GF107991999999999999999999MA1101291999999REMMET057METAR ETGQ 170920Z 24001KT 8000 BKN008 M01/M03 Q1013 GRN;
0126102340999992008121710204+53133+009350FM-15+0061ETGQ V0201901N001010027019N0080001N1-00101-00301999999ADDGA1071+002701999GF107991999999999999999999MA1101291999999REMMET057METAR ETGQ 171020Z 19002KT 8000 BKN009 M01/M03 Q1013 GRN;
0126102340999992008121711204+53133+009350FM-15+0061ETGQ V0202501N000510030019N0112651N1+00001-00301999999ADDGA1071+003001999GF107991999999999999999999MA1101291999999REMMET057METAR ETGQ 171120Z 25001KT 9999 BKN010 M00/M03 Q1013 GRN;
0125102340999992008121712204+53133+009350FM-15+0061ETGQ V0202401N000510030019N0112651N1+00001-00201999999ADDGA1071+003001999GF107991999999999999999999MA1101291999999REMMET056METAR ETGQ 171220Z 24001KT 9999 BKN010 00/M02 Q1013 GRN;
0134102340999992008121713204+53133+009350FM-15+0061ETGQ V0209999C000010018019N0035001N1+00001-00101999999ADDGA1081+001801999GF108991999999999999999999MA1101291999999MW1101REMMET059METAR ETGQ 171320Z 00000KT 3500 BR OVC006 00/M01 Q1013 YLO;
0134102340999992008121714204+53133+009350FM-15+0061ETGQ V0209999C000010015019N0040001N1+00001-00101999999ADDGA1081+001501999GF108991999999999999999999MA1101291999999MW1101REMMET059METAR ETGQ 171420Z 00000KT 4000 BR OVC005 00/M01 Q1013 YLO;
0144102340999992008121715204+53133+009350FM-15+0061ETGQ V0209999C000010021019N0050001N1+00001-00101999999ADDGA1081+002101999GF108991999999999999999999MA1101391999999MW1101MW2611REMMET063METAR ETGQ 171520Z 00000KT 5000 -RA BR OVC007 00/M01 Q1014 GRN;
0144102340999992008121716204+53133+009350FM-15+0061ETGQ V0209999C000010024019N0050001N1+00001+00001999999ADDGA1081+002401999GF108991999999999999999999MA1101391999999MW1101MW2611REMMET063METAR ETGQ 171620Z 00000KT 5000 -RA BR OVC008 00/M00 Q1014 GRN;
0167102340999992008121717204+53133+009350FM-15+0061ETGQ V0209999C000010021019N0050001N1+00101+00001999999ADDGA1071+002101999GA2081+003901999GF108991999999999999999999MA1101491999999MW1101MW2611REMMET070METAR ETGQ 171720Z 00000KT 5000 -RA BR BKN007 OVC013 01/M00 Q1015 GRN;
0167102340999992008121718204+53133+009350FM-15+0061ETGQ V0209999C000010036019N0050001N1+00101+00001999999ADDGA1041+001501999GA2081+003601999GF108991999999999999999999MA1101491999999MW1101MW2611REMMET070METAR ETGQ 171820Z 00000KT 5000 -RA BR SCT005 OVC012 01/M00 Q1015 GRN;
0143102340999992008121719204+53133+009350FM-15+0061ETGQ V0209999C000010018019N0030001N1+00101+00001999999ADDGA1081+001801999GF108991999999999999999999MA1101591999999MW1101MW2611REMMET062METAR ETGQ 171920Z 00000KT 3000 -RA BR OVC006 01/00 Q1016 YLO;
0124102340999992008121805204+53133+009350FM-15+0061ETGQ V0209999C000010018019N0060001N1+00201+00101999999ADDGA1071+001801999GF107991999999999999999999MA1102001999999REMMET055METAR ETGQ 180520Z 00000KT 6000 BKN006 02/01 Q1020 YLO;
0124102340999992008121806204+53133+009350FM-15+0061ETGQ V0209999C000010024019N0060001N1+00201+00101999999ADDGA1081+002401999GF108991999999999999999999MA1102001999999REMMET055METAR ETGQ 180620Z 00000KT 6000 OVC008 02/01 Q1020 GRN;
0147102340999992008121807204+53133+009350FM-15+0061ETGQ V0209999C000010036019N0060001N1+00201+00101999999ADDGA1041+002401999GA2071+003601999GF107991999999999999999999MA1102101999999REMMET062METAR ETGQ 180720Z 00000KT 6000 SCT008 BKN012 02/01 Q1021 GRN;
0147102340999992008121808204+53133+009350FM-15+0061ETGQ V0209999C000010042019N0080001N1+00201+00201999999ADDGA1041+003001999GA2071+004201999GF107991999999999999999999MA1102101999999REMMET062METAR ETGQ 180820Z 00000KT 8000 SCT010 BKN014 02/02 Q1021 GRN;
0124102340999992008121809204+53133+009350FM-15+0061ETGQ V0202501N001510036019N0080001N1+00301+00101999999ADDGA1071+003601999GF107991999999999999999999MA1102201999999REMMET055METAR ETGQ 180920Z 25003KT 8000 BKN012 03/01 Q1022 GRN;
0147102340999992008121810204+53133+009350FM-15+0061ETGQ V0202201N002610063019N0112651N1+00301+00101999999ADDGA1021+003001999GA2071+006301999GF107991999999999999999999MA1102101999999REMMET062METAR ETGQ 181020Z 22005KT 9999 FEW010 BKN021 03/01 Q1021 WHT;
0147102340999992008121811204+53133+009350FM-15+0061ETGQ V0202501N003110042019N0112651N1+00301+00101999999ADDGA1041+003001999GA2071+004201999GF107991999999999999999999MA1102101999999REMMET062METAR ETGQ 181120Z 25006KT 9999 SCT010 BKN014 03/01 Q1021 GRN;
0125102340999992008121812204+53133+009350FM-15+0061ETGQ V0201701N002112200019N0112651N1+00401+00001999999ADDGA1041+003901999GF104991999999999999999999MA1102101999999REMMET056METAR ETGQ 181220Z 17004KT 9999 SCT013 04/00 Q1021 BLU/;
0124102340999992008121813204+53133+009350FM-15+0061ETGQ V0209999V001010045019N0112651N1+00301+00001999999ADDGA1071+004501999GF107991999999999999999999MA1102101999999REMMET055METAR ETGQ 181320Z VRB02KT 9999 BKN015 03/00 Q1021 WHT;
0147102340999992008121814204+53133+009350FM-15+0061ETGQ V0201801N001510180019N0112651N1+00301+00001999999ADDGA1041+004501999GA2071+018001999GF107991999999999999999999MA1102101999999REMMET062METAR ETGQ 181420Z 18003KT 9999 SCT015 BKN060 03/00 Q1021 BLU;
0124102340999992008121815204+53133+009350FM-15+0061ETGQ V0201601N001510042019N0112651N1+00301+00001999999ADDGA1071+004201999GF107991999999999999999999MA1102201999999REMMET055METAR ETGQ 181520Z 16003KT 9999 BKN014 03/00 Q1022 GRN;
0124102340999992008121816204+53133+009350FM-15+0061ETGQ V0201801N001010036019N0112651N1+00301+00101999999ADDGA1071+003601999GF107991999999999999999999MA1102101999999REMMET055METAR ETGQ 181620Z 18002KT 9999 BKN012 03/01 Q1021 GRN;
0124102340999992008121817204+53133+009350FM-15+0061ETGQ V0201501N000510039019N0112651N1+00301+00101999999ADDGA1071+003901999GF107991999999999999999999MA1102101999999REMMET055METAR ETGQ 181720Z 15001KT 9999 BKN013 03/01 Q1021 GRN;
0124102340999992008121818204+53133+009350FM-15+0061ETGQ V0209999C000010033019N0112651N1+00301+00101999999ADDGA1071+003301999GF107991999999999999999999MA1102101999999REMMET055METAR ETGQ 181820Z 00000KT 9999 BKN011 03/01 Q1021 GRN;
0124102340999992008121819204+53133+009350FM-15+0061ETGQ V0202201N001510051019N0112651N1+00301+00101999999ADDGA1071+005101999GF107991999999999999999999MA1102101999999REMMET055METAR ETGQ 181920Z 22003KT 9999 BKN017 03/01 Q1021 WHT;
0147102340999992008121905204+53133+009350FM-15+0061ETGQ V0202201N001010060019N0080001N1+00401+00201999999ADDGA1041+003001999GA2071+006001999GF107991999999999999999999MA1101901999999REMMET062METAR ETGQ 190520Z 22002KT 8000 SCT010 BKN020 04/02 Q1019 WHT;
0147102340999992008121906204+53133+009350FM-15+0061ETGQ V0209999V000510060019N0080001N1+00501+00301999999ADDGA1041+003001999GA2081+006001999GF108991999999999999999999MA1102001999999REMMET062METAR ETGQ 190620Z VRB01KT 8000 SCT010 OVC020 05/03 Q1020 WHT;
0124102340999992008121907204+53133+009350FM-15+0061ETGQ V0202301N001510060019N0080001N1+00501+00301999999ADDGA1071+006001999GF107991999999999999999999MA1102001999999REMMET055METAR ETGQ 190720Z 23003KT 8000 BKN020 05/03 Q1020 WHT;
0124102340999992008121908204+53133+009350FM-15+0061ETGQ V0209999C000010045019N0090001N1+00501+00301999999ADDGA1071+004501999GF107991999999999999999999MA1102101999999REMMET055METAR ETGQ 190820Z 00000KT 9000 BKN015 05/03 Q1021 WHT;
0147102340999992008121909204+53133+009350FM-15+0061ETGQ V0202001N000510054019N0112651N1+00501+00401999999ADDGA1041+003901999GA2071+005401999GF107991999999999999999999MA1102201999999REMMET062METAR ETGQ 190920Z 20001KT 9999 SCT013 BKN018 05/04 Q1022 WHT;
0124102340999992008121910204+53133+009350FM-15+0061ETGQ V0203101N004110054019N0112651N1+00801+00401999999ADDGA1071+005401999GF107991999999999999999999MA1102301999999REMMET055METAR ETGQ 191020Z 31008KT 9999 BKN018 08/04 Q1023 WHT;
0124102340999992008121911204+53133+009350FM-15+0061ETGQ V0203101N004110060019N0112651N1+00801+00301999999ADDGA1071+006001999GF107991999999999999999999MA1102301999999REMMET055METAR ETGQ 191120Z 31008KT 9999 BKN020 08/03 Q1023 WHT;
0124102340999992008121912204+53133+009350FM-15+0061ETGQ V0203101N004110066019N0112651N1+00801+00301999999ADDGA1071+006601999GF107991999999999999999999MA1102301999999REMMET055METAR ETGQ 191220Z 31008KT 9999 BKN022 08/03 Q1023 WHT;
0125102340999992008121913204+53133+009350FM-15+0061ETGQ V0203001N003112200019N0112651N1+00701+00201999999ADDGA1041+009001999GF104991999999999999999999MA1102301999999REMMET056METAR ETGQ 191320Z 30006KT 9999 SCT030 07/02 Q1023 BLU/;
0125102340999992008121915204+53133+009350FM-15+0061ETGQ V0203001N002612200019N0112651N1+00601+00101999999ADDGA1041+015001999GF104991999999999999999999MA1102511999999REMMET056METAR ETGQ 191520Z 30005KT 9999 SCT050 06/01 Q1025 BLU/;
0125102340999992008121916204+53133+009350FM-15+0061ETGQ V0202901N002112200019N0112651N1+00601+00101999999ADDGA1041+015001999GF104991999999999999999999MA1102511999999REMMET056METAR ETGQ 191620Z 29004KT 9999 SCT050 06/01 Q1025 BLU/;
0124102340999992008121917204+53133+009350FM-15+0061ETGQ V0202501N001510135019N0112651N1+00501+00101999999ADDGA1071+013501999GF107991999999999999999999MA1102611999999REMMET055METAR ETGQ 191720Z 25003KT 9999 BKN045 05/01 Q1026 BLU;
0126102340999992008121918204+53133+009350FM-15+0061ETGQ V0202401N000512200019N0112651N1+00401+00001999999ADDGA1041+012001999GF104991999999999999999999MA1102611999999REMMET057METAR ETGQ 191820Z 24001KT 9999 SCT040 04/M00 Q1026 BLU/;
0076102340999992008121919204+53133+009350FM-15+0061ETGQ V0209999C000012200019N0112651N1+00301+00101999999ADDMA1102611999999REMMET049METAR ETGQ 191920Z 00000KT 9999 03/01 Q1026 BLU/;
0134102340999992008122205204+53133+009350FM-15+0061ETGQ V0202401N000510066019N0112651N1+00801+00701999999ADDGA1071+006601999GF107991999999999999999999MA1103121999999MW1611REMMET059METAR ETGQ 220520Z 24001KT 9999 -RA BKN022 08/07 Q1031 WHT;
0124102340999992008122206204+53133+009350FM-15+0061ETGQ V0202201N002110054019N0112651N1+00901+00601999999ADDGA1071+005401999GF107991999999999999999999MA1103121999999REMMET055METAR ETGQ 220620Z 22004KT 9999 BKN018 09/06 Q1031 WHT;
0124102340999992008122207204+53133+009350FM-15+0061ETGQ V0202501N001510060019N0112651N1+00801+00601999999ADDGA1081+006001999GF108991999999999999999999MA1103121999999REMMET055METAR ETGQ 220720Z 25003KT 9999 OVC020 08/06 Q1031 WHT;
0124102340999992008122208204+53133+009350FM-15+0061ETGQ V0202401N001510066019N0112651N1+00901+00601999999ADDGA1071+006601999GF107991999999999999999999MA1103121999999REMMET055METAR ETGQ 220820Z 24003KT 9999 BKN022 09/06 Q1031 WHT;
0124102340999992008122209204+53133+009350FM-15+0061ETGQ V0202701N002610060019N0080001N1+01001+00701999999ADDGA1071+006001999GF107991999999999999999999MA1103121999999REMMET055METAR ETGQ 220920Z 27005KT 8000 BKN020 10/07 Q1031 WHT;
0124102340999992008122210204+53133+009350FM-15+0061ETGQ V0202601N002610063019N0080001N1+01001+00701999999ADDGA1071+006301999GF107991999999999999999999MA1103121999999REMMET055METAR ETGQ 221020Z 26005KT 8000 BKN021 10/07 Q1031 WHT;
0124102340999992008122211204+53133+009350FM-15+0061ETGQ V0202801N002610069019N0080001N1+01101+00701999999ADDGA1071+006901999GF107991999999999999999999MA1103121999999REMMET055METAR ETGQ 221120Z 28005KT 8000 BKN023 11/07 Q1031 WHT;
0124102340999992008122212204+53133+009350FM-15+0061ETGQ V0203201N003110066019N0112651N1+01101+00701999999ADDGA1071+006601999GF107991999999999999999999MA1103121999999REMMET055METAR ETGQ 221220Z 32006KT 9999 BKN022 11/07 Q1031 WHT;
0147102340999992008122213204+53133+009350FM-15+0061ETGQ V0203201N003610114019N0112651N1+01001+00701999999ADDGA1021+006001999GA2071+011401999GF107991999999999999999999MA1103181999999REMMET062METAR ETGQ 221320Z 32007KT 9999 FEW020 BKN038 10/07 Q1032 BLU;
0147102340999992008122214204+53133+009350FM-15+0061ETGQ V0203501N002610117019N0112651N1+01001+00701999999ADDGA1041+005101999GA2071+011701999GF107991999999999999999999MA1103181999999REMMET062METAR ETGQ 221420Z 35005KT 9999 SCT017 BKN039 10/07 Q1032 BLU;
0124102340999992008122215204+53133+009350FM-15+0061ETGQ V0202901N001010126019N0112651N1+01001+00601999999ADDGA1071+012601999GF107991999999999999999999MA1103181999999REMMET055METAR ETGQ 221520Z 29002KT 9999 BKN042 10/06 Q1032 BLU;
0147102340999992008122216204+53133+009350FM-15+0061ETGQ V0203101N001510138019N0112651N1+00901+00601999999ADDGA1021+006901999GA2071+013801999GF107991999999999999999999MA1103181999999REMMET062METAR ETGQ 221620Z 31003KT 9999 FEW023 BKN046 09/06 Q1032 BLU;
0124102340999992008122217204+53133+009350FM-15+0061ETGQ V0203101N000510132019N0112651N1+00801+00601999999ADDGA1071+013201999GF107991999999999999999999MA1103291999999REMMET055METAR ETGQ 221720Z 31001KT 9999 BKN044 08/06 Q1033 BLU;
0125102340999992008122218204+53133+009350FM-15+0061ETGQ V0209999C000012200019N0112651N1+00701+00501999999ADDGA1041+012601999GF104991999999999999999999MA1103291999999REMMET056METAR ETGQ 221820Z 00000KT 9999 SCT042 07/05 Q1033 BLU/;
0148102340999992008122219204+53133+009350FM-15+0061ETGQ V0209999C000012200019N0112651N1+00701+00501999999ADDGA1021+005701999GA2041+011701999GF104991999999999999999999MA1103391999999REMMET063METAR ETGQ 221920Z 00000KT 9999 FEW019 SCT039 07/05 Q1034 BLU/;
0124102340999992008122305204+53133+009350FM-15+0061ETGQ V0203301N002110084019N0112651N1+00601+00401999999ADDGA1071+008401999GF107991999999999999999999MA1103491999999REMMET055METAR ETGQ 230520Z 33004KT 9999 BKN028 06/04 Q1035 BLU;
0124102340999992008122306204+53133+009350FM-15+0061ETGQ V0203301N001510063019N0112651N1+00601+00501999999ADDGA1071+006301999GF107991999999999999999999MA1103491999999REMMET055METAR ETGQ 230620Z 33003KT 9999 BKN021 06/05 Q1035 WHT;
0124102340999992008122307204+53133+009350FM-15+0061ETGQ V0209999C000010069019N0112651N1+00501+00401999999ADDGA1071+006901999GF107991999999999999999999MA1103491999999REMMET055METAR ETGQ 230720Z 00000KT 9999 BKN023 05/04 Q1035 WHT;
0124102340999992008122308204+53133+009350FM-15+0061ETGQ V0209999C000010051019N0112651N1+00501+00401999999ADDGA1071+005101999GF107991999999999999999999MA1103591999999REMMET055METAR ETGQ 230820Z 00000KT 9999 BKN017 05/04 Q1036 WHT;
0124102340999992008122309204+53133+009350FM-15+0061ETGQ V0209999C000010060019N0112651N1+00601+00401999999ADDGA1071+006001999GF107991999999999999999999MA1103591999999REMMET055METAR ETGQ 230920Z 00000KT 9999 BKN020 06/04 Q1036 WHT;
0124102340999992008122310204+53133+009350FM-15+0061ETGQ V0202901N000510048019N0112651N1+00701+00401999999ADDGA1071+004801999GF107991999999999999999999MA1103591999999REMMET055METAR ETGQ 231020Z 29001KT 9999 BKN016 07/04 Q1036 WHT;
0124102340999992008122311204+53133+009350FM-15+0061ETGQ V0202901N000510048019N0112651N1+00701+00401999999ADDGA1071+004801999GF107991999999999999999999MA1103591999999REMMET055METAR ETGQ 231120Z 29001KT 9999 BKN016 07/04 Q1036 WHT;
0124102340999992008122312204+53133+009350FM-15+0061ETGQ V0203001N001510048019N0112651N1+00701+00401999999ADDGA1071+004801999GF107991999999999999999999MA1103591999999REMMET055METAR ETGQ 231220Z 30003KT 9999 BKN016 07/04 Q1036 WHT;
0124102340999992008122313204+53133+009350FM-15+0061ETGQ V0203101N001510054019N0112651N1+00701+00401999999ADDGA1071+005401999GF107991999999999999999999MA1103591999999REMMET055METAR ETGQ 231320Z 31003KT 9999 BKN018 07/04 Q1036 WHT;
0124102340999992008122314204+53133+009350FM-15+0061ETGQ V0203101N002110054019N0112651N1+00701+00401999999ADDGA1071+005401999GF107991999999999999999999MA1103591999999REMMET055METAR ETGQ 231420Z 31004KT 9999 BKN018 07/04 Q1036 WHT;
0124102340999992008122315204+53133+009350FM-15+0061ETGQ V0209999C000010054019N0112651N1+00701+00401999999ADDGA1071+005401999GF107991999999999999999999MA1103591999999REMMET055METAR ETGQ 231520Z 00000KT 9999 BKN018 07/04 Q1036 WHT;
0124102340999992008122316204+53133+009350FM-15+0061ETGQ V0209999C000010060019N0090001N1+00701+00401999999ADDGA1071+006001999GF107991999999999999999999MA1103591999999REMMET055METAR ETGQ 231620Z 00000KT 9000 BKN020 07/04 Q1036 WHT;
0124102340999992008122317204+53133+009350FM-15+0061ETGQ V0209999C000010060019N0090001N1+00601+00401999999ADDGA1071+006001999GF107991999999999999999999MA1103691999999REMMET055METAR ETGQ 231720Z 00000KT 9000 BKN020 06/04 Q1037 WHT;
0124102340999992008122318204+53133+009350FM-15+0061ETGQ V0209999C000010060019N0090001N1+00601+00401999999ADDGA1071+006001999GF107991999999999999999999MA1103691999999REMMET055METAR ETGQ 231820Z 00000KT 9000 BKN020 06/04 Q1037 WHT;
0078102340999992008122905204+53133+009350FM-15+0061ETGQ V0209999C000012200019N0112651N1-00701-00801999999ADDMA1103011999999REMMET051METAR ETGQ 290520Z 00000KT 9999 M07/M08 Q1030 BLU/;
0078102340999992008122906204+53133+009350FM-15+0061ETGQ V0209999C000012200019N0112651N1-00701-00801999999ADDMA1103011999999REMMET051METAR ETGQ 290620Z 00000KT 9999 M07/M08 Q1030 BLU/;
0078102340999992008122907204+53133+009350FM-15+0061ETGQ V0209999C000012200019N0112651N1-00801-00901999999ADDMA1103011999999REMMET051METAR ETGQ 290720Z 00000KT 9999 M08/M09 Q1030 BLU/;
0078102340999992008122908204+53133+009350FM-15+0061ETGQ V0209999C000012200019N0112651N1-00701-00801999999ADDMA1103121999999REMMET051METAR ETGQ 290820Z 00000KT 9999 M07/M08 Q1031 BLU/;
0078102340999992008122909204+53133+009350FM-15+0061ETGQ V0209999C000012200019N0112651N1-00501-00701999999ADDMA1103121999999REMMET051METAR ETGQ 290920Z 00000KT 9999 M05/M07 Q1031 BLU/;
0078102340999992008122910204+53133+009350FM-15+0061ETGQ V0209999C000012200019N0112651N1-00301-00601999999ADDMA1103121999999REMMET051METAR ETGQ 291020Z 00000KT 9999 M03/M06 Q1031 BLU/;
0078102340999992008122911204+53133+009350FM-15+0061ETGQ V0209999C000012200019N0112651N1-00201-00601999999ADDMA1103121999999REMMET051METAR ETGQ 291120Z 00000KT 9999 M02/M06 Q1031 BLU/;
0078102340999992008122912204+53133+009350FM-15+0061ETGQ V0209999C000012200019N0112651N1-00101-00601999999ADDMA1103011999999REMMET051METAR ETGQ 291220Z 00000KT 9999 M01/M06 Q1030 BLU/;
0077102340999992008122913204+53133+009350FM-15+0061ETGQ V0209999C000012200019N0112651N1+00101-00601999999ADDMA1103011999999REMMET050METAR ETGQ 291320Z 00000KT 9999 01/M06 Q1030 BLU/;
0077102340999992008122914204+53133+009350FM-15+0061ETGQ V0201301N002112200019N0112651N1+00101-00601999999ADDMA1103011999999REMMET050METAR ETGQ 291420Z 13004KT 9999 01/M06 Q1030 BLU/;
0077102340999992008122915204+53133+009350FM-15+0061ETGQ V0201201N001512200019N0112651N1+00001-00601999999ADDMA1103011999999REMMET050METAR ETGQ 291520Z 12003KT 9999 00/M06 Q1030 BLU/;
0078102340999992008122916204+53133+009350FM-15+0061ETGQ V0201401N001012200019N0112651N1-00101-00601999999ADDMA1103121999999REMMET051METAR ETGQ 291620Z 14002KT 9999 M01/M06 Q1031 BLU/;
0078102340999992008122917204+53133+009350FM-15+0061ETGQ V0200801N000512200019N0112651N1-00201-00601999999ADDMA1103121999999REMMET051METAR ETGQ 291720Z 08001KT 9999 M02/M06 Q1031 BLU/;
0078102340999992008122918204+53133+009350FM-15+0061ETGQ V0209999C000012200019N0112651N1-00201-00601999999ADDMA1103181999999REMMET051METAR ETGQ 291820Z 00000KT 9999 M02/M06 Q1032 BLU/;
0078102340999992008122919204+53133+009350FM-15+0061ETGQ V0209999C000012200019N0112651N1-00301-00601999999ADDMA1103181999999REMMET051METAR ETGQ 291920Z 00000KT 9999 M03/M06 Q1032 BLU/;
0078102340999992008123005204+53133+009350FM-15+0061ETGQ V0209999C000012200019N0112651N1-00601-00701999999ADDMA1103291999999REMMET051METAR ETGQ 300520Z 00000KT 9999 M06/M07 Q1033 BLU/;
0078102340999992008123006204+53133+009350FM-15+0061ETGQ V0209999C000012200019N0112651N1-00601-00701999999ADDMA1103291999999REMMET051METAR ETGQ 300620Z 00000KT 9999 M06/M07 Q1033 BLU/;
0078102340999992008123007204+53133+009350FM-15+0061ETGQ V0209999C000012200019N0080001N1-00601-00701999999ADDMA1103291999999REMMET051METAR ETGQ 300720Z 00000KT 8000 M06/M07 Q1033 BLU/;
0078102340999992008123009204+53133+009350FM-15+0061ETGQ V0209999C000012200019N0080001N1-00501-00701999999ADDMA1103291999999REMMET051METAR ETGQ 300920Z 00000KT 8000 M05/M07 Q1033 BLU/;
0078102340999992008123010204+53133+009350FM-15+0061ETGQ V0209999C000012200019N0080001N1-00401-00701999999ADDMA1103181999999REMMET051METAR ETGQ 301020Z 00000KT 8000 M04/M07 Q1032 BLU/;
0078102340999992008123011204+53133+009350FM-15+0061ETGQ V0209999C000012200019N0112651N1-00201-00701999999ADDMA1103121999999REMMET051METAR ETGQ 301120Z 00000KT 9999 M02/M07 Q1031 BLU/;
0078102340999992008123012204+53133+009350FM-15+0061ETGQ V0209999C000012200019N0112651N1-00101-00701999999ADDMA1103121999999REMMET051METAR ETGQ 301220Z 00000KT 9999 M01/M07 Q1031 BLU/;
0078102340999992008123013204+53133+009350FM-15+0061ETGQ V0201401N000512200019N0112651N1+00001-00601999999ADDMA1103011999999REMMET051METAR ETGQ 301320Z 14001KT 9999 M00/M06 Q1030 BLU/;
0077102340999992008123014204+53133+009350FM-15+0061ETGQ V0201501N002112200019N0112651N1+00101-00601999999ADDMA1103011999999REMMET050METAR ETGQ 301420Z 15004KT 9999 01/M06 Q1030 BLU/;
0078102340999992008123015204+53133+009350FM-15+0061ETGQ V0209999C000012200019N0112651N1+00001-00601999999ADDMA1103011999999REMMET051METAR ETGQ 301520Z 00000KT 9999 M00/M06 Q1030 BLU/;
0078102340999992008123016204+53133+009350FM-15+0061ETGQ V0209999C000012200019N0112651N1-00101-00601999999ADDMA1103011999999REMMET051METAR ETGQ 301620Z 00000KT 9999 M01/M06 Q1030 BLU/;
0078102340999992008123017204+53133+009350FM-15+0061ETGQ V0201401N000512200019N0112651N1-00201-00601999999ADDMA1103121999999REMMET051METAR ETGQ 301720Z 14001KT 9999 M02/M06 Q1031 BLU/;
0078102340999992008123018204+53133+009350FM-15+0061ETGQ V0209999C000012200019N0112651N1-00301-00601999999ADDMA1103011999999REMMET051METAR ETGQ 301820Z 00000KT 9999 M03/M06 Q1030 BLU/;
0078102340999992008123019204+53133+009350FM-15+0061ETGQ V0209999C000012200019N0112651N1-00401-00601999999ADDMA1103121999999REMMET051METAR ETGQ 301920Z 00000KT 9999 M04/M06 Q1031 BLU/;
0170102340999992008123115364+53133+009350FM-16+0061ETGQ V0209999C000010180019N0040001N1-00101-00401999999ADDGA1041+012001999GA2071+018001999GF107991999999999999999999MA1102511999999MW1051MW2561REMMET073SPECI ETGQ 311536Z 00000KT 4000 -FZDZ HZ SCT040 BKN060 M01/M04 Q1025 GRN;
