0135102340999992009010205204+53133+009350FM-15+0061ETGQ V0209999C000010036019N0035001N1-00301-00501999999ADDGA1071+003601999GF107991999999999999999999MA1102611999999MW1101REMMET060METAR ETGQ 020520Z 00000KT 3500 BR BKN012 M03/M05 Q1026 YLO;
0135102340999992009010206204+53133+009350FM-15+0061ETGQ V0209999C000010036019N0035001N1-00301-00501999999ADDGA1081+003601999GF108991999999999999999999MA1102611999999MW1101REMMET060METAR ETGQ 020620Z 00000KT 3500 BR OVC012 M03/M05 Q1026 YLO;
0145102340999992009010207204+53133+009350FM-15+0061ETGQ V0209999C000010039019N0035001N1-00301-00401999999ADDGA1081+003901999GF108991999999999999999999MA1102711999999MW1101MW2711REMMET064METAR ETGQ 020720Z 00000KT 3500 -SN BR OVC013 M03/M04 Q1027 YLO;
0135102340999992009010208204+53133+009350FM-15+0061ETGQ V0209999C000010033019N0035001N1-00301-00401999999ADDGA1081+003301999GF108991999999999999999999MA1102711999999MW1101REMMET060METAR ETGQ 020820Z 00000KT 3500 BR OVC011 M03/M04 Q1027 YLO;
0135102340999992009010209204+53133+009350FM-15+0061ETGQ V0209999C000010030019N0030001N1-00301-00401999999ADDGA1081+003001999GF108991999999999999999999MA1102711999999MW1101REMMET060METAR ETGQ 020920Z 00000KT 3000 BR OVC010 M03/M04 Q1027 YLO;
0135102340999992009010210204+53133+009350FM-15+0061ETGQ V0209999C000010027019N0035001N1-00201-00401999999ADDGA1081+002701999GF108991999999999999999999MA1102711999999MW1101REMMET060METAR ETGQ 021020Z 00000KT 3500 BR OVC009 M02/M04 Q1027 YLO;
0135102340999992009010211204+53133+009350FM-15+0061ETGQ V0209999C000010018019N0030001N1-00201-00401999999ADDGA1081+001801999GF108991999999999999999999MA1102711999999MW1101REMMET060METAR ETGQ 021120Z 00000KT 3000 BR OVC006 M02/M04 Q1027 YLO;
0135102340999992009010212204+53133+009350FM-15+0061ETGQ V0209999C000010018019N0030001N1-00201-00301999999ADDGA1081+001801999GF108991999999999999999999MA1102711999999MW1101REMMET060METAR ETGQ 021220Z 00000KT 3000 BR OVC006 M02/M03 Q1027 YLO;
0135102340999992009010213204+53133+009350FM-15+0061ETGQ V0209999C000010021019N0030001N1-00101-00301999999ADDGA1081+002101999GF108991999999999999999999MA1102711999999MW1101REMMET060METAR ETGQ 021320Z 00000KT 3000 BR OVC007 M01/M03 Q1027 YLO;
0135102340999992009010214204+53133+009350FM-15+0061ETGQ V0209999C000010027019N0030001N1-00101-00301999999ADDGA1081+002701999GF108991999999999999999999MA1102711999999MW1101REMMET060METAR ETGQ 021420Z 00000KT 3000 BR OVC009 M01/M03 Q1027 YLO;
0135102340999992009010215204+53133+009350FM-15+0061ETGQ V0209999C000010039019N0025001N1-00101-00301999999ADDGA1081+003901999GF108991999999999999999999MA1102711999999MW1101REMMET060METAR ETGQ 021520Z 00000KT 2500 BR OVC013 M01/M03 Q1027 YLO;
0135102340999992009010216204+53133+009350FM-15+0061ETGQ V0209999C000010030019N0020001N1-00101-00201999999ADDGA1081+003001999GF108991999999999999999999MA1102811999999MW1101REMMET060METAR ETGQ 021620Z 00000KT 2000 BR OVC010 M01/M02 Q1028 YLO;
0135102340999992009010217204+53133+009350FM-15+0061ETGQ V0209999C000010033019N0030001N1-00101-00201999999ADDGA1081+003301999GF108991999999999999999999MA1102811999999MW1101REMMET060METAR ETGQ 021720Z 00000KT 3000 BR OVC011 M01/M02 Q1028 YLO;
0135102340999992009010218204+53133+009350FM-15+0061ETGQ V0209999C000010054019N0030001N1-00101-00201999999ADDGA1081+005401999GF108991999999999999999999MA1102911999999MW1101REMMET060METAR ETGQ 021820Z 00000KT 3000 BR OVC018 M01/M02 Q1029 YLO;
0135102340999992009010218304+53133+009350FM-16+0061ETGQ V0209999C000010054019N0030001N1-00101-00201999999ADDGA1081+005401999GF108991999999999999999999MA1102911999999MW1101REMMET060SPECI ETGQ 021830Z 00000KT 3000 BR OVC018 M01/M02 Q1029 YLO;
0158102340999992009010219204+53133+009350FM-15+0061ETGQ V0209999C000010102019N0030001N1-00101-00201999999ADDGA1041+005401999GA2071+010201999GF107991999999999999999999MA1102911999999MW1101REMMET067METAR ETGQ 021920Z 00000KT 3000 BR SCT018 BKN034 M01/M02 Q1029 YLO;
0145102340999992009010505204+53133+009350FM-15+0061ETGQ V0202101N001510063019N0035001N1-00101-00301999999ADDGA1081+006301999GF108991999999999999999999MA1101491999999MW1101MW2711REMMET064METAR ETGQ 050520Z 21003KT 3500 -SN BR OVC021 M01/M03 Q1015 YLO;
0145102340999992009010506204+53133+009350FM-15+0061ETGQ V0209999V000510024019N0035001N1-00101-00201999999ADDGA1081+002401999GF108991999999999999999999MA1101491999999MW1101MW2711REMMET064METAR ETGQ 050620Z VRB01KT 3500 -SN BR OVC008 M01/M02 Q1015 YLO;
0145102340999992009010507204+53133+009350FM-15+0061ETGQ V0209999C000010021019N0035001N1-00101-00201999999ADDGA1081+002101999GF108991999999999999999999MA1101591999999MW1101MW2711REMMET064METAR ETGQ 050720Z 00000KT 3500 -SN BR OVC007 M01/M02 Q1016 YLO;
0145102340999992009010508204+53133+009350FM-15+0061ETGQ V0209999C000010021019N0020001N1-00101-00201999999ADDGA1081+002101999GF108991999999999999999999MA1101691999999MW1101MW2711REMMET064METAR ETGQ 050820Z 00000KT 2000 -SN BR OVC007 M01/M02 Q1017 YLO;
0145102340999992009010509204+53133+009350FM-15+0061ETGQ V0209999C000010015019N0025001N1-00101-00201999999ADDGA1081+001501999GF108991999999999999999999MA1101691999999MW1101MW2711REMMET064METAR ETGQ 050920Z 00000KT 2500 -SN BR OVC005 M01/M02 Q1017 YLO;
0168102340999992009010510204+53133+009350FM-15+0061ETGQ V0209999V000510024019N0035001N1-00101-00201999999ADDGA1071+002401999GA2081+006601999GF108991999999999999999999MA1101801999999MW1101MW2711REMMET071METAR ETGQ 051020Z VRB01KT 3500 -SN BR BKN008 OVC022 M01/M02 Q1018 YLO;
0168102340999992009010511204+53133+009350FM-15+0061ETGQ V0209999C000010030019N0035001N1-00101-00201999999ADDGA1071+003001999GA2081+005701999GF108991999999999999999999MA1101801999999MW1101MW2711REMMET071METAR ETGQ 051120Z 00000KT 3500 -SN BR BKN010 OVC019 M01/M02 Q1018 YLO;
0126102340999992009010512204+53133+009350FM-15+0061ETGQ V0203601N001510066019N0112651N1+00001-00201999999ADDGA1071+006601999GF107991999999999999999999MA1101801999999REMMET057METAR ETGQ 051220Z 36003KT 9999 BKN022 M00/M02 Q1018 WHT;
0149102340999992009010513204+53133+009350FM-15+0061ETGQ V0200601N002110144019N0112651N1+00001-00501999999ADDGA1041+006901999GA2071+014401999GF107991999999999999999999MA1101801999999REMMET064METAR ETGQ 051320Z 06004KT 9999 SCT023 BKN048 M00/M05 Q1018 BLU;
0172102340999992009010514204+53133+009350FM-15+0061ETGQ V0200701N00211012001CN0112651N1+00001-00601999999ADDGA1021+007801999GA2041+012001999GA3071+027001999GF107991999999999999999999MA1101901999999REMMET071METAR ETGQ 051420Z 07004KT 9999 FEW026 SCT040 BKN090 M00/M06 Q1019 BLU;
0149102340999992009010515204+53133+009350FM-15+0061ETGQ V0200401N001010111019N0112651N1+00001-00601999999ADDGA1021+008401999GA2071+011101999GF107991999999999999999999MA1102001999999REMMET064METAR ETGQ 051520Z 04002KT 9999 FEW028 BKN037 M00/M06 Q1020 BLU;
0149102340999992009010516204+53133+009350FM-15+0061ETGQ V0200401N002110120019N0112651N1-00101-00601999999ADDGA1041+009001999GA2071+012001999GF107991999999999999999999MA1102001999999REMMET064METAR ETGQ 051620Z 04004KT 9999 SCT030 BKN040 M01/M06 Q1020 BLU;
0150102340999992009010517204+53133+009350FM-15+0061ETGQ V0200201N002112200019N0112651N1-00101-00701999999ADDGA1041+009001999GA2041+012001999GF104991999999999999999999MA1102101999999REMMET065METAR ETGQ 051720Z 02004KT 9999 SCT030 SCT040 M01/M07 Q1021 BLU/;
0126102340999992009010518204+53133+009350FM-15+0061ETGQ V0200501N002610108019N0112651N1-00101-00801999999ADDGA1071+010801999GF107991999999999999999999MA1102201999999REMMET057METAR ETGQ 051820Z 05005KT 9999 BKN036 M01/M08 Q1022 BLU;
0126102340999992009010519204+53133+009350FM-15+0061ETGQ V0200301N002110102019N0112651N1-00101-00701999999ADDGA1071+010201999GF107991999999999999999999MA1102201999999REMMET057METAR ETGQ 051920Z 03004KT 9999 BKN034 M01/M07 Q1022 BLU;
0126102340999992009010605204+53133+009350FM-15+0061ETGQ V0200801N001510120019N0112651N1-00601-01601999999ADDGA1071+012001999GF107991999999999999999999MA1102301999999REMMET057METAR ETGQ 060520Z 08003KT 9999 BKN040 M06/M16 Q1023 BLU;
0126102340999992009010606204+53133+009350FM-15+0061ETGQ V0209999V000510120019N0112651N1-00601-01501999999ADDGA1071+012001999GF107991999999999999999999MA1102301999999REMMET057METAR ETGQ 060620Z VRB01KT 9999 BKN040 M06/M15 Q1023 BLU;
0126102340999992009010607204+53133+009350FM-15+0061ETGQ V0200701N002110135019N0112651N1-00601-01801999999ADDGA1071+013501999GF107991999999999999999999MA1102401999999REMMET057METAR ETGQ 060720Z 07004KT 9999 BKN045 M06/M18 Q1024 BLU;
0126102340999992009010608204+53133+009350FM-15+0061ETGQ V0209999V000510135019N0112651N1-00701-01401999999ADDGA1071+013501999GF107991999999999999999999MA1102401999999REMMET057METAR ETGQ 060820Z VRB01KT 9999 BKN045 M07/M14 Q1024 BLU;
0126102340999992009010609204+53133+009350FM-15+0061ETGQ V0203101N002110138019N0112651N1-00701-01301999999ADDGA1071+013801999GF107991999999999999999999MA1102401999999REMMET057METAR ETGQ 060920Z 31004KT 9999 BKN046 M07/M13 Q1024 BLU;
0126102340999992009010610204+53133+009350FM-15+0061ETGQ V0203201N002110150019N0112651N1-00701-01301999999ADDGA1071+015001999GF107991999999999999999999MA1102401999999REMMET057METAR ETGQ 061020Z 32004KT 9999 BKN050 M07/M13 Q1024 BLU;
0127102340999992009010611204+53133+009350FM-15+0061ETGQ V0203201N002112200019N0112651N1-00701-01301999999ADDGA1041+014401999GF104991999999999999999999MA1102401999999REMMET058METAR ETGQ 061120Z 32004KT 9999 SCT048 M07/M13 Q1024 BLU/;
0127102340999992009010612204+53133+009350FM-15+0061ETGQ V0209999C000012200019N0112651N1-00701-01301999999ADDGA1041+015001999GF104991999999999999999999MA1102301999999REMMET058METAR ETGQ 061220Z 00000KT 9999 SCT050 M07/M13 Q1023 BLU/;
0078102340999992009010613204+53133+009350FM-15+0061ETGQ V0209999C000012200019N0112651N1-00601-01301999999ADDMA1102301999999REMMET051METAR ETGQ 061320Z 00000KT 9999 M06/M13 Q1023 BLU/;
0078102340999992009010614204+53133+009350FM-15+0061ETGQ V0209999C000012200019N0112651N1-00501-01301999999ADDMA1102201999999REMMET051METAR ETGQ 061420Z 00000KT 9999 M05/M13 Q1022 BLU/;
0078102340999992009010615204+53133+009350FM-15+0061ETGQ V0209999C000012200019N0112651N1-00701-01301999999ADDMA1102201999999REMMET051METAR ETGQ 061520Z 00000KT 9999 M07/M13 Q1022 BLU/;
0078102340999992009010616204+53133+009350FM-15+0061ETGQ V0202901N000512200019N0112651N1-00701-01201999999ADDMA1102301999999REMMET051METAR ETGQ 061620Z 29001KT 9999 M07/M12 Q1023 BLU/;
0078102340999992009010617204+53133+009350FM-15+0061ETGQ V0209999C000012200019N0112651N1-00801-01201999999ADDMA1102301999999REMMET051METAR ETGQ 061720Z 00000KT 9999 M08/M12 Q1023 BLU/;
0078102340999992009010618204+53133+009350FM-15+0061ETGQ V0209999C000012200019N0112651N1-01001-01301999999ADDMA1102301999999REMMET051METAR ETGQ 061820Z 00000KT 9999 M10/M13 Q1023 BLU/;
0078102340999992009010619204+53133+009350FM-15+0061ETGQ V0209999C000012200019N0112651N1-01001-01301999999ADDMA1102301999999REMMET051METAR ETGQ 061920Z 00000KT 9999 M10/M13 Q1023 BLU/;
0126102340999992009010705204+53133+009350FM-15+0061ETGQ V0209999C000010015019N0060001N1-01401-01501999999ADDGA1071+001501999GF107991999999999999999999MA1102301999999REMMET057METAR ETGQ 070520Z 00000KT 6000 BKN005 M14/M15 Q1023 YLO;
0126102340999992009010706204+53133+009350FM-15+0061ETGQ V0209999C000010015019N0060001N1-01401-01501999999ADDGA1071+001501999GF107991999999999999999999MA1102201999999REMMET057METAR ETGQ 070620Z 00000KT 6000 BKN005 M14/M15 Q1022 YLO;
0149102340999992009010707204+53133+009350FM-15+0061ETGQ V0202601N000510450019N0060001N1-01401-01501999999ADDGA1021+001501999GA2071+045001999GF107991999999999999999999MA1102301999999REMMET064METAR ETGQ 070720Z 26001KT 6000 FEW005 BKN150 M14/M15 Q1023 WHT;
0149102340999992009010708204+53133+009350FM-15+0061ETGQ V0202301N000512200019N0060001N1-01401-01501999999ADDGA1021+001501999GA2041+045001999GF104991999999999999999999MA1102301999999REMMET064METAR ETGQ 070820Z 23001KT 6000 FEW005 SCT150 M14/M15 Q1023 WHT;
0126102340999992009010709204+53133+009350FM-15+0061ETGQ V0209999C000010150019N0060001N1-01201-01401999999ADDGA1071+015001999GF107991999999999999999999MA1102401999999REMMET057METAR ETGQ 070920Z 00000KT 6000 BKN050 M12/M14 Q1024 WHT;
0126102340999992009010710204+53133+009350FM-15+0061ETGQ V0209999C000010090019N0060001N1-01201-01301999999ADDGA1071+009001999GF107991999999999999999999MA1102401999999REMMET057METAR ETGQ 071020Z 00000KT 6000 BKN030 M12/M13 Q1024 WHT;
0126102340999992009010711204+53133+009350FM-15+0061ETGQ V0209999C000010096019N0060001N1-01001-01301999999ADDGA1081+009601999GF108991999999999999999999MA1102301999999REMMET057METAR ETGQ 071120Z 00000KT 6000 OVC032 M10/M13 Q1023 WHT;
0126102340999992009010712204+53133+009350FM-15+0061ETGQ V0209999C000010051019N0060001N1-01001-01201999999ADDGA1081+005101999GF108991999999999999999999MA1102301999999REMMET057METAR ETGQ 071220Z 00000KT 6000 OVC017 M10/M12 Q1023 WHT;
0126102340999992009010713204+53133+009350FM-15+0061ETGQ V0209999C000010045019N0080001N1-00901-01201999999ADDGA1081+004501999GF108991999999999999999999MA1102301999999REMMET057METAR ETGQ 071320Z 00000KT 8000 OVC015 M09/M12 Q1023 WHT;
0126102340999992009010714204+53133+009350FM-15+0061ETGQ V0209999C000010036019N0080001N1-00901-01101999999ADDGA1081+003601999GF108991999999999999999999MA1102301999999REMMET057METAR ETGQ 071420Z 00000KT 8000 OVC012 M09/M11 Q1023 GRN;
0126102340999992009010715204+53133+009350FM-15+0061ETGQ V0209999C000010033019N0080001N1-00801-01101999999ADDGA1081+003301999GF108991999999999999999999MA1102301999999REMMET057METAR ETGQ 071520Z 00000KT 8000 OVC011 M08/M11 Q1023 GRN;
0126102340999992009010716204+53133+009350FM-15+0061ETGQ V0203301N000510027019N0070001N1-00801-01101999999ADDGA1081+002701999GF108991999999999999999999MA1102401999999REMMET057METAR ETGQ 071620Z 33001KT 7000 OVC009 M08/M11 Q1024 GRN;
0126102340999992009010717204+53133+009350FM-15+0061ETGQ V0209999C000010024019N0070001N1-00801-01001999999ADDGA1081+002401999GF108991999999999999999999MA1102401999999REMMET057METAR ETGQ 071720Z 00000KT 7000 OVC008 M08/M10 Q1024 GRN;
0126102340999992009010718204+53133+009350FM-15+0061ETGQ V0209999C000010024019N0070001N1-00801-01001999999ADDGA1071+002401999GF107991999999999999999999MA1102401999999REMMET057METAR ETGQ 071820Z 00000KT 7000 BKN008 M08/M10 Q1024 GRN;
0172102340999992009010719204+53133+009350FM-15+0061ETGQ V0209999C00001005401CN0070001N1-00901-01001999999ADDGA1021+002401999GA2041+005401999GA3071+018001999GF107991999999999999999999MA1102511999999REMMET071METAR ETGQ 071920Z 00000KT 7000 FEW008 SCT018 BKN060 M09/M10 Q1025 WHT;
0126102340999992009010805204+53133+009350FM-15+0061ETGQ V0209999C000010024019N0070001N1-00501-00701999999ADDGA1081+002401999GF108991999999999999999999MA1102911999999REMMET057METAR ETGQ 080520Z 00000KT 7000 OVC008 M05/M07 Q1029 GRN;
0126102340999992009010806204+53133+009350FM-15+0061ETGQ V0209999C000010024019N0070001N1-00501-00701999999ADDGA1081+002401999GF108991999999999999999999MA1103011999999REMMET057METAR ETGQ 080620Z 00000KT 7000 OVC008 M05/M07 Q1030 GRN;
0126102340999992009010807204+53133+009350FM-15+0061ETGQ V0200501N001510027019N0060001N1-00501-00601999999ADDGA1081+002701999GF108991999999999999999999MA1103011999999REMMET057METAR ETGQ 080720Z 05003KT 6000 OVC009 M05/M06 Q1030 GRN;
0126102340999992009010808204+53133+009350FM-15+0061ETGQ V0201201N001510033019N0060001N1-00501-00701999999ADDGA1071+003301999GF107991999999999999999999MA1103121999999REMMET057METAR ETGQ 080820Z 12003KT 6000 BKN011 M05/M07 Q1031 GRN;
0126102340999992009010809204+53133+009350FM-15+0061ETGQ V0209999V000510033019N0080001N1-00401-00701999999ADDGA1071+003301999GF107991999999999999999999MA1103181999999REMMET057METAR ETGQ 080920Z VRB01KT 8000 BKN011 M04/M07 Q1032 GRN;
0126102340999992009010810204+53133+009350FM-15+0061ETGQ V0209999V000510036019N0080001N1-00401-00701999999ADDGA1071+003601999GF107991999999999999999999MA1103181999999REMMET057METAR ETGQ 081020Z VRB01KT 8000 BKN012 M04/M07 Q1032 GRN;
0127102340999992009010811204+53133+009350FM-15+0061ETGQ V0209999V000512200019N0080001N1-00301-00701999999ADDGA1041+004201999GF104991999999999999999999MA1103121999999REMMET058METAR ETGQ 081120Z VRB01KT 8000 SCT014 M03/M07 Q1031 BLU/;
0127102340999992009010812204+53133+009350FM-15+0061ETGQ V0209999V000512200019N0090001N1-00301-00701999999ADDGA1041+003901999GF104991999999999999999999MA1103121999999REMMET058METAR ETGQ 081220Z VRB01KT 9000 SCT013 M03/M07 Q1031 BLU/;
0127102340999992009010813204+53133+009350FM-15+0061ETGQ V0200801N000512200019N0090001N1-00301-00701999999ADDGA1021+003901999GF102991999999999999999999MA1103011999999REMMET058METAR ETGQ 081320Z 08001KT 9000 FEW013 M03/M07 Q1030 BLU/;
0127102340999992009010814204+53133+009350FM-15+0061ETGQ V0209999C000012200019N0090001N1-00301-00701999999ADDGA1021+004201999GF102991999999999999999999MA1103011999999REMMET058METAR ETGQ 081420Z 00000KT 9000 FEW014 M03/M07 Q1030 BLU/;
0127102340999992009010815204+53133+009350FM-15+0061ETGQ V0209999C000012200019N0080001N1-00401-00701999999ADDGA1021+004201999GF102991999999999999999999MA1103011999999REMMET058METAR ETGQ 081520Z 00000KT 8000 FEW014 M04/M07 Q1030 BLU/;
0127102340999992009010816204+53133+009350FM-15+0061ETGQ V0201001N000512200019N0080001N1-00401-00701999999ADDGA1021+003901999GF102991999999999999999999MA1103011999999REMMET058METAR ETGQ 081620Z 10001KT 8000 FEW013 M04/M07 Q1030 BLU/;
0078102340999992009010817204+53133+009350FM-15+0061ETGQ V0209999C000012200019N0080001N1-00501-00801999999ADDMA1103011999999REMMET051METAR ETGQ 081720Z 00000KT 8000 M05/M08 Q1030 BLU/;
0077102340999992009010818204+53133+009350FM-15+0061ETGQ V0209999C000012200019N0070001N1-00701-00801999999ADDMA1103011999999REMMET050METAR ETGQ 081820Z 00000KT 7000 M07/M08 Q1030 WHT;
0077102340999992009010819204+53133+009350FM-15+0061ETGQ V0209999C000012200019N0070001N1-00701-00801999999ADDMA1103121999999REMMET050METAR ETGQ 081920Z 00000KT 7000 M07/M08 Q1031 WHT;
0126102340999992009010905204+53133+009350FM-15+0061ETGQ V0209999C000010012019N0060001N1-01101-01201999999ADDGA1071+001201999GF107991999999999999999999MA1103011999999REMMET057METAR ETGQ 090520Z 00000KT 6000 BKN004 M11/M12 Q1030 YLO;
0135102340999992009010906204+53133+009350FM-15+0061ETGQ V0209999C000010009019N0040001N1-01101-01201999999ADDGA1071+000901999GF107991999999999999999999MA1103121999999MW1101REMMET060METAR ETGQ 090620Z 00000KT 4000 BR BKN003 M11/M12 Q1031 YLO;
0145102340999992009010907204+53133+009350FM-15+0061ETGQ V0209999C000010009019N0015001N1-01101-01201999999ADDGA1081+000901999GF108991999999999999999999MA1103121999999MW1101REMMET070METAR ETGQ 090720Z 00000KT 1500 R36////// BR OVC003 M11/M12 Q1031 AMB;
0135102340999992009010908204+53133+009350FM-15+0061ETGQ V0209999C000010009019N0012001N1-01101-01201999999ADDGA1081+000901999GF108991999999999999999999MA1103121999999MW1101REMMET060METAR ETGQ 090820Z 00000KT 1200 BR OVC003 M11/M12 Q1031 AMB;
0135102340999992009010909204+53133+009350FM-15+0061ETGQ V0209999C000010015019N0012001N1-01001-01101999999ADDGA1071+001501999GF107991999999999999999999MA1103181999999MW1101REMMET060METAR ETGQ 090920Z 00000KT 1200 BR BKN005 M10/M11 Q1032 AMB;
0135102340999992009010910204+53133+009350FM-15+0061ETGQ V0209999C000012200019N0020001N1-01001-01101999999ADDGA1021+001801999GF102991999999999999999999MA1103121999999MW1101REMMET060METAR ETGQ 091020Z 00000KT 2000 BR FEW006 M10/M11 Q1031 YLO;
0086102340999992009010911204+53133+009350FM-15+0061ETGQ V0209999C000012200019N0040001N1-00901-01001999999ADDMA1103121999999MW1101REMMET053METAR ETGQ 091120Z 00000KT 4000 BR M09/M10 Q1031 GRN;
0086102340999992009010912204+53133+009350FM-15+0061ETGQ V0203401N000512200019N0040001N1-00801-01001999999ADDMA1103011999999MW1101REMMET053METAR ETGQ 091220Z 34001KT 4000 BR M08/M10 Q1030 GRN;
0086102340999992009010913204+53133+009350FM-15+0061ETGQ V0209999C000012200019N0045001N1-00801-00901999999ADDMA1103011999999MW1101REMMET053METAR ETGQ 091320Z 00000KT 4500 BR M08/M09 Q1030 GRN;
0077102340999992009010914204+53133+009350FM-15+0061ETGQ V0209999C000012200019N0060001N1-00701-00901999999ADDMA1103011999999REMMET050METAR ETGQ 091420Z 00000KT 6000 M07/M09 Q1030 WHT;
0127102340999992009010915204+53133+009350FM-15+0061ETGQ V0209999C000012200019N0080001N1-00701-00901999999ADDGA1021+090001999GF102991999999999999999999MA1102911999999REMMET058METAR ETGQ 091520Z 00000KT 8000 FEW320 M07/M09 Q1029 BLU/;
0126102340999992009010916204+53133+009350FM-15+0061ETGQ V0209999C000012200019N0070001N1-00801-01001999999ADDGA1021+090001999GF102991999999999999999999MA1102911999999REMMET057METAR ETGQ 091620Z 00000KT 7000 FEW320 M08/M10 Q1029 WHT;
0077102340999992009010917204+53133+009350FM-15+0061ETGQ V0209999C000012200019N0060001N1-00901-01001999999ADDMA1103011999999REMMET050METAR ETGQ 091720Z 00000KT 6000 M09/M10 Q1030 WHT;
0086102340999992009010918204+53133+009350FM-15+0061ETGQ V0209999C000012200019N0050001N1-00801-00901999999ADDMA1103011999999MW1101REMMET053METAR ETGQ 091820Z 00000KT 5000 BR M08/M09 Q1030 WHT;
0086102340999992009010919204+53133+009350FM-15+0061ETGQ V0202401N000512200019N0050001N1-00901-01001999999ADDMA1103011999999MW1101REMMET053METAR ETGQ 091920Z 24001KT 5000 BR M09/M10 Q1030 WHT;
0077102340999992009011205204+53133+009350FM-15+0061ETGQ V0201701N002112200019N0060001N1-00901-01001999999ADDMA1102811999999REMMET050METAR ETGQ 120520Z 17004KT 6000 M09/M10 Q1028 WHT;
0077102340999992009011206204+53133+009350FM-15+0061ETGQ V0201601N002112200019N0060001N1-00801-01001999999ADDMA1102811999999REMMET050METAR ETGQ 120620Z 16004KT 6000 M08/M10 Q1028 WHT;
0126102340999992009011207204+53133+009350FM-15+0061ETGQ V0201401N002112200019N0060001N1-00901-01001999999ADDGA1021+105001999GF102991999999999999999999MA1102811999999REMMET057METAR ETGQ 120720Z 14004KT 6000 FEW350 M09/M10 Q1028 WHT;
0126102340999992009011208204+53133+009350FM-15+0061ETGQ V0201501N001512200019N0060001N1-00801-01001999999ADDGA1041+105001999GF104991999999999999999999MA1102811999999REMMET057METAR ETGQ 120820Z 15003KT 6000 SCT350 M08/M10 Q1028 WHT;
0126102340999992009011209204+53133+009350FM-15+0061ETGQ V0201501N001511050019N0060001N1-00601-00901999999ADDGA1071+105001999GF107991999999999999999999MA1102811999999REMMET057METAR ETGQ 120920Z 15003KT 6000 BKN350 M06/M09 Q1028 WHT;
0126102340999992009011210204+53133+009350FM-15+0061ETGQ V0201601N002112200019N0060001N1-00401-00901999999ADDGA1041+105001999GF104991999999999999999999MA1102711999999REMMET057METAR ETGQ 121020Z 16004KT 6000 SCT350 M04/M09 Q1027 WHT;
0126102340999992009011211204+53133+009350FM-15+0061ETGQ V0201901N001512200019N0070001N1-00201-00801999999ADDGA1021+105001999GF102991999999999999999999MA1102611999999REMMET057METAR ETGQ 121120Z 19003KT 7000 FEW350 M02/M08 Q1026 WHT;
0127102340999992009011212204+53133+009350FM-15+0061ETGQ V0201701N001512200019N0080001N1-00101-00701999999ADDGA1021+105001999GF102991999999999999999999MA1102511999999REMMET058METAR ETGQ 121220Z 17003KT 8000 FEW350 M01/M07 Q1025 BLU/;
0127102340999992009011213204+53133+009350FM-15+0061ETGQ V0201601N002112200019N0112651N1+00001-00701999999ADDGA1021+105001999GF102991999999999999999999MA1102401999999REMMET058METAR ETGQ 121320Z 16004KT 9999 FEW350 M00/M07 Q1024 BLU/;
0127102340999992009011214204+53133+009350FM-15+0061ETGQ V0201501N002112200019N0112651N1+00001-00601999999ADDGA1041+105001999GF104991999999999999999999MA1102301999999REMMET058METAR ETGQ 121420Z 15004KT 9999 SCT350 M00/M06 Q1023 BLU/;
0127102340999992009011215204+53133+009350FM-15+0061ETGQ V0201601N001512200019N0112651N1+00001-00601999999ADDGA1041+075001999GF104991999999999999999999MA1102301999999REMMET058METAR ETGQ 121520Z 16003KT 9999 SCT250 M00/M06 Q1023 BLU/;
0126102340999992009011216204+53133+009350FM-15+0061ETGQ V0201601N002610570019N0060001N1-00101-00601999999ADDGA1071+057001999GF107991999999999999999999MA1102201999999REMMET057METAR ETGQ 121620Z 16005KT 6000 BKN190 M01/M06 Q1022 WHT;
0126102340999992009011217204+53133+009350FM-15+0061ETGQ V0201501N002110570019N0060001N1-00201-00701999999ADDGA1071+057001999GF107991999999999999999999MA1102201999999REMMET057METAR ETGQ 121720Z 15004KT 6000 BKN190 M02/M07 Q1022 WHT;
0135102340999992009011218204+53133+009350FM-15+0061ETGQ V0201501N002110600019N0050001N1-00201-00701999999ADDGA1071+060001999GF107991999999999999999999MA1102201999999MW1051REMMET060METAR ETGQ 121820Z 15004KT 5000 HZ BKN200 M02/M07 Q1022 WHT;
0135102340999992009011219204+53133+009350FM-15+0061ETGQ V0201601N002610420019N0050001N1-00301-00701999999ADDGA1071+042001999GF107991999999999999999999MA1102201999999MW1051REMMET060METAR ETGQ 121920Z 16005KT 5000 HZ BKN140 M03/M07 Q1022 WHT;
0126102340999992009011305204+53133+009350FM-15+0061ETGQ V0201301N001510210019N0060001N1+00001-00501999999ADDGA1071+021001999GF107991999999999999999999MA1101691999999REMMET057METAR ETGQ 130520Z 13003KT 6000 BKN070 M00/M05 Q1017 WHT;
0126102340999992009011306204+53133+009350FM-15+0061ETGQ V0201501N003110210019N0060001N1+00001-00501999999ADDGA1071+021001999GF107991999999999999999999MA1101691999999REMMET057METAR ETGQ 130620Z 15006KT 6000 BKN070 M00/M05 Q1017 WHT;
0125102340999992009011307204+53133+009350FM-15+0061ETGQ V0201501N002110240019N0080001N1+00001-00501999999ADDGA1071+024001999GF107991999999999999999999MA1101691999999REMMET056METAR ETGQ 130720Z 15004KT 8000 BKN080 00/M05 Q1017 BLU;
0125102340999992009011308204+53133+009350FM-15+0061ETGQ V0201601N002110270019N0080001N1+00101-00501999999ADDGA1071+027001999GF107991999999999999999999MA1101691999999REMMET056METAR ETGQ 130820Z 16004KT 8000 BKN090 01/M05 Q1017 BLU;
0125102340999992009011309204+53133+009350FM-15+0061ETGQ V0201601N001510240019N0112651N1+00101-00501999999ADDGA1071+024001999GF107991999999999999999999MA1101691999999REMMET056METAR ETGQ 130920Z 16003KT 9999 BKN080 01/M05 Q1017 BLU;
0125102340999992009011310204+53133+009350FM-15+0061ETGQ V0201701N002110270019N0112651N1+00101-00501999999ADDGA1071+027001999GF107991999999999999999999MA1101691999999REMMET056METAR ETGQ 131020Z 17004KT 9999 BKN090 01/M05 Q1017 BLU;
0125102340999992009011311204+53133+009350FM-15+0061ETGQ V0201601N002110360019N0112651N1+00301-00501999999ADDGA1071+036001999GF107991999999999999999999MA1101691999999REMMET056METAR ETGQ 131120Z 16004KT 9999 BKN120 03/M05 Q1017 BLU;
0125102340999992009011312204+53133+009350FM-15+0061ETGQ V0201601N002110390019N0112651N1+00301-00401999999ADDGA1071+039001999GF107991999999999999999999MA1101591999999REMMET056METAR ETGQ 131220Z 16004KT 9999 BKN130 03/M04 Q1016 BLU;
0125102340999992009011313204+53133+009350FM-15+0061ETGQ V0201501N002110420019N0112651N1+00301-00401999999ADDGA1071+042001999GF107991999999999999999999MA1101491999999REMMET056METAR ETGQ 131320Z 15004KT 9999 BKN140 03/M04 Q1015 BLU;
0125102340999992009011314204+53133+009350FM-15+0061ETGQ V0201501N002110420019N0112651N1+00301-00401999999ADDGA1071+042001999GF107991999999999999999999MA1101491999999REMMET056METAR ETGQ 131420Z 15004KT 9999 BKN140 03/M04 Q1015 BLU;
0125102340999992009011315204+53133+009350FM-15+0061ETGQ V0201401N002110450019N0112651N1+00301-00401999999ADDGA1071+045001999GF107991999999999999999999MA1101491999999REMMET056METAR ETGQ 131520Z 14004KT 9999 BKN150 03/M04 Q1015 BLU;
0125102340999992009011316204+53133+009350FM-15+0061ETGQ V0201501N001010480019N0112651N1+00201-00401999999ADDGA1071+048001999GF107991999999999999999999MA1101491999999REMMET056METAR ETGQ 131620Z 15002KT 9999 BKN160 02/M04 Q1015 BLU;
0125102340999992009011317204+53133+009350FM-15+0061ETGQ V0201601N002110480019N0080001N1+00101-00401999999ADDGA1071+048001999GF107991999999999999999999MA1101491999999REMMET056METAR ETGQ 131720Z 16004KT 8000 BKN160 01/M04 Q1015 BLU;
0126102340999992009011318204+53133+009350FM-15+0061ETGQ V0201401N002112200019N0080001N1+00001-00401999999ADDGA1041+048001999GF104991999999999999999999MA1101491999999REMMET057METAR ETGQ 131820Z 14004KT 8000 SCT160 00/M04 Q1015 BLU/;
0127102340999992009011319204+53133+009350FM-15+0061ETGQ V0201601N002612200019N0080001N1-00101-00401999999ADDGA1041+042001999GF104991999999999999999999MA1101491999999REMMET058METAR ETGQ 131920Z 16005KT 8000 SCT140 M01/M04 Q1015 BLU/;
0126102340999992009011405204+53133+009350FM-15+0061ETGQ V0201501N002110060019N0080001N1-00201-00501999999ADDGA1071+006001999GF107991999999999999999999MA1101391999999REMMET057METAR ETGQ 140520Z 15004KT 8000 BKN020 M02/M05 Q1014 WHT;
0138102340999992009011406204+53133+009350FM-15+0061ETGQ V0201401N001510045019N0060001N1-00201-00401999999ADDGA1081+004501999GF108991999999999999999999MA1101391999999MW1661REMMET063METAR ETGQ 140620Z 14003KT 6000 -FZRA OVC015 M02/M04 Q1014 WHT;
0147102340999992009011407204+53133+009350FM-15+0061ETGQ V0201401N001510036019N0040001N1-00101-00301999999ADDGA1081+003601999GF108991999999999999999999MA1101491999999MW1101MW2661REMMET066METAR ETGQ 140720Z 14003KT 4000 -FZRA BR OVC012 M01/M03 Q1015 GRN;
0135102340999992009011408204+53133+009350FM-15+0061ETGQ V0201501N001510036019N0040001N1-00101-00201999999ADDGA1081+003601999GF108991999999999999999999MA1101491999999MW1101REMMET060METAR ETGQ 140820Z 15003KT 4000 BR OVC012 M01/M02 Q1015 GRN;
0170102340999992009011409204+53133+009350FM-15+0061ETGQ V0209999V001010024019N0040001N1-00101-00201999999ADDGA1071+002401999GA2081+003601999GF108991999999999999999999MA1101491999999MW1101MW2661REMMET073METAR ETGQ 140920Z VRB02KT 4000 -FZRA BR BKN008 OVC012 M01/M02 Q1015 GRN;
0165102340999992009011410204+53133+009350FM-15+0061ETGQ V0209999V000510018019N0030001N1+00001-00101999999ADDGA1071+001801999GA2081+002701999GF108991999999999999999999MA1101491999999MW1101REMMET074METAR ETGQ 141020Z VRB01KT 3000 BR BKN006 OVC009 M00/M01 Q1015 REFZRA YLO;
0165102340999992009011411204+53133+009350FM-15+0061ETGQ V0201501N001010024019N0030001N1+00001-00101999999ADDGA1071+002401999GA2081+003901999GF108991999999999999999999MA1101491999999MW1101REMMET074METAR ETGQ 141120Z 15002KT 3000 BR BKN008 OVC013 M00/M01 Q1015 REFZRA YLO;
0134102340999992009011412204+53133+009350FM-15+0061ETGQ V0201601N001010063019N0030001N1+00001-00101999999ADDGA1081+006301999GF108991999999999999999999MA1101491999999MW1101REMMET059METAR ETGQ 141220Z 16002KT 3000 BR OVC021 00/M01 Q1015 YLO;
0134102340999992009011413204+53133+009350FM-15+0061ETGQ V0201601N001510066019N0030001N1+00101+00001999999ADDGA1081+006601999GF108991999999999999999999MA1101491999999MW1101REMMET059METAR ETGQ 141320Z 16003KT 3000 BR OVC022 01/M00 Q1015 YLO;
0134102340999992009011414204+53133+009350FM-15+0061ETGQ V0201301N001010051019N0030001N1+00101+00001999999ADDGA1081+005101999GF108991999999999999999999MA1101491999999MW1101REMMET059METAR ETGQ 141420Z 13002KT 3000 BR OVC017 01/M00 Q1015 YLO;
0157102340999992009011415204+53133+009350FM-15+0061ETGQ V0201901N001010084019N0030001N1+00101+00001999999ADDGA1041+005101999GA2081+008401999GF108991999999999999999999MA1101591999999MW1101REMMET066METAR ETGQ 141520Z 19002KT 3000 BR SCT017 OVC028 01/M00 Q1016 YLO;
0134102340999992009011416204+53133+009350FM-15+0061ETGQ V0201601N000510036019N0035001N1+00101+00001999999ADDGA1081+003601999GF108991999999999999999999MA1101691999999MW1101REMMET059METAR ETGQ 141620Z 16001KT 3500 BR OVC012 01/M00 Q1017 YLO;
0157102340999992009011417204+53133+009350FM-15+0061ETGQ V0201601N001010027019N0050001N1+00101+00001999999ADDGA1071+002701999GA2071+011401999GF107991999999999999999999MA1101691999999MW1101REMMET066METAR ETGQ 141720Z 16002KT 5000 BR BKN009 BKN038 01/M00 Q1017 GRN;
0134102340999992009011418204+53133+009350FM-15+0061ETGQ V0201501N001510027019N0050001N1+00101+00001999999ADDGA1071+002701999GF107991999999999999999999MA1101801999999MW1101REMMET059METAR ETGQ 141820Z 15003KT 5000 BR BKN009 01/M00 Q1018 GRN;
0134102340999992009011419204+53133+009350FM-15+0061ETGQ V0201601N000510030019N0050001N1+00101+00001999999ADDGA1071+003001999GF107991999999999999999999MA1101801999999MW1101REMMET059METAR ETGQ 141920Z 16001KT 5000 BR BKN010 01/M00 Q1018 GRN;
0124102340999992009011505204+53133+009350FM-15+0061ETGQ V0201501N001510105019N0060001N1+00101+00001999999ADDGA1081+010501999GF108991999999999999999999MA1102001999999REMMET055METAR ETGQ 150520Z 15003KT 6000 OVC035 01/00 Q1020 WHT;
0124102340999992009011506204+53133+009350FM-15+0061ETGQ V0201601N001010105019N0060001N1+00101+00001999999ADDGA1081+010501999GF108991999999999999999999MA1102101999999REMMET055METAR ETGQ 150620Z 16002KT 6000 OVC035 01/00 Q1021 WHT;
0133102340999992009011507204+53133+009350FM-15+0061ETGQ V0201401N001010096019N0040001N1+00101+00001999999ADDGA1081+009601999GF108991999999999999999999MA1102101999999MW1101REMMET058METAR ETGQ 150720Z 14002KT 4000 BR OVC032 01/00 Q1021 GRN;
0133102340999992009011508204+53133+009350FM-15+0061ETGQ V0201601N002110099019N0040001N1+00101+00001999999ADDGA1071+009901999GF107991999999999999999999MA1102101999999MW1101REMMET058METAR ETGQ 150820Z 16004KT 4000 BR BKN033 01/00 Q1021 GRN;
0124102340999992009011509204+53133+009350FM-15+0061ETGQ V0201701N001510108019N0060001N1+00201+00001999999ADDGA1071+010801999GF107991999999999999999999MA1102101999999REMMET055METAR ETGQ 150920Z 17003KT 6000 BKN036 02/00 Q1021 WHT;
0124102340999992009011510204+53133+009350FM-15+0061ETGQ V0201801N001510111019N0070001N1+00301+00001999999ADDGA1071+011101999GF107991999999999999999999MA1102201999999REMMET055METAR ETGQ 151020Z 18003KT 7000 BKN037 03/00 Q1022 WHT;
0125102340999992009011511204+53133+009350FM-15+0061ETGQ V0201901N001512200019N0080001N1+00401+00001999999ADDGA1021+010501999GF102991999999999999999999MA1102101999999REMMET056METAR ETGQ 151120Z 19003KT 8000 FEW035 04/00 Q1021 BLU/;
0126102340999992009011512204+53133+009350FM-15+0061ETGQ V0201101N001512200019N0112651N1+00501-00201999999ADDGA1021+015001999GF102991999999999999999999MA1102101999999REMMET057METAR ETGQ 151220Z 11003KT 9999 FEW050 05/M02 Q1021 BLU/;
0126102340999992009011513204+53133+009350FM-15+0061ETGQ V0201201N001512200019N0112651N1+00501-00201999999ADDGA1021+013501999GF102991999999999999999999MA1102001999999REMMET057METAR ETGQ 151320Z 12003KT 9999 FEW045 05/M02 Q1020 BLU/;
0077102340999992009011514204+53133+009350FM-15+0061ETGQ V0201301N001512200019N0112651N1+00501-00301999999ADDMA1102101999999REMMET050METAR ETGQ 151420Z 13003KT 9999 05/M03 Q1021 BLU/;
0077102340999992009011515204+53133+009350FM-15+0061ETGQ V0201901N002112200019N0112651N1+00401-00101999999ADDMA1102101999999REMMET050METAR ETGQ 151520Z 19004KT 9999 04/M01 Q1021 BLU/;
0077102340999992009011516204+53133+009350FM-15+0061ETGQ V0201501N001512200019N0112651N1+00301-00201999999ADDMA1102101999999REMMET050METAR ETGQ 151620Z 15003KT 9999 03/M02 Q1021 BLU/;
0077102340999992009011517204+53133+009350FM-15+0061ETGQ V0201701N001012200019N0112651N1+00201-00201999999ADDMA1102201999999REMMET050METAR ETGQ 151720Z 17002KT 9999 02/M02 Q1022 BLU/;
0077102340999992009011518204+53133+009350FM-15+0061ETGQ V0201701N001512200019N0112651N1+00101-00201999999ADDMA1102201999999REMMET050METAR ETGQ 151820Z 17003KT 9999 01/M02 Q1022 BLU/;
0077102340999992009011519204+53133+009350FM-15+0061ETGQ V0209999V001012200019N0112651N1+00001-00201999999ADDMA1102201999999REMMET050METAR ETGQ 151920Z VRB02KT 9999 00/M02 Q1022 BLU/;
0125102340999992009011605204+53133+009350FM-15+0061ETGQ V0201101N002110036019N0060001N1+00001-00201999999ADDGA1071+003601999GF107991999999999999999999MA1102301999999REMMET056METAR ETGQ 160520Z 11004KT 6000 BKN012 00/M02 Q1023 GRN;
0125102340999992009011606204+53133+009350FM-15+0061ETGQ V0201101N002110036019N0060001N1+00001-00201999999ADDGA1081+003601999GF108991999999999999999999MA1102301999999REMMET056METAR ETGQ 160620Z 11004KT 6000 OVC012 00/M02 Q1023 GRN;
0125102340999992009011607204+53133+009350FM-15+0061ETGQ V0201501N002610036019N0060001N1+00101-00201999999ADDGA1081+003601999GF108991999999999999999999MA1102301999999REMMET056METAR ETGQ 160720Z 15005KT 6000 OVC012 01/M02 Q1023 GRN;
0125102340999992009011608204+53133+009350FM-15+0061ETGQ V0201401N005110039019N0070001N1+00101-00201999999ADDGA1081+003901999GF108991999999999999999999MA1102301999999REMMET056METAR ETGQ 160820Z 14010KT 7000 OVC013 01/M02 Q1023 GRN;
0125102340999992009011609204+53133+009350FM-15+0061ETGQ V0201401N002610048019N0070001N1+00101-00201999999ADDGA1081+004801999GF108991999999999999999999MA1102301999999REMMET056METAR ETGQ 160920Z 14005KT 7000 OVC016 01/M02 Q1023 WHT;
0125102340999992009011610204+53133+009350FM-15+0061ETGQ V0201601N002110054019N0070001N1+00201-00201999999ADDGA1081+005401999GF108991999999999999999999MA1102301999999REMMET056METAR ETGQ 161020Z 16004KT 7000 OVC018 02/M02 Q1023 WHT;
0125102340999992009011611204+53133+009350FM-15+0061ETGQ V0201601N003110054019N0112651N1+00201-00201999999ADDGA1071+005401999GF107991999999999999999999MA1102201999999REMMET056METAR ETGQ 161120Z 16006KT 9999 BKN018 02/M02 Q1022 WHT;
0149102340999992009011612204+53133+009350FM-15+0061ETGQ V0201601N004111050019N0112651N1+00201-00201999999ADDGA1021+006001999GA2071+105001999GF107991999999999999999999MA1102201999999REMMET064METAR ETGQ 161220Z 16008KT 9999 FEW020 BKN350 02/M02 Q1022 BLU/;
0149102340999992009011613204+53133+009350FM-15+0061ETGQ V0201501N002610900019N0090001N1+00201-00201999999ADDGA1041+006301999GA2071+090001999GF107991999999999999999999MA1102201999999REMMET064METAR ETGQ 161320Z 15005KT 9000 SCT021 BKN340 02/M02 Q1022 BLU/;
0125102340999992009011614204+53133+009350FM-15+0061ETGQ V0201601N002610063019N0090001N1+00201-00201999999ADDGA1071+006301999GF107991999999999999999999MA1102201999999REMMET056METAR ETGQ 161420Z 16005KT 9000 BKN021 02/M02 Q1022 WHT;
0125102340999992009011615204+53133+009350FM-15+0061ETGQ V0201401N002110060019N0080001N1+00201-00201999999ADDGA1071+006001999GF107991999999999999999999MA1102201999999REMMET056METAR ETGQ 161520Z 14004KT 8000 BKN020 02/M02 Q1022 WHT;
0125102340999992009011616204+53133+009350FM-15+0061ETGQ V0201201N001010450019N0080001N1+00101-00201999999ADDGA1071+045001999GF107991999999999999999999MA1102201999999REMMET056METAR ETGQ 161620Z 12002KT 8000 BKN150 01/M02 Q1022 BLU;
0125102340999992009011617204+53133+009350FM-15+0061ETGQ V0209999C000012200019N0070001N1+00101-00201999999ADDGA1041+045001999GF104991999999999999999999MA1102201999999REMMET056METAR ETGQ 161720Z 00000KT 7000 SCT150 01/M02 Q1022 WHT;
0158102340999992009011618204+53133+009350FM-15+0061ETGQ V0209999C000010570019N0050001N1-00101-00201999999ADDGA1041+042001999GA2071+057001999GF107991999999999999999999MA1102201999999MW1101REMMET067METAR ETGQ 161820Z 00000KT 5000 BR SCT140 BKN190 M01/M02 Q1022 WHT;
0180102340999992009011619204+53133+009350FM-15+0061ETGQ V0209999C00001045001CN0040001N1+00001-00201999999ADDGA1041+021001999GA2041+045001999GA3071+057001999GF107991999999999999999999MA1102201999999MW1101REMMET073METAR ETGQ 161920Z 00000KT 4000 BR SCT070 SCT150 BKN190 00/M02 Q1022 GRN;
0148102340999992009011905204+53133+009350FM-15+0061ETGQ V0201501N002112200019N0112651N1+00401+00101999999ADDGA1041+006601999GA2041+030001999GF104991999999999999999999MA1100201999999REMMET063METAR ETGQ 190520Z 15004KT 9999 SCT022 SCT100 04/01 Q1002 BLU/;
0147102340999992009011906204+53133+009350FM-15+0061ETGQ V0201601N001510360019N0112651N1+00401+00101999999ADDGA1041+006001999GA2071+036001999GF107991999999999999999999MA1100001999999REMMET062METAR ETGQ 190620Z 16003KT 9999 SCT020 BKN120 04/01 Q1000 BLU;
0147102340999992009011907204+53133+009350FM-15+0061ETGQ V0201601N002110300019N0112651N1+00401+00101999999ADDGA1041+009301999GA2071+030001999GF107991999999999999999999MA1099901999999REMMET062METAR ETGQ 190720Z 16004KT 9999 SCT031 BKN100 04/01 Q0999 BLU;
0147102340999992009011908204+53133+009350FM-15+0061ETGQ V0201401N003110150019N0112651N1+00501+00201999999ADDGA1041+009001999GA2071+015001999GF107991999999999999999999MA1099701999999REMMET062METAR ETGQ 190820Z 14006KT 9999 SCT030 BKN050 05/02 Q0997 BLU;
0157102340999992009011909204+53133+009350FM-15+0061ETGQ V0201501N003610132019N0112651N1+00401+00201999999ADDGA1041+005101999GA2081+013201999GF108991999999999999999999MA1099491999999MW1611REMMET066METAR ETGQ 190920Z 15007KT 9999 -RA SCT017 OVC044 04/02 Q0995 BLU;
0157102340999992009011910204+53133+009350FM-15+0061ETGQ V0201401N005710120019N0112651N1+00401+00201999999ADDGA1041+005401999GA2081+012001999GF108991999999999999999999MA1099291999999MW1611REMMET066METAR ETGQ 191020Z 14011KT 9999 -RA SCT018 OVC040 04/02 Q0993 BLU;
0134102340999992009011911204+53133+009350FM-15+0061ETGQ V0201401N005110069019N0112651N1+00501+00201999999ADDGA1071+006901999GF107991999999999999999999MA1099091999999MW1611REMMET059METAR ETGQ 191120Z 14010KT 9999 -RA BKN023 05/02 Q0991 WHT;
0168102340999992009011912204+53133+009350FM-15+0061ETGQ V0201601N004610069019N0112651N1+00501+00301999999ADDGA1021+003001999GA2071+006901999GF107991999999999999999999MA1098981999999MW1611OC101031REMMET069METAR ETGQ 191220Z 16009G20KT 9999 -RA FEW010 BKN023 05/03 Q0990 WHT;
0170102340999992009011913204+53133+009350FM-15+0061ETGQ V0202201N00211006001CN0112651N1+00601+00301999999ADDGA1021+003001999GA2041+006001999GA3071+009001999GF107991999999999999999999MA1098921999999REMMET069METAR ETGQ 191320Z 22004KT 9999 FEW010 SCT020 BKN030 06/03 Q0989 BLU;
0170102340999992009011914204+53133+009350FM-15+0061ETGQ V0201401N00211005401CN0112651N1+00601+00401999999ADDGA1021+003901999GA2041+005401999GA3071+006901999GF107991999999999999999999MA1098921999999REMMET069METAR ETGQ 191420Z 14004KT 9999 FEW013 SCT018 BKN023 06/04 Q0989 WHT;
0170102340999992009011915204+53133+009350FM-15+0061ETGQ V0201301N001010075019N0112651N1+00701+00501999999ADDGA1021+005401999GA2071+007501999GA3071+012001999GF107991999999999999999999MA1098921999999REMMET069METAR ETGQ 191520Z 13002KT 9999 FEW018 BKN025 BKN040 07/05 Q0989 BLU;
0170102340999992009011916204+53133+009350FM-15+0061ETGQ V0202501N002110084019N0112651N1+00901+00501999999ADDGA1021+006601999GA2071+008401999GA3071+012001999GF107991999999999999999999MA1098921999999REMMET069METAR ETGQ 191620Z 25004KT 9999 FEW022 BKN028 BKN040 09/05 Q0989 BLU;
0148102340999992009011917204+53133+009350FM-15+0061ETGQ V0209999V001012200019N0112651N1+00901+00401999999ADDGA1021+008401999GA2041+012001999GF104991999999999999999999MA1098921999999REMMET063METAR ETGQ 191720Z VRB02KT 9999 FEW028 SCT040 09/04 Q0989 BLU/;
0148102340999992009011918204+53133+009350FM-15+0061ETGQ V0201701N002612200019N0112651N1+00901+00401999999ADDGA1021+008401999GA2041+012001999GF104991999999999999999999MA1098821999999REMMET063METAR ETGQ 191820Z 17005KT 9999 FEW028 SCT040 09/04 Q0988 BLU/;
0125102340999992009012005204+53133+009350FM-15+0061ETGQ V0209999V001012200019N0112651N1+00401+00101999999ADDGA1041+008401999GF104991999999999999999999MA1099491999999REMMET056METAR ETGQ 200520Z VRB02KT 9999 SCT028 04/01 Q0995 BLU/;
0124102340999992009012006204+53133+009350FM-15+0061ETGQ V0202101N002610063019N0112651N1+00301+00001999999ADDGA1071+006301999GF107991999999999999999999MA1099591999999REMMET055METAR ETGQ 200620Z 21005KT 9999 BKN021 03/00 Q0996 WHT;
0124102340999992009012007204+53133+009350FM-15+0061ETGQ V0201801N002110066019N0112651N1+00301+00001999999ADDGA1071+006601999GF107991999999999999999999MA1099591999999REMMET055METAR ETGQ 200720Z 18004KT 9999 BKN022 03/00 Q0996 WHT;
0125102340999992009012008204+53133+009350FM-15+0061ETGQ V0202301N002110078019N0112651N1+00401-00101999999ADDGA1071+007801999GF107991999999999999999999MA1099801999999REMMET056METAR ETGQ 200820Z 23004KT 9999 BKN026 04/M01 Q0998 BLU;
0149102340999992009012009204+53133+009350FM-15+0061ETGQ V0202501N002110630019N0112651N1+00401-00101999999ADDGA1041+007501999GA2071+063001999GF107991999999999999999999MA1099801999999REMMET064METAR ETGQ 200920Z 25004KT 9999 SCT025 BKN210 04/M01 Q0998 BLU/;
0125102340999992009012011204+53133+009350FM-15+0061ETGQ V0202201N002110069019N0112651N1+00401-00101999999ADDGA1071+006901999GF107991999999999999999999MA1099901999999REMMET056METAR ETGQ 201120Z 22004KT 9999 BKN023 04/M01 Q0999 WHT;
0125102340999992009012012204+53133+009350FM-15+0061ETGQ V0202201N001510069019N0112651N1+00501+00001999999ADDGA1071+006901999GF107991999999999999999999MA1099901999999REMMET056METAR ETGQ 201220Z 22003KT 9999 BKN023 05/M00 Q0999 WHT;
0125102340999992009012013204+53133+009350FM-15+0061ETGQ V0202201N001510078019N0112651N1+00501+00001999999ADDGA1071+007801999GF107991999999999999999999MA1099901999999REMMET056METAR ETGQ 201320Z 22003KT 9999 BKN026 05/M00 Q0999 BLU;
0125102340999992009012014204+53133+009350FM-15+0061ETGQ V0202201N001510087019N0112651N1+00601+00001999999ADDGA1071+008701999GF107991999999999999999999MA1099901999999REMMET056METAR ETGQ 201420Z 22003KT 9999 BKN029 06/M00 Q0999 BLU;
0125102340999992009012015204+53133+009350FM-15+0061ETGQ V0209999C000010081019N0112651N1+00501+00001999999ADDGA1071+008101999GF107991999999999999999999MA1099901999999REMMET056METAR ETGQ 201520Z 00000KT 9999 BKN027 05/M00 Q0999 BLU;
0125102340999992009012016204+53133+009350FM-15+0061ETGQ V0202501N001510081019N0112651N1+00501+00001999999ADDGA1071+008101999GF107991999999999999999999MA1100001999999REMMET056METAR ETGQ 201620Z 25003KT 9999 BKN027 05/M00 Q1000 BLU;
0125102340999992009012017204+53133+009350FM-15+0061ETGQ V0201601N001510081019N0112651N1+00501-00101999999ADDGA1071+008101999GF107991999999999999999999MA1100101999999REMMET056METAR ETGQ 201720Z 16003KT 9999 BKN027 05/M01 Q1001 BLU;
0125102340999992009012018204+53133+009350FM-15+0061ETGQ V0209999C000010096019N0112651N1+00401-00101999999ADDGA1071+009601999GF107991999999999999999999MA1100101999999REMMET056METAR ETGQ 201820Z 00000KT 9999 BKN032 04/M01 Q1001 BLU;
0125102340999992009012019204+53133+009350FM-15+0061ETGQ V0209999C000010102019N0112651N1+00301-00101999999ADDGA1071+010201999GF107991999999999999999999MA1100101999999REMMET056METAR ETGQ 201920Z 00000KT 9999 BKN034 03/M01 Q1001 BLU;
0078102340999992009012105204+53133+009350FM-15+0061ETGQ V0209999C000012200019N0112651N1-00201-00301999999ADDMA1100411999999REMMET051METAR ETGQ 210520Z 00000KT 9999 M02/M03 Q1004 BLU/;
0126102340999992009012106204+53133+009350FM-15+0061ETGQ V0209999C000010240019N0112651N1-00301-00301999999ADDGA1071+024001999GF107991999999999999999999MA1100511999999REMMET057METAR ETGQ 210620Z 00000KT 9999 BKN080 M03/M03 Q1005 BLU;
0126102340999992009012107204+53133+009350FM-15+0061ETGQ V0209999C000010240019N0112651N1-00201-00201999999ADDGA1071+024001999GF107991999999999999999999MA1100711999999REMMET057METAR ETGQ 210720Z 00000KT 9999 BKN080 M02/M02 Q1007 BLU;
0150102340999992009012109204+53133+009350FM-15+0061ETGQ V0209999C000012200019N0112651N1-00101-00201999999ADDGA1021+001501999GA2041+063001999GF104991999999999999999999MA1100811999999REMMET065METAR ETGQ 210920Z 00000KT 9999 FEW005 SCT210 M01/M02 Q1008 BLU/;
0149102340999992009012110204+53133+009350FM-15+0061ETGQ V0201401N001512200019N0112651N1+00101-00101999999ADDGA1041+015001999GA2041+060001999GF104991999999999999999999MA1100811999999REMMET064METAR ETGQ 211020Z 14003KT 9999 SCT050 SCT200 01/M01 Q1008 BLU/;
0125102340999992009012111204+53133+009350FM-15+0061ETGQ V0209999C000010180019N0112651N1+00201+00001999999ADDGA1071+018001999GF107991999999999999999999MA1100811999999REMMET056METAR ETGQ 211120Z 00000KT 9999 BKN060 02/M00 Q1008 BLU;
0125102340999992009012112204+53133+009350FM-15+0061ETGQ V0209999C000010180019N0112651N1+00201+00001999999ADDGA1071+018001999GF107991999999999999999999MA1100811999999REMMET056METAR ETGQ 211220Z 00000KT 9999 BKN060 02/M00 Q1008 BLU;
0124102340999992009012113204+53133+009350FM-15+0061ETGQ V0209999V000510180019N0112651N1+00301+00001999999ADDGA1071+018001999GF107991999999999999999999MA1100811999999REMMET055METAR ETGQ 211320Z VRB01KT 9999 BKN060 03/00 Q1008 BLU;
0124102340999992009012114204+53133+009350FM-15+0061ETGQ V0209999C000010180019N0112651N1+00401+00101999999ADDGA1071+018001999GF107991999999999999999999MA1100811999999REMMET055METAR ETGQ 211420Z 00000KT 9999 BKN060 04/01 Q1008 BLU;
0147102340999992009012115204+53133+009350FM-15+0061ETGQ V0202301N001010180019N0112651N1+00401+00101999999ADDGA1041+005401999GA2071+018001999GF107991999999999999999999MA1100811999999REMMET062METAR ETGQ 211520Z 23002KT 9999 SCT018 BKN060 04/01 Q1008 BLU;
0147102340999992009012116204+53133+009350FM-15+0061ETGQ V0201601N000510180019N0112651N1+00401+00001999999ADDGA1021+005401999GA2071+018001999GF107991999999999999999999MA1100911999999REMMET062METAR ETGQ 211620Z 16001KT 9999 FEW018 BKN060 04/00 Q1009 BLU;
0147102340999992009012117204+53133+009350FM-15+0061ETGQ V0209999C000010180019N0112651N1+00301+00001999999ADDGA1041+005701999GA2071+018001999GF107991999999999999999999MA1100911999999REMMET062METAR ETGQ 211720Z 00000KT 9999 SCT019 BKN060 03/00 Q1009 BLU;
0147102340999992009012118204+53133+009350FM-15+0061ETGQ V0209999V001010180019N0112651N1+00301+00001999999ADDGA1041+005701999GA2071+018001999GF107991999999999999999999MA1100911999999REMMET062METAR ETGQ 211820Z VRB02KT 9999 SCT019 BKN060 03/00 Q1009 BLU;
0147102340999992009012119204+53133+009350FM-15+0061ETGQ V0202201N000510180019N0112651N1+00301+00001999999ADDGA1041+009601999GA2071+018001999GF107991999999999999999999MA1101021999999REMMET062METAR ETGQ 211920Z 22001KT 9999 SCT032 BKN060 03/00 Q1010 BLU;
0125102340999992009012205204+53133+009350FM-15+0061ETGQ V0201401N003110120019N0112651N1+00101-00101999999ADDGA1071+012001999GF107991999999999999999999MA1100611999999REMMET056METAR ETGQ 220520Z 14006KT 9999 BKN040 01/M01 Q1006 BLU;
0125102340999992009012206204+53133+009350FM-15+0061ETGQ V0201501N002610120019N0112651N1+00101-00101999999ADDGA1071+012001999GF107991999999999999999999MA1100611999999REMMET056METAR ETGQ 220620Z 15005KT 9999 BKN040 01/M01 Q1006 BLU;
0126102340999992009012207204+53133+009350FM-15+0061ETGQ V0201401N002612200019N0112651N1+00201-00101999999ADDGA1041+012001999GF104991999999999999999999MA1100511999999REMMET057METAR ETGQ 220720Z 14005KT 9999 SCT040 02/M01 Q1005 BLU/;
0149102340999992009012208204+53133+009350FM-15+0061ETGQ V0201501N001512200019N0112651N1+00201+00001999999ADDGA1041+012001999GA2041+045001999GF104991999999999999999999MA1100411999999REMMET064METAR ETGQ 220820Z 15003KT 9999 SCT040 SCT150 02/M00 Q1004 BLU/;
0149102340999992009012209204+53133+009350FM-15+0061ETGQ V0201501N003612200019N0112651N1+00301-00101999999ADDGA1041+006601999GA2041+030001999GF104991999999999999999999MA1100411999999REMMET064METAR ETGQ 220920Z 15007KT 9999 SCT022 SCT100 03/M01 Q1004 BLU/;
0172102340999992009012210204+53133+009350FM-15+0061ETGQ V0201601N00361039001CN0112651N1+00401-00101999999ADDGA1041+007501999GA2041+039001999GA3071+060001999GF107991999999999999999999MA1100311999999REMMET071METAR ETGQ 221020Z 16007KT 9999 SCT025 SCT130 BKN200 04/M01 Q1003 BLU/;
0149102340999992009012211204+53133+009350FM-15+0061ETGQ V0201601N003110600019N0112651N1+00501-00101999999ADDGA1041+009001999GA2071+060001999GF107991999999999999999999MA1100201999999REMMET064METAR ETGQ 221120Z 16006KT 9999 SCT030 BKN200 05/M01 Q1002 BLU/;
0149102340999992009012212204+53133+009350FM-15+0061ETGQ V0201501N004110750019N0112651N1+00501-00101999999ADDGA1021+009001999GA2071+075001999GF107991999999999999999999MA1100001999999REMMET064METAR ETGQ 221220Z 15008KT 9999 FEW030 BKN250 05/M01 Q1000 BLU/;
0149102340999992009012213204+53133+009350FM-15+0061ETGQ V0201601N003112200019N0112651N1+00501-00101999999ADDGA1021+009001999GA2041+039001999GF104991999999999999999999MA1099901999999REMMET064METAR ETGQ 221320Z 16006KT 9999 FEW030 SCT130 05/M01 Q0999 BLU/;
0149102340999992009012214204+53133+009350FM-15+0061ETGQ V0201401N003112200019N0112651N1+00601-00201999999ADDGA1021+009001999GA2041+039001999GF104991999999999999999999MA1099801999999REMMET064METAR ETGQ 221420Z 14006KT 9999 FEW030 SCT130 06/M02 Q0998 BLU/;
0148102340999992009012215204+53133+009350FM-15+0061ETGQ V0201001N004110300019N0112651N1+00601-00201999999ADDGA1021+009001999GA2071+030001999GF107991999999999999999999MA1099701999999REMMET063METAR ETGQ 221520Z 10008KT 9999 FEW030 BKN100 06/M02 Q0997 BLU;
0148102340999992009012216204+53133+009350FM-15+0061ETGQ V0201601N004110105019N0112651N1+00501-00201999999ADDGA1071+010501999GA2081+030001999GF108991999999999999999999MA1099701999999REMMET063METAR ETGQ 221620Z 16008KT 9999 BKN035 OVC100 05/M02 Q0997 BLU;
0135102340999992009012217204+53133+009350FM-15+0061ETGQ V0201601N003110090019N0112651N1+00501-00201999999ADDGA1081+009001999GF108991999999999999999999MA1099591999999MW1511REMMET060METAR ETGQ 221720Z 16006KT 9999 -DZ OVC030 05/M02 Q0996 BLU;
0125102340999992009012218204+53133+009350FM-15+0061ETGQ V0201701N002110081019N0112651N1+00501-00201999999ADDGA1081+008101999GF108991999999999999999999MA1099701999999REMMET056METAR ETGQ 221820Z 17004KT 9999 OVC027 05/M02 Q0997 BLU;
0124102340999992009012219204+53133+009350FM-15+0061ETGQ V0201701N002110060019N0112651N1+00501+00001999999ADDGA1081+006001999GF108991999999999999999999MA1099701999999REMMET055METAR ETGQ 221920Z 17004KT 9999 OVC020 05/00 Q0997 WHT;
0124102340999992009012305204+53133+009350FM-15+0061ETGQ V0201601N004110120019N0112651N1+00401+00201999999ADDGA1071+012001999GF107991999999999999999999MA1098211999999REMMET055METAR ETGQ 230520Z 16008KT 9999 BKN040 04/02 Q0982 BLU;
0157102340999992009012306204+53133+009350FM-15+0061ETGQ V0201501N003110129019N0112651N1+00301+00201999999ADDGA1041+004501999GA2071+012901999GF107991999999999999999999MA1097901999999MW1611REMMET066METAR ETGQ 230620Z 15006KT 9999 -RA SCT015 BKN043 03/02 Q0979 BLU;
0157102340999992009012307204+53133+009350FM-15+0061ETGQ V0201401N004110150019N0112651N1+00401+00201999999ADDGA1041+005101999GA2081+015001999GF108991999999999999999999MA1097601999999MW1611REMMET066METAR ETGQ 230720Z 14008KT 9999 -RA SCT017 OVC050 04/02 Q0976 BLU;
0157102340999992009012308204+53133+009350FM-15+0061ETGQ V0201501N005110111019N0112651N1+00401+00201999999ADDGA1041+003601999GA2071+011101999GF107991999999999999999999MA1097391999999MW1611REMMET066METAR ETGQ 230820Z 15010KT 9999 -RA SCT012 BKN037 04/02 Q0974 BLU;
0157102340999992009012309204+53133+009350FM-15+0061ETGQ V0201601N003610105019N0112651N1+00401+00201999999ADDGA1041+003601999GA2081+010501999GF108991999999999999999999MA1097291999999MW1611REMMET066METAR ETGQ 230920Z 16007KT 9999 -RA SCT012 OVC035 04/02 Q0973 BLU;
0145102340999992009012310204+53133+009350FM-15+0061ETGQ V0201501N004110078019N0112651N1+00401+00301999999ADDGA1071+007801999GF107991999999999999999999MA1097091999999MW1611OC100981REMMET062METAR ETGQ 231020Z 15008G19KT 9999 -RA BKN026 04/03 Q0971 BLU;
0134102340999992009012311204+53133+009350FM-15+0061ETGQ V0201601N002610060019N0112651N1+00501+00301999999ADDGA1081+006001999GF108991999999999999999999MA1096881999999MW1611REMMET059METAR ETGQ 231120Z 16005KT 9999 -RA OVC020 05/03 Q0969 WHT;
0134102340999992009012312204+53133+009350FM-15+0061ETGQ V0201601N002110036019N0070001N1+00601+00401999999ADDGA1081+003601999GF108991999999999999999999MA1096721999999MW1611REMMET059METAR ETGQ 231220Z 16004KT 7000 -RA OVC012 06/04 Q0967 GRN;
0157102340999992009012313204+53133+009350FM-15+0061ETGQ V0201401N001010030019N0070001N1+00601+00501999999ADDGA1041+001801999GA2081+003001999GF108991999999999999999999MA1096611999999MW1611REMMET066METAR ETGQ 231320Z 14002KT 7000 -RA SCT006 OVC010 06/05 Q0966 GRN;
0157102340999992009012314204+53133+009350FM-15+0061ETGQ V0202501N002610060019N0070001N1+00701+00601999999ADDGA1041+003001999GA2081+006001999GF108991999999999999999999MA1096821999999MW1611REMMET066METAR ETGQ 231420Z 25005KT 7000 -RA SCT010 OVC020 07/06 Q0968 WHT;
0147102340999992009012315204+53133+009350FM-15+0061ETGQ V0202401N002610093019N0112651N1+00801+00501999999ADDGA1021+003001999GA2071+009301999GF107991999999999999999999MA1096991999999REMMET062METAR ETGQ 231520Z 24005KT 9999 FEW010 BKN031 08/05 Q0970 BLU;
0150102340999992009012316204+53133+009350FM-15+0061ETGQ V0202701N003610135019N0112651N1+00801+00401999999ADDGA1041+006001021GA2071+013501999GF107991999999999999999999MA1097291999999REMMET065METAR ETGQ 231620Z 27007KT 9999 SCT020TCU BKN045 08/04 Q0973 BLU;
0161102340999992009012317204+53133+009350FM-15+0061ETGQ V0202601N005110060019N0112651N1+00701+00201999999ADDGA1071+006001021GA2071+015001999GF107991999999999999999999MA1097601999999OC101291REMMET068METAR ETGQ 231720Z 26010G25KT 9999 BKN020TCU BKN050 07/02 Q0976 WHT;
0138102340999992009012318204+53133+009350FM-15+0061ETGQ V0202501N005110060019N0112651N1+00501+00001999999ADDGA1071+006001021GF107991999999999999999999MA1097801999999OC101031REMMET061METAR ETGQ 231820Z 25010G20KT 9999 BKN020TCU 05/00 Q0978 WHT;
0157102340999992009012319204+53133+009350FM-15+0061ETGQ V0202601N004610060019N0112651N1+00401+00101999999ADDGA1041+004501999GA2071+006001999GF107991999999999999999999MA1098002999999MW1611REMMET066METAR ETGQ 231920Z 26009KT 9999 -RA SCT015 BKN020 04/01 Q0980 WHT;
0136102340999992009012605204+53133+009350FM-15+0061ETGQ V0209999C000010003019N0002001N1-00201-00201999999ADDGA1091+000301999GF109991999999000251999999MA1100001999999MW1491REMMET061METAR ETGQ 260520Z 00000KT 0200 FZFG VV001 M02/M02 Q1000 RED;
0136102340999992009012606204+53133+009350FM-15+0061ETGQ V0209999C000010003019N0001001N1-00301-00301999999ADDGA1091+000301999GF109991999999000251999999MA1100001999999MW1491REMMET061METAR ETGQ 260620Z 00000KT 0100 FZFG VV001 M03/M03 Q1000 RED;
0136102340999992009012607204+53133+009350FM-15+0061ETGQ V0209999C000010003019N0001001N1-00301-00301999999ADDGA1091+000301999GF109991999999000251999999MA1100101999999MW1491REMMET061METAR ETGQ 260720Z 00000KT 0100 FZFG VV001 M03/M03 Q1001 RED;
0136102340999992009012608204+53133+009350FM-15+0061ETGQ V0209999C000010006019N0001001N1-00201-00201999999ADDGA1091+000601999GF109991999999000251999999MA1100101999999MW1491REMMET061METAR ETGQ 260820Z 00000KT 0100 FZFG VV002 M02/M02 Q1001 RED;
0136102340999992009012609204+53133+009350FM-15+0061ETGQ V0209999C000010006019N0001001N1-00201-00201999999ADDGA1091+000601999GF109991999999000251999999MA1100201999999MW1491REMMET061METAR ETGQ 260920Z 00000KT 0100 FZFG VV002 M02/M02 Q1002 RED;
0136102340999992009012610204+53133+009350FM-15+0061ETGQ V0209999C000010009019N0002001N1-00201-00201999999ADDGA1091+000901999GF109991999999000251999999MA1100201999999MW1491REMMET061METAR ETGQ 261020Z 00000KT 0200 FZFG VV003 M02/M02 Q1002 RED;
0137102340999992009012611204+53133+009350FM-15+0061ETGQ V0209999C000010015019N0005001N1-00201-00201999999ADDGA1081+001501999GF108991999999999999999999MA1100201999999MW1481REMMET062METAR ETGQ 261120Z 00000KT 0500 FZFG OVC005 M02/M02 Q1002 RED;
0136102340999992009012612204+53133+009350FM-15+0061ETGQ V0209999C000010009019N0003001N1-00101-00101999999ADDGA1091+000901999GF109991999999000251999999MA1100201999999MW1491REMMET061METAR ETGQ 261220Z 00000KT 0300 FZFG VV003 M01/M01 Q1002 RED;
0135102340999992009012613204+53133+009350FM-15+0061ETGQ V0209999C000010012019N0015001N1-00101-00101999999ADDGA1071+001201999GF107991999999999999999999MA1100201999999MW1101REMMET060METAR ETGQ 261320Z 00000KT 1500 BR BKN004 M01/M01 Q1002 AMB;
0150102340999992009012614204+53133+009350FM-15+0061ETGQ V0209999C000010690019N0080001N1-00101-00101999999ADDGA1021+003001999GA2071+069001999GF107991999999999999999999MA1100201999999REMMET065METAR ETGQ 261420Z 00000KT 8000 FEW010 BKN230 M01/M01 Q1002 BLU/;
0160102340999992009012615204+53133+009350FM-15+0061ETGQ V0209999C000012200019N0015001N1-00101-00101999999ADDGA1041+001501999GA2041+069001999GF104991999999999999999999MA1100311999999MW1401REMMET069METAR ETGQ 261520Z 00000KT 1500 VCFG SCT005 SCT230 M01/M01 Q1003 AMB;
0158102340999992009012616204+53133+009350FM-15+0061ETGQ V0209999C000012200019N0030001N1-00101-00101999999ADDGA1021+001501999GA2041+069001999GF104991999999999999999999MA1100311999999MW1101REMMET067METAR ETGQ 261620Z 00000KT 3000 BR FEW005 SCT230 M01/M01 Q1003 YLO;
0160102340999992009012617204+53133+009350FM-15+0061ETGQ V0209999C000012200019N0009001N1-00201-00201999999ADDGA1021+000601999GA2041+069001999GF104991999999999999999999MA1100411999999MW1481REMMET069METAR ETGQ 261720Z 00000KT 0900 FZFG FEW002 SCT230 M02/M02 Q1004 AMB;
0158102340999992009012618204+53133+009350FM-15+0061ETGQ V0209999C000012200019N0030001N1-00201-00201999999ADDGA1021+001501999GA2041+075001999GF104991999999999999999999MA1100511999999MW1101REMMET067METAR ETGQ 261820Z 00000KT 3000 BR FEW005 SCT250 M02/M02 Q1005 YLO;
0135102340999992009012619204+53133+009350FM-15+0061ETGQ V0209999C000012200019N0030001N1-00201-00201999999ADDGA1021+001501999GF102991999999999999999999MA1100511999999MW1101REMMET060METAR ETGQ 261920Z 00000KT 3000 BR FEW005 M02/M02 Q1005 YLO;
0135102340999992009012705204+53133+009350FM-15+0061ETGQ V0209999C000010012019N0035001N1-00301-00301999999ADDGA1081+001201999GF108991999999999999999999MA1101081999999MW1101REMMET060METAR ETGQ 270520Z 00000KT 3500 BR OVC004 M03/M03 Q1011 YLO;
0135102340999992009012706204+53133+009350FM-15+0061ETGQ V0209999C000010015019N0035001N1-00301-00301999999ADDGA1081+001501999GF108991999999999999999999MA1101081999999MW1101REMMET060METAR ETGQ 270620Z 00000KT 3500 BR OVC005 M03/M03 Q1011 YLO;
0135102340999992009012707204+53133+009350FM-15+0061ETGQ V0209999C000010015019N0050001N1-00201-00201999999ADDGA1081+001501999GF108991999999999999999999MA1101191999999MW1101REMMET060METAR ETGQ 270720Z 00000KT 5000 BR OVC005 M02/M02 Q1012 YLO;
0158102340999992009012709204+53133+009350FM-15+0061ETGQ V0209999C000010021019N0050001N1-00201-00201999999ADDGA1071+002101999GA2071+013501999GF107991999999999999999999MA1101291999999MW1101REMMET067METAR ETGQ 270920Z 00000KT 5000 BR BKN007 BKN045 M02/M02 Q1013 GRN;
0158102340999992009012710204+53133+009350FM-15+0061ETGQ V0209999C000010132019N0050001N1-00101-00101999999ADDGA1041+002101999GA2071+013201999GF107991999999999999999999MA1101291999999MW1101REMMET067METAR ETGQ 271020Z 00000KT 5000 BR SCT007 BKN044 M01/M01 Q1013 WHT;
0149102340999992009012711204+53133+009350FM-15+0061ETGQ V0209999C000010135019N0070001N1-00101-00101999999ADDGA1041+005701999GA2071+013501999GF107991999999999999999999MA1101391999999REMMET064METAR ETGQ 271120Z 00000KT 7000 SCT019 BKN045 M01/M01 Q1014 WHT;
0126102340999992009012712204+53133+009350FM-15+0061ETGQ V0209999C000010135019N0070001N1-00101-00101999999ADDGA1071+013501999GF107991999999999999999999MA1101391999999REMMET057METAR ETGQ 271220Z 00000KT 7000 BKN045 M01/M01 Q1014 WHT;
0135102340999992009012713204+53133+009350FM-15+0061ETGQ V0209999C000010135019N0050001N1+00001+00001999999ADDGA1071+013501999GF107991999999999999999999MA1101391999999MW1101REMMET060METAR ETGQ 271320Z 00000KT 5000 BR BKN045 M00/M00 Q1014 WHT;
0133102340999992009012714204+53133+009350FM-15+0061ETGQ V0209999C000010135019N0050001N1+00001+00001999999ADDGA1071+013501999GF107991999999999999999999MA1101391999999MW1101REMMET058METAR ETGQ 271420Z 00000KT 5000 BR BKN045 00/00 Q1014 WHT;
0133102340999992009012715204+53133+009350FM-15+0061ETGQ V0209999C000010129019N0050001N1+00101+00101999999ADDGA1071+012901999GF107991999999999999999999MA1101491999999MW1101REMMET058METAR ETGQ 271520Z 00000KT 5000 BR BKN043 01/01 Q1015 WHT;
0133102340999992009012716204+53133+009350FM-15+0061ETGQ V0209999C000010132019N0050001N1+00001+00001999999ADDGA1071+013201999GF107991999999999999999999MA1101591999999MW1101REMMET058METAR ETGQ 271620Z 00000KT 5000 BR BKN044 00/00 Q1016 WHT;
0134102340999992009012717204+53133+009350FM-15+0061ETGQ V0209999C000010123019N0050001N1+00001+00001999999ADDGA1071+012301999GF107991999999999999999999MA1101591999999MW1101REMMET059METAR ETGQ 271720Z 00000KT 5000 BR BKN041 00/M00 Q1016 WHT;
0134102340999992009012718204+53133+009350FM-15+0061ETGQ V0209999C000010111019N0050001N1+00001+00001999999ADDGA1071+011101999GF107991999999999999999999MA1101691999999MW1101REMMET059METAR ETGQ 271820Z 00000KT 5000 BR BKN037 00/M00 Q1017 WHT;
0134102340999992009012719204+53133+009350FM-15+0061ETGQ V0209999C000010111019N0050001N1+00001+00001999999ADDGA1071+011101999GF107991999999999999999999MA1101691999999MW1101REMMET059METAR ETGQ 271920Z 00000KT 5000 BR BKN037 00/M00 Q1017 WHT;
0134102340999992009012805204+53133+009350FM-15+0061ETGQ V0209999C000010129019N0050001N1+00001-00101999999ADDGA1081+012901999GF108991999999999999999999MA1101801999999MW1101REMMET059METAR ETGQ 280520Z 00000KT 5000 BR OVC043 00/M01 Q1018 WHT;
0135102340999992009012806204+53133+009350FM-15+0061ETGQ V0202401N000510129019N0050001N1+00001-00101999999ADDGA1071+012901999GF107991999999999999999999MA1101801999999MW1101REMMET060METAR ETGQ 280620Z 24001KT 5000 BR BKN043 M00/M01 Q1018 WHT;
0158102340999992009012807204+53133+009350FM-15+0061ETGQ V0209999C000010135019N0028001N1+00001-00101999999ADDGA1041+007801999GA2071+013501999GF107991999999999999999999MA1101801999999MW1101REMMET067METAR ETGQ 280720Z 00000KT 2800 BR SCT026 BKN045 M00/M01 Q1018 YLO;
0180102340999992009012808204+53133+009350FM-15+0061ETGQ V0202301N001010066019N0030001N1+00001-00101999999ADDGA1021+002101999GA2071+006601999GA3071+015001999GF107991999999999999999999MA1101901999999MW1101REMMET073METAR ETGQ 280820Z 23002KT 3000 BR FEW007 BKN022 BKN050 00/M01 Q1019 YLO;
0134102340999992009012809204+53133+009350FM-15+0061ETGQ V0202401N001010051019N0030001N1+00001-00101999999ADDGA1071+005101999GF107991999999999999999999MA1101901999999MW1101REMMET059METAR ETGQ 280920Z 24002KT 3000 BR BKN017 00/M01 Q1019 YLO;
0157102340999992009012810204+53133+009350FM-15+0061ETGQ V0202501N001010150019N0035001N1+00101-00101999999ADDGA1041+004801999GA2071+015001999GF107991999999999999999999MA1101901999999MW1101REMMET066METAR ETGQ 281020Z 25002KT 3500 BR SCT016 BKN050 01/M01 Q1019 YLO;
0157102340999992009012811204+53133+009350FM-15+0061ETGQ V0209999C000010150019N0040001N1+00201-00101999999ADDGA1041+004801999GA2071+015001999GF107991999999999999999999MA1101801999999MW1101REMMET066METAR ETGQ 281120Z 00000KT 4000 BR SCT016 BKN050 02/M01 Q1018 GRN;
0180102340999992009012812204+53133+009350FM-15+0061ETGQ V0209999C00001006001CN0050001N1+00201+00001999999ADDGA1021+003601999GA2041+006001999GA3071+015001999GF107991999999999999999999MA1101801999999MW1101REMMET073METAR ETGQ 281220Z 00000KT 5000 BR FEW012 SCT020 BKN050 02/M00 Q1018 WHT;
0125102340999992009012813204+53133+009350FM-15+0061ETGQ V0201101N002110075019N0070001N1+00401-00101999999ADDGA1071+007501999GF107991999999999999999999MA1101801999999REMMET056METAR ETGQ 281320Z 11004KT 7000 BKN025 04/M01 Q1018 WHT;
0125102340999992009012814204+53133+009350FM-15+0061ETGQ V0201101N001010075019N0112651N1+00401-00201999999ADDGA1071+007501999GF107991999999999999999999MA1101801999999REMMET056METAR ETGQ 281420Z 11002KT 9999 BKN025 04/M02 Q1018 BLU;
0125102340999992009012815204+53133+009350FM-15+0061ETGQ V0202401N001010075019N0112651N1+00401-00101999999ADDGA1071+007501999GF107991999999999999999999MA1101901999999REMMET056METAR ETGQ 281520Z 24002KT 9999 BKN025 04/M01 Q1019 BLU;
0126102340999992009012816204+53133+009350FM-15+0061ETGQ V0202201N001012200019N0112651N1+00201-00101999999ADDGA1041+009001999GF104991999999999999999999MA1101901999999REMMET057METAR ETGQ 281620Z 22002KT 9999 SCT030 02/M01 Q1019 BLU/;
0125102340999992009012817204+53133+009350FM-15+0061ETGQ V0201901N001010108019N0112651N1+00101-00101999999ADDGA1071+010801999GF107991999999999999999999MA1101901999999REMMET056METAR ETGQ 281720Z 19002KT 9999 BKN036 01/M01 Q1019 BLU;
0125102340999992009012818204+53133+009350FM-15+0061ETGQ V0209999V001010096019N0112651N1+00201-00101999999ADDGA1071+009601999GF107991999999999999999999MA1102001999999REMMET056METAR ETGQ 281820Z VRB02KT 9999 BKN032 02/M01 Q1020 BLU;
0125102340999992009012819204+53133+009350FM-15+0061ETGQ V0200801N002610096019N0112651N1+00201-00201999999ADDGA1071+009601999GF107991999999999999999999MA1102001999999REMMET056METAR ETGQ 281920Z 08005KT 9999 BKN032 02/M02 Q1020 BLU;
0125102340999992009012905204+53133+009350FM-15+0061ETGQ V0201201N001510066019N0112651N1+00101-00301999999ADDGA1071+006601999GF107991999999999999999999MA1102101999999REMMET056METAR ETGQ 290520Z 12003KT 9999 BKN022 01/M03 Q1021 WHT;
0125102340999992009012906204+53133+009350FM-15+0061ETGQ V0201301N002610063019N0112651N1+00101-00301999999ADDGA1071+006301999GF107991999999999999999999MA1102101999999REMMET056METAR ETGQ 290620Z 13005KT 9999 BKN021 01/M03 Q1021 WHT;
0125102340999992009012907204+53133+009350FM-15+0061ETGQ V0201101N002110063019N0112651N1+00101-00301999999ADDGA1071+006301999GF107991999999999999999999MA1102101999999REMMET056METAR ETGQ 290720Z 11004KT 9999 BKN021 01/M03 Q1021 WHT;
0125102340999992009012908204+53133+009350FM-15+0061ETGQ V0201201N002610069019N0112651N1+00101-00401999999ADDGA1071+006901999GF107991999999999999999999MA1102101999999REMMET056METAR ETGQ 290820Z 12005KT 9999 BKN023 01/M04 Q1021 WHT;
0125102340999992009012909204+53133+009350FM-15+0061ETGQ V0201601N002110081019N0112651N1+00201-00401999999ADDGA1071+008101999GF107991999999999999999999MA1102201999999REMMET056METAR ETGQ 290920Z 16004KT 9999 BKN027 02/M04 Q1022 BLU;
0126102340999992009012910204+53133+009350FM-15+0061ETGQ V0200901N003612200019N0112651N1+00201-00401999999ADDGA1041+008101999GF104991999999999999999999MA1102201999999REMMET057METAR ETGQ 291020Z 09007KT 9999 SCT027 02/M04 Q1022 BLU/;
0126102340999992009012911204+53133+009350FM-15+0061ETGQ V0201101N002112200019N0112651N1+00301-00401999999ADDGA1021+007501999GF102991999999999999999999MA1102201999999REMMET057METAR ETGQ 291120Z 11004KT 9999 FEW025 03/M04 Q1022 BLU/;
0077102340999992009012912204+53133+009350FM-15+0061ETGQ V0201101N002112200019N0112651N1+00401-00401999999ADDMA1102101999999REMMET050METAR ETGQ 291220Z 11004KT 9999 04/M04 Q1021 BLU/;
0077102340999992009012913204+53133+009350FM-15+0061ETGQ V0201201N003112200019N0112651N1+00401-00401999999ADDMA1102101999999REMMET050METAR ETGQ 291320Z 12006KT 9999 04/M04 Q1021 BLU/;
0077102340999992009012914204+53133+009350FM-15+0061ETGQ V0201001N002612200019N0112651N1+00401-00401999999ADDMA1102101999999REMMET050METAR ETGQ 291420Z 10005KT 9999 04/M04 Q1021 BLU/;
0077102340999992009012915204+53133+009350FM-15+0061ETGQ V0201001N002112200019N0112651N1+00401-00401999999ADDMA1102101999999REMMET050METAR ETGQ 291520Z 10004KT 9999 04/M04 Q1021 BLU/;
0077102340999992009012916204+53133+009350FM-15+0061ETGQ V0200901N002612200019N0112651N1+00301-00401999999ADDMA1102201999999REMMET050METAR ETGQ 291620Z 09005KT 9999 03/M04 Q1022 BLU/;
0077102340999992009012917204+53133+009350FM-15+0061ETGQ V0200701N002612200019N0112651N1+00201-00301999999ADDMA1102201999999REMMET050METAR ETGQ 291720Z 07005KT 9999 02/M03 Q1022 BLU/;
0077102340999992009012918204+53133+009350FM-15+0061ETGQ V0201101N002612200019N0112651N1+00101-00401999999ADDMA1102201999999REMMET050METAR ETGQ 291820Z 11005KT 9999 01/M04 Q1022 BLU/;
0077102340999992009012919204+53133+009350FM-15+0061ETGQ V0201401N001512200019N0112651N1+00001-00401999999ADDMA1102301999999REMMET050METAR ETGQ 291920Z 14003KT 9999 00/M04 Q1023 BLU/;
0078102340999992009013005204+53133+009350FM-15+0061ETGQ V0201201N001512200019N0112651N1-00201-00401999999ADDMA1102401999999REMMET051METAR ETGQ 300520Z 12003KT 9999 M02/M04 Q1024 BLU/;
0078102340999992009013006204+53133+009350FM-15+0061ETGQ V0201101N002112200019N0112651N1-00201-00401999999ADDMA1102401999999REMMET051METAR ETGQ 300620Z 11004KT 9999 M02/M04 Q1024 BLU/;
0127102340999992009013007204+53133+009350FM-15+0061ETGQ V0209999C000012200019N0080001N1-00301-00501999999ADDGA1041+003901999GF104991999999999999999999MA1102511999999REMMET058METAR ETGQ 300720Z 00000KT 8000 SCT013 M03/M05 Q1025 BLU/;
0126102340999992009013008204+53133+009350FM-15+0061ETGQ V0201201N002110042019N0112651N1-00201-00401999999ADDGA1071+004201999GF107991999999999999999999MA1102511999999REMMET057METAR ETGQ 300820Z 12004KT 9999 BKN014 M02/M04 Q1025 GRN;
0126102340999992009013009204+53133+009350FM-15+0061ETGQ V0201001N003110042019N0112651N1-00101-00401999999ADDGA1071+004201999GF107991999999999999999999MA1102511999999REMMET057METAR ETGQ 300920Z 10006KT 9999 BKN014 M01/M04 Q1025 GRN;
0126102340999992009013010204+53133+009350FM-15+0061ETGQ V0201201N002610051019N0112651N1+00001-00401999999ADDGA1071+005101999GF107991999999999999999999MA1102511999999REMMET057METAR ETGQ 301020Z 12005KT 9999 BKN017 M00/M04 Q1025 WHT;
0077102340999992009013012204+53133+009350FM-15+0061ETGQ V0200901N002612200019N0112651N1+00001-00401999999ADDMA1102401999999REMMET050METAR ETGQ 301220Z 09005KT 9999 00/M04 Q1024 BLU/;
0077102340999992009013013204+53133+009350FM-15+0061ETGQ V0201001N002112200019N0112651N1+00101-00401999999ADDMA1102301999999REMMET050METAR ETGQ 301320Z 10004KT 9999 01/M04 Q1023 BLU/;
0077102340999992009013014204+53133+009350FM-15+0061ETGQ V0200801N002612200019N0112651N1+00101-00401999999ADDMA1102201999999REMMET050METAR ETGQ 301420Z 08005KT 9999 01/M04 Q1022 BLU/;
0077102340999992009013015204+53133+009350FM-15+0061ETGQ V0201801N000512200019N0112651N1+00101-00401999999ADDMA1102201999999REMMET050METAR ETGQ 301520Z 18001KT 9999 01/M04 Q1022 BLU/;
0077102340999992009013016204+53133+009350FM-15+0061ETGQ V0209999C000012200019N0112651N1+00101-00401999999ADDMA1102201999999REMMET050METAR ETGQ 301620Z 00000KT 9999 01/M04 Q1022 BLU/;
0077102340999992009013017204+53133+009350FM-15+0061ETGQ V0201301N002112200019N0112651N1+00101-00401999999ADDMA1102201999999REMMET050METAR ETGQ 301720Z 13004KT 9999 01/M04 Q1022 BLU/;
0077102340999992009013018204+53133+009350FM-15+0061ETGQ V0201201N001012200019N0112651N1+00101-00401999999ADDMA1102201999999REMMET050METAR ETGQ 301820Z 12002KT 9999 01/M04 Q1022 BLU/;
0077102340999992009013019204+53133+009350FM-15+0061ETGQ V0201101N002112200019N0112651N1+00001-00401999999ADDMA1102201999999REMMET050METAR ETGQ 301920Z 11004KT 9999 00/M04 Q1022 BLU/;
0148102340999992009020205204+53133+009350FM-15+0061ETGQ V0201101N003110300019N0112651N1+00001-00501999999ADDGA1041+009301999GA2071+030001999GF107991999999999999999999MA1100201999999REMMET063METAR ETGQ 020520Z 11006KT 9999 SCT031 BKN100 00/M05 Q1002 BLU;
0148102340999992009020206204+53133+009350FM-15+0061ETGQ V0201501N002110270019N0112651N1+00001-00501999999ADDGA1041+010201999GA2071+027001999GF107991999999999999999999MA1100201999999REMMET063METAR ETGQ 020620Z 15004KT 9999 SCT034 BKN090 00/M05 Q1002 BLU;
0125102340999992009020207204+53133+009350FM-15+0061ETGQ V0201201N002110150019N0112651N1+00101-00501999999ADDGA1071+015001999GF107991999999999999999999MA1100201999999REMMET056METAR ETGQ 020720Z 12004KT 9999 BKN050 01/M05 Q1002 BLU;
0149102340999992009020208204+53133+009350FM-15+0061ETGQ V0201401N002110630019N0112651N1+00101-00501999999ADDGA1041+048001999GA2071+063001999GF107991999999999999999999MA1100201999999REMMET064METAR ETGQ 020820Z 14004KT 9999 SCT160 BKN210 01/M05 Q1002 BLU/;
0149102340999992009020209204+53133+009350FM-15+0061ETGQ V0201001N001510630019N0112651N1+00201-00501999999ADDGA1041+033001999GA2071+063001999GF107991999999999999999999MA1100201999999REMMET064METAR ETGQ 020920Z 10003KT 9999 SCT110 BKN210 02/M05 Q1002 BLU/;
0149102340999992009020210204+53133+009350FM-15+0061ETGQ V0201201N002610630019N0112651N1+00301-00501999999ADDGA1021+033001999GA2071+063001999GF107991999999999999999999MA1100201999999REMMET064METAR ETGQ 021020Z 12005KT 9999 FEW110 BKN210 03/M05 Q1002 BLU/;
0171102340999992009020211204+53133+009350FM-15+0061ETGQ V0201101N003110330019N0112651N1+00401-00501999999ADDGA1021+009001999GA2071+033001999GA3071+090001999GF107991999999999999999999MA1100101999999REMMET070METAR ETGQ 021120Z 11006KT 9999 FEW030 BKN110 BKN300 04/M05 Q1001 BLU;
0148102340999992009020212204+53133+009350FM-15+0061ETGQ V0200901N002110330019N0112651N1+00401-00401999999ADDGA1071+033001999GA2071+066001999GF107991999999999999999999MA1100001999999REMMET063METAR ETGQ 021220Z 09004KT 9999 BKN110 BKN220 04/M04 Q1000 BLU;
0125102340999992009020213204+53133+009350FM-15+0061ETGQ V0201001N003110330019N0112651N1+00501-00401999999ADDGA1071+033001999GF107991999999999999999999MA1099901999999REMMET056METAR ETGQ 021320Z 10006KT 9999 BKN110 05/M04 Q0999 BLU;
0148102340999992009020214204+53133+009350FM-15+0061ETGQ V0201101N003110210019N0112651N1+00501-00401999999ADDGA1071+021001999GA2071+030001999GF107991999999999999999999MA1099901999999REMMET063METAR ETGQ 021420Z 11006KT 9999 BKN070 BKN100 05/M04 Q0999 BLU;
0125102340999992009020215204+53133+009350FM-15+0061ETGQ V0201001N002610330019N0112651N1+00501-00301999999ADDGA1071+033001999GF107991999999999999999999MA1099901999999REMMET056METAR ETGQ 021520Z 10005KT 9999 BKN110 05/M03 Q0999 BLU;
0125102340999992009020216204+53133+009350FM-15+0061ETGQ V0201001N002610330019N0112651N1+00501-00301999999ADDGA1071+033001999GF107991999999999999999999MA1099801999999REMMET056METAR ETGQ 021620Z 10005KT 9999 BKN110 05/M03 Q0998 BLU;
0125102340999992009020217204+53133+009350FM-15+0061ETGQ V0209999V001010510019N0112651N1+00501-00301999999ADDGA1071+051001999GF107991999999999999999999MA1099901999999REMMET056METAR ETGQ 021720Z VRB02KT 9999 BKN170 05/M03 Q0999 BLU;
0126102340999992009020218204+53133+009350FM-15+0061ETGQ V0201401N002112200019N0112651N1+00401-00301999999ADDGA1041+036001999GF104991999999999999999999MA1099901999999REMMET057METAR ETGQ 021820Z 14004KT 9999 SCT120 04/M03 Q0999 BLU/;
0126102340999992009020219204+53133+009350FM-15+0061ETGQ V0209999V001012200019N0112651N1+00301-00201999999ADDGA1021+036001999GF102991999999999999999999MA1099801999999REMMET057METAR ETGQ 021920Z VRB02KT 9999 FEW120 03/M02 Q0998 BLU/;
0127102340999992009020305204+53133+009350FM-15+0061ETGQ V0209999C000012200019N0112651N1-00201-00301999999ADDGA1041+075001999GF104991999999999999999999MA1100001999999REMMET058METAR ETGQ 030520Z 00000KT 9999 SCT250 M02/M03 Q1000 BLU/;
0127102340999992009020306204+53133+009350FM-15+0061ETGQ V0209999C000012200019N0112651N1-00201-00301999999ADDGA1041+075001999GF104991999999999999999999MA1100001999999REMMET058METAR ETGQ 030620Z 00000KT 9999 SCT250 M02/M03 Q1000 BLU/;
0127102340999992009020307204+53133+009350FM-15+0061ETGQ V0209999C000010750019N0080001N1-00301-00301999999ADDGA1071+075001999GF107991999999999999999999MA1100001999999REMMET058METAR ETGQ 030720Z 00000KT 8000 BKN250 M03/M03 Q1000 BLU/;
0150102340999992009020308204+53133+009350FM-15+0061ETGQ V0209999C000012200019N0080001N1-00201-00301999999ADDGA1041+033001999GA2041+075001999GF104991999999999999999999MA1100001999999REMMET065METAR ETGQ 030820Z 00000KT 8000 SCT110 SCT250 M02/M03 Q1000 BLU/;
0149102340999992009020309204+53133+009350FM-15+0061ETGQ V0209999C000012200019N0080001N1+00001-00201999999ADDGA1041+033001999GA2041+075001999GF104991999999999999999999MA1100001999999REMMET064METAR ETGQ 030920Z 00000KT 8000 SCT110 SCT250 00/M02 Q1000 BLU/;
0149102340999992009020310204+53133+009350FM-15+0061ETGQ V0209999C000012200019N0112651N1+00201-00101999999ADDGA1041+030001999GA2041+075001999GF104991999999999999999999MA1100001999999REMMET064METAR ETGQ 031020Z 00000KT 9999 SCT100 SCT250 02/M01 Q1000 BLU/;
0149102340999992009020311204+53133+009350FM-15+0061ETGQ V0209999C000012200019N0112651N1+00301-00101999999ADDGA1021+027001999GA2041+075001999GF104991999999999999999999MA1100001999999REMMET064METAR ETGQ 031120Z 00000KT 9999 FEW090 SCT250 03/M01 Q1000 BLU/;
0126102340999992009020312204+53133+009350FM-15+0061ETGQ V0209999C000012200019N0112651N1+00501-00101999999ADDGA1041+075001999GF104991999999999999999999MA1100001999999REMMET057METAR ETGQ 031220Z 00000KT 9999 SCT250 05/M01 Q1000 BLU/;
0126102340999992009020313204+53133+009350FM-15+0061ETGQ V0202801N000510900019N0112651N1+00601-00101999999ADDGA1071+090001999GF107991999999999999999999MA1099901999999REMMET057METAR ETGQ 031320Z 28001KT 9999 BKN300 06/M01 Q0999 BLU/;
0126102340999992009020314204+53133+009350FM-15+0061ETGQ V0209999C000010900019N0112651N1+00601+00001999999ADDGA1071+090001999GF107991999999999999999999MA1099901999999REMMET057METAR ETGQ 031420Z 00000KT 9999 BKN300 06/M00 Q0999 BLU/;
0126102340999992009020315204+53133+009350FM-15+0061ETGQ V0209999C000010900019N0112651N1+00601+00001999999ADDGA1071+090001999GF107991999999999999999999MA1099901999999REMMET057METAR ETGQ 031520Z 00000KT 9999 BKN300 06/M00 Q0999 BLU/;
0126102340999992009020316204+53133+009350FM-15+0061ETGQ V0209999C000010900019N0112651N1+00401-00101999999ADDGA1071+090001999GF107991999999999999999999MA1099901999999REMMET057METAR ETGQ 031620Z 00000KT 9999 BKN300 04/M01 Q0999 BLU/;
0126102340999992009020317204+53133+009350FM-15+0061ETGQ V0209999C000012200019N0112651N1+00301-00101999999ADDGA1041+090001999GF104991999999999999999999MA1099901999999REMMET057METAR ETGQ 031720Z 00000KT 9999 SCT300 03/M01 Q0999 BLU/;
0125102340999992009020318204+53133+009350FM-15+0061ETGQ V0209999C000010150019N0112651N1+00201-00101999999ADDGA1071+015001999GF107991999999999999999999MA1100001999999REMMET056METAR ETGQ 031820Z 00000KT 9999 BKN050 02/M01 Q1000 BLU;
0125102340999992009020319204+53133+009350FM-15+0061ETGQ V0209999C000010390019N0112651N1+00101-00101999999ADDGA1071+039001999GF107991999999999999999999MA1100001999999REMMET056METAR ETGQ 031920Z 00000KT 9999 BKN130 01/M01 Q1000 BLU;
0134102340999992009020405204+53133+009350FM-15+0061ETGQ V0209999C000010015019N0050001N1+00101+00001999999ADDGA1081+001501999GF108991999999999999999999MA1099801999999MW1101REMMET059METAR ETGQ 040520Z 00000KT 5000 BR OVC005 01/M00 Q0998 YLO;
0133102340999992009020406204+53133+009350FM-15+0061ETGQ V0209999C000010012019N0050001N1+00101+00001999999ADDGA1081+001201999GF108991999999999999999999MA1099801999999MW1101REMMET058METAR ETGQ 040620Z 00000KT 5000 BR OVC004 01/00 Q0998 YLO;
0133102340999992009020407204+53133+009350FM-15+0061ETGQ V0209999C000010015019N0050001N1+00101+00001999999ADDGA1081+001501999GF108991999999999999999999MA1099901999999MW1101REMMET058METAR ETGQ 040720Z 00000KT 5000 BR OVC005 01/00 Q0999 YLO;
0133102340999992009020408204+53133+009350FM-15+0061ETGQ V0209999C000010012019N0050001N1+00101+00001999999ADDGA1081+001201999GF108991999999999999999999MA1099801999999MW1101REMMET058METAR ETGQ 040820Z 00000KT 5000 BR OVC004 01/00 Q0998 YLO;
0133102340999992009020409204+53133+009350FM-15+0061ETGQ V0209999C000010018019N0050001N1+00201+00101999999ADDGA1081+001801999GF108991999999999999999999MA1099801999999MW1101REMMET058METAR ETGQ 040920Z 00000KT 5000 BR OVC006 02/01 Q0998 YLO;
0147102340999992009020410204+53133+009350FM-15+0061ETGQ V0209999C000010036019N0070001N1+00201+00101999999ADDGA1041+001801999GA2081+003601999GF108991999999999999999999MA1099801999999REMMET062METAR ETGQ 041020Z 00000KT 7000 SCT006 OVC012 02/01 Q0998 GRN;
0143102340999992009020411204+53133+009350FM-15+0061ETGQ V0209999C000010024019N0030001N1+00301+00101999999ADDGA1071+002401999GF107991999999999999999999MA1099801999999MW1101MW2511REMMET062METAR ETGQ 041120Z 00000KT 3000 -DZ BR BKN008 03/01 Q0998 YLO;
0147102340999992009020412204+53133+009350FM-15+0061ETGQ V0209999C000010210019N0080001N1+00401+00101999999ADDGA1041+004801999GA2071+021001999GF107991999999999999999999MA1099701999999REMMET062METAR ETGQ 041220Z 00000KT 8000 SCT016 BKN070 04/01 Q0997 BLU;
0124102340999992009020413204+53133+009350FM-15+0061ETGQ V0209999C000010141019N0080001N1+00501+00201999999ADDGA1071+014101999GF107991999999999999999999MA1099591999999REMMET055METAR ETGQ 041320Z 00000KT 8000 BKN047 05/02 Q0996 BLU;
0124102340999992009020414204+53133+009350FM-15+0061ETGQ V0209999C000010075019N0080001N1+00501+00201999999ADDGA1071+007501999GF107991999999999999999999MA1099591999999REMMET055METAR ETGQ 041420Z 00000KT 8000 BKN025 05/02 Q0996 BLU;
0124102340999992009020415204+53133+009350FM-15+0061ETGQ V0209999C000010069019N0080001N1+00601+00201999999ADDGA1071+006901999GF107991999999999999999999MA1099591999999REMMET055METAR ETGQ 041520Z 00000KT 8000 BKN023 06/02 Q0996 WHT;
0124102340999992009020416204+53133+009350FM-15+0061ETGQ V0202301N001510063019N0060001N1+00501+00201999999ADDGA1071+006301999GF107991999999999999999999MA1099701999999REMMET055METAR ETGQ 041620Z 23003KT 6000 BKN021 05/02 Q0997 WHT;
0124102340999992009020417204+53133+009350FM-15+0061ETGQ V0202401N002110090019N0060001N1+00501+00201999999ADDGA1071+009001999GF107991999999999999999999MA1099701999999REMMET055METAR ETGQ 041720Z 24004KT 6000 BKN030 05/02 Q0997 WHT;
0124102340999992009020418204+53133+009350FM-15+0061ETGQ V0209999C000010300019N0060001N1+00401+00101999999ADDGA1071+030001999GF107991999999999999999999MA1099701999999REMMET055METAR ETGQ 041820Z 00000KT 6000 BKN100 04/01 Q0997 WHT;
0124102340999992009020419204+53133+009350FM-15+0061ETGQ V0209999C000010300019N0060001N1+00301+00101999999ADDGA1071+030001999GF107991999999999999999999MA1099801999999REMMET055METAR ETGQ 041920Z 00000KT 6000 BKN100 03/01 Q0998 WHT;
0148102340999992009020505204+53133+009350FM-15+0061ETGQ V0209999C000010540019N0080001N1+00001-00101999999ADDGA1041+014401999GA2071+054001999GF107991999999999999999999MA1099591999999REMMET063METAR ETGQ 050520Z 00000KT 8000 SCT048 BKN180 00/M01 Q0996 BLU;
0147102340999992009020506204+53133+009350FM-15+0061ETGQ V0201701N002110540019N0080001N1+00201+00101999999ADDGA1041+015001999GA2071+054001999GF107991999999999999999999MA1099491999999REMMET062METAR ETGQ 050620Z 17004KT 8000 SCT050 BKN180 02/01 Q0995 BLU;
0124102340999992009020507204+53133+009350FM-15+0061ETGQ V0201501N002110150019N0080001N1+00301+00101999999ADDGA1071+015001999GF107991999999999999999999MA1099491999999REMMET055METAR ETGQ 050720Z 15004KT 8000 BKN050 03/01 Q0995 BLU;
0124102340999992009020508204+53133+009350FM-15+0061ETGQ V0201801N002610150019N0080001N1+00301+00101999999ADDGA1071+015001999GF107991999999999999999999MA1099591999999REMMET055METAR ETGQ 050820Z 18005KT 8000 BKN050 03/01 Q0996 BLU;
0147102340999992009020510204+53133+009350FM-15+0061ETGQ V0201501N002610180019N0090001N1+00501+00101999999ADDGA1071+018001999GA2071+039001999GF107991999999999999999999MA1099591999999REMMET062METAR ETGQ 051020Z 15005KT 9000 BKN060 BKN130 05/01 Q0996 BLU;
0147102340999992009020511204+53133+009350FM-15+0061ETGQ V0201401N002610360019N0090001N1+00601+00101999999ADDGA1041+015001999GA2071+036001999GF107991999999999999999999MA1099591999999REMMET062METAR ETGQ 051120Z 14005KT 9000 SCT050 BKN120 06/01 Q0996 BLU;
0148102340999992009020512204+53133+009350FM-15+0061ETGQ V0201601N003112200019N0112651N1+00701+00201999999ADDGA1041+015001999GA2041+105001999GF104991999999999999999999MA1099591999999REMMET063METAR ETGQ 051220Z 16006KT 9999 SCT050 SCT350 07/02 Q0996 BLU/;
0147102340999992009020513204+53133+009350FM-15+0061ETGQ V0201501N003110075019N0112651N1+00901+00301999999ADDGA1021+006001999GA2071+007501999GF107991999999999999999999MA1099491999999REMMET062METAR ETGQ 051320Z 15006KT 9999 FEW020 BKN025 09/03 Q0995 BLU;
0147102340999992009020514204+53133+009350FM-15+0061ETGQ V0201601N002610180019N0112651N1+00901+00301999999ADDGA1021+010501999GA2071+018001999GF107991999999999999999999MA1099491999999REMMET062METAR ETGQ 051420Z 16005KT 9999 FEW035 BKN060 09/03 Q0995 BLU;
0148102340999992009020515204+53133+009350FM-15+0061ETGQ V0201501N003110660019N0112651N1+00901+00301999999ADDGA1041+012001999GA2071+066001999GF107991999999999999999999MA1099491999999REMMET063METAR ETGQ 051520Z 15006KT 9999 SCT040 BKN220 09/03 Q0995 BLU/;
0124102340999992009020516204+53133+009350FM-15+0061ETGQ V0201601N002110150019N0112651N1+00801+00301999999ADDGA1071+015001999GF107991999999999999999999MA1099491999999REMMET055METAR ETGQ 051620Z 16004KT 9999 BKN050 08/03 Q0995 BLU;
0125102340999992009020517204+53133+009350FM-15+0061ETGQ V0201501N002112200019N0112651N1+00601+00301999999ADDGA1041+015001999GF104991999999999999999999MA1099491999999REMMET056METAR ETGQ 051720Z 15004KT 9999 SCT050 06/03 Q0995 BLU/;
0125102340999992009020518204+53133+009350FM-15+0061ETGQ V0200501N002112200019N0112651N1+00601+00301999999ADDGA1021+036001999GF102991999999999999999999MA1099491999999REMMET056METAR ETGQ 051820Z 05004KT 9999 FEW120 06/03 Q0995 BLU/;
0148102340999992009020519204+53133+009350FM-15+0061ETGQ V0201601N001512200019N0112651N1+00501+00201999999ADDGA1021+015001999GA2041+036001999GF104991999999999999999999MA1099491999999REMMET063METAR ETGQ 051920Z 16003KT 9999 FEW050 SCT120 05/02 Q0995 BLU/;
0124102340999992009020605204+53133+009350FM-15+0061ETGQ V0209999V001010099019N0080001N1+00301+00201999999ADDGA1071+009901999GF107991999999999999999999MA1099491999999REMMET055METAR ETGQ 060520Z VRB02KT 8000 BKN033 03/02 Q0995 BLU;
0147102340999992009020606204+53133+009350FM-15+0061ETGQ V0209999C000010390019N0090001N1+00301+00101999999ADDGA1041+010501999GA2071+039001999GF107991999999999999999999MA1099391999999REMMET062METAR ETGQ 060620Z 00000KT 9000 SCT035 BKN130 03/01 Q0994 BLU;
0124102340999992009020607204+53133+009350FM-15+0061ETGQ V0209999C000010123019N0112651N1+00101+00001999999ADDGA1071+012301999GF107991999999999999999999MA1099391999999REMMET055METAR ETGQ 060720Z 00000KT 9999 BKN041 01/00 Q0994 BLU;
0148102340999992009020608204+53133+009350FM-15+0061ETGQ V0209999C000010750019N0112651N1+00101+00001999999ADDGA1021+024001999GA2071+075001999GF107991999999999999999999MA1099391999999REMMET063METAR ETGQ 060820Z 00000KT 9999 FEW080 BKN250 01/00 Q0994 BLU/;
0148102340999992009020609204+53133+009350FM-15+0061ETGQ V0209999C000010750019N0112651N1+00301+00201999999ADDGA1021+024001999GA2071+075001999GF107991999999999999999999MA1099491999999REMMET063METAR ETGQ 060920Z 00000KT 9999 FEW080 BKN250 03/02 Q0995 BLU/;
0148102340999992009020610204+53133+009350FM-15+0061ETGQ V0209999C000010600019N0112651N1+00501+00201999999ADDGA1021+024001999GA2071+060001999GF107991999999999999999999MA1099391999999REMMET063METAR ETGQ 061020Z 00000KT 9999 FEW080 BKN200 05/02 Q0994 BLU/;
0147102340999992009020611204+53133+009350FM-15+0061ETGQ V0209999C000010450019N0112651N1+00601+00301999999ADDGA1041+004501999GA2071+045001999GF107991999999999999999999MA1099291999999REMMET062METAR ETGQ 061120Z 00000KT 9999 SCT015 BKN150 06/03 Q0993 BLU;
0147102340999992009020612204+53133+009350FM-15+0061ETGQ V0209999V000510420019N0112651N1+00701+00401999999ADDGA1021+006001999GA2071+042001999GF107991999999999999999999MA1099291999999REMMET062METAR ETGQ 061220Z VRB01KT 9999 FEW020 BKN140 07/04 Q0993 BLU;
0147102340999992009020613204+53133+009350FM-15+0061ETGQ V0209999V001010390019N0112651N1+00801+00401999999ADDGA1021+005401999GA2071+039001999GF107991999999999999999999MA1099191999999REMMET062METAR ETGQ 061320Z VRB02KT 9999 FEW018 BKN130 08/04 Q0992 BLU;
0147102340999992009020614204+53133+009350FM-15+0061ETGQ V0201501N002610330019N0112651N1+00801+00401999999ADDGA1021+006001999GA2071+033001999GF107991999999999999999999MA1099191999999REMMET062METAR ETGQ 061420Z 15005KT 9999 FEW020 BKN110 08/04 Q0992 BLU;
0147102340999992009020615204+53133+009350FM-15+0061ETGQ V0201501N002110330019N0112651N1+00801+00401999999ADDGA1021+007501999GA2071+033001999GF107991999999999999999999MA1099191999999REMMET062METAR ETGQ 061520Z 15004KT 9999 FEW025 BKN110 08/04 Q0992 BLU;
0124102340999992009020616204+53133+009350FM-15+0061ETGQ V0201501N001010084019N0112651N1+00701+00401999999ADDGA1071+008401999GF107991999999999999999999MA1099091999999REMMET055METAR ETGQ 061620Z 15002KT 9999 BKN028 07/04 Q0991 BLU;
0124102340999992009020617204+53133+009350FM-15+0061ETGQ V0201501N001510093019N0112651N1+00701+00301999999ADDGA1071+009301999GF107991999999999999999999MA1099091999999REMMET055METAR ETGQ 061720Z 15003KT 9999 BKN031 07/03 Q0991 BLU;
0124102340999992009020618204+53133+009350FM-15+0061ETGQ V0201501N001510210019N0112651N1+00601+00301999999ADDGA1071+021001999GF107991999999999999999999MA1099091999999REMMET055METAR ETGQ 061820Z 15003KT 9999 BKN070 06/03 Q0991 BLU;
0124102340999992009020619204+53133+009350FM-15+0061ETGQ V0209999C000010099019N0112651N1+00601+00301999999ADDGA1071+009901999GF107991999999999999999999MA1099091999999REMMET055METAR ETGQ 061920Z 00000KT 9999 BKN033 06/03 Q0991 BLU;
0125102340999992009020905204+53133+009350FM-15+0061ETGQ V0201801N001010075019N0080001N1+00201-00301999999ADDGA1071+007501999GF107991999999999999999999MA1100711999999REMMET056METAR ETGQ 090520Z 18002KT 8000 BKN025 02/M03 Q1007 BLU;
0125102340999992009020906204+53133+009350FM-15+0061ETGQ V0201701N000510069019N0080001N1+00201-00201999999ADDGA1071+006901999GF107991999999999999999999MA1100711999999REMMET056METAR ETGQ 090620Z 17001KT 8000 BKN023 02/M02 Q1007 WHT;
0125102340999992009020907204+53133+009350FM-15+0061ETGQ V0201801N002110069019N0080001N1+00201-00201999999ADDGA1071+006901999GF107991999999999999999999MA1100711999999REMMET056METAR ETGQ 090720Z 18004KT 8000 BKN023 02/M02 Q1007 WHT;
0158102340999992009020908204+53133+009350FM-15+0061ETGQ V0201401N001510063019N0112651N1+00101-00101999999ADDGA1041+003001999GA2081+006301999GF108991999999999999999999MA1100711999999MW1711REMMET067METAR ETGQ 090820Z 14003KT 9999 -SN SCT010 OVC021 01/M01 Q1007 WHT;
0125102340999992009020909204+53133+009350FM-15+0061ETGQ V0209999V000510060019N0112651N1+00201-00101999999ADDGA1081+006001999GF108991999999999999999999MA1100711999999REMMET056METAR ETGQ 090920Z VRB01KT 9999 OVC020 02/M01 Q1007 WHT;
0125102340999992009020910204+53133+009350FM-15+0061ETGQ V0209999V001010063019N0112651N1+00301-00101999999ADDGA1081+006301999GF108991999999999999999999MA1100811999999REMMET056METAR ETGQ 091020Z VRB02KT 9999 OVC021 03/M01 Q1008 WHT;
0125102340999992009020911204+53133+009350FM-15+0061ETGQ V0202101N003110054019N0112651N1+00301-00101999999ADDGA1071+005401999GF107991999999999999999999MA1100711999999REMMET056METAR ETGQ 091120Z 21006KT 9999 BKN018 03/M01 Q1007 WHT;
0148102340999992009020912204+53133+009350FM-15+0061ETGQ V0202401N003110120019N0112651N1+00401+00001999999ADDGA1041+005401999GA2071+012001999GF107991999999999999999999MA1100711999999REMMET063METAR ETGQ 091220Z 24006KT 9999 SCT018 BKN040 04/M00 Q1007 BLU;
0148102340999992009020913204+53133+009350FM-15+0061ETGQ V0202301N002110084019N0112651N1+00401+00001999999ADDGA1021+005101999GA2071+008401999GF107991999999999999999999MA1100611999999REMMET063METAR ETGQ 091320Z 23004KT 9999 FEW017 BKN028 04/M00 Q1006 BLU;
0125102340999992009020914204+53133+009350FM-15+0061ETGQ V0209999V001010057019N0112651N1+00401+00001999999ADDGA1071+005701999GF107991999999999999999999MA1100611999999REMMET056METAR ETGQ 091420Z VRB02KT 9999 BKN019 04/M00 Q1006 WHT;
0125102340999992009020915204+53133+009350FM-15+0061ETGQ V0201601N002610051019N0112651N1+00301+00001999999ADDGA1071+005101999GF107991999999999999999999MA1100511999999REMMET056METAR ETGQ 091520Z 16005KT 9999 BKN017 03/M00 Q1005 WHT;
0125102340999992009020916204+53133+009350FM-15+0061ETGQ V0201401N003110051019N0112651N1+00301+00001999999ADDGA1071+005101999GF107991999999999999999999MA1100411999999REMMET056METAR ETGQ 091620Z 14006KT 9999 BKN017 03/M00 Q1004 WHT;
0124102340999992009020917204+53133+009350FM-15+0061ETGQ V0201601N003110069019N0112651N1+00301+00001999999ADDGA1081+006901999GF108991999999999999999999MA1100311999999REMMET055METAR ETGQ 091720Z 16006KT 9999 OVC023 03/00 Q1003 WHT;
0157102340999992009020918204+53133+009350FM-15+0061ETGQ V0201401N003610135019N0080001N1+00201+00101999999ADDGA1041+006001999GA2071+013501999GF107991999999999999999999MA1100201999999MW1611REMMET066METAR ETGQ 091820Z 14007KT 8000 -RA SCT020 BKN045 02/01 Q1002 BLU;
0147102340999992009020919204+53133+009350FM-15+0061ETGQ V0201401N003110078019N0112651N1+00201+00101999999ADDGA1041+003901999GA2071+007801999GF107991999999999999999999MA1100001999999REMMET062METAR ETGQ 091920Z 14006KT 9999 SCT013 BKN026 02/01 Q1000 BLU;
0124102340999992009021005204+53133+009350FM-15+0061ETGQ V0201601N003610129019N0080001N1+00801+00501999999ADDGA1071+012901999GF107991999999999999999999MA1098411999999REMMET055METAR ETGQ 100520Z 16007KT 8000 BKN043 08/05 Q0984 BLU;
0124102340999992009021006204+53133+009350FM-15+0061ETGQ V0201501N002610105019N0112651N1+00801+00501999999ADDGA1071+010501999GF107991999999999999999999MA1098211999999REMMET055METAR ETGQ 100620Z 15005KT 9999 BKN035 08/05 Q0982 BLU;
0157102340999992009021007204+53133+009350FM-15+0061ETGQ V0201501N001510090019N0112651N1+00801+00501999999ADDGA1041+007501999GA2081+009001999GF108991999999999999999999MA1098211999999MW1611REMMET066METAR ETGQ 100720Z 15003KT 9999 -RA SCT025 OVC030 08/05 Q0982 BLU;
0168102340999992009021008204+53133+009350FM-15+0061ETGQ V0202101N003610099019N0112651N1+00801+00501999999ADDGA1041+008401999GA2081+009901999GF108991999999999999999999MA1098211999999MW1611OC100931REMMET069METAR ETGQ 100820Z 21007G18KT 9999 -RA SCT028 OVC033 08/05 Q0982 BLU;
0157102340999992009021009204+53133+009350FM-15+0061ETGQ V0202001N002610072019N0112651N1+00801+00501999999ADDGA1041+006001999GA2081+007201999GF108991999999999999999999MA1098211999999MW1611REMMET066METAR ETGQ 100920Z 20005KT 9999 -RA SCT020 OVC024 08/05 Q0982 WHT;
0168102340999992009021010204+53133+009350FM-15+0061ETGQ V0202301N006710066019N0112651N1+00601+00301999999ADDGA1071+006601999GA2071+010501999GF107991999999999999999999MA1098411999999MW1611OC101441REMMET069METAR ETGQ 101020Z 23013G28KT 9999 -RA BKN022 BKN035 06/03 Q0984 WHT;
0158102340999992009021011204+53133+009350FM-15+0061ETGQ V0202401N005710066019N0112651N1+00601+00101999999ADDGA1071+006601999GA2071+012001999GF107991999999999999999999MA1098611999999OC101491REMMET065METAR ETGQ 101120Z 24011G29KT 9999 BKN022 BKN040 06/01 Q0986 WHT;
0168102340999992009021012204+53133+009350FM-15+0061ETGQ V0202501N004110060019N0112651N1+00401+00101999999ADDGA1071+006001999GA2071+012001999GF107991999999999999999999MA1098711999999MW1611OC100931REMMET069METAR ETGQ 101220Z 25008G18KT 9999 -RA BKN020 BKN040 04/01 Q0987 WHT;
0157102340999992009021013204+53133+009350FM-15+0061ETGQ V0202601N003610099019N0080001N1+00401+00101999999ADDGA1041+006001999GA2081+009901999GF108991999999999999999999MA1098821999999MW1611REMMET066METAR ETGQ 101320Z 26007KT 8000 -RA SCT020 OVC033 04/01 Q0988 BLU;
0143102340999992009021014204+53133+009350FM-15+0061ETGQ V0202701N004610036019N0050001N1+00401+00001999999ADDGA1081+003601999GF108991999999999999999999MA1098981999999MW1051MW2611REMMET062METAR ETGQ 101420Z 27009KT 5000 -RA HZ OVC012 04/00 Q0990 GRN;
0167102340999992009021015204+53133+009350FM-15+0061ETGQ V0203001N004610063019N0050001N1+00301+00001999999ADDGA1041+003301999GA2081+006301999GF108991999999999999999999MA1099291999999MW1101MW2611REMMET070METAR ETGQ 101520Z 30009KT 5000 -RA BR SCT011 OVC021 03/M00 Q0993 WHT;
0154102340999992009021016204+53133+009350FM-15+0061ETGQ V0203001N006210048019N0030001N1+00201+00001999999ADDGA1081+004801999GF108991999999999999999999MA1099591999999MW1101MW2611OC101441REMMET065METAR ETGQ 101620Z 30012G28KT 3000 -RA BR OVC016 02/00 Q0996 YLO;
0153102340999992009021017204+53133+009350FM-15+0061ETGQ V0203001N006710048019N0050001N1+00301+00001999999ADDGA1081+004801999GF108991999999999999999999MA1099801999999MW1101MW2631OC101181REMMET064METAR ETGQ 101720Z 30013G23KT 5000 RA BR OVC016 03/00 Q0998 WHT;
0145102340999992009021018204+53133+009350FM-15+0061ETGQ V0203101N006710060019N0080001N1+00301+00001999999ADDGA1081+006001999GF108991999999999999999999MA1100001999999MW1611OC101391REMMET062METAR ETGQ 101820Z 31013G27KT 8000 -RA OVC020 03/00 Q1000 WHT;
0124102340999992009021019204+53133+009350FM-15+0061ETGQ V0203001N005710066019N0112651N1+00301+00001999999ADDGA1071+006601999GF107991999999999999999999MA1100101999999REMMET055METAR ETGQ 101920Z 30011KT 9999 BKN022 03/00 Q1001 WHT;
0162102340999992009021105204+53133+009350FM-15+0061ETGQ V0203101N005110054019N0080001N1+00201-00101999999ADDGA1071+005401999GA2071+007501999GF107991999999999999999999MA1101081999999MW1801REMMET071METAR ETGQ 110520Z 31010KT 8000 -SHSNRA BKN018 BKN025 02/M01 Q1011 WHT;
0148102340999992009021106204+53133+009350FM-15+0061ETGQ V0203101N003610069019N0112651N1+00201-00101999999ADDGA1041+005401999GA2071+006901999GF107991999999999999999999MA1101191999999REMMET063METAR ETGQ 110620Z 31007KT 9999 SCT018 BKN023 02/M01 Q1012 WHT;
0125102340999992009021107204+53133+009350FM-15+0061ETGQ V0203201N004110066019N0112651N1+00201-00101999999ADDGA1071+006601999GF107991999999999999999999MA1101291999999REMMET056METAR ETGQ 110720Z 32008KT 9999 BKN022 02/M01 Q1013 WHT;
0126102340999992009021108204+53133+009350FM-15+0061ETGQ V0203201N002112200019N0112651N1+00201-00101999999ADDGA1041+006601999GF104991999999999999999999MA1101291999999REMMET057METAR ETGQ 110820Z 32004KT 9999 SCT022 02/M01 Q1013 BLU/;
0125102340999992009021109204+53133+009350FM-15+0061ETGQ V0203201N004110069019N0112651N1+00301-00101999999ADDGA1071+006901999GF107991999999999999999999MA1101391999999REMMET056METAR ETGQ 110920Z 32008KT 9999 BKN023 03/M01 Q1014 WHT;
0125102340999992009021110204+53133+009350FM-15+0061ETGQ V0203301N004110084019N0112651N1+00401-00201999999ADDGA1071+008401999GF107991999999999999999999MA1101391999999REMMET056METAR ETGQ 111020Z 33008KT 9999 BKN028 04/M02 Q1014 BLU;
0125102340999992009021111204+53133+009350FM-15+0061ETGQ V0203201N003610090019N0112651N1+00501-00201999999ADDGA1071+009001999GF107991999999999999999999MA1101391999999REMMET056METAR ETGQ 111120Z 32007KT 9999 BKN030 05/M02 Q1014 BLU;
0151102340999992009021112204+53133+009350FM-15+0061ETGQ V0202901N002112200019N0112651N1+00301-00101999999ADDGA1021+004501091GA2041+006001999GF104991999999999999999999MA1101391999999REMMET066METAR ETGQ 111220Z 29004KT 9999 FEW015CB SCT020 03/M01 Q1014 BLU/;
0148102340999992009021113204+53133+009350FM-15+0061ETGQ V0203001N002610180019N0112651N1+00401-00201999999ADDGA1041+009001999GA2071+018001999GF107991999999999999999999MA1101391999999REMMET063METAR ETGQ 111320Z 30005KT 9999 SCT030 BKN060 04/M02 Q1014 BLU;
0148102340999992009021114204+53133+009350FM-15+0061ETGQ V0203001N003110150019N0112651N1+00501-00401999999ADDGA1021+009001999GA2071+015001999GF107991999999999999999999MA1101391999999REMMET063METAR ETGQ 111420Z 30006KT 9999 FEW030 BKN050 05/M04 Q1014 BLU;
0148102340999992009021115204+53133+009350FM-15+0061ETGQ V0202801N003110180019N0112651N1+00501-00301999999ADDGA1041+013501999GA2071+018001999GF107991999999999999999999MA1101391999999REMMET063METAR ETGQ 111520Z 28006KT 9999 SCT045 BKN060 05/M03 Q1014 BLU;
0125102340999992009021116204+53133+009350FM-15+0061ETGQ V0202501N003110099019N0112651N1+00401-00201999999ADDGA1071+009901999GF107991999999999999999999MA1101391999999REMMET056METAR ETGQ 111620Z 25006KT 9999 BKN033 04/M02 Q1014 BLU;
0148102340999992009021117204+53133+009350FM-15+0061ETGQ V0202601N002110090019N0112651N1+00301-00101999999ADDGA1041+004501999GA2071+009001999GF107991999999999999999999MA1101391999999REMMET063METAR ETGQ 111720Z 26004KT 9999 SCT015 BKN030 03/M01 Q1014 BLU;
0148102340999992009021118204+53133+009350FM-15+0061ETGQ V0202301N002110108019N0112651N1+00301-00101999999ADDGA1041+004501999GA2071+010801999GF107991999999999999999999MA1101291999999REMMET063METAR ETGQ 111820Z 23004KT 9999 SCT015 BKN036 03/M01 Q1013 BLU;
0125102340999992009021119204+53133+009350FM-15+0061ETGQ V0202501N002610129019N0112651N1+00301-00101999999ADDGA1071+012901999GF107991999999999999999999MA1101291999999REMMET056METAR ETGQ 111920Z 25005KT 9999 BKN043 03/M01 Q1013 BLU;
0126102340999992009021205204+53133+009350FM-15+0061ETGQ V0203501N003110090019N0112651N1+00001-00301999999ADDGA1071+009001999GF107991999999999999999999MA1101591999999REMMET057METAR ETGQ 120520Z 35006KT 9999 BKN030 M00/M03 Q1016 BLU;
0126102340999992009021206204+53133+009350FM-15+0061ETGQ V0203001N001010060019N0112651N1+00001-00301999999ADDGA1071+006001999GF107991999999999999999999MA1101591999999REMMET057METAR ETGQ 120620Z 30002KT 9999 BKN020 M00/M03 Q1016 WHT;
0134102340999992009021207204+53133+009350FM-15+0061ETGQ V0203101N001510051019N0112651N1+00001-00201999999ADDGA1071+005101021GF107991999999999999999999MA1101691999999REMMET065METAR ETGQ 120720Z 31003KT 9999 -SHSN BKN017TCU 00/M02 Q1017 WHT;
0165102340999992009021208204+53133+009350FM-15+0061ETGQ V0203001N002110120019N0060001N1+00001-00201999999ADDGA1041+004501021GA2071+012001999GF107991999999999999999999MA1101691999999MW1801REMMET074METAR ETGQ 120820Z 30004KT 6000 -SHSNRA SCT015TCU BKN040 00/M02 Q1017 WHT;
0125102340999992009021209204+53133+009350FM-15+0061ETGQ V0203201N002110054019N0112651N1+00101-00101999999ADDGA1071+005401999GF107991999999999999999999MA1101801999999REMMET056METAR ETGQ 120920Z 32004KT 9999 BKN018 01/M01 Q1018 WHT;
0152102340999992009021210204+53133+009350FM-15+0061ETGQ V0203301N003612200019N0112651N1+00201-00201999999ADDGA1021+004501021GA2041+006001999GF104991999999999999999999MA1101801999999REMMET067METAR ETGQ 121020Z 33007KT 9999 FEW015TCU SCT020 02/M02 Q1018 BLU/;
0158102340999992009021211204+53133+009350FM-15+0061ETGQ V0203401N003612200019N0112651N1+00201-00201999999ADDGA1021+004501021GA2041+006001999GF104991999999999999999999MA1101801999999REMMET073METAR ETGQ 121120Z 34007KT 9999 -SHSN FEW015TCU SCT020 02/M02 Q1018 BLU/;
0125102340999992009021212204+53133+009350FM-15+0061ETGQ V0203201N003110084019N0112651N1+00301-00201999999ADDGA1071+008401999GF107991999999999999999999MA1101901999999REMMET056METAR ETGQ 121220Z 32006KT 9999 BKN028 03/M02 Q1019 BLU;
0148102340999992009021213204+53133+009350FM-15+0061ETGQ V0203301N002612200019N0112651N1+00201+00001999999ADDGA1021+006001999GA2041+014401999GF104991999999999999999999MA1101901999999REMMET063METAR ETGQ 121320Z 33005KT 9999 FEW020 SCT048 02/00 Q1019 BLU/;
0126102340999992009021215204+53133+009350FM-15+0061ETGQ V0203001N002112200019N0112651N1+00201-00201999999ADDGA1041+009001999GF104991999999999999999999MA1101901999999REMMET057METAR ETGQ 121520Z 30004KT 9999 SCT030 02/M02 Q1019 BLU/;
0158102340999992009021216204+53133+009350FM-15+0061ETGQ V0203501N002112200019N0080001N1+00001+00001999999ADDGA1041+003601021GA2041+018001999GF104991999999999999999999MA1102001999999REMMET073METAR ETGQ 121620Z 35004KT 8000 -SHSN SCT012TCU SCT060 00/M00 Q1020 BLU/;
0125102340999992009021217204+53133+009350FM-15+0061ETGQ V0202801N001010060019N0112651N1+00001-00101999999ADDGA1071+006001999GF107991999999999999999999MA1102001999999REMMET056METAR ETGQ 121720Z 28002KT 9999 BKN020 00/M01 Q1020 WHT;
0125102340999992009021218204+53133+009350FM-15+0061ETGQ V0203201N001510111019N0112651N1+00001-00101999999ADDGA1071+011101999GF107991999999999999999999MA1102001999999REMMET056METAR ETGQ 121820Z 32003KT 9999 BKN037 00/M01 Q1020 BLU;
0126102340999992009021219204+53133+009350FM-15+0061ETGQ V0202101N000510066019N0112651N1-00101-00101999999ADDGA1071+006601999GF107991999999999999999999MA1102001999999REMMET057METAR ETGQ 121920Z 21001KT 9999 BKN022 M01/M01 Q1020 WHT;
0125102340999992009021305204+53133+009350FM-15+0061ETGQ V0202101N001510042019N0080001N1+00001-00201999999ADDGA1071+004201999GF107991999999999999999999MA1102001999999REMMET056METAR ETGQ 130520Z 21003KT 8000 BKN014 00/M02 Q1020 GRN;
0125102340999992009021306204+53133+009350FM-15+0061ETGQ V0202201N001510051019N0080001N1+00001-00201999999ADDGA1081+005101999GF108991999999999999999999MA1102001999999REMMET056METAR ETGQ 130620Z 22003KT 8000 OVC017 00/M02 Q1020 WHT;
0126102340999992009021307204+53133+009350FM-15+0061ETGQ V0202101N001510054019N0080001N1+00001-00201999999ADDGA1081+005401999GF108991999999999999999999MA1102001999999REMMET057METAR ETGQ 130720Z 21003KT 8000 OVC018 M00/M02 Q1020 WHT;
0148102340999992009021308204+53133+009350FM-15+0061ETGQ V0202001N002110066019N0080001N1+00001-00201999999ADDGA1071+006601999GA2071+009301999GF107991999999999999999999MA1102001999999REMMET063METAR ETGQ 130820Z 20004KT 8000 BKN022 BKN031 00/M02 Q1020 WHT;
0125102340999992009021309204+53133+009350FM-15+0061ETGQ V0202201N002110063019N0080001N1+00101-00201999999ADDGA1071+006301999GF107991999999999999999999MA1102001999999REMMET056METAR ETGQ 130920Z 22004KT 8000 BKN021 01/M02 Q1020 WHT;
0135102340999992009021310204+53133+009350FM-15+0061ETGQ V0202201N002110063019N0080001N1+00101-00201999999ADDGA1081+006301999GF108991999999999999999999MA1102001999999MW1711REMMET060METAR ETGQ 131020Z 22004KT 8000 -SN OVC021 01/M02 Q1020 WHT;
0154102340999992009021311204+53133+009350FM-15+0061ETGQ V0202301N001510045019N0060001N1+00201-00101999999ADDGA1071+004501999GA2071+006001999GF107991999999999999999999MA1102001999999REMMET069METAR ETGQ 131120Z 23003KT 6000 -SHSN BKN015 BKN020 02/M01 Q1020 WHT;
0144102340999992009021312204+53133+009350FM-15+0061ETGQ V0202201N001510036019N0050001N1+00201+00001999999ADDGA1081+003601999GF108991999999999999999999MA1102001999999MW1101MW2711REMMET063METAR ETGQ 131220Z 22003KT 5000 -SN BR OVC012 02/M00 Q1020 GRN;
0143102340999992009021313204+53133+009350FM-15+0061ETGQ V0202401N001510060019N0050001N1+00201+00001999999ADDGA1081+006001999GF108991999999999999999999MA1101901999999MW1101MW2711REMMET062METAR ETGQ 131320Z 24003KT 5000 -SN BR OVC020 02/00 Q1019 WHT;
0152102340999992009021314204+53133+009350FM-15+0061ETGQ V0202601N001010048019N0050001N1+00101+00001999999ADDGA1071+004801999GF107991999999999999999999MA1101901999999MW1101MW2611MW3711REMMET065METAR ETGQ 131420Z 26002KT 5000 -RASN BR BKN016 01/M00 Q1019 WHT;
0151102340999992009021315204+53133+009350FM-15+0061ETGQ V0209999V000510057019N0050001N1+00101+00001999999ADDGA1081+005701999GF108991999999999999999999MA1101901999999MW1101MW2611MW3711REMMET064METAR ETGQ 131520Z VRB01KT 5000 -RASN BR OVC019 01/00 Q1019 WHT;
0124102340999992009021316204+53133+009350FM-15+0061ETGQ V0209999C000010066019N0070001N1+00201+00001999999ADDGA1071+006601999GF107991999999999999999999MA1101901999999REMMET055METAR ETGQ 131620Z 00000KT 7000 BKN022 02/00 Q1019 WHT;
0124102340999992009021317204+53133+009350FM-15+0061ETGQ V0203201N001010108019N0080001N1+00201+00001999999ADDGA1071+010801999GF107991999999999999999999MA1101901999999REMMET055METAR ETGQ 131720Z 32002KT 8000 BKN036 02/00 Q1019 BLU;
0125102340999992009021318204+53133+009350FM-15+0061ETGQ V0203001N001510132019N0080001N1+00201+00001999999ADDGA1071+013201999GF107991999999999999999999MA1101901999999REMMET056METAR ETGQ 131820Z 30003KT 8000 BKN044 02/M00 Q1019 BLU;
0134102340999992009021605204+53133+009350FM-15+0061ETGQ V0202301N002110036019N0050001N1+00101-00101999999ADDGA1081+003601999GF108991999999999999999999MA1102201999999MW1101REMMET059METAR ETGQ 160520Z 23004KT 5000 BR OVC012 01/M01 Q1022 GRN;
0152102340999992009021606204+53133+009350FM-15+0061ETGQ V0202201N001510027019N0050001N1+00101-00101999999ADDGA1081+002701999GF108991999999999999999999MA1102201999999MW1101MW2611MW3711REMMET065METAR ETGQ 160620Z 22003KT 5000 -RASN BR OVC009 01/M01 Q1022 GRN;
0134102340999992009021607204+53133+009350FM-15+0061ETGQ V0202301N001510027019N0035001N1+00101+00001999999ADDGA1081+002701999GF108991999999999999999999MA1102201999999MW1101REMMET059METAR ETGQ 160720Z 23003KT 3500 BR OVC009 01/M00 Q1022 YLO;
0134102340999992009021608204+53133+009350FM-15+0061ETGQ V0202101N002110030019N0035001N1+00101+00001999999ADDGA1081+003001999GF108991999999999999999999MA1102201999999MW1101REMMET059METAR ETGQ 160820Z 21004KT 3500 BR OVC010 01/M00 Q1022 YLO;
0144102340999992009021609204+53133+009350FM-15+0061ETGQ V0202401N001510036019N0050001N1+00101+00001999999ADDGA1081+003601999GF108991999999999999999999MA1102201999999MW1101MW2711REMMET063METAR ETGQ 160920Z 24003KT 5000 -SN BR OVC012 01/M00 Q1022 GRN;
0143102340999992009021610204+53133+009350FM-15+0061ETGQ V0202001N001510033019N0050001N1+00201+00001999999ADDGA1081+003301999GF108991999999999999999999MA1102201999999MW1101MW2611REMMET062METAR ETGQ 161020Z 20003KT 5000 -RA BR OVC011 02/00 Q1022 GRN;
0133102340999992009021611204+53133+009350FM-15+0061ETGQ V0202101N001510033019N0050001N1+00201+00101999999ADDGA1081+003301999GF108991999999999999999999MA1102201999999MW1101REMMET058METAR ETGQ 161120Z 21003KT 5000 BR OVC011 02/01 Q1022 GRN;
0133102340999992009021612204+53133+009350FM-15+0061ETGQ V0202301N001010024019N0050001N1+00301+00201999999ADDGA1081+002401999GF108991999999999999999999MA1102201999999MW1101REMMET058METAR ETGQ 161220Z 23002KT 5000 BR OVC008 03/02 Q1022 GRN;
0133102340999992009021613204+53133+009350FM-15+0061ETGQ V0202701N001010012019N0030001N1+00301+00201999999ADDGA1081+001201999GF108991999999999999999999MA1102101999999MW1101REMMET058METAR ETGQ 161320Z 27002KT 3000 BR OVC004 03/02 Q1021 YLO;
0151102340999992009021614204+53133+009350FM-15+0061ETGQ V0209999V000510018019N0040001N1+00301+00201999999ADDGA1081+001801999GF108991999999999999999999MA1102101999999MW1101MW2511MW3611REMMET064METAR ETGQ 161420Z VRB01KT 4000 -DZRA BR OVC006 03/02 Q1021 YLO;
0151102340999992009021615204+53133+009350FM-15+0061ETGQ V0202601N001010027019N0040001N1+00401+00301999999ADDGA1081+002701999GF108991999999999999999999MA1102101999999MW1101MW2511MW3611REMMET064METAR ETGQ 161520Z 26002KT 4000 -DZRA BR OVC009 04/03 Q1021 GRN;
0151102340999992009021616204+53133+009350FM-15+0061ETGQ V0209999V000510030019N0040001N1+00401+00201999999ADDGA1081+003001999GF108991999999999999999999MA1102101999999MW1101MW2511MW3611REMMET064METAR ETGQ 161620Z VRB01KT 4000 -DZRA BR OVC010 04/02 Q1021 GRN;
0151102340999992009021617204+53133+009350FM-15+0061ETGQ V0202001N001010039019N0040001N1+00401+00301999999ADDGA1081+003901999GF108991999999999999999999MA1102101999999MW1101MW2511MW3611REMMET064METAR ETGQ 161720Z 20002KT 4000 -DZRA BR OVC013 04/03 Q1021 GRN;
0151102340999992009021618204+53133+009350FM-15+0061ETGQ V0202201N001010045019N0050001N1+00401+00301999999ADDGA1081+004501999GF108991999999999999999999MA1102101999999MW1101MW2511MW3611REMMET064METAR ETGQ 161820Z 22002KT 5000 -DZRA BR OVC015 04/03 Q1021 WHT;
0151102340999992009021619204+53133+009350FM-15+0061ETGQ V0209999V000510048019N0050001N1+00401+00301999999ADDGA1081+004801999GF108991999999999999999999MA1102001999999MW1101MW2511MW3611REMMET064METAR ETGQ 161920Z VRB01KT 5000 -DZRA BR OVC016 04/03 Q1020 WHT;
0134102340999992009021705204+53133+009350FM-15+0061ETGQ V0203101N003610033019N0080001N1+00601+00501999999ADDGA1081+003301999GF108991999999999999999999MA1101491999999MW1611REMMET059METAR ETGQ 170520Z 31007KT 8000 -RA OVC011 06/05 Q1015 GRN;
0134102340999992009021706204+53133+009350FM-15+0061ETGQ V0203201N003110033019N0080001N1+00601+00501999999ADDGA1081+003301999GF108991999999999999999999MA1101491999999MW1611REMMET059METAR ETGQ 170620Z 32006KT 8000 -RA OVC011 06/05 Q1015 GRN;
0157102340999992009021707204+53133+009350FM-15+0061ETGQ V0203101N003110042019N0070001N1+00601+00501999999ADDGA1041+001501999GA2081+004201999GF108991999999999999999999MA1101591999999MW1511REMMET066METAR ETGQ 170720Z 31006KT 7000 -DZ SCT005 OVC014 06/05 Q1016 GRN;
0157102340999992009021708204+53133+009350FM-15+0061ETGQ V0203101N003110039019N0080001N1+00601+00501999999ADDGA1041+002101999GA2081+003901999GF108991999999999999999999MA1101591999999MW1511REMMET066METAR ETGQ 170820Z 31006KT 8000 -DZ SCT007 OVC013 06/05 Q1016 GRN;
0157102340999992009021709204+53133+009350FM-15+0061ETGQ V0203201N002610036019N0080001N1+00601+00501999999ADDGA1041+001801999GA2081+003601999GF108991999999999999999999MA1101591999999MW1511REMMET066METAR ETGQ 170920Z 32005KT 8000 -DZ SCT006 OVC012 06/05 Q1016 GRN;
0143102340999992009021710204+53133+009350FM-15+0061ETGQ V0203401N002610024019N0050001N1+00601+00501999999ADDGA1081+002401999GF108991999999999999999999MA1101691999999MW1101MW2511REMMET062METAR ETGQ 171020Z 34005KT 5000 -DZ BR OVC008 06/05 Q1017 GRN;
0157102340999992009021711204+53133+009350FM-15+0061ETGQ V0203401N002110063019N0080001N1+00601+00501999999ADDGA1041+003601999GA2081+006301999GF108991999999999999999999MA1101691999999MW1511REMMET066METAR ETGQ 171120Z 34004KT 8000 -DZ SCT012 OVC021 06/05 Q1017 WHT;
0147102340999992009021713204+53133+009350FM-15+0061ETGQ V0203601N002610066019N0112651N1+00701+00401999999ADDGA1041+004501999GA2071+006601999GF107991999999999999999999MA1101801999999REMMET062METAR ETGQ 171320Z 36005KT 9999 SCT015 BKN022 07/04 Q1018 WHT;
0147102340999992009021714204+53133+009350FM-15+0061ETGQ V0203601N003610078019N0112651N1+00701+00401999999ADDGA1041+005401999GA2071+007801999GF107991999999999999999999MA1101801999999REMMET062METAR ETGQ 171420Z 36007KT 9999 SCT018 BKN026 07/04 Q1018 BLU;
0147102340999992009021715204+53133+009350FM-15+0061ETGQ V0200801N002610066019N0112651N1+00501+00101999999ADDGA1021+005401999GA2071+006601999GF107991999999999999999999MA1102001999999REMMET062METAR ETGQ 171520Z 08005KT 9999 FEW018 BKN022 05/01 Q1020 WHT;
0148102340999992009021716204+53133+009350FM-15+0061ETGQ V0200701N003110066019N0112651N1+00301+00001999999ADDGA1021+005401999GA2071+006601999GF107991999999999999999999MA1102101999999REMMET063METAR ETGQ 171620Z 07006KT 9999 FEW018 BKN022 03/M00 Q1021 WHT;
0125102340999992009021717204+53133+009350FM-15+0061ETGQ V0201001N002610051019N0112651N1+00201-00101999999ADDGA1071+005101999GF107991999999999999999999MA1102301999999REMMET056METAR ETGQ 171720Z 10005KT 9999 BKN017 02/M01 Q1023 WHT;
0125102340999992009021718204+53133+009350FM-15+0061ETGQ V0201101N003610099019N0112651N1+00101-00401999999ADDGA1071+009901999GF107991999999999999999999MA1102401999999REMMET056METAR ETGQ 171820Z 11007KT 9999 BKN033 01/M04 Q1024 BLU;
0149102340999992009021719204+53133+009350FM-15+0061ETGQ V0200901N002612200019N0112651N1+00101-00601999999ADDGA1021+010501999GA2041+042001999GF104991999999999999999999MA1102511999999REMMET064METAR ETGQ 171920Z 09005KT 9999 FEW035 SCT140 01/M06 Q1025 BLU/;
0078102340999992009021805204+53133+009350FM-15+0061ETGQ V0202001N000512200019N0112651N1-00501-00601999999ADDMA1102811999999REMMET051METAR ETGQ 180520Z 20001KT 9999 M05/M06 Q1028 BLU/;
0127102340999992009021806204+53133+009350FM-15+0061ETGQ V0201701N001012200019N0112651N1-00501-00601999999ADDGA1021+036001999GF102991999999999999999999MA1102811999999REMMET058METAR ETGQ 180620Z 17002KT 9999 FEW120 M05/M06 Q1028 BLU/;
0127102340999992009021807204+53133+009350FM-15+0061ETGQ V0201501N002112200019N0112651N1-00401-00601999999ADDGA1021+036001999GF102991999999999999999999MA1102811999999REMMET058METAR ETGQ 180720Z 15004KT 9999 FEW120 M04/M06 Q1028 BLU/;
0150102340999992009021808204+53133+009350FM-15+0061ETGQ V0201401N001512200019N0112651N1-00301-00601999999ADDGA1021+036001999GA2041+075001999GF104991999999999999999999MA1102811999999REMMET065METAR ETGQ 180820Z 14003KT 9999 FEW120 SCT250 M03/M06 Q1028 BLU/;
0126102340999992009021809204+53133+009350FM-15+0061ETGQ V0201001N001510390019N0112651N1-00201-00601999999ADDGA1071+039001999GF107991999999999999999999MA1102811999999REMMET057METAR ETGQ 180920Z 10003KT 9999 BKN130 M02/M06 Q1028 BLU;
0126102340999992009021810204+53133+009350FM-15+0061ETGQ V0201501N001510390019N0112651N1-00101-00701999999ADDGA1071+039001999GF107991999999999999999999MA1102811999999REMMET057METAR ETGQ 181020Z 15003KT 9999 BKN130 M01/M07 Q1028 BLU;
0126102340999992009021811204+53133+009350FM-15+0061ETGQ V0209999V001012200019N0112651N1+00001-00801999999ADDGA1021+009001999GF102991999999999999999999MA1102811999999REMMET057METAR ETGQ 181120Z VRB02KT 9999 FEW030 00/M08 Q1028 BLU/;
0126102340999992009021812204+53133+009350FM-15+0061ETGQ V0201201N002112200019N0112651N1+00101-00801999999ADDGA1021+012001999GF102991999999999999999999MA1102711999999REMMET057METAR ETGQ 181220Z 12004KT 9999 FEW040 01/M08 Q1027 BLU/;
0126102340999992009021813204+53133+009350FM-15+0061ETGQ V0201201N002112200019N0112651N1+00201-00901999999ADDGA1021+012001999GF102991999999999999999999MA1102611999999REMMET057METAR ETGQ 181320Z 12004KT 9999 FEW040 02/M09 Q1026 BLU/;
0149102340999992009021814204+53133+009350FM-15+0061ETGQ V0200401N001512200019N0112651N1+00201-00901999999ADDGA1021+012001999GA2041+036001999GF104991999999999999999999MA1102611999999REMMET064METAR ETGQ 181420Z 04003KT 9999 FEW040 SCT120 02/M09 Q1026 BLU/;
0126102340999992009021815204+53133+009350FM-15+0061ETGQ V0201101N001512200019N0112651N1+00201-00901999999ADDGA1021+009001999GF102991999999999999999999MA1102611999999REMMET057METAR ETGQ 181520Z 11003KT 9999 FEW030 02/M09 Q1026 BLU/;
0126102340999992009021816204+53133+009350FM-15+0061ETGQ V0201301N001512200019N0112651N1+00201-00801999999ADDGA1021+036001999GF102991999999999999999999MA1102611999999REMMET057METAR ETGQ 181620Z 13003KT 9999 FEW120 02/M08 Q1026 BLU/;
0126102340999992009021817204+53133+009350FM-15+0061ETGQ V0201001N001512200019N0112651N1+00101-00801999999ADDGA1021+036001999GF102991999999999999999999MA1102611999999REMMET057METAR ETGQ 181720Z 10003KT 9999 FEW120 01/M08 Q1026 BLU/;
0127102340999992009021818204+53133+009350FM-15+0061ETGQ V0200801N001012200019N0112651N1-00101-00801999999ADDGA1021+036001999GF102991999999999999999999MA1102611999999REMMET058METAR ETGQ 181820Z 08002KT 9999 FEW120 M01/M08 Q1026 BLU/;
0078102340999992009021819204+53133+009350FM-15+0061ETGQ V0201201N001012200019N0112651N1-00101-00801999999ADDMA1102611999999REMMET051METAR ETGQ 181920Z 12002KT 9999 M01/M08 Q1026 BLU/;
0126102340999992009021905204+53133+009350FM-15+0061ETGQ V0201701N001510270019N0112651N1-00201-00501999999ADDGA1071+027001999GF107991999999999999999999MA1102611999999REMMET057METAR ETGQ 190520Z 17003KT 9999 BKN090 M02/M05 Q1026 BLU;
0126102340999992009021906204+53133+009350FM-15+0061ETGQ V0201301N001010180019N0112651N1-00201-00501999999ADDGA1071+018001999GF107991999999999999999999MA1102711999999REMMET057METAR ETGQ 190620Z 13002KT 9999 BKN060 M02/M05 Q1027 BLU;
0126102340999992009021907204+53133+009350FM-15+0061ETGQ V0201501N001510240019N0112651N1-00201-00501999999ADDGA1071+024001999GF107991999999999999999999MA1102711999999REMMET057METAR ETGQ 190720Z 15003KT 9999 BKN080 M02/M05 Q1027 BLU;
0126102340999992009021908204+53133+009350FM-15+0061ETGQ V0209999V001010180019N0112651N1-00101-00501999999ADDGA1071+018001999GF107991999999999999999999MA1102711999999REMMET057METAR ETGQ 190820Z VRB02KT 9999 BKN060 M01/M05 Q1027 BLU;
0126102340999992009021909204+53133+009350FM-15+0061ETGQ V0209999V001010210019N0112651N1-00101-00501999999ADDGA1071+021001999GF107991999999999999999999MA1102711999999REMMET057METAR ETGQ 190920Z VRB02KT 9999 BKN070 M01/M05 Q1027 BLU;
0126102340999992009021910204+53133+009350FM-15+0061ETGQ V0209999V001012200019N0112651N1+00101-00501999999ADDGA1041+024001999GF104991999999999999999999MA1102711999999REMMET057METAR ETGQ 191020Z VRB02KT 9999 SCT080 01/M05 Q1027 BLU/;
0126102340999992009021911204+53133+009350FM-15+0061ETGQ V0201801N001512200019N0112651N1+00201-00601999999ADDGA1021+024001999GF102991999999999999999999MA1102711999999REMMET057METAR ETGQ 191120Z 18003KT 9999 FEW080 02/M06 Q1027 BLU/;
0126102340999992009021912204+53133+009350FM-15+0061ETGQ V0202301N001512200019N0112651N1+00401-00601999999ADDGA1021+024001999GF102991999999999999999999MA1102711999999REMMET057METAR ETGQ 191220Z 23003KT 9999 FEW080 04/M06 Q1027 BLU/;
0149102340999992009021913204+53133+009350FM-15+0061ETGQ V0201601N001512200019N0112651N1+00401-00601999999ADDGA1021+015001999GA2041+105001999GF104991999999999999999999MA1102711999999REMMET064METAR ETGQ 191320Z 16003KT 9999 FEW050 SCT350 04/M06 Q1027 BLU/;
0149102340999992009021914204+53133+009350FM-15+0061ETGQ V0202601N001512200019N0112651N1+00401-00601999999ADDGA1021+015001999GA2041+033001999GF104991999999999999999999MA1102611999999REMMET064METAR ETGQ 191420Z 26003KT 9999 FEW050 SCT110 04/M06 Q1026 BLU/;
0149102340999992009021915204+53133+009350FM-15+0061ETGQ V0202801N002112200019N0112651N1+00401-00601999999ADDGA1021+033001999GA2041+105001999GF104991999999999999999999MA1102611999999REMMET064METAR ETGQ 191520Z 28004KT 9999 FEW110 SCT350 04/M06 Q1026 BLU/;
0148102340999992009021916204+53133+009350FM-15+0061ETGQ V0202401N001010420019N0112651N1+00401-00601999999ADDGA1021+021001999GA2071+042001999GF107991999999999999999999MA1102611999999REMMET063METAR ETGQ 191620Z 24002KT 9999 FEW070 BKN140 04/M06 Q1026 BLU;
0125102340999992009021917204+53133+009350FM-15+0061ETGQ V0202501N001510180019N0112651N1+00401-00501999999ADDGA1071+018001999GF107991999999999999999999MA1102711999999REMMET056METAR ETGQ 191720Z 25003KT 9999 BKN060 04/M05 Q1027 BLU;
0148102340999992009021918204+53133+009350FM-15+0061ETGQ V0202801N001010150019N0112651N1+00301-00401999999ADDGA1041+010501999GA2071+015001999GF107991999999999999999999MA1102711999999REMMET063METAR ETGQ 191820Z 28002KT 9999 SCT035 BKN050 03/M04 Q1027 BLU;
0158102340999992009021919204+53133+009350FM-15+0061ETGQ V0203301N002110120019N0112651N1+00301-00401999999ADDGA1041+006001999GA2081+012001999GF108991999999999999999999MA1102711999999MW1711REMMET067METAR ETGQ 191920Z 33004KT 9999 -SN SCT020 OVC040 03/M04 Q1027 BLU;
0125102340999992009022005204+53133+009350FM-15+0061ETGQ V0202201N002110060019N0112651N1+00201+00001999999ADDGA1081+006001999GF108991999999999999999999MA1102611999999REMMET056METAR ETGQ 200520Z 22004KT 9999 OVC020 02/M00 Q1026 WHT;
0143102340999992009022006204+53133+009350FM-15+0061ETGQ V0202001N001010045019N0050001N1+00201+00101999999ADDGA1081+004501999GF108991999999999999999999MA1102611999999MW1101MW2511REMMET062METAR ETGQ 200620Z 20002KT 5000 -DZ BR OVC015 02/01 Q1026 WHT;
0133102340999992009022007204+53133+009350FM-15+0061ETGQ V0202901N001510045019N0035001N1+00201+00101999999ADDGA1081+004501999GF108991999999999999999999MA1102711999999MW1101REMMET058METAR ETGQ 200720Z 29003KT 3500 BR OVC015 02/01 Q1027 YLO;
0143102340999992009022008204+53133+009350FM-15+0061ETGQ V0209999V001010036019N0035001N1+00201+00101999999ADDGA1081+003601999GF108991999999999999999999MA1102711999999MW1101MW2511REMMET062METAR ETGQ 200820Z VRB02KT 3500 -DZ BR OVC012 02/01 Q1027 YLO;
0133102340999992009022009204+53133+009350FM-15+0061ETGQ V0202901N001010048019N0050001N1+00301+00101999999ADDGA1081+004801999GF108991999999999999999999MA1102711999999MW1101REMMET058METAR ETGQ 200920Z 29002KT 5000 BR OVC016 03/01 Q1027 WHT;
0133102340999992009022010204+53133+009350FM-15+0061ETGQ V0202501N002610042019N0050001N1+00301+00201999999ADDGA1081+004201999GF108991999999999999999999MA1102711999999MW1101REMMET058METAR ETGQ 201020Z 25005KT 5000 BR OVC014 03/02 Q1027 GRN;
0174102340999992009022011204+53133+009350FM-15+0061ETGQ V0202401N002110039019N0035001N1+00301+00201999999ADDGA1041+002401999GA2081+003901999GF108991999999999999999999MA1102711999999MW1101MW2511MW3611REMMET071METAR ETGQ 201120Z 24004KT 3500 -DZRA BR SCT008 OVC013 03/02 Q1027 YLO;
0156102340999992009022012204+53133+009350FM-15+0061ETGQ V0209999V001010042019N0050001N1+00401+00301999999ADDGA1041+002401999GA2071+004201999GF107991999999999999999999MA1102711999999MW1101REMMET065METAR ETGQ 201220Z VRB02KT 5000 BR SCT008 BKN014 04/03 Q1027 GRN;
0147102340999992009022013204+53133+009350FM-15+0061ETGQ V0203101N001510051019N0060001N1+00501+00401999999ADDGA1021+004201999GA2071+005101999GF107991999999999999999999MA1102711999999REMMET062METAR ETGQ 201320Z 31003KT 6000 FEW014 BKN017 05/04 Q1027 WHT;
0147102340999992009022014204+53133+009350FM-15+0061ETGQ V0203001N002110069019N0080001N1+00601+00401999999ADDGA1041+004501999GA2071+006901999GF107991999999999999999999MA1102711999999REMMET062METAR ETGQ 201420Z 30004KT 8000 SCT015 BKN023 06/04 Q1027 WHT;
0157102340999992009022015204+53133+009350FM-15+0061ETGQ V0203001N001010051019N0060001N1+00501+00401999999ADDGA1021+004501999GA2071+005101999GF107991999999999999999999MA1102711999999MW1611REMMET066METAR ETGQ 201520Z 30002KT 6000 -RA FEW015 BKN017 05/04 Q1027 WHT;
0196102340999992009022016204+53133+009350FM-15+0061ETGQ V0202401N00101003001CN0030001N1+00501+00401999999ADDGA1021+002101999GA2041+003001999GA3071+003901999GF107991999999999999999999MA1102711999999MW1101MW2531MW3631REMMET077METAR ETGQ 201620Z 24002KT 3000 RADZ BR FEW007 SCT010 BKN013 05/04 Q1027 YLO;
0202102340999992009022017204+53133+009350FM-15+0061ETGQ V0203201N00261003001CN0040001N1+00501+00401999999ADDGA1021+002101999GA2041+003001999GA3071+003901999GF107991999999999999999999MA1102711999999MW1101MW2511MW3611REMMET083METAR ETGQ 201720Z 32005KT 4000 -RADZ BR FEW007 SCT010 BKN013 05/04 Q1027 RERA GRN;
0147102340999992009022018204+53133+009350FM-15+0061ETGQ V0203301N002110054019N0070001N1+00501+00301999999ADDGA1041+004501999GA2071+005401999GF107991999999999999999999MA1102811999999REMMET062METAR ETGQ 201820Z 33004KT 7000 SCT015 BKN018 05/03 Q1028 WHT;
0147102340999992009022019204+53133+009350FM-15+0061ETGQ V0203201N001510063019N0080001N1+00501+00301999999ADDGA1041+004801999GA2071+006301999GF107991999999999999999999MA1102811999999REMMET062METAR ETGQ 201920Z 32003KT 8000 SCT016 BKN021 05/03 Q1028 WHT;
0147102340999992009022305204+53133+009350FM-15+0061ETGQ V0203101N002110150019N0112651N1+00401+00201999999ADDGA1041+006001999GA2071+015001999GF107991999999999999999999MA1101801999999REMMET062METAR ETGQ 230520Z 31004KT 9999 SCT020 BKN050 04/02 Q1018 BLU;
0147102340999992009022306204+53133+009350FM-15+0061ETGQ V0203001N002610075019N0112651N1+00501+00201999999ADDGA1041+005101999GA2071+007501999GF107991999999999999999999MA1101801999999REMMET062METAR ETGQ 230620Z 30005KT 9999 SCT017 BKN025 05/02 Q1018 BLU;
0147102340999992009022307204+53133+009350FM-15+0061ETGQ V0203101N003610075019N0112651N1+00501+00201999999ADDGA1041+004801999GA2071+007501999GF107991999999999999999999MA1101801999999REMMET062METAR ETGQ 230720Z 31007KT 9999 SCT016 BKN025 05/02 Q1018 BLU;
0159102340999992009022308204+53133+009350FM-15+0061ETGQ V0203101N003610060019N0112651N1+00501+00301999999ADDGA1041+004201999GA2071+006001999GF107991999999999999999999MA1101801999999MW1801REMMET068METAR ETGQ 230820Z 31007KT 9999 -SHRA SCT014 BKN020 05/03 Q1018 WHT;
0147102340999992009022309204+53133+009350FM-15+0061ETGQ V0203101N004110066019N0112651N1+00601+00301999999ADDGA1041+004801999GA2081+006601999GF108991999999999999999999MA1101801999999REMMET062METAR ETGQ 230920Z 31008KT 9999 SCT016 OVC022 06/03 Q1018 WHT;
0147102340999992009022310204+53133+009350FM-15+0061ETGQ V0203101N004610066019N0112651N1+00601+00301999999ADDGA1041+005101999GA2081+006601999GF108991999999999999999999MA1101801999999REMMET062METAR ETGQ 231020Z 31009KT 9999 SCT017 OVC022 06/03 Q1018 WHT;
0147102340999992009022311204+53133+009350FM-15+0061ETGQ V0203101N004610060019N0112651N1+00601+00301999999ADDGA1021+004801999GA2071+006001999GF107991999999999999999999MA1101801999999REMMET062METAR ETGQ 231120Z 31009KT 9999 FEW016 BKN020 06/03 Q1018 WHT;
0159102340999992009022312204+53133+009350FM-15+0061ETGQ V0203101N005110051019N0112651N1+00601+00401999999ADDGA1041+004201999GA2071+005101999GF107991999999999999999999MA1101691999999MW1801REMMET068METAR ETGQ 231220Z 31010KT 9999 -SHRA SCT014 BKN017 06/04 Q1017 WHT;
0159102340999992009022313204+53133+009350FM-15+0061ETGQ V0203301N004110060019N0080001N1+00601+00301999999ADDGA1041+004501999GA2071+006001999GF107991999999999999999999MA1101691999999MW1801REMMET068METAR ETGQ 231320Z 33008KT 8000 -SHRA SCT015 BKN020 06/03 Q1017 WHT;
0147102340999992009022314204+53133+009350FM-15+0061ETGQ V0203001N003610105019N0112651N1+00701+00401999999ADDGA1021+006001999GA2081+010501999GF108991999999999999999999MA1101691999999REMMET062METAR ETGQ 231420Z 30007KT 9999 FEW020 OVC035 07/04 Q1017 BLU;
0159102340999992009022315204+53133+009350FM-15+0061ETGQ V0203301N004110039019N0080001N1+00601+00401999999ADDGA1071+003901999GA2071+010501999GF107991999999999999999999MA1101691999999MW1801REMMET068METAR ETGQ 231520Z 33008KT 8000 -SHRA BKN013 BKN035 06/04 Q1017 GRN;
0147102340999992009022316204+53133+009350FM-15+0061ETGQ V0203201N003110105019N0112651N1+00601+00301999999ADDGA1041+004501999GA2071+010501999GF107991999999999999999999MA1101691999999REMMET062METAR ETGQ 231620Z 32006KT 9999 SCT015 BKN035 06/03 Q1017 BLU;
0147102340999992009022317204+53133+009350FM-15+0061ETGQ V0203201N003110120019N0112651N1+00601+00301999999ADDGA1021+006001999GA2071+012001999GF107991999999999999999999MA1101801999999REMMET062METAR ETGQ 231720Z 32006KT 9999 FEW020 BKN040 06/03 Q1018 BLU;
0147102340999992009022318204+53133+009350FM-15+0061ETGQ V0203301N003610132019N0112651N1+00601+00201999999ADDGA1021+006901999GA2071+013201999GF107991999999999999999999MA1101801999999REMMET062METAR ETGQ 231820Z 33007KT 9999 FEW023 BKN044 06/02 Q1018 BLU;
0124102340999992009022319204+53133+009350FM-15+0061ETGQ V0203301N003110120019N0112651N1+00601+00101999999ADDGA1071+012001999GF107991999999999999999999MA1101801999999REMMET055METAR ETGQ 231920Z 33006KT 9999 BKN040 06/01 Q1018 BLU;
0124102340999992009022405204+53133+009350FM-15+0061ETGQ V0203301N002110054019N0112651N1+00401+00101999999ADDGA1071+005401999GF107991999999999999999999MA1102201999999REMMET055METAR ETGQ 240520Z 33004KT 9999 BKN018 04/01 Q1022 WHT;
0124102340999992009022406204+53133+009350FM-15+0061ETGQ V0203201N002110060019N0112651N1+00401+00101999999ADDGA1071+006001999GF107991999999999999999999MA1102301999999REMMET055METAR ETGQ 240620Z 32004KT 9999 BKN020 04/01 Q1023 WHT;
0124102340999992009022407204+53133+009350FM-15+0061ETGQ V0203201N002110069019N0112651N1+00401+00101999999ADDGA1071+006901999GF107991999999999999999999MA1102401999999REMMET055METAR ETGQ 240720Z 32004KT 9999 BKN023 04/01 Q1024 WHT;
0124102340999992009022408204+53133+009350FM-15+0061ETGQ V0203101N001510072019N0112651N1+00401+00101999999ADDGA1071+007201999GF107991999999999999999999MA1102401999999REMMET055METAR ETGQ 240820Z 31003KT 9999 BKN024 04/01 Q1024 WHT;
0124102340999992009022409204+53133+009350FM-15+0061ETGQ V0203301N002610072019N0112651N1+00501+00101999999ADDGA1071+007201999GF107991999999999999999999MA1102511999999REMMET055METAR ETGQ 240920Z 33005KT 9999 BKN024 05/01 Q1025 WHT;
0124102340999992009022410204+53133+009350FM-15+0061ETGQ V0203201N002610072019N0112651N1+00501+00101999999ADDGA1071+007201999GF107991999999999999999999MA1102511999999REMMET055METAR ETGQ 241020Z 32005KT 9999 BKN024 05/01 Q1025 WHT;
0124102340999992009022411204+53133+009350FM-15+0061ETGQ V0203301N002610084019N0112651N1+00501+00101999999ADDGA1071+008401999GF107991999999999999999999MA1102611999999REMMET055METAR ETGQ 241120Z 33005KT 9999 BKN028 05/01 Q1026 BLU;
0124102340999992009022412204+53133+009350FM-15+0061ETGQ V0203401N002610078019N0112651N1+00601+00101999999ADDGA1071+007801999GF107991999999999999999999MA1102611999999REMMET055METAR ETGQ 241220Z 34005KT 9999 BKN026 06/01 Q1026 BLU;
0124102340999992009022413204+53133+009350FM-15+0061ETGQ V0203301N003110090019N0112651N1+00601+00101999999ADDGA1071+009001999GF107991999999999999999999MA1102611999999REMMET055METAR ETGQ 241320Z 33006KT 9999 BKN030 06/01 Q1026 BLU;
0125102340999992009022414204+53133+009350FM-15+0061ETGQ V0203401N003110096019N0112651N1+00601-00101999999ADDGA1071+009601999GF107991999999999999999999MA1102611999999REMMET056METAR ETGQ 241420Z 34006KT 9999 BKN032 06/M01 Q1026 BLU;
0125102340999992009022415204+53133+009350FM-15+0061ETGQ V0200101N002610114019N0112651N1+00701-00101999999ADDGA1071+011401999GF107991999999999999999999MA1102611999999REMMET056METAR ETGQ 241520Z 01005KT 9999 BKN038 07/M01 Q1026 BLU;
0125102340999992009022416204+53133+009350FM-15+0061ETGQ V0203401N002610126019N0112651N1+00601-00101999999ADDGA1071+012601999GF107991999999999999999999MA1102711999999REMMET056METAR ETGQ 241620Z 34005KT 9999 BKN042 06/M01 Q1027 BLU;
0125102340999992009022417204+53133+009350FM-15+0061ETGQ V0200101N002110123019N0112651N1+00601-00101999999ADDGA1071+012301999GF107991999999999999999999MA1102711999999REMMET056METAR ETGQ 241720Z 01004KT 9999 BKN041 06/M01 Q1027 BLU;
0125102340999992009022418204+53133+009350FM-15+0061ETGQ V0203601N001010126019N0112651N1+00501-00101999999ADDGA1071+012601999GF107991999999999999999999MA1102811999999REMMET056METAR ETGQ 241820Z 36002KT 9999 BKN042 05/M01 Q1028 BLU;
0126102340999992009022419204+53133+009350FM-15+0061ETGQ V0203301N001512200019N0112651N1+00401-00101999999ADDGA1041+012001999GF104991999999999999999999MA1102811999999REMMET057METAR ETGQ 241920Z 33003KT 9999 SCT040 04/M01 Q1028 BLU/;
0135102340999992009022505204+53133+009350FM-15+0061ETGQ V0202201N001010003019N0030001N1-00101-00101999999ADDGA1081+000301999GF108991999999999999999999MA1103011999999MW1101REMMET060METAR ETGQ 250520Z 22002KT 3000 BR OVC001 M01/M01 Q1030 RED;
0137102340999992009022506204+53133+009350FM-15+0061ETGQ V0202501N001010003019N0003001N1-00101-00101999999ADDGA1081+000301999GF108991999999999999999999MA1103011999999MW1481REMMET062METAR ETGQ 250620Z 25002KT 0300 FZFG OVC001 M01/M01 Q1030 RED;
0136102340999992009022507204+53133+009350FM-15+0061ETGQ V0202501N001510003019N0003001N1-00101-00101999999ADDGA1091+000301999GF109991999999000251999999MA1103011999999MW1491REMMET061METAR ETGQ 250720Z 25003KT 0300 FZFG VV001 M01/M01 Q1030 RED;
0136102340999992009022508204+53133+009350FM-15+0061ETGQ V0202701N001010003019N0003001N1-00101-00101999999ADDGA1091+000301999GF109991999999000251999999MA1103011999999MW1491REMMET061METAR ETGQ 250820Z 27002KT 0300 FZFG VV001 M01/M01 Q1030 RED;
0137102340999992009022509204+53133+009350FM-15+0061ETGQ V0202301N001010003019N0006001N1+00001+00001999999ADDGA1081+000301999GF108991999999999999999999MA1103121999999MW1481REMMET062METAR ETGQ 250920Z 23002KT 0600 FZFG OVC001 M00/M00 Q1031 RED;
0133102340999992009022510204+53133+009350FM-15+0061ETGQ V0209999V001010012019N0020001N1+00101+00101999999ADDGA1071+001201999GF107991999999999999999999MA1103011999999MW1101REMMET058METAR ETGQ 251020Z VRB02KT 2000 BR BKN004 01/01 Q1030 YLO;
0124102340999992009022511204+53133+009350FM-15+0061ETGQ V0209999V001010210019N0060001N1+00301+00201999999ADDGA1071+021001999GF107991999999999999999999MA1103011999999REMMET055METAR ETGQ 251120Z VRB02KT 6000 BKN070 03/02 Q1030 WHT;
0124102340999992009022512204+53133+009350FM-15+0061ETGQ V0202501N001510180019N0080001N1+00701+00201999999ADDGA1071+018001999GF107991999999999999999999MA1102911999999REMMET055METAR ETGQ 251220Z 25003KT 8000 BKN060 07/02 Q1029 BLU;
0124102340999992009022513204+53133+009350FM-15+0061ETGQ V0202301N001510210019N0112651N1+00801+00101999999ADDGA1071+021001999GF107991999999999999999999MA1102911999999REMMET055METAR ETGQ 251320Z 23003KT 9999 BKN070 08/01 Q1029 BLU;
0148102340999992009022515204+53133+009350FM-15+0061ETGQ V0202001N002610240019N0112651N1+00801+00001999999ADDGA1071+024001999GA2071+075001999GF107991999999999999999999MA1102711999999REMMET063METAR ETGQ 251520Z 20005KT 9999 BKN080 BKN250 08/M00 Q1027 BLU;
0149102340999992009022516204+53133+009350FM-15+0061ETGQ V0202201N002110630019N0112651N1+00801+00001999999ADDGA1021+021001999GA2071+063001999GF107991999999999999999999MA1102711999999REMMET064METAR ETGQ 251620Z 22004KT 9999 FEW070 BKN210 08/M00 Q1027 BLU/;
0148102340999992009022517204+53133+009350FM-15+0061ETGQ V0202101N002112200019N0112651N1+00701+00001999999ADDGA1021+021001999GA2041+063001999GF104991999999999999999999MA1102711999999REMMET063METAR ETGQ 251720Z 21004KT 9999 FEW070 SCT210 07/00 Q1027 BLU/;
0125102340999992009022518204+53133+009350FM-15+0061ETGQ V0202101N002610240019N0112651N1+00601+00001999999ADDGA1071+024001999GF107991999999999999999999MA1102711999999REMMET056METAR ETGQ 251820Z 21005KT 9999 BKN080 06/M00 Q1027 BLU;
0125102340999992009022519204+53133+009350FM-15+0061ETGQ V0203501N001510240019N0112651N1+00601+00001999999ADDGA1071+024001999GF107991999999999999999999MA1102711999999REMMET056METAR ETGQ 251920Z 35003KT 9999 BKN080 06/M00 Q1027 BLU;
0124102340999992009022605204+53133+009350FM-15+0061ETGQ V0202501N003110084019N0080001N1+00501+00201999999ADDGA1071+008401999GF107991999999999999999999MA1102201999999REMMET055METAR ETGQ 260520Z 25006KT 8000 BKN028 05/02 Q1022 BLU;
0124102340999992009022606204+53133+009350FM-15+0061ETGQ V0202501N003110066019N0080001N1+00501+00201999999ADDGA1071+006601999GF107991999999999999999999MA1102201999999REMMET055METAR ETGQ 260620Z 25006KT 8000 BKN022 05/02 Q1022 WHT;
0124102340999992009022607204+53133+009350FM-15+0061ETGQ V0202501N002610066019N0080001N1+00501+00201999999ADDGA1081+006601999GF108991999999999999999999MA1102201999999REMMET055METAR ETGQ 260720Z 25005KT 8000 OVC022 05/02 Q1022 WHT;
0124102340999992009022608204+53133+009350FM-15+0061ETGQ V0202601N003110072019N0080001N1+00501+00301999999ADDGA1081+007201999GF108991999999999999999999MA1102201999999REMMET055METAR ETGQ 260820Z 26006KT 8000 OVC024 05/03 Q1022 WHT;
0157102340999992009022609204+53133+009350FM-15+0061ETGQ V0202501N003610066019N0080001N1+00501+00301999999ADDGA1041+004501999GA2081+006601999GF108991999999999999999999MA1102201999999MW1511REMMET066METAR ETGQ 260920Z 25007KT 8000 -DZ SCT015 OVC022 05/03 Q1022 WHT;
0147102340999992009022610204+53133+009350FM-15+0061ETGQ V0202401N002110135019N0080001N1+00601+00401999999ADDGA1041+006001999GA2071+013501999GF107991999999999999999999MA1102201999999REMMET062METAR ETGQ 261020Z 24004KT 8000 SCT020 BKN045 06/04 Q1022 BLU;
0147102340999992009022611204+53133+009350FM-15+0061ETGQ V0202701N002610075019N0080001N1+00701+00401999999ADDGA1041+006001999GA2071+007501999GF107991999999999999999999MA1102101999999REMMET062METAR ETGQ 261120Z 27005KT 8000 SCT020 BKN025 07/04 Q1021 BLU;
0147102340999992009022612204+53133+009350FM-15+0061ETGQ V0202701N003110096019N0112651N1+00901+00301999999ADDGA1041+007501999GA2071+009601999GF107991999999999999999999MA1102101999999REMMET062METAR ETGQ 261220Z 27006KT 9999 SCT025 BKN032 09/03 Q1021 BLU;
0124102340999992009022613204+53133+009350FM-15+0061ETGQ V0203001N003610144019N0112651N1+00901+00201999999ADDGA1071+014401999GF107991999999999999999999MA1102001999999REMMET055METAR ETGQ 261320Z 30007KT 9999 BKN048 09/02 Q1020 BLU;
0124102340999992009022614204+53133+009350FM-15+0061ETGQ V0203101N004110126019N0112651N1+00901+00101999999ADDGA1071+012601999GF107991999999999999999999MA1102001999999REMMET055METAR ETGQ 261420Z 31008KT 9999 BKN042 09/01 Q1020 BLU;
0124102340999992009022615204+53133+009350FM-15+0061ETGQ V0202901N003110144019N0112651N1+00901+00101999999ADDGA1071+014401999GF107991999999999999999999MA1102001999999REMMET055METAR ETGQ 261520Z 29006KT 9999 BKN048 09/01 Q1020 BLU;
0124102340999992009022616204+53133+009350FM-15+0061ETGQ V0202801N003110120019N0112651N1+00901+00101999999ADDGA1071+012001999GF107991999999999999999999MA1101901999999REMMET055METAR ETGQ 261620Z 28006KT 9999 BKN040 09/01 Q1019 BLU;
0124102340999992009022617204+53133+009350FM-15+0061ETGQ V0202601N001510126019N0112651N1+00801+00101999999ADDGA1071+012601999GF107991999999999999999999MA1101901999999REMMET055METAR ETGQ 261720Z 26003KT 9999 BKN042 08/01 Q1019 BLU;
0124102340999992009022618204+53133+009350FM-15+0061ETGQ V0202601N002110129019N0112651N1+00801+00101999999ADDGA1071+012901999GF107991999999999999999999MA1102001999999REMMET055METAR ETGQ 261820Z 26004KT 9999 BKN043 08/01 Q1020 BLU;
0124102340999992009022619204+53133+009350FM-15+0061ETGQ V0202601N002110108019N0112651N1+00801+00101999999ADDGA1071+010801999GF107991999999999999999999MA1101901999999REMMET055METAR ETGQ 261920Z 26004KT 9999 BKN036 08/01 Q1019 BLU;
0134102340999992009022705204+53133+009350FM-15+0061ETGQ V0202601N001510039019N0060001N1+00601+00501999999ADDGA1081+003901999GF108991999999999999999999MA1101801999999MW1611REMMET059METAR ETGQ 270520Z 26003KT 6000 -RA OVC013 06/05 Q1018 GRN;
0124102340999992009022706204+53133+009350FM-15+0061ETGQ V0202501N002110054019N0080001N1+00601+00401999999ADDGA1081+005401999GF108991999999999999999999MA1101901999999REMMET055METAR ETGQ 270620Z 25004KT 8000 OVC018 06/04 Q1019 WHT;
0124102340999992009022707204+53133+009350FM-15+0061ETGQ V0202501N001510069019N0080001N1+00601+00401999999ADDGA1081+006901999GF108991999999999999999999MA1101901999999REMMET055METAR ETGQ 270720Z 25003KT 8000 OVC023 06/04 Q1019 WHT;
0147102340999992009022708204+53133+009350FM-15+0061ETGQ V0202401N002110081019N0080001N1+00701+00401999999ADDGA1041+006901999GA2081+008101999GF108991999999999999999999MA1101901999999REMMET062METAR ETGQ 270820Z 24004KT 8000 SCT023 OVC027 07/04 Q1019 BLU;
0124102340999992009022709204+53133+009350FM-15+0061ETGQ V0202601N002110111019N0112651N1+00801+00301999999ADDGA1081+011101999GF108991999999999999999999MA1101901999999REMMET055METAR ETGQ 270920Z 26004KT 9999 OVC037 08/03 Q1019 BLU;
0147102340999992009022710204+53133+009350FM-15+0061ETGQ V0202301N002610066019N0112651N1+00801+00301999999ADDGA1071+006601999GA2071+009001999GF107991999999999999999999MA1101901999999REMMET062METAR ETGQ 271020Z 23005KT 9999 BKN022 BKN030 08/03 Q1019 WHT;
0124102340999992009022711204+53133+009350FM-15+0061ETGQ V0202201N003110078019N0112651N1+00701+00401999999ADDGA1071+007801999GF107991999999999999999999MA1102001999999REMMET055METAR ETGQ 271120Z 22006KT 9999 BKN026 07/04 Q1020 BLU;
0143102340999992009022712204+53133+009350FM-15+0061ETGQ V0202101N003110069019N0050001N1+00601+00501999999ADDGA1081+006901999GF108991999999999999999999MA1101901999999MW1101MW2511REMMET062METAR ETGQ 271220Z 21006KT 5000 -DZ BR OVC023 06/05 Q1019 WHT;
0143102340999992009022713204+53133+009350FM-15+0061ETGQ V0201901N001510066019N0050001N1+00701+00501999999ADDGA1081+006601999GF108991999999999999999999MA1101901999999MW1101MW2511REMMET062METAR ETGQ 271320Z 19003KT 5000 -DZ BR OVC022 07/05 Q1019 WHT;
0134102340999992009022714204+53133+009350FM-15+0061ETGQ V0202301N002610066019N0060001N1+00801+00501999999ADDGA1081+006601999GF108991999999999999999999MA1101801999999MW1511REMMET059METAR ETGQ 271420Z 23005KT 6000 -DZ OVC022 08/05 Q1018 WHT;
0124102340999992009022715204+53133+009350FM-15+0061ETGQ V0202301N001510066019N0070001N1+00801+00501999999ADDGA1081+006601999GF108991999999999999999999MA1101801999999REMMET055METAR ETGQ 271520Z 23003KT 7000 OVC022 08/05 Q1018 WHT;
0142102340999992009022716204+53133+009350FM-15+0061ETGQ V0202401N002610066019N0070001N1+00801+00501999999ADDGA1081+006601999GF108991999999999999999999MA1101901999999MW1511MW2611REMMET061METAR ETGQ 271620Z 24005KT 7000 -DZRA OVC022 08/05 Q1019 WHT;
0142102340999992009022717204+53133+009350FM-15+0061ETGQ V0202301N002610063019N0070001N1+00801+00501999999ADDGA1081+006301999GF108991999999999999999999MA1101901999999MW1511MW2611REMMET061METAR ETGQ 271720Z 23005KT 7000 -DZRA OVC021 08/05 Q1019 WHT;
0147102340999992009022718204+53133+009350FM-15+0061ETGQ V0202801N002110051019N0070001N1+00801+00501999999ADDGA1021+003001999GA2081+005101999GF108991999999999999999999MA1101901999999REMMET062METAR ETGQ 271820Z 28004KT 7000 FEW010 OVC017 08/05 Q1019 WHT;
0157102340999992009022719204+53133+009350FM-15+0061ETGQ V0201301N002610054019N0070001N1+00801+00501999999ADDGA1021+003301999GA2081+005401999GF108991999999999999999999MA1101901999999MW1511REMMET066METAR ETGQ 271920Z 13005KT 7000 -DZ FEW011 OVC018 08/05 Q1019 WHT;
0157102340999992009030205204+53133+009350FM-15+0061ETGQ V0209999V001010138019N0080001N1+00801+00701999999ADDGA1041+007501999GA2081+013801999GF108991999999999999999999MA1101081999999MW1511REMMET066METAR ETGQ 020520Z VRB02KT 8000 -DZ SCT025 OVC046 08/07 Q1011 BLU;
0166102340999992009030206204+53133+009350FM-15+0061ETGQ V0209999V000510111019N0050001N1+00801+00701999999ADDGA1041+005401999GA2081+011101999GF108991999999999999999999MA1101081999999MW1101MW2511REMMET069METAR ETGQ 020620Z VRB01KT 5000 -DZ BR SCT018 OVC037 08/07 Q1011 WHT;
0143102340999992009030207204+53133+009350FM-15+0061ETGQ V0202901N001010054019N0040001N1+00801+00701999999ADDGA1081+005401999GF108991999999999999999999MA1101191999999MW1101MW2611REMMET062METAR ETGQ 020720Z 29002KT 4000 -RA BR OVC018 08/07 Q1012 GRN;
0143102340999992009030208204+53133+009350FM-15+0061ETGQ V0203401N001510051019N0035001N1+00801+00701999999ADDGA1081+005101999GF108991999999999999999999MA1101191999999MW1101MW2611REMMET062METAR ETGQ 020820Z 34003KT 3500 -RA BR OVC017 08/07 Q1012 YLO;
0166102340999992009030209204+53133+009350FM-15+0061ETGQ V0203201N002610069019N0040001N1+00801+00701999999ADDGA1041+003901999GA2071+006901999GF107991999999999999999999MA1101291999999MW1101MW2611REMMET069METAR ETGQ 020920Z 32005KT 4000 -RA BR SCT013 BKN023 08/07 Q1013 GRN;
0156102340999992009030210204+53133+009350FM-15+0061ETGQ V0203201N003610129019N0050001N1+00801+00601999999ADDGA1041+003901999GA2081+012901999GF108991999999999999999999MA1101391999999MW1101REMMET065METAR ETGQ 021020Z 32007KT 5000 BR SCT013 OVC043 08/06 Q1014 WHT;
0124102340999992009030211204+53133+009350FM-15+0061ETGQ V0203101N002110060019N0070001N1+00801+00501999999ADDGA1071+006001999GF107991999999999999999999MA1101391999999REMMET055METAR ETGQ 021120Z 31004KT 7000 BKN020 08/05 Q1014 WHT;
0147102340999992009030212204+53133+009350FM-15+0061ETGQ V0203201N002610180019N0112651N1+00901+00501999999ADDGA1041+009001999GA2071+018001999GF107991999999999999999999MA1101391999999REMMET062METAR ETGQ 021220Z 32005KT 9999 SCT030 BKN060 09/05 Q1014 BLU;
0148102340999992009030213204+53133+009350FM-15+0061ETGQ V0203401N003112200019N0112651N1+01001+00401999999ADDGA1041+009601999GA2041+018001999GF104991999999999999999999MA1101391999999REMMET063METAR ETGQ 021320Z 34006KT 9999 SCT032 SCT060 10/04 Q1014 BLU/;
0147102340999992009030214204+53133+009350FM-15+0061ETGQ V0203201N003110180019N0112651N1+01001+00201999999ADDGA1041+009001999GA2071+018001999GF107991999999999999999999MA1101491999999REMMET062METAR ETGQ 021420Z 32006KT 9999 SCT030 BKN060 10/02 Q1015 BLU;
0085102340999992009030305204+53133+009350FM-15+0061ETGQ V0201401N002112200019N0035001N1+00001-00101999999ADDMA1101691999999MW1101REMMET052METAR ETGQ 030520Z 14004KT 3500 BR 00/M01 Q1017 YLO;
0133102340999992009030306204+53133+009350FM-15+0061ETGQ V0201401N001512200019N0035001N1+00001+00001999999ADDGA1041+011401999GF104991999999999999999999MA1101691999999MW1101REMMET058METAR ETGQ 030620Z 14003KT 3500 BR SCT038 00/00 Q1017 YLO;
0133102340999992009030307204+53133+009350FM-15+0061ETGQ V0201501N001512200019N0050001N1+00101+00101999999ADDGA1041+012001999GF104991999999999999999999MA1101691999999MW1101REMMET058METAR ETGQ 030720Z 15003KT 5000 BR SCT040 01/01 Q1017 WHT;
0075102340999992009030308204+53133+009350FM-15+0061ETGQ V0201301N001512200019N0070001N1+00201+00101999999ADDMA1101691999999REMMET048METAR ETGQ 030820Z 13003KT 7000 02/01 Q1017 WHT;
0076102340999992009030309204+53133+009350FM-15+0061ETGQ V0201501N001012200019N0112651N1+00401+00101999999ADDMA1101591999999REMMET049METAR ETGQ 030920Z 15002KT 9999 04/01 Q1016 BLU/;
0076102340999992009030310204+53133+009350FM-15+0061ETGQ V0209999V001012200019N0112651N1+00701+00201999999ADDMA1101591999999REMMET049METAR ETGQ 031020Z VRB02KT 9999 07/02 Q1016 BLU/;
0125102340999992009030311204+53133+009350FM-15+0061ETGQ V0202401N003112200019N0112651N1+00901+00201999999ADDGA1041+009001999GF104991999999999999999999MA1101491999999REMMET056METAR ETGQ 031120Z 24006KT 9999 SCT030 09/02 Q1015 BLU/;
0125102340999992009030312204+53133+009350FM-15+0061ETGQ V0202701N003112200019N0112651N1+01001+00101999999ADDGA1041+009001999GF104991999999999999999999MA1101391999999REMMET056METAR ETGQ 031220Z 27006KT 9999 SCT030 10/01 Q1014 BLU/;
0149102340999992009030314204+53133+009350FM-15+0061ETGQ V0202401N003112200019N0112651N1+01001-00201999999ADDGA1021+010501999GA2041+018001999GF104991999999999999999999MA1101191999999REMMET064METAR ETGQ 031420Z 24006KT 9999 FEW035 SCT060 10/M02 Q1012 BLU/;
0149102340999992009030315204+53133+009350FM-15+0061ETGQ V0202301N002612200019N0112651N1+01001-00201999999ADDGA1021+015001999GA2041+018001999GF104991999999999999999999MA1101081999999REMMET064METAR ETGQ 031520Z 23005KT 9999 FEW050 SCT060 10/M02 Q1011 BLU/;
0126102340999992009030316204+53133+009350FM-15+0061ETGQ V0202101N002112200019N0112651N1+00901-00301999999ADDGA1041+018001999GF104991999999999999999999MA1101021999999REMMET057METAR ETGQ 031620Z 21004KT 9999 SCT060 09/M03 Q1010 BLU/;
0126102340999992009030317204+53133+009350FM-15+0061ETGQ V0201601N002112200019N0112651N1+00901-00301999999ADDGA1041+018001999GF104991999999999999999999MA1100911999999REMMET057METAR ETGQ 031720Z 16004KT 9999 SCT060 09/M03 Q1009 BLU/;
0126102340999992009030318204+53133+009350FM-15+0061ETGQ V0201601N002612200019N0112651N1+00801-00101999999ADDGA1041+018001999GF104991999999999999999999MA1100911999999REMMET057METAR ETGQ 031820Z 16005KT 9999 SCT060 08/M01 Q1009 BLU/;
0125102340999992009030319204+53133+009350FM-15+0061ETGQ V0201501N003610180019N0112651N1+00701-00201999999ADDGA1071+018001999GF107991999999999999999999MA1100811999999REMMET056METAR ETGQ 031920Z 15007KT 9999 BKN060 07/M02 Q1008 BLU;
0148102340999992009030405204+53133+009350FM-15+0061ETGQ V0201501N004110660019N0112651N1+00401+00001999999ADDGA1041+015001999GA2071+066001999GF107991999999999999999999MA1099701999999REMMET063METAR ETGQ 040520Z 15008KT 9999 SCT050 BKN220 04/00 Q0997 BLU/;
0125102340999992009030406204+53133+009350FM-15+0061ETGQ V0201501N004112200019N0112651N1+00501+00001999999ADDGA1041+060001999GF104991999999999999999999MA1099491999999REMMET056METAR ETGQ 040620Z 15008KT 9999 SCT200 05/00 Q0995 BLU/;
0124102340999992009030407204+53133+009350FM-15+0061ETGQ V0201501N004110420019N0112651N1+00401+00001999999ADDGA1071+042001999GF107991999999999999999999MA1099491999999REMMET055METAR ETGQ 040720Z 15008KT 9999 BKN140 04/00 Q0995 BLU;
0125102340999992009030408204+53133+009350FM-15+0061ETGQ V0201601N003612200019N0112651N1+00501+00101999999ADDGA1041+042001999GF104991999999999999999999MA1099391999999REMMET056METAR ETGQ 040820Z 16007KT 9999 SCT140 05/01 Q0994 BLU/;
0125102340999992009030409204+53133+009350FM-15+0061ETGQ V0201601N005112200019N0112651N1+00801+00001999999ADDGA1041+045001999GF104991999999999999999999MA1099291999999REMMET056METAR ETGQ 040920Z 16010KT 9999 SCT150 08/00 Q0993 BLU/;
0159102340999992009030410204+53133+009350FM-15+0061ETGQ V0201401N004610750019N0112651N1+00901+00001999999ADDGA1021+009001999GA2071+075001999GF107991999999999999999999MA1099191999999OC101031REMMET066METAR ETGQ 041020Z 14009G20KT 9999 FEW030 BKN250 09/00 Q0992 BLU/;
0159102340999992009030411204+53133+009350FM-15+0061ETGQ V0201501N004110900019N0112651N1+01001+00101999999ADDGA1021+009001999GA2071+090001999GF107991999999999999999999MA1099091999999OC100981REMMET066METAR ETGQ 041120Z 15008G19KT 9999 FEW030 BKN300 10/01 Q0991 BLU/;
0147102340999992009030412204+53133+009350FM-15+0061ETGQ V0201501N004610180019N0112651N1+01101+00001999999ADDGA1021+009001999GA2071+018001999GF107991999999999999999999MA1098981999999REMMET062METAR ETGQ 041220Z 15009KT 9999 FEW030 BKN060 11/00 Q0990 BLU;
0147102340999992009030413204+53133+009350FM-15+0061ETGQ V0201501N003110180019N0112651N1+01201+00101999999ADDGA1021+009001999GA2071+018001999GF107991999999999999999999MA1098921999999REMMET062METAR ETGQ 041320Z 15006KT 9999 FEW030 BKN060 12/01 Q0989 BLU;
0147102340999992009030414204+53133+009350FM-15+0061ETGQ V0201601N003110300019N0112651N1+01201+00001999999ADDGA1021+009001999GA2071+030001999GF107991999999999999999999MA1098821999999REMMET062METAR ETGQ 041420Z 16006KT 9999 FEW030 BKN100 12/00 Q0988 BLU;
0125102340999992009030415204+53133+009350FM-15+0061ETGQ V0201901N002610180019N0112651N1+01201+00001999999ADDGA1071+018001999GF107991999999999999999999MA1098711999999REMMET056METAR ETGQ 041520Z 19005KT 9999 BKN060 12/M00 Q0987 BLU;
0148102340999992009030416204+53133+009350FM-15+0061ETGQ V0201501N003110330019N0112651N1+01201-00101999999ADDGA1041+018001999GA2071+033001999GF107991999999999999999999MA1098711999999REMMET063METAR ETGQ 041620Z 15006KT 9999 SCT060 BKN110 12/M01 Q0987 BLU;
0125102340999992009030417204+53133+009350FM-15+0061ETGQ V0201601N002610270019N0112651N1+01101+00001999999ADDGA1071+027001999GF107991999999999999999999MA1098711999999REMMET056METAR ETGQ 041720Z 16005KT 9999 BKN090 11/M00 Q0987 BLU;
0124102340999992009030418204+53133+009350FM-15+0061ETGQ V0201501N003110270019N0112651N1+01001+00101999999ADDGA1071+027001999GF107991999999999999999999MA1098711999999REMMET055METAR ETGQ 041820Z 15006KT 9999 BKN090 10/01 Q0987 BLU;
0147102340999992009030419204+53133+009350FM-15+0061ETGQ V0201701N003110180019N0112651N1+01001+00201999999ADDGA1041+012001999GA2071+018001999GF107991999999999999999999MA1098711999999REMMET062METAR ETGQ 041920Z 17006KT 9999 SCT040 BKN060 10/02 Q0987 BLU;
0134102340999992009030505204+53133+009350FM-15+0061ETGQ V0203101N002610045019N0080001N1+00501+00301999999ADDGA1081+004501999GF108991999999999999999999MA1098611999999MW1611REMMET059METAR ETGQ 050520Z 31005KT 8000 -RA OVC015 05/03 Q0986 WHT;
0134102340999992009030506204+53133+009350FM-15+0061ETGQ V0203401N002610039019N0080001N1+00501+00301999999ADDGA1081+003901999GF108991999999999999999999MA1098611999999MW1611REMMET059METAR ETGQ 050620Z 34005KT 8000 -RA OVC013 05/03 Q0986 GRN;
0157102340999992009030507204+53133+009350FM-15+0061ETGQ V0203101N002110063019N0080001N1+00501+00301999999ADDGA1041+004201999GA2081+006301999GF108991999999999999999999MA1098711999999MW1611REMMET066METAR ETGQ 050720Z 31004KT 8000 -RA SCT014 OVC021 05/03 Q0987 WHT;
0165102340999992009030508204+53133+009350FM-15+0061ETGQ V0203001N003610042019N0050001N1+00301+00201999999ADDGA1041+001801999GA2081+004201999GF108991999999999999999999MA1098711999999MW1101MW2631REMMET068METAR ETGQ 050820Z 30007KT 5000 RA BR SCT006 OVC014 03/02 Q0987 GRN;
0165102340999992009030509204+53133+009350FM-15+0061ETGQ V0203101N002610033019N0050001N1+00301+00201999999ADDGA1041+002401999GA2081+003301999GF108991999999999999999999MA1098711999999MW1101MW2631REMMET068METAR ETGQ 050920Z 31005KT 5000 RA BR SCT008 OVC011 03/02 Q0987 GRN;
0162102340999992009030510204+53133+009350FM-15+0061ETGQ V0203001N001510036019N0112651N1+00301+00201999999ADDGA1041+002701999GA2081+003601999GF108991999999999999999999MA1098711999999MW1611REMMET071METAR ETGQ 051020Z 30003KT 9999 -RA SCT009 OVC012 03/02 Q0987 RERA GRN;
0156102340999992009030511204+53133+009350FM-15+0061ETGQ V0203001N002110036019N0080001N1+00301+00201999999ADDGA1041+002401999GA2081+003601999GF108991999999999999999999MA1098711999999MW1631REMMET065METAR ETGQ 051120Z 30004KT 8000 RA SCT008 OVC012 03/02 Q0987 GRN;
0139102340999992009030512204+53133+009350FM-15+0061ETGQ V0203301N002610033019N0112651N1+00301+00201999999ADDGA1071+003301999GF107991999999999999999999MA1098711999999MW1611REMMET064METAR ETGQ 051220Z 33005KT 9999 -RA BKN011 03/02 Q0987 RERA GRN;
0139102340999992009030513204+53133+009350FM-15+0061ETGQ V0203301N001510027019N0112651N1+00301+00201999999ADDGA1081+002701999GF108991999999999999999999MA1098821999999MW1611REMMET064METAR ETGQ 051320Z 33003KT 9999 -RA OVC009 03/02 Q0988 RERA GRN;
0139102340999992009030514204+53133+009350FM-15+0061ETGQ V0203301N004610042019N0112651N1+00401+00201999999ADDGA1081+004201999GF108991999999999999999999MA1098821999999MW1611REMMET064METAR ETGQ 051420Z 33009KT 9999 -RA OVC014 04/02 Q0988 RERA GRN;
0139102340999992009030515204+53133+009350FM-15+0061ETGQ V0203301N003110042019N0112651N1+00401+00201999999ADDGA1081+004201999GF108991999999999999999999MA1098821999999MW1611REMMET064METAR ETGQ 051520Z 33006KT 9999 -RA OVC014 04/02 Q0988 RERA GRN;
0139102340999992009030516204+53133+009350FM-15+0061ETGQ V0203401N004110039019N0112651N1+00401+00201999999ADDGA1081+003901999GF108991999999999999999999MA1098821999999MW1511REMMET064METAR ETGQ 051620Z 34008KT 9999 -DZ OVC013 04/02 Q0988 RERA GRN;
0129102340999992009030517204+53133+009350FM-15+0061ETGQ V0203401N005110039019N0112651N1+00501+00201999999ADDGA1081+003901999GF108991999999999999999999MA1098821999999REMMET060METAR ETGQ 051720Z 34010KT 9999 OVC013 05/02 Q0988 REDZ GRN;
0134102340999992009030518204+53133+009350FM-15+0061ETGQ V0203401N004610039019N0112651N1+00501+00301999999ADDGA1081+003901999GF108991999999999999999999MA1098921999999MW1611REMMET059METAR ETGQ 051820Z 34009KT 9999 -RA OVC013 05/03 Q0989 GRN;
0134102340999992009030519204+53133+009350FM-15+0061ETGQ V0203401N005110039019N0112651N1+00401+00201999999ADDGA1081+003901999GF108991999999999999999999MA1098921999999MW1611REMMET059METAR ETGQ 051920Z 34010KT 9999 -RA OVC013 04/02 Q0989 GRN;
0157102340999992009030605204+53133+009350FM-15+0061ETGQ V0203301N002610042019N0080001N1+00401+00301999999ADDGA1041+003001999GA2081+004201999GF108991999999999999999999MA1099291999999MW1611REMMET066METAR ETGQ 060520Z 33005KT 8000 -RA SCT010 OVC014 04/03 Q0993 GRN;
0157102340999992009030606204+53133+009350FM-15+0061ETGQ V0203401N004610039019N0112651N1+00401+00201999999ADDGA1041+003001999GA2081+003901999GF108991999999999999999999MA1099391999999MW1611REMMET066METAR ETGQ 060620Z 34009KT 9999 -RA SCT010 OVC013 04/02 Q0994 GRN;
0157102340999992009030607204+53133+009350FM-15+0061ETGQ V0203201N002110045019N0112651N1+00401+00301999999ADDGA1041+003601999GA2081+004501999GF108991999999999999999999MA1099491999999MW1611REMMET066METAR ETGQ 060720Z 32004KT 9999 -RA SCT012 OVC015 04/03 Q0995 WHT;
0157102340999992009030608204+53133+009350FM-15+0061ETGQ V0203301N002110039019N0090001N1+00401+00301999999ADDGA1041+003001999GA2081+003901999GF108991999999999999999999MA1099491999999MW1611REMMET066METAR ETGQ 060820Z 33004KT 9000 -RA SCT010 OVC013 04/03 Q0995 GRN;
0157102340999992009030609204+53133+009350FM-15+0061ETGQ V0203301N003110039019N0090001N1+00401+00301999999ADDGA1041+003001999GA2081+003901999GF108991999999999999999999MA1099591999999MW1611REMMET066METAR ETGQ 060920Z 33006KT 9000 -RA SCT010 OVC013 04/03 Q0996 GRN;
0157102340999992009030610204+53133+009350FM-15+0061ETGQ V0203201N003110039019N0090001N1+00501+00301999999ADDGA1041+003001999GA2081+003901999GF108991999999999999999999MA1099591999999MW1611REMMET066METAR ETGQ 061020Z 32006KT 9000 -RA SCT010 OVC013 05/03 Q0996 GRN;
0157102340999992009030611204+53133+009350FM-15+0061ETGQ V0203201N003110039019N0090001N1+00501+00301999999ADDGA1041+003001999GA2081+003901999GF108991999999999999999999MA1099701999999MW1611REMMET066METAR ETGQ 061120Z 32006KT 9000 -RA SCT010 OVC013 05/03 Q0997 GRN;
0147102340999992009030612204+53133+009350FM-15+0061ETGQ V0203101N003110048019N0112651N1+00501+00301999999ADDGA1041+003601999GA2081+004801999GF108991999999999999999999MA1099701999999REMMET062METAR ETGQ 061220Z 31006KT 9999 SCT012 OVC016 05/03 Q0997 WHT;
0157102340999992009030613204+53133+009350FM-15+0061ETGQ V0203301N004610054019N0112651N1+00501+00301999999ADDGA1041+004501999GA2081+005401999GF108991999999999999999999MA1099801999999MW1611REMMET066METAR ETGQ 061320Z 33009KT 9999 -RA SCT015 OVC018 05/03 Q0998 WHT;
0157102340999992009030614204+53133+009350FM-15+0061ETGQ V0203201N003610045019N0112651N1+00501+00301999999ADDGA1041+003601999GA2081+004501999GF108991999999999999999999MA1099801999999MW1611REMMET066METAR ETGQ 061420Z 32007KT 9999 -RA SCT012 OVC015 05/03 Q0998 WHT;
0157102340999992009030615204+53133+009350FM-15+0061ETGQ V0203201N004610045019N0112651N1+00501+00301999999ADDGA1041+003601999GA2081+004501999GF108991999999999999999999MA1099901999999MW1611REMMET066METAR ETGQ 061520Z 32009KT 9999 -RA SCT012 OVC015 05/03 Q0999 WHT;
0134102340999992009030616204+53133+009350FM-15+0061ETGQ V0203201N004610042019N0112651N1+00501+00301999999ADDGA1081+004201999GF108991999999999999999999MA1100001999999MW1611REMMET059METAR ETGQ 061620Z 32009KT 9999 -RA OVC014 05/03 Q1000 GRN;
0134102340999992009030617204+53133+009350FM-15+0061ETGQ V0203201N004610042019N0080001N1+00501+00301999999ADDGA1081+004201999GF108991999999999999999999MA1100101999999MW1611REMMET059METAR ETGQ 061720Z 32009KT 8000 -RA OVC014 05/03 Q1001 GRN;
0134102340999992009030618204+53133+009350FM-15+0061ETGQ V0203301N004610051019N0080001N1+00501+00201999999ADDGA1081+005101999GF108991999999999999999999MA1100201999999MW1511REMMET059METAR ETGQ 061820Z 33009KT 8000 -DZ OVC017 05/02 Q1002 WHT;
0134102340999992009030619204+53133+009350FM-15+0061ETGQ V0203201N003610051019N0080001N1+00501+00301999999ADDGA1081+005101999GF108991999999999999999999MA1100311999999MW1511REMMET059METAR ETGQ 061920Z 32007KT 8000 -DZ OVC017 05/03 Q1003 WHT;
0147102340999992009030905204+53133+009350FM-15+0061ETGQ V0203001N003110069019N0112651N1+00301+00101999999ADDGA1021+003001999GA2071+006901999GF107991999999999999999999MA1100711999999REMMET062METAR ETGQ 090520Z 30006KT 9999 FEW010 BKN023 03/01 Q1007 WHT;
0124102340999992009030906204+53133+009350FM-15+0061ETGQ V0202301N001010078019N0112651N1+00301+00001999999ADDGA1071+007801999GF107991999999999999999999MA1100811999999REMMET055METAR ETGQ 090620Z 23002KT 9999 BKN026 03/00 Q1008 BLU;
0125102340999992009030907204+53133+009350FM-15+0061ETGQ V0202501N002610105019N0112651N1+00401-00101999999ADDGA1071+010501999GF107991999999999999999999MA1100911999999REMMET056METAR ETGQ 090720Z 25005KT 9999 BKN035 04/M01 Q1009 BLU;
0125102340999992009030908204+53133+009350FM-15+0061ETGQ V0202501N002610084019N0112651N1+00401-00101999999ADDGA1071+008401999GF107991999999999999999999MA1101021999999REMMET056METAR ETGQ 090820Z 25005KT 9999 BKN028 04/M01 Q1010 BLU;
0124102340999992009030909204+53133+009350FM-15+0061ETGQ V0202501N004110105019N0112651N1+00601+00101999999ADDGA1071+010501999GF107991999999999999999999MA1101021999999REMMET055METAR ETGQ 090920Z 25008KT 9999 BKN035 06/01 Q1010 BLU;
0147102340999992009030910204+53133+009350FM-15+0061ETGQ V0202401N003110111019N0112651N1+00601+00101999999ADDGA1021+006001999GA2071+011101999GF107991999999999999999999MA1101081999999REMMET062METAR ETGQ 091020Z 24006KT 9999 FEW020 BKN037 06/01 Q1011 BLU;
0147102340999992009030911204+53133+009350FM-15+0061ETGQ V0202601N003110120019N0112651N1+00601+00101999999ADDGA1021+007501999GA2071+012001999GF107991999999999999999999MA1101081999999REMMET062METAR ETGQ 091120Z 26006KT 9999 FEW025 BKN040 06/01 Q1011 BLU;
0148102340999992009030912204+53133+009350FM-15+0061ETGQ V0202501N004110180019N0112651N1+00701+00001999999ADDGA1041+012001999GA2071+018001999GF107991999999999999999999MA1101081999999REMMET063METAR ETGQ 091220Z 25008KT 9999 SCT040 BKN060 07/M00 Q1011 BLU;
0149102340999992009030913204+53133+009350FM-15+0061ETGQ V0202501N004612200019N0112651N1+00901+00001999999ADDGA1021+007501999GA2041+010501999GF104991999999999999999999MA1101081999999REMMET064METAR ETGQ 091320Z 25009KT 9999 FEW025 SCT035 09/M00 Q1011 BLU/;
0173102340999992009030914204+53133+009350FM-15+0061ETGQ V0202601N005112200019N0112651N1+00801+00001999999ADDGA1021+006001999GA2041+009001021GF104991999999999999999999MA1101081999999MW1161OC101031REMMET074METAR ETGQ 091420Z 26010G20KT 9999 VCSH FEW020 SCT030TCU 08/00 Q1011 BLU/;
0173102340999992009030915204+53133+009350FM-15+0061ETGQ V0202701N003112200019N0112651N1+00801+00001999999ADDGA1021+006001999GA2021+009001091GA3041+015001999GF104991999999999999999999MA1101081999999REMMET072METAR ETGQ 091520Z 27006KT 9999 FEW020 FEW030CB SCT050 08/00 Q1011 BLU/;
0184102340999992009030916204+53133+009350FM-15+0061ETGQ V0202601N003110210019N0112651N1+00801+00001999999ADDGA1021+006001999GA2021+010501091GA3071+021001999GF107991999999999999999999MA1101191999999MW1161REMMET077METAR ETGQ 091620Z 26006KT 9999 VCSH FEW020 FEW035CB BKN070 08/M00 Q1012 BLU;
0169102340999992009030917204+53133+009350FM-15+0061ETGQ V0203401N004610075019N0060001N1+00501+00101999999ADDGA1021+004501999GA2071+007501091GF107991999999999999999999MA1101291999999MW1631MW2871REMMET072METAR ETGQ 091720Z 34009KT 6000 -SHGSRA FEW015 BKN025CB 05/01 Q1013 WHT;
0177102340999992009030918204+53133+009350FM-15+0061ETGQ V0209999V001010075019N0070001N1+00601+00201999999ADDGA1021+004501999GA2071+007501091GA3071+021001999GF107991999999999999999999MA1101291999999REMMET076METAR ETGQ 091820Z VRB02KT 7000 FEW015 BKN025CB BKN070 06/02 Q1013 REGS WHT;
0173102340999992009030919204+53133+009350FM-15+0061ETGQ V0202601N00361015001CN0112651N1+00601+00101999999ADDGA1021+009001021GA2041+015001999GA3071+021001999GF107991999999999999999999MA1101391999999REMMET072METAR ETGQ 091920Z 26007KT 9999 FEW030TCU SCT050 BKN070 06/01 Q1014 BLU;
0134102340999992009031005204+53133+009350FM-15+0061ETGQ V0202201N003110090019N0080001N1+00501+00201999999ADDGA1071+009001999GF107991999999999999999999MA1101291999999MW1511REMMET059METAR ETGQ 100520Z 22006KT 8000 -DZ BKN030 05/02 Q1013 BLU;
0152102340999992009031006204+53133+009350FM-15+0061ETGQ V0202101N002610150019N0112651N1+00501+00201999999ADDGA1041+006001999GA2081+015001999GF108991999999999999999999MA1101291999999REMMET067METAR ETGQ 100620Z 21005KT 9999 SCT020 OVC050 05/02 Q1013 REDZ BLU;
0152102340999992009031007204+53133+009350FM-15+0061ETGQ V0202201N003110084019N0112651N1+00501+00201999999ADDGA1041+005101999GA2081+008401999GF108991999999999999999999MA1101191999999REMMET067METAR ETGQ 100720Z 22006KT 9999 SCT017 OVC028 05/02 Q1012 REDZ BLU;
0152102340999992009031008204+53133+009350FM-15+0061ETGQ V0202301N003110054019N0112651N1+00501+00201999999ADDGA1041+004501999GA2081+005401999GF108991999999999999999999MA1101191999999REMMET067METAR ETGQ 100820Z 23006KT 9999 SCT015 OVC018 05/02 Q1012 REDZ WHT;
0158102340999992009031009204+53133+009350FM-15+0061ETGQ V0202601N003610120019N0112651N1+00601+00201999999ADDGA1041+005401999GA2081+012001999GF108991999999999999999999MA1101081999999OC100871REMMET065METAR ETGQ 100920Z 26007G17KT 9999 SCT018 OVC040 06/02 Q1011 BLU;
0124102340999992009031010204+53133+009350FM-15+0061ETGQ V0202101N002610057019N0112651N1+00601+00201999999ADDGA1081+005701999GF108991999999999999999999MA1101021999999REMMET055METAR ETGQ 101020Z 21005KT 9999 OVC019 06/02 Q1010 WHT;
0124102340999992009031011204+53133+009350FM-15+0061ETGQ V0202001N002610060019N0112651N1+00601+00201999999ADDGA1081+006001999GF108991999999999999999999MA1100911999999REMMET055METAR ETGQ 101120Z 20005KT 9999 OVC020 06/02 Q1009 WHT;
0124102340999992009031012204+53133+009350FM-15+0061ETGQ V0202201N003110060019N0112651N1+00701+00201999999ADDGA1081+006001999GF108991999999999999999999MA1100811999999REMMET055METAR ETGQ 101220Z 22006KT 9999 OVC020 07/02 Q1008 WHT;
0134102340999992009031013204+53133+009350FM-15+0061ETGQ V0202101N003610075019N0112651N1+00701+00201999999ADDGA1081+007501999GF108991999999999999999999MA1100711999999MW1611REMMET059METAR ETGQ 101320Z 21007KT 9999 -RA OVC025 07/02 Q1007 BLU;
0134102340999992009031014204+53133+009350FM-15+0061ETGQ V0202301N004110069019N0112651N1+00601+00201999999ADDGA1071+006901999GF107991999999999999999999MA1100611999999MW1611REMMET059METAR ETGQ 101420Z 23008KT 9999 -RA BKN023 06/02 Q1006 WHT;
0134102340999992009031015204+53133+009350FM-15+0061ETGQ V0202601N003610081019N0112651N1+00601+00201999999ADDGA1071+008101999GF107991999999999999999999MA1100611999999MW1611REMMET059METAR ETGQ 101520Z 26007KT 9999 -RA BKN027 06/02 Q1006 BLU;
0147102340999992009031016204+53133+009350FM-15+0061ETGQ V0202201N002610069019N0112651N1+00601+00201999999ADDGA1021+004501999GA2071+006901999GF107991999999999999999999MA1100511999999REMMET062METAR ETGQ 101620Z 22005KT 9999 FEW015 BKN023 06/02 Q1005 WHT;
0147102340999992009031017204+53133+009350FM-15+0061ETGQ V0202801N002110111019N0112651N1+00601+00301999999ADDGA1021+004201999GA2071+011101999GF107991999999999999999999MA1100511999999REMMET062METAR ETGQ 101720Z 28004KT 9999 FEW014 BKN037 06/03 Q1005 BLU;
0134102340999992009031018204+53133+009350FM-15+0061ETGQ V0202201N003110072019N0070001N1+00601+00401999999ADDGA1071+007201999GF107991999999999999999999MA1100611999999MW1611REMMET059METAR ETGQ 101820Z 22006KT 7000 -RA BKN024 06/04 Q1006 WHT;
0134102340999992009031019204+53133+009350FM-15+0061ETGQ V0202901N003610066019N0112651N1+00701+00501999999ADDGA1071+006601999GF107991999999999999999999MA1100711999999MW1611REMMET059METAR ETGQ 101920Z 29007KT 9999 -RA BKN022 07/05 Q1007 WHT;
0124102340999992009031105204+53133+009350FM-15+0061ETGQ V0203001N003110048019N0112651N1+00401+00201999999ADDGA1071+004801999GF107991999999999999999999MA1101691999999REMMET055METAR ETGQ 110520Z 30006KT 9999 BKN016 04/02 Q1017 WHT;
0159102340999992009031106204+53133+009350FM-15+0061ETGQ V0203201N003110045019N0080001N1+00401+00201999999ADDGA1041+002401999GA2071+004501999GF107991999999999999999999MA1101801999999MW1801REMMET068METAR ETGQ 110620Z 32006KT 8000 -SHRA SCT008 BKN015 04/02 Q1018 WHT;
0162102340999992009031107204+53133+009350FM-15+0061ETGQ V0203101N002610060019N0080001N1+00501+00201999999ADDGA1041+003601021GA2071+006001999GF107991999999999999999999MA1101901999999MW1801REMMET071METAR ETGQ 110720Z 31005KT 8000 -SHRA SCT012TCU BKN020 05/02 Q1019 WHT;
0150102340999992009031108204+53133+009350FM-15+0061ETGQ V0203101N003110060019N0112651N1+00501+00301999999ADDGA1041+004501021GA2071+006001999GF107991999999999999999999MA1102001999999REMMET065METAR ETGQ 110820Z 31006KT 9999 SCT015TCU BKN020 05/03 Q1020 WHT;
0147102340999992009031110204+53133+009350FM-15+0061ETGQ V0203001N002610060019N0112651N1+00601+00201999999ADDGA1071+006001999GA2071+012001999GF107991999999999999999999MA1102201999999REMMET062METAR ETGQ 111020Z 30005KT 9999 BKN020 BKN040 06/02 Q1022 WHT;
0147102340999992009031111204+53133+009350FM-15+0061ETGQ V0203201N003610120019N0112651N1+00701+00101999999ADDGA1041+006601999GA2071+012001999GF107991999999999999999999MA1102201999999REMMET062METAR ETGQ 111120Z 32007KT 9999 SCT022 BKN040 07/01 Q1022 BLU;
0147102340999992009031112204+53133+009350FM-15+0061ETGQ V0202901N001510150019N0112651N1+00701+00301999999ADDGA1041+007501999GA2071+015001999GF107991999999999999999999MA1102301999999REMMET062METAR ETGQ 111220Z 29003KT 9999 SCT025 BKN050 07/03 Q1023 BLU;
0150102340999992009031113204+53133+009350FM-15+0061ETGQ V0203201N004110150019N0112651N1+00801+00101999999ADDGA1041+007501021GA2071+015001999GF107991999999999999999999MA1102301999999REMMET065METAR ETGQ 111320Z 32008KT 9999 SCT025TCU BKN050 08/01 Q1023 BLU;
0150102340999992009031114204+53133+009350FM-15+0061ETGQ V0203101N004610150019N0112651N1+00801+00101999999ADDGA1021+009001021GA2071+015001999GF107991999999999999999999MA1102301999999REMMET065METAR ETGQ 111420Z 31009KT 9999 FEW030TCU BKN050 08/01 Q1023 BLU;
0150102340999992009031115204+53133+009350FM-15+0061ETGQ V0203201N004110150019N0112651N1+00801+00101999999ADDGA1021+007501021GA2071+015001999GF107991999999999999999999MA1102301999999REMMET065METAR ETGQ 111520Z 32008KT 9999 FEW025TCU BKN050 08/01 Q1023 BLU;
0150102340999992009031116204+53133+009350FM-15+0061ETGQ V0203301N002110150019N0112651N1+00801+00201999999ADDGA1021+007501021GA2071+015001999GF107991999999999999999999MA1102401999999REMMET065METAR ETGQ 111620Z 33004KT 9999 FEW025TCU BKN050 08/02 Q1024 BLU;
0147102340999992009031117204+53133+009350FM-15+0061ETGQ V0203401N001010150019N0112651N1+00701+00101999999ADDGA1021+007501999GA2071+015001999GF107991999999999999999999MA1102401999999REMMET062METAR ETGQ 111720Z 34002KT 9999 FEW025 BKN050 07/01 Q1024 BLU;
0148102340999992009031118204+53133+009350FM-15+0061ETGQ V0209999C000012200019N0112651N1+00601+00101999999ADDGA1021+009001999GA2041+018001999GF104991999999999999999999MA1102511999999REMMET063METAR ETGQ 111820Z 00000KT 9999 FEW030 SCT060 06/01 Q1025 BLU/;
0148102340999992009031119204+53133+009350FM-15+0061ETGQ V0209999C000012200019N0112651N1+00601+00101999999ADDGA1021+009001999GA2041+018001999GF104991999999999999999999MA1102511999999REMMET063METAR ETGQ 111920Z 00000KT 9999 FEW030 SCT060 06/01 Q1025 BLU/;
0157102340999992009031205204+53133+009350FM-15+0061ETGQ V0201601N000510144019N0080001N1+00501+00101999999ADDGA1041+012001999GA2081+014401999GF108991999999999999999999MA1102401999999MW1611REMMET066METAR ETGQ 120520Z 16001KT 8000 -RA SCT040 OVC048 05/01 Q1024 BLU;
0147102340999992009031206204+53133+009350FM-15+0061ETGQ V0202101N002110126019N0112651N1+00501+00001999999ADDGA1021+007501999GA2081+012601999GF108991999999999999999999MA1102301999999REMMET062METAR ETGQ 120620Z 21004KT 9999 FEW025 OVC042 05/00 Q1023 BLU;
0124102340999992009031207204+53133+009350FM-15+0061ETGQ V0209999V001010126019N0112651N1+00501+00001999999ADDGA1081+012601999GF108991999999999999999999MA1102301999999REMMET055METAR ETGQ 120720Z VRB02KT 9999 OVC042 05/00 Q1023 BLU;
0147102340999992009031208204+53133+009350FM-15+0061ETGQ V0202301N001510120019N0112651N1+00501+00101999999ADDGA1041+008701999GA2081+012001999GF108991999999999999999999MA1102301999999REMMET062METAR ETGQ 120820Z 23003KT 9999 SCT029 OVC040 05/01 Q1023 BLU;
0134102340999992009031209204+53133+009350FM-15+0061ETGQ V0202201N002110075019N0080001N1+00501+00201999999ADDGA1081+007501999GF108991999999999999999999MA1102301999999MW1611REMMET059METAR ETGQ 120920Z 22004KT 8000 -RA OVC025 05/02 Q1023 BLU;
0134102340999992009031210204+53133+009350FM-15+0061ETGQ V0202201N003110075019N0080001N1+00601+00201999999ADDGA1081+007501999GF108991999999999999999999MA1102201999999MW1611REMMET059METAR ETGQ 121020Z 22006KT 8000 -RA OVC025 06/02 Q1022 BLU;
0124102340999992009031211204+53133+009350FM-15+0061ETGQ V0202301N003110075019N0112651N1+00701+00201999999ADDGA1081+007501999GF108991999999999999999999MA1102101999999REMMET055METAR ETGQ 121120Z 23006KT 9999 OVC025 07/02 Q1021 BLU;
0124102340999992009031212204+53133+009350FM-15+0061ETGQ V0202301N004110072019N0112651N1+00701+00301999999ADDGA1081+007201999GF108991999999999999999999MA1102101999999REMMET055METAR ETGQ 121220Z 23008KT 9999 OVC024 07/03 Q1021 WHT;
0134102340999992009031213204+53133+009350FM-15+0061ETGQ V0203201N002610066019N0080001N1+00701+00301999999ADDGA1081+006601999GF108991999999999999999999MA1102001999999MW1511REMMET059METAR ETGQ 121320Z 32005KT 8000 -DZ OVC022 07/03 Q1020 WHT;
0142102340999992009031214204+53133+009350FM-15+0061ETGQ V0202501N002610072019N0090001N1+00601+00401999999ADDGA1081+007201999GF108991999999999999999999MA1102001999999MW1511MW2611REMMET061METAR ETGQ 121420Z 25005KT 9000 -DZRA OVC024 06/04 Q1020 WHT;
0142102340999992009031215204+53133+009350FM-15+0061ETGQ V0202301N004110078019N0090001N1+00701+00501999999ADDGA1081+007801999GF108991999999999999999999MA1101901999999MW1511MW2611REMMET061METAR ETGQ 121520Z 23008KT 9000 -DZRA OVC026 07/05 Q1019 BLU;
0142102340999992009031216204+53133+009350FM-15+0061ETGQ V0202301N003610084019N0090001N1+00701+00501999999ADDGA1081+008401999GF108991999999999999999999MA1101901999999MW1511MW2611REMMET061METAR ETGQ 121620Z 23007KT 9000 -DZRA OVC028 07/05 Q1019 BLU;
0142102340999992009031217204+53133+009350FM-15+0061ETGQ V0202201N002610072019N0090001N1+00701+00501999999ADDGA1081+007201999GF108991999999999999999999MA1101901999999MW1511MW2611REMMET061METAR ETGQ 121720Z 22005KT 9000 -DZRA OVC024 07/05 Q1019 WHT;
0134102340999992009031218204+53133+009350FM-15+0061ETGQ V0202201N002110075019N0080001N1+00701+00601999999ADDGA1081+007501999GF108991999999999999999999MA1101901999999MW1611REMMET059METAR ETGQ 121820Z 22004KT 8000 -RA OVC025 07/06 Q1019 BLU;
0134102340999992009031219204+53133+009350FM-15+0061ETGQ V0202301N001510069019N0070001N1+00801+00601999999ADDGA1081+006901999GF108991999999999999999999MA1101901999999MW1611REMMET059METAR ETGQ 121920Z 23003KT 7000 -RA OVC023 08/06 Q1019 WHT;
0148102340999992009031305204+53133+009350FM-15+0061ETGQ V0209999C000012200019N0112651N1+00601+00501999999ADDGA1021+006001999GA2041+018001999GF104991999999999999999999MA1102001999999REMMET063METAR ETGQ 130520Z 00000KT 9999 FEW020 SCT060 06/05 Q1020 BLU/;
0125102340999992009031306204+53133+009350FM-15+0061ETGQ V0202301N001512200019N0112651N1+00601+00401999999ADDGA1041+005401999GF104991999999999999999999MA1102101999999REMMET056METAR ETGQ 130620Z 23003KT 9999 SCT018 06/04 Q1021 BLU/;
0125102340999992009031307204+53133+009350FM-15+0061ETGQ V0201701N000512200019N0112651N1+00601+00501999999ADDGA1041+006001999GF104991999999999999999999MA1102201999999REMMET056METAR ETGQ 130720Z 17001KT 9999 SCT020 06/05 Q1022 BLU/;
0148102340999992009031308204+53133+009350FM-15+0061ETGQ V0209999C000012200019N0112651N1+00801+00601999999ADDGA1021+005401999GA2041+012001999GF104991999999999999999999MA1102201999999REMMET063METAR ETGQ 130820Z 00000KT 9999 FEW018 SCT040 08/06 Q1022 BLU/;
0148102340999992009031309204+53133+009350FM-15+0061ETGQ V0203101N002612200019N0112651N1+00901+00401999999ADDGA1041+005401999GA2041+045001999GF104991999999999999999999MA1102201999999REMMET063METAR ETGQ 130920Z 31005KT 9999 SCT018 SCT150 09/04 Q1022 BLU/;
0148102340999992009031310204+53133+009350FM-15+0061ETGQ V0203201N002612200019N0112651N1+01001+00401999999ADDGA1041+005401999GA2041+060001999GF104991999999999999999999MA1102201999999REMMET063METAR ETGQ 131020Z 32005KT 9999 SCT018 SCT200 10/04 Q1022 BLU/;
0124102340999992009031311204+53133+009350FM-15+0061ETGQ V0203201N002110060019N0112651N1+01001+00301999999ADDGA1071+006001999GF107991999999999999999999MA1102201999999REMMET055METAR ETGQ 131120Z 32004KT 9999 BKN020 10/03 Q1022 WHT;
0147102340999992009031312204+53133+009350FM-15+0061ETGQ V0203201N003110105019N0112651N1+01201+00201999999ADDGA1071+010501999GA2071+039001999GF107991999999999999999999MA1102201999999REMMET062METAR ETGQ 131220Z 32006KT 9999 BKN035 BKN130 12/02 Q1022 BLU;
0147102340999992009031313204+53133+009350FM-15+0061ETGQ V0203001N002110390019N0112651N1+01201+00101999999ADDGA1041+012001999GA2071+039001999GF107991999999999999999999MA1102101999999REMMET062METAR ETGQ 131320Z 30004KT 9999 SCT040 BKN130 12/01 Q1021 BLU;
0147102340999992009031314204+53133+009350FM-15+0061ETGQ V0200101N002110420019N0112651N1+01201+00101999999ADDGA1041+013501999GA2071+042001999GF107991999999999999999999MA1102101999999REMMET062METAR ETGQ 131420Z 01004KT 9999 SCT045 BKN140 12/01 Q1021 BLU;
0147102340999992009031316204+53133+009350FM-15+0061ETGQ V0209999V000510420019N0112651N1+01201+00101999999ADDGA1041+015001999GA2071+042001999GF107991999999999999999999MA1102101999999REMMET062METAR ETGQ 131620Z VRB01KT 9999 SCT050 BKN140 12/01 Q1021 BLU;
0147102340999992009031317204+53133+009350FM-15+0061ETGQ V0200601N001510420019N0112651N1+01101+00201999999ADDGA1041+015001999GA2071+042001999GF107991999999999999999999MA1102101999999REMMET062METAR ETGQ 131720Z 06003KT 9999 SCT050 BKN140 11/02 Q1021 BLU;
0147102340999992009031318204+53133+009350FM-15+0061ETGQ V0201001N001010420019N0112651N1+00901+00301999999ADDGA1041+015001999GA2071+042001999GF107991999999999999999999MA1102101999999REMMET062METAR ETGQ 131820Z 10002KT 9999 SCT050 BKN140 09/03 Q1021 BLU;
0147102340999992009031319204+53133+009350FM-15+0061ETGQ V0209999V001010420019N0112651N1+00701+00301999999ADDGA1041+015001999GA2071+042001999GF107991999999999999999999MA1102101999999REMMET062METAR ETGQ 131920Z VRB02KT 9999 SCT050 BKN140 07/03 Q1021 BLU;
0147102340999992009031605204+53133+009350FM-15+0061ETGQ V0203001N000510060019N0112651N1+00601+00501999999ADDGA1041+003001999GA2071+006001999GF107991999999999999999999MA1103181999999REMMET062METAR ETGQ 160520Z 30001KT 9999 SCT010 BKN020 06/05 Q1032 WHT;
0147102340999992009031606204+53133+009350FM-15+0061ETGQ V0209999C000010060019N0090001N1+00601+00501999999ADDGA1041+003001999GA2071+006001999GF107991999999999999999999MA1103181999999REMMET062METAR ETGQ 160620Z 00000KT 9000 SCT010 BKN020 06/05 Q1032 WHT;
0147102340999992009031607204+53133+009350FM-15+0061ETGQ V0209999C000010051019N0080001N1+00701+00501999999ADDGA1041+002701999GA2071+005101999GF107991999999999999999999MA1103291999999REMMET062METAR ETGQ 160720Z 00000KT 8000 SCT009 BKN017 07/05 Q1033 WHT;
0147102340999992009031608204+53133+009350FM-15+0061ETGQ V0209999C000010060019N0080001N1+00701+00501999999ADDGA1041+003001999GA2071+006001999GF107991999999999999999999MA1103291999999REMMET062METAR ETGQ 160820Z 00000KT 8000 SCT010 BKN020 07/05 Q1033 WHT;
0147102340999992009031609204+53133+009350FM-15+0061ETGQ V0209999C000010063019N0090001N1+00701+00401999999ADDGA1041+003001999GA2071+006301999GF107991999999999999999999MA1103391999999REMMET062METAR ETGQ 160920Z 00000KT 9000 SCT010 BKN021 07/04 Q1034 WHT;
0147102340999992009031610204+53133+009350FM-15+0061ETGQ V0209999C000010069019N0090001N1+00801+00501999999ADDGA1041+003601999GA2071+006901999GF107991999999999999999999MA1103391999999REMMET062METAR ETGQ 161020Z 00000KT 9000 SCT012 BKN023 08/05 Q1034 WHT;
0147102340999992009031611204+53133+009350FM-15+0061ETGQ V0209999C000010069019N0090001N1+00801+00401999999ADDGA1041+004201999GA2071+006901999GF107991999999999999999999MA1103291999999REMMET062METAR ETGQ 161120Z 00000KT 9000 SCT014 BKN023 08/04 Q1033 WHT;
0147102340999992009031612204+53133+009350FM-15+0061ETGQ V0209999C000010069019N0090001N1+00801+00401999999ADDGA1041+004501999GA2071+006901999GF107991999999999999999999MA1103291999999REMMET062METAR ETGQ 161220Z 00000KT 9000 SCT015 BKN023 08/04 Q1033 WHT;
0124102340999992009031613204+53133+009350FM-15+0061ETGQ V0209999C000010066019N0090001N1+00901+00401999999ADDGA1071+006601999GF107991999999999999999999MA1103291999999REMMET055METAR ETGQ 161320Z 00000KT 9000 BKN022 09/04 Q1033 WHT;
0147102340999992009031614204+53133+009350FM-15+0061ETGQ V0202101N000510069019N0090001N1+00901+00401999999ADDGA1041+004201999GA2071+006901999GF107991999999999999999999MA1103291999999REMMET062METAR ETGQ 161420Z 21001KT 9000 SCT014 BKN023 09/04 Q1033 WHT;
0147102340999992009031615204+53133+009350FM-15+0061ETGQ V0209999C000010069019N0090001N1+00901+00401999999ADDGA1041+004201999GA2071+006901999GF107991999999999999999999MA1103291999999REMMET062METAR ETGQ 161520Z 00000KT 9000 SCT014 BKN023 09/04 Q1033 WHT;
0124102340999992009031616204+53133+009350FM-15+0061ETGQ V0209999C000010069019N0090001N1+00901+00401999999ADDGA1081+006901999GF108991999999999999999999MA1103291999999REMMET055METAR ETGQ 161620Z 00000KT 9000 OVC023 09/04 Q1033 WHT;
0124102340999992009031617204+53133+009350FM-15+0061ETGQ V0209999C000010075019N0112651N1+00901+00401999999ADDGA1071+007501999GF107991999999999999999999MA1103291999999REMMET055METAR ETGQ 161720Z 00000KT 9999 BKN025 09/04 Q1033 BLU;
0124102340999992009031618204+53133+009350FM-15+0061ETGQ V0201101N000510075019N0112651N1+00801+00401999999ADDGA1071+007501999GF107991999999999999999999MA1103291999999REMMET055METAR ETGQ 161820Z 11001KT 9999 BKN025 08/04 Q1033 BLU;
0124102340999992009031619204+53133+009350FM-15+0061ETGQ V0209999C000010078019N0112651N1+00801+00401999999ADDGA1071+007801999GF107991999999999999999999MA1103291999999REMMET055METAR ETGQ 161920Z 00000KT 9999 BKN026 08/04 Q1033 BLU;
0147102340999992009031705204+53133+009350FM-15+0061ETGQ V0202101N001010360019N0080001N1+00301+00201999999ADDGA1071+036001999GA2071+075001999GF107991999999999999999999MA1103181999999REMMET062METAR ETGQ 170520Z 21002KT 8000 BKN120 BKN250 03/02 Q1032 BLU;
0124102340999992009031706204+53133+009350FM-15+0061ETGQ V0202501N000510390019N0090001N1+00301+00201999999ADDGA1071+039001999GF107991999999999999999999MA1103291999999REMMET055METAR ETGQ 170620Z 25001KT 9000 BKN130 03/02 Q1033 BLU;
0148102340999992009031707204+53133+009350FM-15+0061ETGQ V0209999C000010750019N0090001N1+00501+00301999999ADDGA1041+039001999GA2071+075001999GF107991999999999999999999MA1103291999999REMMET063METAR ETGQ 170720Z 00000KT 9000 SCT130 BKN250 05/03 Q1033 BLU/;
0124102340999992009031708204+53133+009350FM-15+0061ETGQ V0209999V001010060019N0080001N1+00601+00301999999ADDGA1071+006001999GF107991999999999999999999MA1103391999999REMMET055METAR ETGQ 170820Z VRB02KT 8000 BKN020 06/03 Q1034 WHT;
0171102340999992009031709204+53133+009350FM-15+0061ETGQ V0202301N00151045001CN0080001N1+00801+00401999999ADDGA1041+007501999GA2041+045001999GA3071+075001999GF107991999999999999999999MA1103391999999REMMET070METAR ETGQ 170920Z 23003KT 8000 SCT025 SCT150 BKN250 08/04 Q1034 BLU/;
0147102340999992009031710204+53133+009350FM-15+0061ETGQ V0209999V001010078019N0090001N1+00901+00401999999ADDGA1071+007801999GA2071+042001999GF107991999999999999999999MA1103391999999REMMET062METAR ETGQ 171020Z VRB02KT 9000 BKN026 BKN140 09/04 Q1034 BLU;
0148102340999992009031711204+53133+009350FM-15+0061ETGQ V0203301N001510750019N0090001N1+01001+00501999999ADDGA1041+042001999GA2071+075001999GF107991999999999999999999MA1103391999999REMMET063METAR ETGQ 171120Z 33003KT 9000 SCT140 BKN250 10/05 Q1034 BLU/;
0147102340999992009031712204+53133+009350FM-15+0061ETGQ V0203101N002110420019N0112651N1+01101+00501999999ADDGA1041+008701999GA2071+042001999GF107991999999999999999999MA1103391999999REMMET062METAR ETGQ 171220Z 31004KT 9999 SCT029 BKN140 11/05 Q1034 BLU;
0147102340999992009031713204+53133+009350FM-15+0061ETGQ V0203401N003110420019N0090001N1+01201+00501999999ADDGA1041+009001999GA2071+042001999GF107991999999999999999999MA1103291999999REMMET062METAR ETGQ 171320Z 34006KT 9000 SCT030 BKN140 12/05 Q1033 BLU;
0124102340999992009031714204+53133+009350FM-15+0061ETGQ V0203601N004110087019N0090001N1+01101+00501999999ADDGA1071+008701999GF107991999999999999999999MA1103391999999REMMET055METAR ETGQ 171420Z 36008KT 9000 BKN029 11/05 Q1034 BLU;
0124102340999992009031715204+53133+009350FM-15+0061ETGQ V0203501N002110087019N0090001N1+01101+00501999999ADDGA1071+008701999GF107991999999999999999999MA1103391999999REMMET055METAR ETGQ 171520Z 35004KT 9000 BKN029 11/05 Q1034 BLU;
0124102340999992009031716204+53133+009350FM-15+0061ETGQ V0203401N002110090019N0112651N1+01101+00501999999ADDGA1071+009001999GF107991999999999999999999MA1103391999999REMMET055METAR ETGQ 171620Z 34004KT 9999 BKN030 11/05 Q1034 BLU;
0124102340999992009031717204+53133+009350FM-15+0061ETGQ V0203301N002110090019N0112651N1+01101+00501999999ADDGA1071+009001999GF107991999999999999999999MA1103391999999REMMET055METAR ETGQ 171720Z 33004KT 9999 BKN030 11/05 Q1034 BLU;
0125102340999992009031718204+53133+009350FM-15+0061ETGQ V0203101N001512200019N0112651N1+00901+00401999999ADDGA1021+010501999GF102991999999999999999999MA1103391999999REMMET056METAR ETGQ 171820Z 31003KT 9999 FEW035 09/04 Q1034 BLU/;
0125102340999992009031719204+53133+009350FM-15+0061ETGQ V0203301N001012200019N0090001N1+00601+00301999999ADDGA1021+011101999GF102991999999999999999999MA1103391999999REMMET056METAR ETGQ 171920Z 33002KT 9000 FEW037 06/03 Q1034 BLU/;
0132102340999992009031805204+53133+009350FM-15+0061ETGQ V0209999C000010001519N0001001N1+00001+00001999999ADDGA1091+000151999GF109991999999000251999999MA1103491999999MW1451REMMET057METAR ETGQ 180520Z 00000KT 0100 FG VV000 00/00 Q1035 RED;
0132102340999992009031806204+53133+009350FM-15+0061ETGQ V0209999C000010001519N0001001N1+00001+00001999999ADDGA1091+000151999GF109991999999000251999999MA1103491999999MW1451REMMET057METAR ETGQ 180620Z 00000KT 0100 FG VV000 00/00 Q1035 RED;
0132102340999992009031807204+53133+009350FM-15+0061ETGQ V0202901N001010001519N0001001N1+00001+00001999999ADDGA1091+000151999GF109991999999000251999999MA1103491999999MW1451REMMET057METAR ETGQ 180720Z 29002KT 0100 FG VV000 00/00 Q1035 RED;
0132102340999992009031808204+53133+009350FM-15+0061ETGQ V0209999V000510001519N0001501N1+00001+00001999999ADDGA1091+000151999GF109991999999000251999999MA1103491999999MW1451REMMET057METAR ETGQ 180820Z VRB01KT 0150 FG VV000 00/00 Q1035 RED;
0133102340999992009031809204+53133+009350FM-15+0061ETGQ V0209999C000010012019N0015001N1+00201+00201999999ADDGA1071+001201999GF107991999999999999999999MA1103491999999MW1101REMMET058METAR ETGQ 180920Z 00000KT 1500 BR BKN004 02/02 Q1035 AMB;
0156102340999992009031810204+53133+009350FM-15+0061ETGQ V0200101N000512200019N0050001N1+00401+00201999999ADDGA1021+001801999GA2041+045001999GF104991999999999999999999MA1103391999999MW1101REMMET065METAR ETGQ 181020Z 01001KT 5000 BR FEW006 SCT150 04/02 Q1034 WHT;
0124102340999992009031811204+53133+009350FM-15+0061ETGQ V0209999C000010450019N0112651N1+00801+00101999999ADDGA1071+045001999GF107991999999999999999999MA1103391999999REMMET055METAR ETGQ 181120Z 00000KT 9999 BKN150 08/01 Q1034 BLU;
0148102340999992009031812204+53133+009350FM-15+0061ETGQ V0203101N001510450019N0112651N1+00901-00101999999ADDGA1071+045001999GA2071+078001999GF107991999999999999999999MA1103291999999REMMET063METAR ETGQ 181220Z 31003KT 9999 BKN150 BKN260 09/M01 Q1033 BLU;
0148102340999992009031813204+53133+009350FM-15+0061ETGQ V0209999V001010450019N0112651N1+01001-00301999999ADDGA1071+045001999GA2071+069001999GF107991999999999999999999MA1103181999999REMMET063METAR ETGQ 181320Z VRB02KT 9999 BKN150 BKN230 10/M03 Q1032 BLU;
0149102340999992009031814204+53133+009350FM-15+0061ETGQ V0209999V001010690019N0112651N1+01101-00601999999ADDGA1041+039001999GA2071+069001999GF107991999999999999999999MA1103121999999REMMET064METAR ETGQ 181420Z VRB02KT 9999 SCT130 BKN230 11/M06 Q1031 BLU/;
0149102340999992009031815204+53133+009350FM-15+0061ETGQ V0203201N001512200019N0112651N1+01201-00501999999ADDGA1041+039001999GA2041+069001999GF104991999999999999999999MA1103011999999REMMET064METAR ETGQ 181520Z 32003KT 9999 SCT130 SCT230 12/M05 Q1030 BLU/;
0149102340999992009031816204+53133+009350FM-15+0061ETGQ V0209999V001012200019N0112651N1+01101-00601999999ADDGA1021+039001999GA2041+069001999GF104991999999999999999999MA1102911999999REMMET064METAR ETGQ 181620Z VRB02KT 9999 FEW130 SCT230 11/M06 Q1029 BLU/;
0126102340999992009031817204+53133+009350FM-15+0061ETGQ V0202601N001012200019N0112651N1+01001-00701999999ADDGA1021+036001999GF102991999999999999999999MA1102911999999REMMET057METAR ETGQ 181720Z 26002KT 9999 FEW120 10/M07 Q1029 BLU/;
0126102340999992009031818204+53133+009350FM-15+0061ETGQ V0202401N001512200019N0112651N1+00801-00401999999ADDGA1021+036001999GF102991999999999999999999MA1102911999999REMMET057METAR ETGQ 181820Z 24003KT 9999 FEW120 08/M04 Q1029 BLU/;
0126102340999992009031819204+53133+009350FM-15+0061ETGQ V0202001N001012200019N0112651N1+00601-00201999999ADDGA1021+039001999GF102991999999999999999999MA1102911999999REMMET057METAR ETGQ 181920Z 20002KT 9999 FEW130 06/M02 Q1029 BLU/;
0127102340999992009031905204+53133+009350FM-15+0061ETGQ V0209999C000012200019N0112651N1-00101-00301999999ADDGA1021+039001999GF102991999999999999999999MA1102511999999REMMET058METAR ETGQ 190520Z 00000KT 9999 FEW130 M01/M03 Q1025 BLU/;
0127102340999992009031906204+53133+009350FM-15+0061ETGQ V0209999C000012200019N0112651N1-00101-00301999999ADDGA1021+030001999GF102991999999999999999999MA1102511999999REMMET058METAR ETGQ 190620Z 00000KT 9999 FEW100 M01/M03 Q1025 BLU/;
0150102340999992009031907204+53133+009350FM-15+0061ETGQ V0209999C000012200019N0112651N1+00001-00301999999ADDGA1021+015001999GA2041+030001999GF104991999999999999999999MA1102611999999REMMET065METAR ETGQ 190720Z 00000KT 9999 FEW050 SCT100 M00/M03 Q1026 BLU/;
0141102340999992009031908204+53133+009350FM-15+0061ETGQ V0209999C00001015001CN0112651N1+00101-00201999999ADDGA1071+015001999GA2041+030001999MA1102611999999REMMET063METAR ETGQ 190820Z 00000KT 9999 BKN050 SCT100 01/M02 Q1026 BLU;EQDQ01+000042SCOTCV
0125102340999992009031909204+53133+009350FM-15+0061ETGQ V0209999V000510150019N0112651N1+00201-00201999999ADDGA1071+015001999GF107991999999999999999999MA1102611999999REMMET056METAR ETGQ 190920Z VRB01KT 9999 BKN050 02/M02 Q1026 BLU;
0126102340999992009031910204+53133+009350FM-15+0061ETGQ V0202001N001012200019N0112651N1+00501-00101999999ADDGA1041+014401999GF104991999999999999999999MA1102611999999REMMET057METAR ETGQ 191020Z 20002KT 9999 SCT048 05/M01 Q1026 BLU/;
0126102340999992009031911204+53133+009350FM-15+0061ETGQ V0203201N002112200019N0112651N1+00801-00101999999ADDGA1041+015001999GF104991999999999999999999MA1102611999999REMMET057METAR ETGQ 191120Z 32004KT 9999 SCT050 08/M01 Q1026 BLU/;
0126102340999992009031912204+53133+009350FM-15+0061ETGQ V0209999V001012200019N0112651N1+01101-00301999999ADDGA1041+018001999GF104991999999999999999999MA1102511999999REMMET057METAR ETGQ 191220Z VRB02KT 9999 SCT060 11/M03 Q1025 BLU/;
0125102340999992009031913204+53133+009350FM-15+0061ETGQ V0209999V000510180019N0112651N1+01101-00401999999ADDGA1071+018001999GF107991999999999999999999MA1102511999999REMMET056METAR ETGQ 191320Z VRB01KT 9999 BKN060 11/M04 Q1025 BLU;
0126102340999992009031914204+53133+009350FM-15+0061ETGQ V0200201N003112200019N0112651N1+01201-00501999999ADDGA1041+021001999GF104991999999999999999999MA1102511999999REMMET057METAR ETGQ 191420Z 02006KT 9999 SCT070 12/M05 Q1025 BLU/;
0126102340999992009031915204+53133+009350FM-15+0061ETGQ V0200601N003112200019N0112651N1+01101-00501999999ADDGA1041+018001999GF104991999999999999999999MA1102511999999REMMET057METAR ETGQ 191520Z 06006KT 9999 SCT060 11/M05 Q1025 BLU/;
0126102340999992009031916204+53133+009350FM-15+0061ETGQ V0200701N003612200019N0112651N1+01101-00501999999ADDGA1041+018001999GF104991999999999999999999MA1102611999999REMMET057METAR ETGQ 191620Z 07007KT 9999 SCT060 11/M05 Q1026 BLU/;
0126102340999992009031917204+53133+009350FM-15+0061ETGQ V0200601N002612200019N0112651N1+01001-00601999999ADDGA1041+018001999GF104991999999999999999999MA1102711999999REMMET057METAR ETGQ 191720Z 06005KT 9999 SCT060 10/M06 Q1027 BLU/;
0126102340999992009031918204+53133+009350FM-15+0061ETGQ V0200501N002112200019N0112651N1+00901-00501999999ADDGA1041+018001999GF104991999999999999999999MA1102711999999REMMET057METAR ETGQ 191820Z 05004KT 9999 SCT060 09/M05 Q1027 BLU/;
0126102340999992009031919204+53133+009350FM-15+0061ETGQ V0200401N000512200019N0112651N1+00801-00401999999ADDGA1021+018001999GF102991999999999999999999MA1102811999999REMMET057METAR ETGQ 191920Z 04001KT 9999 FEW060 08/M04 Q1028 BLU/;
0077102340999992009032005204+53133+009350FM-15+0061ETGQ V0209999C000012200019N0112651N1+00001-00501999999ADDMA1103121999999REMMET050METAR ETGQ 200520Z 00000KT 9999 00/M05 Q1031 BLU/;
0126102340999992009032006204+53133+009350FM-15+0061ETGQ V0209999C000012200019N0112651N1+00101-00301999999ADDGA1041+090001999GF104991999999999999999999MA1103121999999REMMET057METAR ETGQ 200620Z 00000KT 9999 SCT300 01/M03 Q1031 BLU/;
0126102340999992009032007204+53133+009350FM-15+0061ETGQ V0209999C000012200019N0112651N1+00201-00401999999ADDGA1041+090001999GF104991999999999999999999MA1103181999999REMMET057METAR ETGQ 200720Z 00000KT 9999 SCT300 02/M04 Q1032 BLU/;
0126102340999992009032008204+53133+009350FM-15+0061ETGQ V0209999C000012200019N0112651N1+00401-00401999999ADDGA1041+120001999GF104991999999999999999999MA1103181999999REMMET057METAR ETGQ 200820Z 00000KT 9999 SCT400 04/M04 Q1032 BLU/;
0126102340999992009032009204+53133+009350FM-15+0061ETGQ V0201201N002112200019N0112651N1+00601-00901999999ADDGA1021+015001999GF102991999999999999999999MA1103181999999REMMET057METAR ETGQ 200920Z 12004KT 9999 FEW050 06/M09 Q1032 BLU/;
0126102340999992009032010204+53133+009350FM-15+0061ETGQ V0201001N002612200019N0112651N1+00701-00801999999ADDGA1041+021001999GF104991999999999999999999MA1103181999999REMMET057METAR ETGQ 201020Z 10005KT 9999 SCT070 07/M08 Q1032 BLU/;
0126102340999992009032011204+53133+009350FM-15+0061ETGQ V0200901N003612200019N0112651N1+00701-00801999999ADDGA1041+018001999GF104991999999999999999999MA1103181999999REMMET057METAR ETGQ 201120Z 09007KT 9999 SCT060 07/M08 Q1032 BLU/;
0126102340999992009032012204+53133+009350FM-15+0061ETGQ V0203601N002112200019N0112651N1+00701-00801999999ADDGA1041+018001999GF104991999999999999999999MA1103181999999REMMET057METAR ETGQ 201220Z 36004KT 9999 SCT060 07/M08 Q1032 BLU/;
0126102340999992009032013204+53133+009350FM-15+0061ETGQ V0202601N002112200019N0112651N1+00801-00801999999ADDGA1021+018001999GF102991999999999999999999MA1103121999999REMMET057METAR ETGQ 201320Z 26004KT 9999 FEW060 08/M08 Q1031 BLU/;
0126102340999992009032014204+53133+009350FM-15+0061ETGQ V0201201N003112200019N0112651N1+00901-00801999999ADDGA1021+018001999GF102991999999999999999999MA1103121999999REMMET057METAR ETGQ 201420Z 12006KT 9999 FEW060 09/M08 Q1031 BLU/;
0126102340999992009032015204+53133+009350FM-15+0061ETGQ V0200801N003112200019N0112651N1+00801-00801999999ADDGA1021+018001999GF102991999999999999999999MA1103011999999REMMET057METAR ETGQ 201520Z 08006KT 9999 FEW060 08/M08 Q1030 BLU/;
0126102340999992009032016204+53133+009350FM-15+0061ETGQ V0201301N002612200019N0112651N1+00801-00801999999ADDGA1021+018001999GF102991999999999999999999MA1103011999999REMMET057METAR ETGQ 201620Z 13005KT 9999 FEW060 08/M08 Q1030 BLU/;
0126102340999992009032017204+53133+009350FM-15+0061ETGQ V0201401N002112200019N0112651N1+00701-00801999999ADDGA1021+021001999GF102991999999999999999999MA1103011999999REMMET057METAR ETGQ 201720Z 14004KT 9999 FEW070 07/M08 Q1030 BLU/;
0126102340999992009032018204+53133+009350FM-15+0061ETGQ V0201301N001512200019N0112651N1+00601-00801999999ADDGA1021+021001999GF102991999999999999999999MA1103011999999REMMET057METAR ETGQ 201820Z 13003KT 9999 FEW070 06/M08 Q1030 BLU/;
0126102340999992009032019204+53133+009350FM-15+0061ETGQ V0201201N001012200019N0112651N1+00401-00701999999ADDGA1021+105001999GF102991999999999999999999MA1103121999999REMMET057METAR ETGQ 201920Z 12002KT 9999 FEW350 04/M07 Q1031 BLU/;
0147102340999992009032305204+53133+009350FM-15+0061ETGQ V0202301N002610075019N0070001N1+00801+00301999999ADDGA1071+007501999GA2071+015001999GF107991999999999999999999MA1101801999999REMMET062METAR ETGQ 230520Z 23005KT 7000 BKN025 BKN050 08/03 Q1018 WHT;
0147102340999992009032306204+53133+009350FM-15+0061ETGQ V0202301N003110090019N0070001N1+00801+00301999999ADDGA1071+009001999GA2071+012001999GF107991999999999999999999MA1101801999999REMMET062METAR ETGQ 230620Z 23006KT 7000 BKN030 BKN040 08/03 Q1018 WHT;
0124102340999992009032307204+53133+009350FM-15+0061ETGQ V0202401N002610090019N0070001N1+00801+00301999999ADDGA1071+009001999GF107991999999999999999999MA1101691999999REMMET055METAR ETGQ 230720Z 24005KT 7000 BKN030 08/03 Q1017 WHT;
0124102340999992009032308204+53133+009350FM-15+0061ETGQ V0202301N002610096019N0080001N1+00801+00301999999ADDGA1071+009601999GF107991999999999999999999MA1101591999999REMMET055METAR ETGQ 230820Z 23005KT 8000 BKN032 08/03 Q1016 BLU;
0124102340999992009032309204+53133+009350FM-15+0061ETGQ V0202501N003110108019N0080001N1+00901+00201999999ADDGA1071+010801999GF107991999999999999999999MA1101491999999REMMET055METAR ETGQ 230920Z 25006KT 8000 BKN036 09/02 Q1015 BLU;
0124102340999992009032310204+53133+009350FM-15+0061ETGQ V0202801N004110111019N0112651N1+01001+00201999999ADDGA1071+011101999GF107991999999999999999999MA1101391999999REMMET055METAR ETGQ 231020Z 28008KT 9999 BKN037 10/02 Q1014 BLU;
0158102340999992009032311204+53133+009350FM-15+0061ETGQ V0202801N005710300019N0112651N1+01101+00101999999ADDGA1041+012001999GA2071+030001999GF107991999999999999999999MA1101191999999OC101291REMMET065METAR ETGQ 231120Z 28011G25KT 9999 SCT040 BKN100 11/01 Q1012 BLU;
0135102340999992009032312204+53133+009350FM-15+0061ETGQ V0202801N005710132019N0112651N1+01101+00101999999ADDGA1071+013201999GF107991999999999999999999MA1101021999999OC101231REMMET058METAR ETGQ 231220Z 28011G24KT 9999 BKN044 11/01 Q1010 BLU;
0135102340999992009032313204+53133+009350FM-15+0061ETGQ V0202801N005110129019N0112651N1+01101+00201999999ADDGA1071+012901999GF107991999999999999999999MA1100911999999OC101031REMMET058METAR ETGQ 231320Z 28010G20KT 9999 BKN043 11/02 Q1009 BLU;
0157102340999992009032314204+53133+009350FM-15+0061ETGQ V0202901N005110111019N0112651N1+01001+00301999999ADDGA1041+007501999GA2081+011101999GF108991999999999999999999MA1100811999999MW1611REMMET066METAR ETGQ 231420Z 29010KT 9999 -RA SCT025 OVC037 10/03 Q1008 BLU;
0147102340999992009032315204+53133+009350FM-15+0061ETGQ V0202801N003110111019N0112651N1+00901+00401999999ADDGA1041+008101999GA2081+011101999GF108991999999999999999999MA1100711999999REMMET062METAR ETGQ 231520Z 28006KT 9999 SCT027 OVC037 09/04 Q1007 BLU;
0124102340999992009032316204+53133+009350FM-15+0061ETGQ V0202701N003110081019N0112651N1+00901+00401999999ADDGA1081+008101999GF108991999999999999999999MA1100611999999REMMET055METAR ETGQ 231620Z 27006KT 9999 OVC027 09/04 Q1006 BLU;
0124102340999992009032317204+53133+009350FM-15+0061ETGQ V0202401N003610090019N0112651N1+00801+00501999999ADDGA1081+009001999GF108991999999999999999999MA1100411999999REMMET055METAR ETGQ 231720Z 24007KT 9999 OVC030 08/05 Q1004 BLU;
0124102340999992009032318204+53133+009350FM-15+0061ETGQ V0202601N003610081019N0112651N1+00801+00501999999ADDGA1081+008101999GF108991999999999999999999MA1100311999999REMMET055METAR ETGQ 231820Z 26007KT 9999 OVC027 08/05 Q1003 BLU;
0157102340999992009032319204+53133+009350FM-15+0061ETGQ V0203401N003110051019N0112651N1+00301+00201999999ADDGA1041+003001999GA2081+005101999GF108991999999999999999999MA1100511999999MW1611REMMET066METAR ETGQ 231920Z 34006KT 9999 -RA SCT010 OVC017 03/02 Q1005 WHT;
0147102340999992009032405204+53133+009350FM-15+0061ETGQ V0203201N003110066019N0112651N1+00301+00001999999ADDGA1041+004801999GA2071+006601999GF107991999999999999999999MA1100511999999REMMET062METAR ETGQ 240520Z 32006KT 9999 SCT016 BKN022 03/00 Q1005 WHT;
0147102340999992009032406204+53133+009350FM-15+0061ETGQ V0203201N003110060019N0112651N1+00301+00101999999ADDGA1041+004501999GA2071+006001999GF107991999999999999999999MA1100611999999REMMET062METAR ETGQ 240620Z 32006KT 9999 SCT015 BKN020 03/01 Q1006 WHT;
0148102340999992009032407204+53133+009350FM-15+0061ETGQ V0203101N004112200019N0112651N1+00401+00101999999ADDGA1021+005401999GA2041+012301999GF104991999999999999999999MA1100711999999REMMET063METAR ETGQ 240720Z 31008KT 9999 FEW018 SCT041 04/01 Q1007 BLU/;
0147102340999992009032408204+53133+009350FM-15+0061ETGQ V0203101N003610150019N0112651N1+00401+00001999999ADDGA1021+006001999GA2071+015001999GF107991999999999999999999MA1100711999999REMMET062METAR ETGQ 240820Z 31007KT 9999 FEW020 BKN050 04/00 Q1007 BLU;
0125102340999992009032409204+53133+009350FM-15+0061ETGQ V0203301N004612200019N0112651N1+00501+00001999999ADDGA1041+007501999GF104991999999999999999999MA1100811999999REMMET056METAR ETGQ 240920Z 33009KT 9999 SCT025 05/00 Q1008 BLU/;
0125102340999992009032410204+53133+009350FM-15+0061ETGQ V0203001N004612200019N0112651N1+00501+00101999999ADDGA1041+015001999GF104991999999999999999999MA1100811999999REMMET056METAR ETGQ 241020Z 30009KT 9999 SCT050 05/01 Q1008 BLU/;
0162102340999992009032411204+53133+009350FM-15+0061ETGQ V0203101N005110150019N0112651N1+00501+00101999999ADDGA1041+009001021GA2071+015001999GF107991999999999999999999MA1100911999999MW1801REMMET071METAR ETGQ 241120Z 31010KT 9999 -SHRA SCT030TCU BKN050 05/01 Q1009 BLU;
0147102340999992009032412204+53133+009350FM-15+0061ETGQ V0203201N005110144019N0112651N1+00601+00001999999ADDGA1041+006601999GA2071+014401999GF107991999999999999999999MA1100811999999REMMET062METAR ETGQ 241220Z 32010KT 9999 SCT022 BKN048 06/00 Q1008 BLU;
0127102340999992009032413204+53133+009350FM-15+0061ETGQ V0202901N003110060019N0112651N1+00601+00201999999ADDGA1071+006001021GF107991999999999999999999MA1100911999999REMMET058METAR ETGQ 241320Z 29006KT 9999 BKN020TCU 06/02 Q1009 WHT;
0151102340999992009032414204+53133+009350FM-15+0061ETGQ V0203201N002112200019N0112651N1+00601+00301999999ADDGA1021+006001021GA2041+012001999GF104991999999999999999999MA1100911999999REMMET066METAR ETGQ 241420Z 32004KT 9999 FEW020TCU SCT040 06/03 Q1009 BLU/;
0161102340999992009032415204+53133+009350FM-15+0061ETGQ V0203001N005710090019N0112651N1+00701+00101999999ADDGA1041+006001021GA2071+009001999GF107991999999999999999999MA1100911999999OC101081REMMET068METAR ETGQ 241520Z 30011G21KT 9999 SCT020TCU BKN030 07/01 Q1009 BLU;
0151102340999992009032416204+53133+009350FM-15+0061ETGQ V0203301N004612200019N0112651N1+00501+00101999999ADDGA1041+006001021GA2041+018001999GF104991999999999999999999MA1101021999999REMMET066METAR ETGQ 241620Z 33009KT 9999 SCT020TCU SCT060 05/01 Q1010 BLU/;
0151102340999992009032417204+53133+009350FM-15+0061ETGQ V0203101N003112200019N0112651N1+00401+00001999999ADDGA1021+006001021GA2041+021001999GF104991999999999999999999MA1101081999999REMMET066METAR ETGQ 241720Z 31006KT 9999 FEW020TCU SCT070 04/00 Q1011 BLU/;
0125102340999992009032418204+53133+009350FM-15+0061ETGQ V0203001N002112200019N0112651N1+00401+00001999999ADDGA1021+015001999GF102991999999999999999999MA1101191999999REMMET056METAR ETGQ 241820Z 30004KT 9999 FEW050 04/00 Q1012 BLU/;
0077102340999992009032419204+53133+009350FM-15+0061ETGQ V0209999C000012200019N0112651N1+00301-00101999999ADDMA1101191999999REMMET050METAR ETGQ 241920Z 00000KT 9999 03/M01 Q1012 BLU/;
0151102340999992009032505204+53133+009350FM-15+0061ETGQ V0202301N003610033019N0050001N1+00201+00001999999ADDGA1081+003301999GF108991999999999999999999MA1100711999999MW1101MW2611MW3711REMMET064METAR ETGQ 250520Z 23007KT 5000 -RASN BR OVC011 02/00 Q1007 GRN;
0166102340999992009032506204+53133+009350FM-15+0061ETGQ V0201601N002610036019N0050001N1+00201+00101999999ADDGA1071+003601999GA2081+006001999GF108991999999999999999999MA1100511999999MW1101MW2611REMMET069METAR ETGQ 250620Z 16005KT 5000 -RA BR BKN012 OVC020 02/01 Q1005 GRN;
0157102340999992009032507204+53133+009350FM-15+0061ETGQ V0201501N002610054019N0112651N1+00301+00101999999ADDGA1041+003001999GA2081+005401999GF108991999999999999999999MA1100311999999MW1611REMMET066METAR ETGQ 250720Z 15005KT 9999 -RA SCT010 OVC018 03/01 Q1003 WHT;
0157102340999992009032508204+53133+009350FM-15+0061ETGQ V0202001N003110069019N0112651N1+00301+00001999999ADDGA1041+003601999GA2081+006901999GF108991999999999999999999MA1100201999999MW1611REMMET066METAR ETGQ 250820Z 20006KT 9999 -RA SCT012 OVC023 03/00 Q1002 WHT;
0134102340999992009032509204+53133+009350FM-15+0061ETGQ V0202501N002610045019N0112651N1+00401+00001999999ADDGA1081+004501999GF108991999999999999999999MA1100101999999MW1611REMMET059METAR ETGQ 250920Z 25005KT 9999 -RA OVC015 04/00 Q1001 WHT;
0158102340999992009032510204+53133+009350FM-15+0061ETGQ V0202201N004110144019N0112651N1+00401+00101999999ADDGA1041+005101999GA2071+014401999GF107991999999999999999999MA1100001999999OC100931REMMET065METAR ETGQ 251020Z 22008G18KT 9999 SCT017 BKN048 04/01 Q1000 BLU;
0158102340999992009032511204+53133+009350FM-15+0061ETGQ V0202301N003610150019N0112651N1+00401+00101999999ADDGA1041+004501999GA2071+015001999GF107991999999999999999999MA1099901999999OC100931REMMET065METAR ETGQ 251120Z 23007G18KT 9999 SCT015 BKN050 04/01 Q0999 BLU;
0158102340999992009032512204+53133+009350FM-15+0061ETGQ V0202401N004610114019N0112651N1+00401+00101999999ADDGA1041+006001999GA2071+011401999GF107991999999999999999999MA1099801999999OC101031REMMET065METAR ETGQ 251220Z 24009G20KT 9999 SCT020 BKN038 04/01 Q0998 BLU;
0147102340999992009032513204+53133+009350FM-15+0061ETGQ V0200501N003610090019N0112651N1+00701+00201999999ADDGA1041+006001999GA2071+009001999GF107991999999999999999999MA1099801999999REMMET062METAR ETGQ 251320Z 05007KT 9999 SCT020 BKN030 07/02 Q0998 BLU;
0159102340999992009032514204+53133+009350FM-15+0061ETGQ V0202401N003110060019N0112651N1+00501+00301999999ADDGA1071+006001999GA2071+010501999GF107991999999999999999999MA1099801999999MW1801REMMET068METAR ETGQ 251420Z 24006KT 9999 -SHRA BKN020 BKN035 05/03 Q0998 WHT;
0159102340999992009032515204+53133+009350FM-15+0061ETGQ V0202201N002110060019N0112651N1+00601+00301999999ADDGA1071+006001999GA2071+009601999GF107991999999999999999999MA1099801999999MW1801REMMET068METAR ETGQ 251520Z 22004KT 9999 -SHRA BKN020 BKN032 06/03 Q0998 WHT;
0159102340999992009032516204+53133+009350FM-15+0061ETGQ V0202901N002110120019N0112651N1+00401+00301999999ADDGA1041+006001999GA2071+012001999GF107991999999999999999999MA1099901999999MW1801REMMET068METAR ETGQ 251620Z 29004KT 9999 -SHRA SCT020 BKN040 04/03 Q0999 BLU;
0147102340999992009032517204+53133+009350FM-15+0061ETGQ V0209999C000010090019N0112651N1+00501+00301999999ADDGA1041+004501999GA2071+009001999GF107991999999999999999999MA1100001999999REMMET062METAR ETGQ 251720Z 00000KT 9999 SCT015 BKN030 05/03 Q1000 BLU;
0147102340999992009032518204+53133+009350FM-15+0061ETGQ V0209999V001010105019N0112651N1+00401+00201999999ADDGA1021+006001999GA2071+010501999GF107991999999999999999999MA1100001999999REMMET062METAR ETGQ 251820Z VRB02KT 9999 FEW020 BKN035 04/02 Q1000 BLU;
0147102340999992009032519204+53133+009350FM-15+0061ETGQ V0202401N002110096019N0112651N1+00501+00301999999ADDGA1041+006601999GA2071+009601999GF107991999999999999999999MA1100101999999REMMET062METAR ETGQ 251920Z 24004KT 9999 SCT022 BKN032 05/03 Q1001 BLU;
0147102340999992009032605204+53133+009350FM-15+0061ETGQ V0202101N002110150019N0112651N1+00501+00201999999ADDGA1041+009001999GA2071+015001999GF107991999999999999999999MA1100711999999REMMET062METAR ETGQ 260520Z 21004KT 9999 SCT030 BKN050 05/02 Q1007 BLU;
0124102340999992009032606204+53133+009350FM-15+0061ETGQ V0202001N001510114019N0112651N1+00501+00201999999ADDGA1071+011401999GF107991999999999999999999MA1100811999999REMMET055METAR ETGQ 260620Z 20003KT 9999 BKN038 05/02 Q1008 BLU;
0147102340999992009032607204+53133+009350FM-15+0061ETGQ V0201901N001510150019N0112651N1+00601+00201999999ADDGA1021+005101999GA2071+015001999GF107991999999999999999999MA1100811999999REMMET062METAR ETGQ 260720Z 19003KT 9999 FEW017 BKN050 06/02 Q1008 BLU;
0124102340999992009032608204+53133+009350FM-15+0061ETGQ V0202201N002110066019N0112651N1+00701+00301999999ADDGA1071+006601999GF107991999999999999999999MA1100811999999REMMET055METAR ETGQ 260820Z 22004KT 9999 BKN022 07/03 Q1008 WHT;
0147102340999992009032609204+53133+009350FM-15+0061ETGQ V0202301N003110240019N0112651N1+00701+00301999999ADDGA1041+007501999GA2071+024001999GF107991999999999999999999MA1100811999999REMMET062METAR ETGQ 260920Z 23006KT 9999 SCT025 BKN080 07/03 Q1008 BLU;
0124102340999992009032610204+53133+009350FM-15+0061ETGQ V0202301N004110111019N0112651N1+00801+00301999999ADDGA1071+011101999GF107991999999999999999999MA1100811999999REMMET055METAR ETGQ 261020Z 23008KT 9999 BKN037 08/03 Q1008 BLU;
0124102340999992009032611204+53133+009350FM-15+0061ETGQ V0202201N003610066019N0112651N1+00901+00301999999ADDGA1071+006601999GF107991999999999999999999MA1100711999999REMMET055METAR ETGQ 261120Z 22007KT 9999 BKN022 09/03 Q1007 WHT;
0134102340999992009032612204+53133+009350FM-15+0061ETGQ V0202201N003610066019N0112651N1+00801+00401999999ADDGA1071+006601999GF107991999999999999999999MA1100711999999MW1611REMMET059METAR ETGQ 261220Z 22007KT 9999 -RA BKN022 08/04 Q1007 WHT;
0157102340999992009032613204+53133+009350FM-15+0061ETGQ V0202701N002110072019N0112651N1+00701+00501999999ADDGA1041+005401999GA2081+007201999GF108991999999999999999999MA1100611999999MW1611REMMET066METAR ETGQ 261320Z 27004KT 9999 -RA SCT018 OVC024 07/05 Q1006 WHT;
0134102340999992009032614204+53133+009350FM-15+0061ETGQ V0202001N002610066019N0112651N1+00801+00401999999ADDGA1081+006601999GF108991999999999999999999MA1100511999999MW1611REMMET059METAR ETGQ 261420Z 20005KT 9999 -RA OVC022 08/04 Q1005 WHT;
0157102340999992009032615204+53133+009350FM-15+0061ETGQ V0202201N003110105019N0112651N1+00801+00401999999ADDGA1041+006001999GA2081+010501999GF108991999999999999999999MA1100411999999MW1611REMMET066METAR ETGQ 261520Z 22006KT 9999 -RA SCT020 OVC035 08/04 Q1004 BLU;
0157102340999992009032616204+53133+009350FM-15+0061ETGQ V0202201N003610210019N0112651N1+00801+00501999999ADDGA1041+006001999GA2081+021001999GF108991999999999999999999MA1100411999999MW1611REMMET066METAR ETGQ 261620Z 22007KT 9999 -RA SCT020 OVC070 08/05 Q1004 BLU;
0124102340999992009032617204+53133+009350FM-15+0061ETGQ V0202601N002610060019N0112651N1+00801+00501999999ADDGA1071+006001999GF107991999999999999999999MA1100311999999REMMET055METAR ETGQ 261720Z 26005KT 9999 BKN020 08/05 Q1003 WHT;
0135102340999992009032618204+53133+009350FM-15+0061ETGQ V0202401N003610060019N0112651N1+00801+00401999999ADDGA1071+006001999GF107991999999999999999999MA1100311999999OC101031REMMET058METAR ETGQ 261820Z 24007G20KT 9999 BKN020 08/04 Q1003 WHT;
0124102340999992009032619204+53133+009350FM-15+0061ETGQ V0202501N003110090019N0112651N1+00801+00501999999ADDGA1071+009001999GF107991999999999999999999MA1100311999999REMMET055METAR ETGQ 261920Z 25006KT 9999 BKN030 08/05 Q1003 BLU;
0147102340999992009032705204+53133+009350FM-15+0061ETGQ V0202401N003110240019N0112651N1+00801+00301999999ADDGA1041+009001999GA2071+024001999GF107991999999999999999999MA1100001999999REMMET062METAR ETGQ 270520Z 24006KT 9999 SCT030 BKN080 08/03 Q1000 BLU;
0147102340999992009032706204+53133+009350FM-15+0061ETGQ V0202401N002610240019N0112651N1+00801+00301999999ADDGA1041+012001999GA2071+024001999GF107991999999999999999999MA1100001999999REMMET062METAR ETGQ 270620Z 24005KT 9999 SCT040 BKN080 08/03 Q1000 BLU;
0147102340999992009032707204+53133+009350FM-15+0061ETGQ V0202501N003110210019N0112651N1+00801+00301999999ADDGA1041+007501999GA2071+021001999GF107991999999999999999999MA1100001999999REMMET062METAR ETGQ 270720Z 25006KT 9999 SCT025 BKN070 08/03 Q1000 BLU;
0147102340999992009032708204+53133+009350FM-15+0061ETGQ V0202401N002610210019N0112651N1+00801+00301999999ADDGA1021+009001999GA2071+021001999GF107991999999999999999999MA1100101999999REMMET062METAR ETGQ 270820Z 24005KT 9999 FEW030 BKN070 08/03 Q1001 BLU;
0135102340999992009032709204+53133+009350FM-15+0061ETGQ V0202401N004610093019N0112651N1+00801+00201999999ADDGA1071+009301999GF107991999999999999999999MA1100101999999OC101181REMMET058METAR ETGQ 270920Z 24009G23KT 9999 BKN031 08/02 Q1001 BLU;
0124102340999992009032710204+53133+009350FM-15+0061ETGQ V0202301N003110123019N0112651N1+00901+00201999999ADDGA1071+012301999GF107991999999999999999999MA1100101999999REMMET055METAR ETGQ 271020Z 23006KT 9999 BKN041 09/02 Q1001 BLU;
0158102340999992009032711204+53133+009350FM-15+0061ETGQ V0202601N005710150019N0112651N1+00901+00101999999ADDGA1041+009001999GA2071+015001999GF107991999999999999999999MA1100101999999OC101231REMMET065METAR ETGQ 271120Z 26011G24KT 9999 SCT030 BKN050 09/01 Q1001 BLU;
0147102340999992009032712204+53133+009350FM-15+0061ETGQ V0202601N003610210019N0112651N1+00901+00101999999ADDGA1021+009001999GA2071+021001999GF107991999999999999999999MA1100101999999REMMET062METAR ETGQ 271220Z 26007KT 9999 FEW030 BKN070 09/01 Q1001 BLU;
0148102340999992009032713204+53133+009350FM-15+0061ETGQ V0202601N004110210019N0112651N1+01001+00001999999ADDGA1021+009001999GA2071+021001999GF107991999999999999999999MA1100101999999REMMET063METAR ETGQ 271320Z 26008KT 9999 FEW030 BKN070 10/M00 Q1001 BLU;
0147102340999992009032714204+53133+009350FM-15+0061ETGQ V0202701N003610150019N0112651N1+00901+00101999999ADDGA1021+009001999GA2071+015001999GF107991999999999999999999MA1100101999999REMMET062METAR ETGQ 271420Z 27007KT 9999 FEW030 BKN050 09/01 Q1001 BLU;
0147102340999992009032715204+53133+009350FM-15+0061ETGQ V0202801N003610120019N0112651N1+00701+00101999999ADDGA1071+012001999GA2071+027001999GF107991999999999999999999MA1100101999999REMMET062METAR ETGQ 271520Z 28007KT 9999 BKN040 BKN090 07/01 Q1001 BLU;
0147102340999992009032716204+53133+009350FM-15+0061ETGQ V0202501N002610120019N0112651N1+00701+00201999999ADDGA1021+007501999GA2071+012001999GF107991999999999999999999MA1100101999999REMMET062METAR ETGQ 271620Z 25005KT 9999 FEW025 BKN040 07/02 Q1001 BLU;
0147102340999992009032717204+53133+009350FM-15+0061ETGQ V0202201N002610150019N0112651N1+00601+00201999999ADDGA1021+007501999GA2071+015001999GF107991999999999999999999MA1100101999999REMMET062METAR ETGQ 271720Z 22005KT 9999 FEW025 BKN050 06/02 Q1001 BLU;
0147102340999992009032718204+53133+009350FM-15+0061ETGQ V0202001N002110270019N0112651N1+00601+00201999999ADDGA1041+015001999GA2071+027001999GF107991999999999999999999MA1100101999999REMMET062METAR ETGQ 271820Z 20004KT 9999 SCT050 BKN090 06/02 Q1001 BLU;
0147102340999992009032719204+53133+009350FM-15+0061ETGQ V0201801N001510300019N0112651N1+00601+00301999999ADDGA1041+015001999GA2071+030001999GF107991999999999999999999MA1100101999999REMMET062METAR ETGQ 271920Z 18003KT 9999 SCT050 BKN100 06/03 Q1001 BLU;
0133102340999992009033004204+53133+009350FM-15+0061ETGQ V0209999C000010003019N0008001N1+00101+00001999999ADDGA1071+000301999GF107991999999999999999999MA1101801999999MW1441REMMET058METAR ETGQ 300420Z 00000KT 0800 FG BKN001 01/00 Q1018 RED;
0133102340999992009033005204+53133+009350FM-15+0061ETGQ V0209999C000012200019N0002001N1+00101+00001999999ADDGA1041+000301999GF104991999999999999999999MA1101901999999MW1441REMMET058METAR ETGQ 300520Z 00000KT 0200 FG SCT001 01/00 Q1019 RED;
0133102340999992009033006204+53133+009350FM-15+0061ETGQ V0209999C000012200019N0003001N1+00101+00101999999ADDGA1041+000301999GF104991999999999999999999MA1101901999999MW1441REMMET058METAR ETGQ 300620Z 00000KT 0300 FG SCT001 01/01 Q1019 RED;
0133102340999992009033007204+53133+009350FM-15+0061ETGQ V0209999C000012200019N0015001N1+00101+00101999999ADDGA1021+000301999GF102991999999999999999999MA1102001999999MW1101REMMET058METAR ETGQ 300720Z 00000KT 1500 BR FEW001 01/01 Q1020 AMB;
0133102340999992009033008204+53133+009350FM-15+0061ETGQ V0209999C000012200019N0040001N1+00401+00301999999ADDGA1021+002401999GF102991999999999999999999MA1102101999999MW1101REMMET058METAR ETGQ 300820Z 00000KT 4000 BR FEW008 04/03 Q1021 GRN;
0125102340999992009033009204+53133+009350FM-15+0061ETGQ V0209999C000012200019N0080001N1+00601+00301999999ADDGA1021+003601999GF102991999999999999999999MA1102101999999REMMET056METAR ETGQ 300920Z 00000KT 8000 FEW012 06/03 Q1021 BLU/;
0125102340999992009033010204+53133+009350FM-15+0061ETGQ V0209999V001012200019N0112651N1+00801+00301999999ADDGA1021+006001999GF102991999999999999999999MA1102101999999REMMET056METAR ETGQ 301020Z VRB02KT 9999 FEW020 08/03 Q1021 BLU/;
0125102340999992009033011204+53133+009350FM-15+0061ETGQ V0203101N002112200019N0112651N1+01001+00201999999ADDGA1021+007501999GF102991999999999999999999MA1102101999999REMMET056METAR ETGQ 301120Z 31004KT 9999 FEW025 10/02 Q1021 BLU/;
0125102340999992009033012204+53133+009350FM-15+0061ETGQ V0202701N001512200019N0112651N1+01201+00101999999ADDGA1041+012001999GF104991999999999999999999MA1102101999999REMMET056METAR ETGQ 301220Z 27003KT 9999 SCT040 12/01 Q1021 BLU/;
0149102340999992009033013204+53133+009350FM-15+0061ETGQ V0209999V001012200019N0112651N1+01201-00101999999ADDGA1021+013201999GA2041+018001999GF104991999999999999999999MA1102001999999REMMET064METAR ETGQ 301320Z VRB02KT 9999 FEW044 SCT060 12/M01 Q1020 BLU/;
0149102340999992009033014204+53133+009350FM-15+0061ETGQ V0203401N002612200019N0112651N1+01201-00301999999ADDGA1021+013801999GA2041+018001999GF104991999999999999999999MA1102001999999REMMET064METAR ETGQ 301420Z 34005KT 9999 FEW046 SCT060 12/M03 Q1020 BLU/;
0149102340999992009033015204+53133+009350FM-15+0061ETGQ V0203601N003112200019N0112651N1+01201-00101999999ADDGA1021+015001999GA2041+018001999GF104991999999999999999999MA1102001999999REMMET064METAR ETGQ 301520Z 36006KT 9999 FEW050 SCT060 12/M01 Q1020 BLU/;
0126102340999992009033016204+53133+009350FM-15+0061ETGQ V0203401N003612200019N0112651N1+01201+00001999999ADDGA1041+018001999GF104991999999999999999999MA1102101999999REMMET057METAR ETGQ 301620Z 34007KT 9999 SCT060 12/M00 Q1021 BLU/;
0125102340999992009033017204+53133+009350FM-15+0061ETGQ V0200101N003112200019N0112651N1+01101+00101999999ADDGA1041+018001999GF104991999999999999999999MA1102101999999REMMET056METAR ETGQ 301720Z 01006KT 9999 SCT060 11/01 Q1021 BLU/;
0125102340999992009033018204+53133+009350FM-15+0061ETGQ V0200401N002112200019N0112651N1+01001+00001999999ADDGA1041+018001999GF104991999999999999999999MA1102201999999REMMET056METAR ETGQ 301820Z 04004KT 9999 SCT060 10/00 Q1022 BLU/;
0077102340999992009033104204+53133+009350FM-15+0061ETGQ V0202401N001012200019N0080001N1+00001+00001999999ADDMA1102401999999REMMET050METAR ETGQ 310420Z 24002KT 8000 00/M00 Q1024 BLU/;
0078102340999992009033105204+53133+009350FM-15+0061ETGQ V0209999C000012200019N0080001N1+00001-00101999999ADDMA1102511999999REMMET051METAR ETGQ 310520Z 00000KT 8000 M00/M01 Q1025 BLU/;
0076102340999992009033106204+53133+009350FM-15+0061ETGQ V0209999C000012200019N0112651N1+00101+00001999999ADDMA1102511999999REMMET049METAR ETGQ 310620Z 00000KT 9999 01/00 Q1025 BLU/;
0076102340999992009033107204+53133+009350FM-15+0061ETGQ V0209999C000012200019N0112651N1+00301+00101999999ADDMA1102511999999REMMET049METAR ETGQ 310720Z 00000KT 9999 03/01 Q1025 BLU/;
0076102340999992009033108204+53133+009350FM-15+0061ETGQ V0209999C000012200019N0112651N1+00501+00101999999ADDMA1102511999999REMMET049METAR ETGQ 310820Z 00000KT 9999 05/01 Q1025 BLU/;
0076102340999992009033109204+53133+009350FM-15+0061ETGQ V0202901N001512200019N0112651N1+00701+00101999999ADDMA1102511999999REMMET049METAR ETGQ 310920Z 29003KT 9999 07/01 Q1025 BLU/;
0076102340999992009033110204+53133+009350FM-15+0061ETGQ V0200201N001012200019N0112651N1+01001+00101999999ADDMA1102401999999REMMET049METAR ETGQ 311020Z 02002KT 9999 10/01 Q1024 BLU/;
0076102340999992009033111204+53133+009350FM-15+0061ETGQ V0203501N001512200019N0112651N1+01201+00101999999ADDMA1102301999999REMMET049METAR ETGQ 311120Z 35003KT 9999 12/01 Q1023 BLU/;
0077102340999992009033112204+53133+009350FM-15+0061ETGQ V0200701N002612200019N0112651N1+01401-00301999999ADDMA1102201999999REMMET050METAR ETGQ 311220Z 07005KT 9999 14/M03 Q1022 BLU/;
0077102340999992009033113204+53133+009350FM-15+0061ETGQ V0200701N002612200019N0112651N1+01401-00401999999ADDMA1102201999999REMMET050METAR ETGQ 311320Z 07005KT 9999 14/M04 Q1022 BLU/;
0077102340999992009033114204+53133+009350FM-15+0061ETGQ V0200901N002612200019N0112651N1+01501-00501999999ADDMA1102101999999REMMET050METAR ETGQ 311420Z 09005KT 9999 15/M05 Q1021 BLU/;
0077102340999992009033115204+53133+009350FM-15+0061ETGQ V0200801N002112200019N0112651N1+01501-00301999999ADDMA1102001999999REMMET050METAR ETGQ 311520Z 08004KT 9999 15/M03 Q1020 BLU/;
0077102340999992009033116204+53133+009350FM-15+0061ETGQ V0200701N003112200019N0112651N1+01501-00301999999ADDMA1102001999999REMMET050METAR ETGQ 311620Z 07006KT 9999 15/M03 Q1020 BLU/;
0077102340999992009033117204+53133+009350FM-15+0061ETGQ V0200801N002112200019N0112651N1+01401-00301999999ADDMA1102001999999REMMET050METAR ETGQ 311720Z 08004KT 9999 14/M03 Q1020 BLU/;
0077102340999992009033118204+53133+009350FM-15+0061ETGQ V0201001N001512200019N0112651N1+01301-00301999999ADDMA1102001999999REMMET050METAR ETGQ 311820Z 10003KT 9999 13/M03 Q1020 BLU/;
0077102340999992009040104204+53133+009350FM-15+0061ETGQ V0209999V001012200019N0112651N1+00201+00001999999ADDMA1101901999999REMMET050METAR ETGQ 010420Z VRB02KT 9999 02/M00 Q1019 BLU/;
0076102340999992009040105204+53133+009350FM-15+0061ETGQ V0209999V000512200019N0112651N1+00201+00001999999ADDMA1101901999999REMMET049METAR ETGQ 010520Z VRB01KT 9999 02/00 Q1019 BLU/;
0076102340999992009040106204+53133+009350FM-15+0061ETGQ V0203401N001012200019N0112651N1+00401+00201999999ADDMA1102001999999REMMET049METAR ETGQ 010620Z 34002KT 9999 04/02 Q1020 BLU/;
0076102340999992009040107204+53133+009350FM-15+0061ETGQ V0203301N001512200019N0112651N1+00601+00101999999ADDMA1102001999999REMMET049METAR ETGQ 010720Z 33003KT 9999 06/01 Q1020 BLU/;
0076102340999992009040108204+53133+009350FM-15+0061ETGQ V0203601N001512200019N0112651N1+01001+00201999999ADDMA1101901999999REMMET049METAR ETGQ 010820Z 36003KT 9999 10/02 Q1019 BLU/;
0077102340999992009040109204+53133+009350FM-15+0061ETGQ V0201001N004612200019N0112651N1+01301+00001999999ADDMA1101901999999REMMET050METAR ETGQ 010920Z 10009KT 9999 13/M00 Q1019 BLU/;
0077102340999992009040110204+53133+009350FM-15+0061ETGQ V0200801N004112200019N0112651N1+01401-00301999999ADDMA1101901999999REMMET050METAR ETGQ 011020Z 08008KT 9999 14/M03 Q1019 BLU/;
0077102340999992009040111204+53133+009350FM-15+0061ETGQ V0200701N002612200019N0112651N1+01501-00201999999ADDMA1101801999999REMMET050METAR ETGQ 011120Z 07005KT 9999 15/M02 Q1018 BLU/;
0077102340999992009040113204+53133+009350FM-15+0061ETGQ V0200801N005112200019N0112651N1+01601-00101999999ADDMA1101801999999REMMET050METAR ETGQ 011320Z 08010KT 9999 16/M01 Q1018 BLU/;
0077102340999992009040114204+53133+009350FM-15+0061ETGQ V0200601N004612200019N0112651N1+01701-00101999999ADDMA1101691999999REMMET050METAR ETGQ 011420Z 06009KT 9999 17/M01 Q1017 BLU/;
0077102340999992009040115204+53133+009350FM-15+0061ETGQ V0200701N004112200019N0112651N1+01701-00101999999ADDMA1101691999999REMMET050METAR ETGQ 011520Z 07008KT 9999 17/M01 Q1017 BLU/;
0077102340999992009040116204+53133+009350FM-15+0061ETGQ V0200601N004612200019N0112651N1+01601-00101999999ADDMA1101691999999REMMET050METAR ETGQ 011620Z 06009KT 9999 16/M01 Q1017 BLU/;
0077102340999992009040117204+53133+009350FM-15+0061ETGQ V0200601N004112200019N0112651N1+01601-00101999999ADDMA1101691999999REMMET050METAR ETGQ 011720Z 06008KT 9999 16/M01 Q1017 BLU/;
0077102340999992009040118204+53133+009350FM-15+0061ETGQ V0200601N002112200019N0112651N1+01501-00101999999ADDMA1101801999999REMMET050METAR ETGQ 011820Z 06004KT 9999 15/M01 Q1018 BLU/;
0076102340999992009040204204+53133+009350FM-15+0061ETGQ V0200801N003112200019N0112651N1+01001+00101999999ADDMA1101691999999REMMET049METAR ETGQ 020420Z 08006KT 9999 10/01 Q1017 BLU/;
0125102340999992009040205204+53133+009350FM-15+0061ETGQ V0203001N001512200019N0112651N1+01001+00201999999ADDGA1021+090001999GF102991999999999999999999MA1101691999999REMMET056METAR ETGQ 020520Z 30003KT 9999 FEW300 10/02 Q1017 BLU/;
0076102340999992009040206204+53133+009350FM-15+0061ETGQ V0200801N003612200019N0112651N1+01001+00201999999ADDMA1101801999999REMMET049METAR ETGQ 020620Z 08007KT 9999 10/02 Q1018 BLU/;
0076102340999992009040207204+53133+009350FM-15+0061ETGQ V0200801N003112200019N0112651N1+01101+00201999999ADDMA1101691999999REMMET049METAR ETGQ 020720Z 08006KT 9999 11/02 Q1017 BLU/;
0076102340999992009040208204+53133+009350FM-15+0061ETGQ V0200701N003112200019N0112651N1+01301+00301999999ADDMA1101801999999REMMET049METAR ETGQ 020820Z 07006KT 9999 13/03 Q1018 BLU/;
0076102340999992009040209204+53133+009350FM-15+0061ETGQ V0201201N002612200019N0112651N1+01501+00401999999ADDMA1101691999999REMMET049METAR ETGQ 020920Z 12005KT 9999 15/04 Q1017 BLU/;
0076102340999992009040210204+53133+009350FM-15+0061ETGQ V0201201N002612200019N0112651N1+01601+00401999999ADDMA1101691999999REMMET049METAR ETGQ 021020Z 12005KT 9999 16/04 Q1017 BLU/;
0076102340999992009040211204+53133+009350FM-15+0061ETGQ V0200501N003612200019N0112651N1+01701+00401999999ADDMA1101591999999REMMET049METAR ETGQ 021120Z 05007KT 9999 17/04 Q1016 BLU/;
0076102340999992009040212204+53133+009350FM-15+0061ETGQ V0200801N003612200019N0112651N1+01801+00401999999ADDMA1101591999999REMMET049METAR ETGQ 021220Z 08007KT 9999 18/04 Q1016 BLU/;
0076102340999992009040213204+53133+009350FM-15+0061ETGQ V0200601N003612200019N0112651N1+01901+00401999999ADDMA1101491999999REMMET049METAR ETGQ 021320Z 06007KT 9999 19/04 Q1015 BLU/;
0076102340999992009040214204+53133+009350FM-15+0061ETGQ V0200901N003612200019N0112651N1+02001+00501999999ADDMA1101491999999REMMET049METAR ETGQ 021420Z 09007KT 9999 20/05 Q1015 BLU/;
0076102340999992009040216204+53133+009350FM-15+0061ETGQ V0200801N002612200019N0112651N1+02101+00501999999ADDMA1101391999999REMMET049METAR ETGQ 021620Z 08005KT 9999 21/05 Q1014 BLU/;
0076102340999992009040217204+53133+009350FM-15+0061ETGQ V0200701N002112200019N0112651N1+02001+00601999999ADDMA1101391999999REMMET049METAR ETGQ 021720Z 07004KT 9999 20/06 Q1014 BLU/;
0076102340999992009040218204+53133+009350FM-15+0061ETGQ V0200801N001012200019N0112651N1+01801+00601999999ADDMA1101491999999REMMET049METAR ETGQ 021820Z 08002KT 9999 18/06 Q1015 BLU/;
0076102340999992009040304204+53133+009350FM-15+0061ETGQ V0202201N001512200019N0112651N1+00701+00501999999ADDMA1101591999999REMMET049METAR ETGQ 030420Z 22003KT 9999 07/05 Q1016 BLU/;
0076102340999992009040305204+53133+009350FM-15+0061ETGQ V0209999V000512200019N0112651N1+00701+00501999999ADDMA1101591999999REMMET049METAR ETGQ 030520Z VRB01KT 9999 07/05 Q1016 BLU/;
0076102340999992009040306204+53133+009350FM-15+0061ETGQ V0202301N001512200019N0112651N1+00801+00601999999ADDMA1101591999999REMMET049METAR ETGQ 030620Z 23003KT 9999 08/06 Q1016 BLU/;
0076102340999992009040307204+53133+009350FM-15+0061ETGQ V0209999V000512200019N0112651N1+01001+00601999999ADDMA1101591999999REMMET049METAR ETGQ 030720Z VRB01KT 9999 10/06 Q1016 BLU/;
0076102340999992009040308204+53133+009350FM-15+0061ETGQ V0209999V001012200019N0112651N1+01301+00601999999ADDMA1101591999999REMMET049METAR ETGQ 030820Z VRB02KT 9999 13/06 Q1016 BLU/;
0076102340999992009040309204+53133+009350FM-15+0061ETGQ V0209999V001012200019N0112651N1+01601+00701999999ADDMA1101591999999REMMET049METAR ETGQ 030920Z VRB02KT 9999 16/07 Q1016 BLU/;
0076102340999992009040310204+53133+009350FM-15+0061ETGQ V0202401N001512200019N0112651N1+01801+00601999999ADDMA1101591999999REMMET049METAR ETGQ 031020Z 24003KT 9999 18/06 Q1016 BLU/;
0076102340999992009040311204+53133+009350FM-15+0061ETGQ V0202001N001512200019N0112651N1+01901+00601999999ADDMA1101491999999REMMET049METAR ETGQ 031120Z 20003KT 9999 19/06 Q1015 BLU/;
0076102340999992009040312204+53133+009350FM-15+0061ETGQ V0202001N002112200019N0112651N1+02101+00601999999ADDMA1101491999999REMMET049METAR ETGQ 031220Z 20004KT 9999 21/06 Q1015 BLU/;
0076102340999992009040313204+53133+009350FM-15+0061ETGQ V0201601N002612200019N0112651N1+02201+00601999999ADDMA1101491999999REMMET049METAR ETGQ 031320Z 16005KT 9999 22/06 Q1015 BLU/;
0125102340999992009040314204+53133+009350FM-15+0061ETGQ V0201701N002112200019N0112651N1+02201+00601999999ADDGA1021+021001999GF102991999999999999999999MA1101491999999REMMET056METAR ETGQ 031420Z 17004KT 9999 FEW070 22/06 Q1015 BLU/;
0125102340999992009040315204+53133+009350FM-15+0061ETGQ V0201801N002112200019N0112651N1+02101+00701999999ADDGA1021+021001999GF102991999999999999999999MA1101491999999REMMET056METAR ETGQ 031520Z 18004KT 9999 FEW070 21/07 Q1015 BLU/;
0125102340999992009040316204+53133+009350FM-15+0061ETGQ V0201701N002112200019N0112651N1+02101+00701999999ADDGA1041+021001999GF104991999999999999999999MA1101491999999REMMET056METAR ETGQ 031620Z 17004KT 9999 SCT070 21/07 Q1015 BLU/;
0125102340999992009040317204+53133+009350FM-15+0061ETGQ V0201601N002612200019N0112651N1+02001+00801999999ADDGA1021+021001999GF102991999999999999999999MA1101491999999REMMET056METAR ETGQ 031720Z 16005KT 9999 FEW070 20/08 Q1015 BLU/;
0125102340999992009040318204+53133+009350FM-15+0061ETGQ V0201601N002112200019N0112651N1+01901+00801999999ADDGA1021+018001999GF102991999999999999999999MA1101491999999REMMET056METAR ETGQ 031820Z 16004KT 9999 FEW060 19/08 Q1015 BLU/;
0124102340999992009040604204+53133+009350FM-15+0061ETGQ V0209999C000012200019N0070001N1+00801+00601999999ADDGA1041+090001999GF104991999999999999999999MA1101801999999REMMET055METAR ETGQ 060420Z 00000KT 7000 SCT300 08/06 Q1018 WHT;
0124102340999992009040605204+53133+009350FM-15+0061ETGQ V0209999C000012200019N0070001N1+00701+00601999999ADDGA1041+090001999GF104991999999999999999999MA1101801999999REMMET055METAR ETGQ 060520Z 00000KT 7000 SCT300 07/06 Q1018 WHT;
0124102340999992009040606204+53133+009350FM-15+0061ETGQ V0209999C000012200019N0070001N1+00801+00601999999ADDGA1021+039001999GF102991999999999999999999MA1101801999999REMMET055METAR ETGQ 060620Z 00000KT 7000 FEW130 08/06 Q1018 WHT;
0075102340999992009040607204+53133+009350FM-15+0061ETGQ V0209999C000012200019N0070001N1+00901+00701999999ADDMA1101691999999REMMET048METAR ETGQ 060720Z 00000KT 7000 09/07 Q1017 WHT;
0076102340999992009040608204+53133+009350FM-15+0061ETGQ V0209999C000012200019N0080001N1+01201+00801999999ADDMA1101691999999REMMET049METAR ETGQ 060820Z 00000KT 8000 12/08 Q1017 BLU/;
0125102340999992009040609204+53133+009350FM-15+0061ETGQ V0209999C000012200019N0080001N1+01401+00801999999ADDGA1021+078001999GF102991999999999999999999MA1101691999999REMMET056METAR ETGQ 060920Z 00000KT 8000 FEW260 14/08 Q1017 BLU/;
0076102340999992009040610204+53133+009350FM-15+0061ETGQ V0209999C000012200019N0112651N1+01701+00901999999ADDMA1101591999999REMMET049METAR ETGQ 061020Z 00000KT 9999 17/09 Q1016 BLU/;
0076102340999992009040611204+53133+009350FM-15+0061ETGQ V0209999V001012200019N0112651N1+01901+00801999999ADDMA1101491999999REMMET049METAR ETGQ 061120Z VRB02KT 9999 19/08 Q1015 BLU/;
0125102340999992009040612204+53133+009350FM-15+0061ETGQ V0201701N002112200019N0112651N1+02101+00701999999ADDGA1021+015001999GF102991999999999999999999MA1101291999999REMMET056METAR ETGQ 061220Z 17004KT 9999 FEW050 21/07 Q1013 BLU/;
0125102340999992009040613204+53133+009350FM-15+0061ETGQ V0201601N002612200019N0112651N1+02101+00601999999ADDGA1021+015001999GF102991999999999999999999MA1101291999999REMMET056METAR ETGQ 061320Z 16005KT 9999 FEW050 21/06 Q1013 BLU/;
0125102340999992009040614204+53133+009350FM-15+0061ETGQ V0201401N002612200019N0112651N1+02101+00401999999ADDGA1021+021001999GF102991999999999999999999MA1101191999999REMMET056METAR ETGQ 061420Z 14005KT 9999 FEW070 21/04 Q1012 BLU/;
0148102340999992009040615204+53133+009350FM-15+0061ETGQ V0201601N002612200019N0112651N1+02101+00301999999ADDGA1041+021001999GA2041+030001999GF104991999999999999999999MA1101081999999REMMET063METAR ETGQ 061520Z 16005KT 9999 SCT070 SCT100 21/03 Q1011 BLU/;
0147102340999992009040616204+53133+009350FM-15+0061ETGQ V0201601N002610300019N0112651N1+02001+00501999999ADDGA1021+018001999GA2071+030001999GF107991999999999999999999MA1101021999999REMMET062METAR ETGQ 061620Z 16005KT 9999 FEW060 BKN100 20/05 Q1010 BLU;
0125102340999992009040617204+53133+009350FM-15+0061ETGQ V0201401N002612200019N0112651N1+02001+00601999999ADDGA1021+030001999GF102991999999999999999999MA1101021999999REMMET056METAR ETGQ 061720Z 14005KT 9999 FEW100 20/06 Q1010 BLU/;
0125102340999992009040618204+53133+009350FM-15+0061ETGQ V0201301N002112200019N0112651N1+01901+00601999999ADDGA1021+030001999GF102991999999999999999999MA1101021999999REMMET056METAR ETGQ 061820Z 13004KT 9999 FEW100 19/06 Q1010 BLU/;
0125102340999992009040704204+53133+009350FM-15+0061ETGQ V0209999C000012200019N0112651N1+00801+00601999999ADDGA1021+075001999GF102991999999999999999999MA1100911999999REMMET056METAR ETGQ 070420Z 00000KT 9999 FEW250 08/06 Q1009 BLU/;
0125102340999992009040705204+53133+009350FM-15+0061ETGQ V0209999C000012200019N0112651N1+00801+00601999999ADDGA1041+075001999GF104991999999999999999999MA1100911999999REMMET056METAR ETGQ 070520Z 00000KT 9999 SCT250 08/06 Q1009 BLU/;
0125102340999992009040706204+53133+009350FM-15+0061ETGQ V0209999C000012200019N0112651N1+01001+00701999999ADDGA1041+075001999GF104991999999999999999999MA1100911999999REMMET056METAR ETGQ 070620Z 00000KT 9999 SCT250 10/07 Q1009 BLU/;
0125102340999992009040707204+53133+009350FM-15+0061ETGQ V0209999C000012200019N0112651N1+01301+00801999999ADDGA1041+075001999GF104991999999999999999999MA1100911999999REMMET056METAR ETGQ 070720Z 00000KT 9999 SCT250 13/08 Q1009 BLU/;
0125102340999992009040708204+53133+009350FM-15+0061ETGQ V0209999C000012200019N0112651N1+01701+00701999999ADDGA1041+075001999GF104991999999999999999999MA1100911999999REMMET056METAR ETGQ 070820Z 00000KT 9999 SCT250 17/07 Q1009 BLU/;
0125102340999992009040709204+53133+009350FM-15+0061ETGQ V0209999V000512200019N0112651N1+01901+00701999999ADDGA1041+075001999GF104991999999999999999999MA1100911999999REMMET056METAR ETGQ 070920Z VRB01KT 9999 SCT250 19/07 Q1009 BLU/;
0125102340999992009040710204+53133+009350FM-15+0061ETGQ V0202701N001512200019N0112651N1+02001+00601999999ADDGA1041+075001999GF104991999999999999999999MA1100911999999REMMET056METAR ETGQ 071020Z 27003KT 9999 SCT250 20/06 Q1009 BLU/;
0148102340999992009040711204+53133+009350FM-15+0061ETGQ V0202301N003610900019N0112651N1+02101+00501999999ADDGA1021+018001999GA2071+090001999GF107991999999999999999999MA1100911999999REMMET063METAR ETGQ 071120Z 23007KT 9999 FEW060 BKN300 21/05 Q1009 BLU/;
0148102340999992009040712204+53133+009350FM-15+0061ETGQ V0202501N003110840019N0112651N1+02101+00701999999ADDGA1021+018001999GA2071+084001999GF107991999999999999999999MA1100911999999REMMET063METAR ETGQ 071220Z 25006KT 9999 FEW060 BKN280 21/07 Q1009 BLU/;
0148102340999992009040713204+53133+009350FM-15+0061ETGQ V0202401N002610840019N0112651N1+02201+00601999999ADDGA1021+018001999GA2071+084001999GF107991999999999999999999MA1100911999999REMMET063METAR ETGQ 071320Z 24005KT 9999 FEW060 BKN280 22/06 Q1009 BLU/;
0148102340999992009040714204+53133+009350FM-15+0061ETGQ V0202601N003110840019N0112651N1+02101+00601999999ADDGA1021+018001999GA2071+084001999GF107991999999999999999999MA1100911999999REMMET063METAR ETGQ 071420Z 26006KT 9999 FEW060 BKN280 21/06 Q1009 BLU/;
0147102340999992009040715204+53133+009350FM-15+0061ETGQ V0202501N002610300019N0112651N1+02001+00601999999ADDGA1021+018001999GA2071+030001999GF107991999999999999999999MA1100911999999REMMET062METAR ETGQ 071520Z 25005KT 9999 FEW060 BKN100 20/06 Q1009 BLU;
0124102340999992009040716204+53133+009350FM-15+0061ETGQ V0203101N003610300019N0112651N1+01601+01001999999ADDGA1071+030001999GF107991999999999999999999MA1101021999999REMMET055METAR ETGQ 071620Z 31007KT 9999 BKN100 16/10 Q1010 BLU;
0159102340999992009040717204+53133+009350FM-15+0061ETGQ V0202901N002110180019N0112651N1+01501+01001999999ADDGA1041+005401999GA2071+018001999GF107991999999999999999999MA1101081999999MW1801REMMET068METAR ETGQ 071720Z 29004KT 9999 -SHRA SCT018 BKN060 15/10 Q1011 BLU;
0147102340999992009040718204+53133+009350FM-15+0061ETGQ V0203101N003110180019N0112651N1+01401+01001999999ADDGA1021+007501999GA2071+018001999GF107991999999999999999999MA1101081999999REMMET062METAR ETGQ 071820Z 31006KT 9999 FEW025 BKN060 14/10 Q1011 BLU;
0142102340999992009040804204+53133+009350FM-15+0061ETGQ V0209999C000010066019N0112651N1+01101+00701999999ADDGA1071+006601999GF107991999999999999999999MA1101391999999MW1511MW2611REMMET061METAR ETGQ 080420Z 00000KT 9999 -RADZ BKN022 11/07 Q1014 WHT;
0147102340999992009040805204+53133+009350FM-15+0061ETGQ V0201601N002610270019N0112651N1+01101+00701999999ADDGA1041+007501999GA2071+027001999GF107991999999999999999999MA1101391999999REMMET062METAR ETGQ 080520Z 16005KT 9999 SCT025 BKN090 11/07 Q1014 BLU;
0147102340999992009040806204+53133+009350FM-15+0061ETGQ V0201601N002110270019N0112651N1+01101+00701999999ADDGA1041+008101999GA2071+027001999GF107991999999999999999999MA1101391999999REMMET062METAR ETGQ 080620Z 16004KT 9999 SCT027 BKN090 11/07 Q1014 BLU;
0147102340999992009040807204+53133+009350FM-15+0061ETGQ V0209999V001010270019N0112651N1+01201+00701999999ADDGA1041+007501999GA2071+027001999GF107991999999999999999999MA1101391999999REMMET062METAR ETGQ 080720Z VRB02KT 9999 SCT025 BKN090 12/07 Q1014 BLU;
0125102340999992009040808204+53133+009350FM-15+0061ETGQ V0202001N001512200019N0112651N1+01401+00701999999ADDGA1041+007501999GF104991999999999999999999MA1101391999999REMMET056METAR ETGQ 080820Z 20003KT 9999 SCT025 14/07 Q1014 BLU/;
0125102340999992009040809204+53133+009350FM-15+0061ETGQ V0202301N003612200019N0112651N1+01501+00601999999ADDGA1041+010501999GF104991999999999999999999MA1101391999999REMMET056METAR ETGQ 080920Z 23007KT 9999 SCT035 15/06 Q1014 BLU/;
0148102340999992009040810204+53133+009350FM-15+0061ETGQ V0202401N003612200019N0112651N1+01501+00501999999ADDGA1021+009001999GA2041+018001999GF104991999999999999999999MA1101391999999REMMET063METAR ETGQ 081020Z 24007KT 9999 FEW030 SCT060 15/05 Q1014 BLU/;
0124102340999992009040811204+53133+009350FM-15+0061ETGQ V0202301N003610150019N0112651N1+01601+00301999999ADDGA1071+015001999GF107991999999999999999999MA1101391999999REMMET055METAR ETGQ 081120Z 23007KT 9999 BKN050 16/03 Q1014 BLU;
0148102340999992009040812204+53133+009350FM-15+0061ETGQ V0202301N004110600019N0112651N1+01701+00101999999ADDGA1021+015001999GA2071+060001999GF107991999999999999999999MA1101291999999REMMET063METAR ETGQ 081220Z 23008KT 9999 FEW050 BKN200 17/01 Q1013 BLU/;
0136102340999992009040813204+53133+009350FM-15+0061ETGQ V0202501N003610300019N0112651N1+01701+00001999999ADDGA1071+030001999GF107991999999999999999999MA1101291999999OC100871REMMET059METAR ETGQ 081320Z 25007G17KT 9999 BKN100 17/M00 Q1013 BLU;
0125102340999992009040814204+53133+009350FM-15+0061ETGQ V0202201N003110210019N0112651N1+01601+00001999999ADDGA1071+021001999GF107991999999999999999999MA1101291999999REMMET056METAR ETGQ 081420Z 22006KT 9999 BKN070 16/M00 Q1013 BLU;
0125102340999992009040815204+53133+009350FM-15+0061ETGQ V0202401N003610180019N0112651N1+01601-00101999999ADDGA1071+018001999GF107991999999999999999999MA1101291999999REMMET056METAR ETGQ 081520Z 24007KT 9999 BKN060 16/M01 Q1013 BLU;
0159102340999992009040816204+53133+009350FM-15+0061ETGQ V0202201N003110210019N0112651N1+01601+00001999999ADDGA1041+015001999GA2071+021001999GF107991999999999999999999MA1101391999999OC100931REMMET066METAR ETGQ 081620Z 22006G18KT 9999 SCT050 BKN070 16/M00 Q1014 BLU;
0147102340999992009040817204+53133+009350FM-15+0061ETGQ V0202401N003610300019N0112651N1+01601+00101999999ADDGA1041+018001999GA2071+030001999GF107991999999999999999999MA1101391999999REMMET062METAR ETGQ 081720Z 24007KT 9999 SCT060 BKN100 16/01 Q1014 BLU;
0147102340999992009040818204+53133+009350FM-15+0061ETGQ V0202601N002610330019N0112651N1+01501+00401999999ADDGA1041+018001999GA2071+033001999GF107991999999999999999999MA1101491999999REMMET062METAR ETGQ 081820Z 26005KT 9999 SCT060 BKN110 15/04 Q1015 BLU;
0124102340999992009040904204+53133+009350FM-15+0061ETGQ V0201901N001010054019N0112651N1+01201+00901999999ADDGA1071+005401999GF107991999999999999999999MA1101591999999REMMET055METAR ETGQ 090420Z 19002KT 9999 BKN018 12/09 Q1016 WHT;
0124102340999992009040905204+53133+009350FM-15+0061ETGQ V0201901N000510066019N0112651N1+01201+00901999999ADDGA1071+006601999GF107991999999999999999999MA1101691999999REMMET055METAR ETGQ 090520Z 19001KT 9999 BKN022 12/09 Q1017 WHT;
0147102340999992009040906204+53133+009350FM-15+0061ETGQ V0202101N001010141019N0112651N1+01301+00901999999ADDGA1041+007501999GA2071+014101999GF107991999999999999999999MA1101691999999REMMET062METAR ETGQ 090620Z 21002KT 9999 SCT025 BKN047 13/09 Q1017 BLU;
0124102340999992009040907204+53133+009350FM-15+0061ETGQ V0202301N002110075019N0112651N1+01401+00901999999ADDGA1071+007501999GF107991999999999999999999MA1101691999999REMMET055METAR ETGQ 090720Z 23004KT 9999 BKN025 14/09 Q1017 BLU;
0147102340999992009040908204+53133+009350FM-15+0061ETGQ V0201901N001510108019N0112651N1+01401+00901999999ADDGA1021+007501999GA2071+010801999GF107991999999999999999999MA1101691999999REMMET062METAR ETGQ 090820Z 19003KT 9999 FEW025 BKN036 14/09 Q1017 BLU;
0124102340999992009040909204+53133+009350FM-15+0061ETGQ V0202101N002610072019N0112651N1+01401+00901999999ADDGA1071+007201999GF107991999999999999999999MA1101801999999REMMET055METAR ETGQ 090920Z 21005KT 9999 BKN024 14/09 Q1018 WHT;
0147102340999992009040910204+53133+009350FM-15+0061ETGQ V0201501N001510093019N0112651N1+01501+00901999999ADDGA1021+006001999GA2071+009301999GF107991999999999999999999MA1101691999999REMMET062METAR ETGQ 091020Z 15003KT 9999 FEW020 BKN031 15/09 Q1017 BLU;
0147102340999992009040911204+53133+009350FM-15+0061ETGQ V0209999C000010111019N0112651N1+01601+00901999999ADDGA1021+007501999GA2071+011101999GF107991999999999999999999MA1101691999999REMMET062METAR ETGQ 091120Z 00000KT 9999 FEW025 BKN037 16/09 Q1017 BLU;
0147102340999992009040912204+53133+009350FM-15+0061ETGQ V0209999V000510117019N0112651N1+01701+00901999999ADDGA1021+007501999GA2071+011701999GF107991999999999999999999MA1101591999999REMMET062METAR ETGQ 091220Z VRB01KT 9999 FEW025 BKN039 17/09 Q1016 BLU;
0125102340999992009040913204+53133+009350FM-15+0061ETGQ V0209999V000512200019N0112651N1+01801+00901999999ADDGA1041+012001999GF104991999999999999999999MA1101491999999REMMET056METAR ETGQ 091320Z VRB01KT 9999 SCT040 18/09 Q1015 BLU/;
0125102340999992009040914204+53133+009350FM-15+0061ETGQ V0209999V001012200019N0112651N1+01801+00801999999ADDGA1041+015001999GF104991999999999999999999MA1101491999999REMMET056METAR ETGQ 091420Z VRB02KT 9999 SCT050 18/08 Q1015 BLU/;
0125102340999992009040915204+53133+009350FM-15+0061ETGQ V0209999V000512200019N0112651N1+01901+00801999999ADDGA1041+018001999GF104991999999999999999999MA1101391999999REMMET056METAR ETGQ 091520Z VRB01KT 9999 SCT060 19/08 Q1014 BLU/;
0125102340999992009040916204+53133+009350FM-15+0061ETGQ V0209999V000512200019N0112651N1+01901+00801999999ADDGA1021+018001999GF102991999999999999999999MA1101291999999REMMET056METAR ETGQ 091620Z VRB01KT 9999 FEW060 19/08 Q1013 BLU/;
0125102340999992009040917204+53133+009350FM-15+0061ETGQ V0201101N001012200019N0112651N1+01901+00801999999ADDGA1021+018001999GF102991999999999999999999MA1101291999999REMMET056METAR ETGQ 091720Z 11002KT 9999 FEW060 19/08 Q1013 BLU/;
0076102340999992009040918204+53133+009350FM-15+0061ETGQ V0201001N000512200019N0112651N1+01801+00801999999ADDMA1101291999999REMMET049METAR ETGQ 091820Z 10001KT 9999 18/08 Q1013 BLU/;
0161102340999992009041115164+53133+009350FM-16+0061ETGQ V0201101N001512200019N0112651N1+02401+00301999999ADDGA1041+018001091GA2041+030001999GF104991999999999999999999MA1100611999999MW1171REMMET070SPECI ETGQ 111516Z 11003KT 9999 VCTS SCT060CB SCT100 24/03 Q1006 BLU/;
0084102340999992009041404204+53133+009350FM-15+0061ETGQ V0209999C000012200019N0001001N1+00901+00801999999ADDMA1100911999999MW1441REMMET051METAR ETGQ 140420Z 00000KT 0100 FG 09/08 Q1009 RED;
0132102340999992009041405204+53133+009350FM-15+0061ETGQ V0209999C000010003019N0006001N1+00901+00901999999ADDGA1091+000301999GF109991999999000251999999MA1100911999999MW1451REMMET057METAR ETGQ 140520Z 00000KT 0600 FG VV001 09/09 Q1009 RED;
0132102340999992009041406204+53133+009350FM-15+0061ETGQ V0209999C000010003019N0006001N1+01001+00901999999ADDGA1091+000301999GF109991999999000251999999MA1100911999999MW1451REMMET057METAR ETGQ 140620Z 00000KT 0600 FG VV001 10/09 Q1009 RED;
0132102340999992009041407204+53133+009350FM-15+0061ETGQ V0209999C000010003019N0003001N1+01001+00901999999ADDGA1091+000301999GF109991999999000251999999MA1101021999999MW1451REMMET057METAR ETGQ 140720Z 00000KT 0300 FG VV001 10/09 Q1010 RED;
0133102340999992009041408204+53133+009350FM-15+0061ETGQ V0209999C000010009019N0007001N1+01101+01001999999ADDGA1081+000901999GF108991999999999999999999MA1101021999999MW1441REMMET058METAR ETGQ 140820Z 00000KT 0700 FG OVC003 11/10 Q1010 RED;
0133102340999992009041409204+53133+009350FM-15+0061ETGQ V0209999C000010018019N0015001N1+01201+01101999999ADDGA1081+001801999GF108991999999999999999999MA1101021999999MW1101REMMET058METAR ETGQ 140920Z 00000KT 1500 BR OVC006 12/11 Q1010 AMB;
0133102340999992009041410204+53133+009350FM-15+0061ETGQ V0209999C000010024019N0030001N1+01401+01101999999ADDGA1071+002401999GF107991999999999999999999MA1101021999999MW1101REMMET058METAR ETGQ 141020Z 00000KT 3000 BR BKN008 14/11 Q1010 YLO;
0075102340999992009041411204+53133+009350FM-15+0061ETGQ V0209999V000512200019N0070001N1+01601+01101999999ADDMA1100911999999REMMET048METAR ETGQ 141120Z VRB01KT 7000 16/11 Q1009 WHT;
0076102340999992009041412204+53133+009350FM-15+0061ETGQ V0203301N001512200019N0112651N1+01901+01101999999ADDMA1100811999999REMMET049METAR ETGQ 141220Z 33003KT 9999 19/11 Q1008 BLU/;
0125102340999992009041413204+53133+009350FM-15+0061ETGQ V0209999C000012200019N0112651N1+02101+01001999999ADDGA1021+012001999GF102991999999999999999999MA1100811999999REMMET056METAR ETGQ 141320Z 00000KT 9999 FEW040 21/10 Q1008 BLU/;
0125102340999992009041414204+53133+009350FM-15+0061ETGQ V0203201N001012200019N0112651N1+02301+00801999999ADDGA1041+015001999GF104991999999999999999999MA1100711999999REMMET056METAR ETGQ 141420Z 32002KT 9999 SCT050 23/08 Q1007 BLU/;
0125102340999992009041415204+53133+009350FM-15+0061ETGQ V0200101N002612200019N0112651N1+02301+00501999999ADDGA1041+015001999GF104991999999999999999999MA1100711999999REMMET056METAR ETGQ 141520Z 01005KT 9999 SCT050 23/05 Q1007 BLU/;
0125102340999992009041416204+53133+009350FM-15+0061ETGQ V0200201N002112200019N0112651N1+02201+00601999999ADDGA1021+015001999GF102991999999999999999999MA1100711999999REMMET056METAR ETGQ 141620Z 02004KT 9999 FEW050 22/06 Q1007 BLU/;
0125102340999992009041417204+53133+009350FM-15+0061ETGQ V0203601N002612200019N0112651N1+02101+00701999999ADDGA1041+015001999GF104991999999999999999999MA1100811999999REMMET056METAR ETGQ 141720Z 36005KT 9999 SCT050 21/07 Q1008 BLU/;
0148102340999992009041418204+53133+009350FM-15+0061ETGQ V0209999C000012200019N0112651N1+01701+00801999999ADDGA1021+030001999GA2041+075001999GF104991999999999999999999MA1100811999999REMMET063METAR ETGQ 141820Z 00000KT 9999 FEW100 SCT250 17/08 Q1008 BLU/;
0076102340999992009041504204+53133+009350FM-15+0061ETGQ V0209999C000012200019N0090001N1+00701+00601999999ADDMA1100911999999REMMET049METAR ETGQ 150420Z 00000KT 9000 07/06 Q1009 BLU/;
0076102340999992009041505204+53133+009350FM-15+0061ETGQ V0209999C000012200019N0112651N1+00701+00601999999ADDMA1100911999999REMMET049METAR ETGQ 150520Z 00000KT 9999 07/06 Q1009 BLU/;
0076102340999992009041506204+53133+009350FM-15+0061ETGQ V0209999C000012200019N0112651N1+00901+00701999999ADDMA1101021999999REMMET049METAR ETGQ 150620Z 00000KT 9999 09/07 Q1010 BLU/;
0076102340999992009041507204+53133+009350FM-15+0061ETGQ V0209999C000012200019N0112651N1+01201+00801999999ADDMA1101021999999REMMET049METAR ETGQ 150720Z 00000KT 9999 12/08 Q1010 BLU/;
0076102340999992009041508204+53133+009350FM-15+0061ETGQ V0209999C000012200019N0112651N1+01401+00801999999ADDMA1101021999999REMMET049METAR ETGQ 150820Z 00000KT 9999 14/08 Q1010 BLU/;
0076102340999992009041509204+53133+009350FM-15+0061ETGQ V0209999C000012200019N0112651N1+01701+00901999999ADDMA1100911999999REMMET049METAR ETGQ 150920Z 00000KT 9999 17/09 Q1009 BLU/;
0125102340999992009041510204+53133+009350FM-15+0061ETGQ V0203201N000512200019N0112651N1+01901+00901999999ADDGA1021+081001999GF102991999999999999999999MA1100911999999REMMET056METAR ETGQ 151020Z 32001KT 9999 FEW270 19/09 Q1009 BLU/;
0125102340999992009041511204+53133+009350FM-15+0061ETGQ V0209999C000012200019N0112651N1+02301+00801999999ADDGA1021+014401999GF102991999999999999999999MA1100811999999REMMET056METAR ETGQ 151120Z 00000KT 9999 FEW048 23/08 Q1008 BLU/;
0125102340999992009041512204+53133+009350FM-15+0061ETGQ V0201101N002112200019N0112651N1+02501+00201999999ADDGA1041+015001999GF104991999999999999999999MA1100811999999REMMET056METAR ETGQ 151220Z 11004KT 9999 SCT050 25/02 Q1008 BLU/;
0125102340999992009041513204+53133+009350FM-15+0061ETGQ V0201601N002612200019N0112651N1+02501+00101999999ADDGA1041+015001999GF104991999999999999999999MA1100711999999REMMET056METAR ETGQ 151320Z 16005KT 9999 SCT050 25/01 Q1007 BLU/;
0126102340999992009041514204+53133+009350FM-15+0061ETGQ V0201401N002612200019N0112651N1+02501+00001999999ADDGA1041+018001999GF104991999999999999999999MA1100711999999REMMET057METAR ETGQ 151420Z 14005KT 9999 SCT060 25/M00 Q1007 BLU/;
0125102340999992009041515204+53133+009350FM-15+0061ETGQ V0201201N003112200019N0112651N1+02401+00101999999ADDGA1041+018001999GF104991999999999999999999MA1100711999999REMMET056METAR ETGQ 151520Z 12006KT 9999 SCT060 24/01 Q1007 BLU/;
0148102340999992009041516204+53133+009350FM-15+0061ETGQ V0201101N002112200019N0112651N1+02401+00101999999ADDGA1021+018001999GA2041+036001999GF104991999999999999999999MA1100711999999REMMET063METAR ETGQ 151620Z 11004KT 9999 FEW060 SCT120 24/01 Q1007 BLU/;
0148102340999992009041517204+53133+009350FM-15+0061ETGQ V0201101N000512200019N0112651N1+02301+00201999999ADDGA1021+021001999GA2041+090001999GF104991999999999999999999MA1100711999999REMMET063METAR ETGQ 151720Z 11001KT 9999 FEW070 SCT320 23/02 Q1007 BLU/;
0148102340999992009041518204+53133+009350FM-15+0061ETGQ V0200901N000510900019N0112651N1+02101+00201999999ADDGA1021+021001999GA2071+090001999GF107991999999999999999999MA1100711999999REMMET063METAR ETGQ 151820Z 09001KT 9999 FEW070 BKN320 21/02 Q1007 BLU/;
0124102340999992009041604204+53133+009350FM-15+0061ETGQ V0209999V000510330019N0112651N1+01101+00601999999ADDGA1071+033001999GF107991999999999999999999MA1100711999999REMMET055METAR ETGQ 160420Z VRB01KT 9999 BKN110 11/06 Q1007 BLU;
0124102340999992009041605204+53133+009350FM-15+0061ETGQ V0209999C000010300019N0112651N1+01101+00701999999ADDGA1071+030001999GF107991999999999999999999MA1100811999999REMMET055METAR ETGQ 160520Z 00000KT 9999 BKN100 11/07 Q1008 BLU;
0125102340999992009041606204+53133+009350FM-15+0061ETGQ V0209999C000012200019N0112651N1+01101+00601999999ADDGA1041+039001999GF104991999999999999999999MA1100811999999REMMET056METAR ETGQ 160620Z 00000KT 9999 SCT130 11/06 Q1008 BLU/;
0125102340999992009041607204+53133+009350FM-15+0061ETGQ V0209999C000010720019N0112651N1+01301+00701999999ADDGA1071+072001999GF107991999999999999999999MA1100711999999REMMET056METAR ETGQ 160720Z 00000KT 9999 BKN240 13/07 Q1007 BLU/;
0125102340999992009041608204+53133+009350FM-15+0061ETGQ V0209999C000010630019N0112651N1+01501+00701999999ADDGA1071+063001999GF107991999999999999999999MA1100711999999REMMET056METAR ETGQ 160820Z 00000KT 9999 BKN210 15/07 Q1007 BLU/;
0148102340999992009041609204+53133+009350FM-15+0061ETGQ V0209999C000010630019N0112651N1+01601+00701999999ADDGA1041+030001999GA2071+063001999GF107991999999999999999999MA1100711999999REMMET063METAR ETGQ 160920Z 00000KT 9999 SCT100 BKN210 16/07 Q1007 BLU/;
0148102340999992009041610204+53133+009350FM-15+0061ETGQ V0203101N001010720019N0112651N1+01701+00801999999ADDGA1021+039001999GA2071+072001999GF107991999999999999999999MA1100611999999REMMET063METAR ETGQ 161020Z 31002KT 9999 FEW130 BKN240 17/08 Q1006 BLU/;
0125102340999992009041611204+53133+009350FM-15+0061ETGQ V0209999V000510720019N0112651N1+01801+00801999999ADDGA1071+072001999GF107991999999999999999999MA1100611999999REMMET056METAR ETGQ 161120Z VRB01KT 9999 BKN240 18/08 Q1006 BLU/;
0125102340999992009041612204+53133+009350FM-15+0061ETGQ V0209999V001010720019N0112651N1+01801+00601999999ADDGA1071+072001999GF107991999999999999999999MA1100511999999REMMET056METAR ETGQ 161220Z VRB02KT 9999 BKN240 18/06 Q1005 BLU/;
0125102340999992009041613204+53133+009350FM-15+0061ETGQ V0202201N001010660019N0112651N1+01901+00601999999ADDGA1071+066001999GF107991999999999999999999MA1100511999999REMMET056METAR ETGQ 161320Z 22002KT 9999 BKN220 19/06 Q1005 BLU/;
0124102340999992009041614204+53133+009350FM-15+0061ETGQ V0202501N002110420019N0112651N1+01801+00901999999ADDGA1071+042001999GF107991999999999999999999MA1100511999999REMMET055METAR ETGQ 161420Z 25004KT 9999 BKN140 18/09 Q1005 BLU;
0124102340999992009041615204+53133+009350FM-15+0061ETGQ V0202601N002110450019N0112651N1+01701+00901999999ADDGA1071+045001999GF107991999999999999999999MA1100511999999REMMET055METAR ETGQ 161520Z 26004KT 9999 BKN150 17/09 Q1005 BLU;
0124102340999992009041616204+53133+009350FM-15+0061ETGQ V0202001N003110270019N0112651N1+01601+00801999999ADDGA1071+027001999GF107991999999999999999999MA1100511999999REMMET055METAR ETGQ 161620Z 20006KT 9999 BKN090 16/08 Q1005 BLU;
0147102340999992009041617204+53133+009350FM-15+0061ETGQ V0202401N003110180019N0112651N1+01401+00901999999ADDGA1041+007501999GA2071+018001999GF107991999999999999999999MA1100611999999REMMET062METAR ETGQ 161720Z 24006KT 9999 SCT025 BKN060 14/09 Q1006 BLU;
0147102340999992009041618204+53133+009350FM-15+0061ETGQ V0202301N002610300019N0112651N1+01301+01001999999ADDGA1041+012001999GA2071+030001999GF107991999999999999999999MA1100511999999REMMET062METAR ETGQ 161820Z 23005KT 9999 SCT040 BKN100 13/10 Q1005 BLU;
0156102340999992009041704204+53133+009350FM-15+0061ETGQ V0209999V000510042019N0060001N1+01001+00901999999ADDGA1021+001501999GA2081+004201999GF108991999999999999999999MA1100411999999MW1631REMMET065METAR ETGQ 170420Z VRB01KT 6000 RA FEW005 OVC014 10/09 Q1004 GRN;
0156102340999992009041705204+53133+009350FM-15+0061ETGQ V0202101N003110057019N0060001N1+01001+00901999999ADDGA1021+003001999GA2081+005701999GF108991999999999999999999MA1100411999999MW1631REMMET065METAR ETGQ 170520Z 21006KT 6000 RA FEW010 OVC019 10/09 Q1004 WHT;
0156102340999992009041706204+53133+009350FM-15+0061ETGQ V0202101N002610150019N0060001N1+01001+00901999999ADDGA1041+006601999GA2081+015001999GF108991999999999999999999MA1100411999999MW1631REMMET065METAR ETGQ 170620Z 21005KT 6000 RA SCT022 OVC050 10/09 Q1004 WHT;
0179102340999992009041707204+53133+009350FM-15+0061ETGQ V0202201N00361012001CN0060001N1+01101+00901999999ADDGA1021+006001999GA2041+012001999GA3081+015001999GF108991999999999999999999MA1100411999999MW1631REMMET072METAR ETGQ 170720Z 22007KT 6000 RA FEW020 SCT040 OVC050 11/09 Q1004 WHT;
0156102340999992009041708204+53133+009350FM-15+0061ETGQ V0202201N003610135019N0060001N1+01101+00901999999ADDGA1041+007501999GA2081+013501999GF108991999999999999999999MA1100411999999MW1631REMMET065METAR ETGQ 170820Z 22007KT 6000 RA SCT025 OVC045 11/09 Q1004 WHT;
0157102340999992009041709204+53133+009350FM-15+0061ETGQ V0200301N002610126019N0080001N1+01101+00901999999ADDGA1041+008101999GA2081+012601999GF108991999999999999999999MA1100511999999MW1611REMMET066METAR ETGQ 170920Z 03005KT 8000 -RA SCT027 OVC042 11/09 Q1005 BLU;
0180102340999992009041710204+53133+009350FM-15+0061ETGQ V0202401N00151011101CN0080001N1+01101+00901999999ADDGA1021+006001999GA2041+011101999GA3081+013501999GF108991999999999999999999MA1100511999999MW1611REMMET073METAR ETGQ 171020Z 24003KT 8000 -RA FEW020 SCT037 OVC045 11/09 Q1005 BLU;
0157102340999992009041711204+53133+009350FM-15+0061ETGQ V0202701N001510111019N0080001N1+01101+00901999999ADDGA1041+005701999GA2081+011101999GF108991999999999999999999MA1100511999999MW1611REMMET066METAR ETGQ 171120Z 27003KT 8000 -RA SCT019 OVC037 11/09 Q1005 BLU;
0156102340999992009041712204+53133+009350FM-15+0061ETGQ V0202701N001510108019N0060001N1+01101+00901999999ADDGA1041+005401999GA2081+010801999GF108991999999999999999999MA1100511999999MW1631REMMET065METAR ETGQ 171220Z 27003KT 6000 RA SCT018 OVC036 11/09 Q1005 WHT;
0156102340999992009041713204+53133+009350FM-15+0061ETGQ V0202501N001010099019N0060001N1+01001+00901999999ADDGA1041+004501999GA2081+009901999GF108991999999999999999999MA1100611999999MW1631REMMET065METAR ETGQ 171320Z 25002KT 6000 RA SCT015 OVC033 10/09 Q1006 WHT;
0139102340999992009041714204+53133+009350FM-15+0061ETGQ V0209999V001010063019N0060001N1+01001+00801999999ADDGA1071+006301999GF107991999999999999999999MA1100511999999MW1611REMMET064METAR ETGQ 171420Z VRB02KT 6000 -RA BKN021 10/08 Q1005 RERA WHT;
0133102340999992009041715204+53133+009350FM-15+0061ETGQ V0202201N002610060019N0080001N1+01001+00801999999ADDGA1081+006001999GF108991999999999999999999MA1100611999999MW1631REMMET058METAR ETGQ 171520Z 22005KT 8000 RA OVC020 10/08 Q1006 WHT;
0133102340999992009041716204+53133+009350FM-15+0061ETGQ V0202201N002110060019N0080001N1+01001+00901999999ADDGA1081+006001999GF108991999999999999999999MA1100611999999MW1631REMMET058METAR ETGQ 171620Z 22004KT 8000 RA OVC020 10/09 Q1006 WHT;
0139102340999992009041717204+53133+009350FM-15+0061ETGQ V0202401N002110042019N0070001N1+01001+00901999999ADDGA1081+004201999GF108991999999999999999999MA1100611999999MW1611REMMET064METAR ETGQ 171720Z 24004KT 7000 -RA OVC014 10/09 Q1006 RERA GRN;
0124102340999992009041718204+53133+009350FM-15+0061ETGQ V0203001N001010042019N0080001N1+01001+00901999999ADDGA1071+004201999GF107991999999999999999999MA1100611999999REMMET055METAR ETGQ 171820Z 30002KT 8000 BKN014 10/09 Q1006 GRN;
0147102340999992009042004204+53133+009350FM-15+0061ETGQ V0209999C000012200019N0060001N1+00601+00601999999ADDGA1021+001501999GA2041+075001999GF104991999999999999999999MA1102301999999REMMET062METAR ETGQ 200420Z 00000KT 6000 FEW005 SCT250 06/06 Q1023 WHT;
0124102340999992009042005204+53133+009350FM-15+0061ETGQ V0209999C000010012019N0060001N1+00701+00701999999ADDGA1071+001201999GF107991999999999999999999MA1102401999999REMMET055METAR ETGQ 200520Z 00000KT 6000 BKN004 07/07 Q1024 YLO;
0133102340999992009042006204+53133+009350FM-15+0061ETGQ V0209999C000010012019N0050001N1+00801+00701999999ADDGA1071+001201999GF107991999999999999999999MA1102401999999MW1101REMMET058METAR ETGQ 200620Z 00000KT 5000 BR BKN004 08/07 Q1024 YLO;
0124102340999992009042007204+53133+009350FM-15+0061ETGQ V0209999C000012200019N0060001N1+00901+00801999999ADDGA1021+001201999GF102991999999999999999999MA1102401999999REMMET055METAR ETGQ 200720Z 00000KT 6000 FEW004 09/08 Q1024 WHT;
0075102340999992009042008204+53133+009350FM-15+0061ETGQ V0209999C000012200019N0070001N1+01201+00801999999ADDMA1102401999999REMMET048METAR ETGQ 200820Z 00000KT 7000 12/08 Q1024 WHT;
0075102340999992009042009204+53133+009350FM-15+0061ETGQ V0203401N000512200019N0070001N1+01501+00901999999ADDMA1102301999999REMMET048METAR ETGQ 200920Z 34001KT 7000 15/09 Q1023 WHT;
0125102340999992009042010204+53133+009350FM-15+0061ETGQ V0203301N001512200019N0112651N1+01701+00801999999ADDGA1021+012001999GF102991999999999999999999MA1102301999999REMMET056METAR ETGQ 201020Z 33003KT 9999 FEW040 17/08 Q1023 BLU/;
0125102340999992009042011204+53133+009350FM-15+0061ETGQ V0203501N001512200019N0112651N1+01801+00701999999ADDGA1021+012001999GF102991999999999999999999MA1102201999999REMMET056METAR ETGQ 201120Z 35003KT 9999 FEW040 18/07 Q1022 BLU/;
0125102340999992009042012204+53133+009350FM-15+0061ETGQ V0203201N001512200019N0112651N1+02001+00601999999ADDGA1021+015001999GF102991999999999999999999MA1102201999999REMMET056METAR ETGQ 201220Z 32003KT 9999 FEW050 20/06 Q1022 BLU/;
0125102340999992009042013204+53133+009350FM-15+0061ETGQ V0209999V001012200019N0112651N1+02101+00401999999ADDGA1021+018001999GF102991999999999999999999MA1102101999999REMMET056METAR ETGQ 201320Z VRB02KT 9999 FEW060 21/04 Q1021 BLU/;
0125102340999992009042014204+53133+009350FM-15+0061ETGQ V0200301N003112200019N0112651N1+02101+00101999999ADDGA1021+021001999GF102991999999999999999999MA1102101999999REMMET056METAR ETGQ 201420Z 03006KT 9999 FEW070 21/01 Q1021 BLU/;
0125102340999992009042015204+53133+009350FM-15+0061ETGQ V0209999V000512200019N0112651N1+02101+00401999999ADDGA1041+021001999GF104991999999999999999999MA1102001999999REMMET056METAR ETGQ 201520Z VRB01KT 9999 SCT070 21/04 Q1020 BLU/;
0125102340999992009042016204+53133+009350FM-15+0061ETGQ V0200701N000512200019N0112651N1+02101+00301999999ADDGA1041+021001999GF104991999999999999999999MA1102001999999REMMET056METAR ETGQ 201620Z 07001KT 9999 SCT070 21/03 Q1020 BLU/;
0125102340999992009042017204+53133+009350FM-15+0061ETGQ V0200701N001012200019N0112651N1+02001+00401999999ADDGA1021+021001999GF102991999999999999999999MA1102001999999REMMET056METAR ETGQ 201720Z 07002KT 9999 FEW070 20/04 Q1020 BLU/;
0125102340999992009042018204+53133+009350FM-15+0061ETGQ V0201001N000512200019N0112651N1+01901+00401999999ADDGA1021+021001999GF102991999999999999999999MA1102101999999REMMET056METAR ETGQ 201820Z 10001KT 9999 FEW070 19/04 Q1021 BLU/;
0076102340999992009042104204+53133+009350FM-15+0061ETGQ V0209999C000012200019N0112651N1+00601+00501999999ADDMA1102301999999REMMET049METAR ETGQ 210420Z 00000KT 9999 06/05 Q1023 BLU/;
0076102340999992009042105204+53133+009350FM-15+0061ETGQ V0209999C000012200019N0112651N1+00801+00601999999ADDMA1102301999999REMMET049METAR ETGQ 210520Z 00000KT 9999 08/06 Q1023 BLU/;
0076102340999992009042106204+53133+009350FM-15+0061ETGQ V0209999C000012200019N0112651N1+00901+00601999999ADDMA1102301999999REMMET049METAR ETGQ 210620Z 00000KT 9999 09/06 Q1023 BLU/;
0076102340999992009042107204+53133+009350FM-15+0061ETGQ V0209999C000012200019N0112651N1+01101+00601999999ADDMA1102301999999REMMET049METAR ETGQ 210720Z 00000KT 9999 11/06 Q1023 BLU/;
0076102340999992009042108204+53133+009350FM-15+0061ETGQ V0209999C000012200019N0112651N1+01301+00601999999ADDMA1102301999999REMMET049METAR ETGQ 210820Z 00000KT 9999 13/06 Q1023 BLU/;
0076102340999992009042109204+53133+009350FM-15+0061ETGQ V0209999V000512200019N0112651N1+01501+00601999999ADDMA1102301999999REMMET049METAR ETGQ 210920Z VRB01KT 9999 15/06 Q1023 BLU/;
0076102340999992009042110204+53133+009350FM-15+0061ETGQ V0203601N001512200019N0112651N1+01801+00501999999ADDMA1102301999999REMMET049METAR ETGQ 211020Z 36003KT 9999 18/05 Q1023 BLU/;
0125102340999992009042111204+53133+009350FM-15+0061ETGQ V0203101N002112200019N0112651N1+01901+00501999999ADDGA1021+015001999GF102991999999999999999999MA1102201999999REMMET056METAR ETGQ 211120Z 31004KT 9999 FEW050 19/05 Q1022 BLU/;
0125102340999992009042112204+53133+009350FM-15+0061ETGQ V0203101N002612200019N0112651N1+02001+00501999999ADDGA1021+018001999GF102991999999999999999999MA1102201999999REMMET056METAR ETGQ 211220Z 31005KT 9999 FEW060 20/05 Q1022 BLU/;
0125102340999992009042113204+53133+009350FM-15+0061ETGQ V0203001N002612200019N0112651N1+02101+00401999999ADDGA1021+021001999GF102991999999999999999999MA1102101999999REMMET056METAR ETGQ 211320Z 30005KT 9999 FEW070 21/04 Q1021 BLU/;
0125102340999992009042114204+53133+009350FM-15+0061ETGQ V0203001N002612200019N0112651N1+02101+00401999999ADDGA1021+021001999GF102991999999999999999999MA1102101999999REMMET056METAR ETGQ 211420Z 30005KT 9999 FEW070 21/04 Q1021 BLU/;
0125102340999992009042115204+53133+009350FM-15+0061ETGQ V0203101N003112200019N0112651N1+02101+00401999999ADDGA1021+021001999GF102991999999999999999999MA1102101999999REMMET056METAR ETGQ 211520Z 31006KT 9999 FEW070 21/04 Q1021 BLU/;
0076102340999992009042116204+53133+009350FM-15+0061ETGQ V0203201N003612200019N0112651N1+02101+00201999999ADDMA1102001999999REMMET049METAR ETGQ 211620Z 32007KT 9999 21/02 Q1020 BLU/;
0076102340999992009042117204+53133+009350FM-15+0061ETGQ V0203101N003612200019N0112651N1+02001+00401999999ADDMA1102101999999REMMET049METAR ETGQ 211720Z 31007KT 9999 20/04 Q1021 BLU/;
0076102340999992009042118204+53133+009350FM-15+0061ETGQ V0203101N002112200019N0112651N1+01801+00401999999ADDMA1102101999999REMMET049METAR ETGQ 211820Z 31004KT 9999 18/04 Q1021 BLU/;
0125102340999992009042204204+53133+009350FM-15+0061ETGQ V0209999C000012200019N0080001N1+00801+00501999999ADDGA1021+075001999GF102991999999999999999999MA1102301999999REMMET056METAR ETGQ 220420Z 00000KT 8000 FEW250 08/05 Q1023 BLU/;
0076102340999992009042205204+53133+009350FM-15+0061ETGQ V0209999C000012200019N0080001N1+00901+00601999999ADDMA1102301999999REMMET049METAR ETGQ 220520Z 00000KT 8000 09/06 Q1023 BLU/;
0124102340999992009042206204+53133+009350FM-15+0061ETGQ V0203101N000512200019N0060001N1+01001+00701999999ADDGA1021+014701999GF102991999999999999999999MA1102401999999REMMET055METAR ETGQ 220620Z 31001KT 6000 FEW049 10/07 Q1024 WHT;
0124102340999992009042207204+53133+009350FM-15+0061ETGQ V0203401N002112200019N0070001N1+01101+00701999999ADDGA1021+004201999GF102991999999999999999999MA1102301999999REMMET055METAR ETGQ 220720Z 34004KT 7000 FEW014 11/07 Q1023 WHT;
0124102340999992009042208204+53133+009350FM-15+0061ETGQ V0203001N003112200019N0070001N1+01201+00601999999ADDGA1021+105001999GF102991999999999999999999MA1102401999999REMMET055METAR ETGQ 220820Z 30006KT 7000 FEW350 12/06 Q1024 WHT;
0124102340999992009042209204+53133+009350FM-15+0061ETGQ V0203001N003112200019N0070001N1+01301+00601999999ADDGA1021+045001999GF102991999999999999999999MA1102301999999REMMET055METAR ETGQ 220920Z 30006KT 7000 FEW150 13/06 Q1023 WHT;
0147102340999992009042210204+53133+009350FM-15+0061ETGQ V0203001N003610900019N0070001N1+01401+00601999999ADDGA1021+009001999GA2071+090001999GF107991999999999999999999MA1102301999999REMMET062METAR ETGQ 221020Z 30007KT 7000 FEW030 BKN340 14/06 Q1023 WHT;
0148102340999992009042211204+53133+009350FM-15+0061ETGQ V0203201N003110900019N0080001N1+01501+00701999999ADDGA1021+010501999GA2071+090001999GF107991999999999999999999MA1102301999999REMMET063METAR ETGQ 221120Z 32006KT 8000 FEW035 BKN320 15/07 Q1023 BLU/;
0148102340999992009042212204+53133+009350FM-15+0061ETGQ V0203501N004610900019N0080001N1+01501+00601999999ADDGA1041+010501999GA2071+090001999GF107991999999999999999999MA1102301999999REMMET063METAR ETGQ 221220Z 35009KT 8000 SCT035 BKN310 15/06 Q1023 BLU/;
0148102340999992009042213204+53133+009350FM-15+0061ETGQ V0203401N004610900019N0080001N1+01501+00501999999ADDGA1021+012001999GA2071+090001999GF107991999999999999999999MA1102201999999REMMET063METAR ETGQ 221320Z 34009KT 8000 FEW040 BKN310 15/05 Q1022 BLU/;
0148102340999992009042214204+53133+009350FM-15+0061ETGQ V0203401N004610900019N0080001N1+01601+00301999999ADDGA1021+015001999GA2071+090001999GF107991999999999999999999MA1102201999999REMMET063METAR ETGQ 221420Z 34009KT 8000 FEW050 BKN310 16/03 Q1022 BLU/;
0148102340999992009042215204+53133+009350FM-15+0061ETGQ V0203401N004612200019N0112651N1+01401+00101999999ADDGA1021+015001999GA2041+090001999GF104991999999999999999999MA1102201999999REMMET063METAR ETGQ 221520Z 34009KT 9999 FEW050 SCT310 14/01 Q1022 BLU/;
0124102340999992009042216204+53133+009350FM-15+0061ETGQ V0203301N004110180019N0112651N1+01501+00201999999ADDGA1071+018001999GF107991999999999999999999MA1102101999999REMMET055METAR ETGQ 221620Z 33008KT 9999 BKN060 15/02 Q1021 BLU;
0148102340999992009042217204+53133+009350FM-15+0061ETGQ V0203501N003112200019N0112651N1+01401+00301999999ADDGA1021+015001999GA2041+021001999GF104991999999999999999999MA1102101999999REMMET063METAR ETGQ 221720Z 35006KT 9999 FEW050 SCT070 14/03 Q1021 BLU/;
0125102340999992009042218204+53133+009350FM-15+0061ETGQ V0203401N003112200019N0112651N1+01301+00101999999ADDGA1021+021001999GF102991999999999999999999MA1102201999999REMMET056METAR ETGQ 221820Z 34006KT 9999 FEW070 13/01 Q1022 BLU/;
0124102340999992009042304204+53133+009350FM-15+0061ETGQ V0209999C000010105019N0090001N1+00601+00301999999ADDGA1071+010501999GF107991999999999999999999MA1102301999999REMMET055METAR ETGQ 230420Z 00000KT 9000 BKN035 06/03 Q1023 BLU;
0124102340999992009042305204+53133+009350FM-15+0061ETGQ V0209999C000010114019N0112651N1+00701+00301999999ADDGA1071+011401999GF107991999999999999999999MA1102301999999REMMET055METAR ETGQ 230520Z 00000KT 9999 BKN038 07/03 Q1023 BLU;
0124102340999992009042306204+53133+009350FM-15+0061ETGQ V0209999C000010096019N0112651N1+00701+00401999999ADDGA1071+009601999GF107991999999999999999999MA1102401999999REMMET055METAR ETGQ 230620Z 00000KT 9999 BKN032 07/04 Q1024 BLU;
0124102340999992009042307204+53133+009350FM-15+0061ETGQ V0209999V000510111019N0112651N1+00801+00401999999ADDGA1071+011101999GF107991999999999999999999MA1102401999999REMMET055METAR ETGQ 230720Z VRB01KT 9999 BKN037 08/04 Q1024 BLU;
0147102340999992009042308204+53133+009350FM-15+0061ETGQ V0203401N002110144019N0112651N1+01001+00501999999ADDGA1021+006001999GA2071+014401999GF107991999999999999999999MA1102401999999REMMET062METAR ETGQ 230820Z 34004KT 9999 FEW020 BKN048 10/05 Q1024 BLU;
0148102340999992009042309204+53133+009350FM-15+0061ETGQ V0203401N002612200019N0112651N1+01101+00401999999ADDGA1041+007501999GA2041+015001999GF104991999999999999999999MA1102401999999REMMET063METAR ETGQ 230920Z 34005KT 9999 SCT025 SCT050 11/04 Q1024 BLU/;
0125102340999992009042310204+53133+009350FM-15+0061ETGQ V0203101N003112200019N0112651N1+01101+00201999999ADDGA1041+012001999GF104991999999999999999999MA1102401999999REMMET056METAR ETGQ 231020Z 31006KT 9999 SCT040 11/02 Q1024 BLU/;
0148102340999992009042311204+53133+009350FM-15+0061ETGQ V0203101N003612200019N0112651N1+01201+00301999999ADDGA1021+011101999GA2041+015001999GF104991999999999999999999MA1102401999999REMMET063METAR ETGQ 231120Z 31007KT 9999 FEW037 SCT050 12/03 Q1024 BLU/;
0147102340999992009042312204+53133+009350FM-15+0061ETGQ V0203501N002610150019N0112651N1+01301+00201999999ADDGA1021+013201999GA2071+015001999GF107991999999999999999999MA1102301999999REMMET062METAR ETGQ 231220Z 35005KT 9999 FEW044 BKN050 13/02 Q1023 BLU;
0147102340999992009042313204+53133+009350FM-15+0061ETGQ V0200401N002610180019N0112651N1+01401+00101999999ADDGA1021+015001999GA2071+018001999GF107991999999999999999999MA1102301999999REMMET062METAR ETGQ 231320Z 04005KT 9999 FEW050 BKN060 14/01 Q1023 BLU;
0147102340999992009042314204+53133+009350FM-15+0061ETGQ V0200101N002610180019N0112651N1+01401+00201999999ADDGA1021+015001999GA2071+018001999GF107991999999999999999999MA1102301999999REMMET062METAR ETGQ 231420Z 01005KT 9999 FEW050 BKN060 14/02 Q1023 BLU;
0124102340999992009042315204+53133+009350FM-15+0061ETGQ V0200201N002110150019N0112651N1+01501+00201999999ADDGA1071+015001999GF107991999999999999999999MA1102301999999REMMET055METAR ETGQ 231520Z 02004KT 9999 BKN050 15/02 Q1023 BLU;
0124102340999992009042316204+53133+009350FM-15+0061ETGQ V0201001N002610150019N0112651N1+01401+00201999999ADDGA1071+015001999GF107991999999999999999999MA1102301999999REMMET055METAR ETGQ 231620Z 10005KT 9999 BKN050 14/02 Q1023 BLU;
0125102340999992009042317204+53133+009350FM-15+0061ETGQ V0200801N002112200019N0112651N1+01401+00201999999ADDGA1041+015001999GF104991999999999999999999MA1102201999999REMMET056METAR ETGQ 231720Z 08004KT 9999 SCT050 14/02 Q1022 BLU/;
0125102340999992009042318204+53133+009350FM-15+0061ETGQ V0201301N001512200019N0112651N1+01301+00301999999ADDGA1041+018001999GF104991999999999999999999MA1102301999999REMMET056METAR ETGQ 231820Z 13003KT 9999 SCT060 13/03 Q1023 BLU/;
0075102340999992009042404204+53133+009350FM-15+0061ETGQ V0201601N002112200019N0070001N1+00701+00501999999ADDMA1102301999999REMMET048METAR ETGQ 240420Z 16004KT 7000 07/05 Q1023 WHT;
0075102340999992009042405204+53133+009350FM-15+0061ETGQ V0201601N002112200019N0070001N1+00701+00501999999ADDMA1102301999999REMMET048METAR ETGQ 240520Z 16004KT 7000 07/05 Q1023 WHT;
0075102340999992009042406204+53133+009350FM-15+0061ETGQ V0201001N001512200019N0070001N1+00901+00501999999ADDMA1102301999999REMMET048METAR ETGQ 240620Z 10003KT 7000 09/05 Q1023 WHT;
0076102340999992009042407204+53133+009350FM-15+0061ETGQ V0201001N002112200019N0080001N1+01001+00501999999ADDMA1102301999999REMMET049METAR ETGQ 240720Z 10004KT 8000 10/05 Q1023 BLU/;
0125102340999992009042408204+53133+009350FM-15+0061ETGQ V0200801N002112200019N0080001N1+01201+00401999999ADDGA1021+009001999GF102991999999999999999999MA1102201999999REMMET056METAR ETGQ 240820Z 08004KT 8000 FEW030 12/04 Q1022 BLU/;
0125102340999992009042409204+53133+009350FM-15+0061ETGQ V0201101N002612200019N0112651N1+01401+00301999999ADDGA1021+010501999GF102991999999999999999999MA1102101999999REMMET056METAR ETGQ 240920Z 11005KT 9999 FEW035 14/03 Q1021 BLU/;
0125102340999992009042410204+53133+009350FM-15+0061ETGQ V0201001N002612200019N0112651N1+01501+00301999999ADDGA1021+014101999GF102991999999999999999999MA1102101999999REMMET056METAR ETGQ 241020Z 10005KT 9999 FEW047 15/03 Q1021 BLU/;
0125102340999992009042418204+53133+009350FM-15+0061ETGQ V0201501N002112200019N0112651N1+01701+00301999999ADDGA1021+021001999GF102991999999999999999999MA1101491999999REMMET056METAR ETGQ 241820Z 15004KT 9999 FEW070 17/03 Q1015 BLU/;
0140102340999992009042704204+53133+009350FM-15+0061ETGQ V0201901N00101007501CN0112651N1+01201+00801999999ADDGA1071+007501999GA2041+036001999MA1100411999999REMMET062METAR ETGQ 270420Z 19002KT 9999 BKN025 SCT120 12/08 Q1004 BLU;EQDQ01+000042SCOTCV
0140102340999992009042705204+53133+009350FM-15+0061ETGQ V0202501N00211006901CN0112651N1+01201+00901999999ADDGA1071+006901999GA2041+084001999MA1100511999999REMMET062METAR ETGQ 270520Z 25004KT 9999 BKN023 SCT280 12/09 Q1005 WHT;EQDQ01+000042SCOTCV
0147102340999992009042706204+53133+009350FM-15+0061ETGQ V0201901N002110069019N0112651N1+01301+00901999999ADDGA1071+006901999GA2071+013501999GF107991999999999999999999MA1100511999999REMMET062METAR ETGQ 270620Z 19004KT 9999 BKN023 BKN045 13/09 Q1005 WHT;
0147102340999992009042707204+53133+009350FM-15+0061ETGQ V0202201N002110069019N0112651N1+01301+00801999999ADDGA1071+006901999GA2071+013501999GF107991999999999999999999MA1100511999999REMMET062METAR ETGQ 270720Z 22004KT 9999 BKN023 BKN045 13/08 Q1005 WHT;
0171102340999992009042708204+53133+009350FM-15+0061ETGQ V0202101N00361013501CN0112651N1+01301+00701999999ADDGA1021+007501999GA2041+013501999GA3071+063001999GF107991999999999999999999MA1100611999999REMMET070METAR ETGQ 270820Z 21007KT 9999 FEW025 SCT045 BKN210 13/07 Q1006 BLU/;
0170102340999992009042709204+53133+009350FM-15+0061ETGQ V0202401N00211018001CN0112651N1+01401+00701999999ADDGA1021+007501999GA2041+018001999GA3071+057001999GF107991999999999999999999MA1100611999999REMMET069METAR ETGQ 270920Z 24004KT 9999 FEW025 SCT060 BKN190 14/07 Q1006 BLU;
0147102340999992009042710204+53133+009350FM-15+0061ETGQ V0202401N003110540019N0112651N1+01501+00601999999ADDGA1041+007501999GA2071+054001999GF107991999999999999999999MA1100611999999REMMET062METAR ETGQ 271020Z 24006KT 9999 SCT025 BKN180 15/06 Q1006 BLU;
0147102340999992009042711204+53133+009350FM-15+0061ETGQ V0202301N001510150019N0112651N1+01401+00601999999ADDGA1041+008401999GA2071+015001999GF107991999999999999999999MA1100611999999REMMET062METAR ETGQ 271120Z 23003KT 9999 SCT028 BKN050 14/06 Q1006 BLU;
0170102340999992009042712204+53133+009350FM-15+0061ETGQ V0202601N00261018001CN0112651N1+01501+00701999999ADDGA1021+011401999GA2041+018001999GA3071+027001999GF107991999999999999999999MA1100511999999REMMET069METAR ETGQ 271220Z 26005KT 9999 FEW038 SCT060 BKN090 15/07 Q1005 BLU;
0170102340999992009042713204+53133+009350FM-15+0061ETGQ V0202601N00311015001CN0112651N1+01501+00501999999ADDGA1021+011401999GA2041+015001999GA3071+027001999GF107991999999999999999999MA1100511999999REMMET069METAR ETGQ 271320Z 26006KT 9999 FEW038 SCT050 BKN090 15/05 Q1005 BLU;
0147102340999992009042714204+53133+009350FM-15+0061ETGQ V0202201N002610150019N0112651N1+01601+00501999999ADDGA1021+012001999GA2071+015001999GF107991999999999999999999MA1100511999999REMMET062METAR ETGQ 271420Z 22005KT 9999 FEW040 BKN050 16/05 Q1005 BLU;
0148102340999992009042715204+53133+009350FM-15+0061ETGQ V0201901N002612200019N0112651N1+01601+00501999999ADDGA1021+012001999GA2041+015001999GF104991999999999999999999MA1100411999999REMMET063METAR ETGQ 271520Z 19005KT 9999 FEW040 SCT050 16/05 Q1004 BLU/;
0171102340999992009042716204+53133+009350FM-15+0061ETGQ V0201901N00211015001CN0112651N1+01601+00401999999ADDGA1021+013201999GA2041+015001999GA3071+060001999GF107991999999999999999999MA1100411999999REMMET070METAR ETGQ 271620Z 19004KT 9999 FEW044 SCT050 BKN200 16/04 Q1004 BLU/;
0147102340999992009042717204+53133+009350FM-15+0061ETGQ V0201701N002610390019N0112651N1+01601+00401999999ADDGA1021+013501999GA2071+039001999GF107991999999999999999999MA1100311999999REMMET062METAR ETGQ 271720Z 17005KT 9999 FEW045 BKN130 16/04 Q1003 BLU;
0147102340999992009042718204+53133+009350FM-15+0061ETGQ V0201701N001510300019N0112651N1+01501+00501999999ADDGA1021+013501999GA2071+030001999GF107991999999999999999999MA1100311999999REMMET062METAR ETGQ 271820Z 17003KT 9999 FEW045 BKN100 15/05 Q1003 BLU;
0157102340999992009042804204+53133+009350FM-15+0061ETGQ V0202001N001010180019N0112651N1+01001+00901999999ADDGA1041+002401999GA2081+018001999GF108991999999999999999999MA1100101999999MW1611REMMET066METAR ETGQ 280420Z 20002KT 9999 -RA SCT008 OVC060 10/09 Q1001 BLU;
0180102340999992009042805204+53133+009350FM-15+0061ETGQ V0209999C00001010501CN0080001N1+01001+00901999999ADDGA1041+002401999GA2041+010501999GA3071+013501999GF107991999999999999999999MA1100101999999MW1611REMMET073METAR ETGQ 280520Z 00000KT 8000 -RA SCT008 SCT035 BKN045 10/09 Q1001 BLU;
0180102340999992009042806204+53133+009350FM-15+0061ETGQ V0201401N000510105019N0080001N1+01101+00901999999ADDGA1021+002401999GA2071+010501999GA3071+013501999GF107991999999999999999999MA1100201999999MW1611REMMET073METAR ETGQ 280620Z 14001KT 8000 -RA FEW008 BKN035 BKN045 11/09 Q1002 BLU;
0156102340999992009042807204+53133+009350FM-15+0061ETGQ V0209999C000010102019N0060001N1+01001+00901999999ADDGA1071+010201999GA2071+013201999GF107991999999999999999999MA1100201999999MW1631REMMET065METAR ETGQ 280720Z 00000KT 6000 RA BKN034 BKN044 10/09 Q1002 WHT;
0156102340999992009042808204+53133+009350FM-15+0061ETGQ V0201401N001010102019N0070001N1+01001+00801999999ADDGA1071+010201999GA2071+013501999GF107991999999999999999999MA1100201999999MW1631REMMET065METAR ETGQ 280820Z 14002KT 7000 RA BKN034 BKN045 10/08 Q1002 WHT;
0185102340999992009042809204+53133+009350FM-15+0061ETGQ V0201501N000510111019N0060001N1+01101+00901999999ADDGA1021+002701999GA2071+011101999GA3071+015001999GF107991999999999999999999MA1100311999999MW1611REMMET078METAR ETGQ 280920Z 15001KT 6000 -RA FEW009 BKN037 BKN050 11/09 Q1003 RERA WHT;
0180102340999992009042810204+53133+009350FM-15+0061ETGQ V0209999V001010105019N0070001N1+01101+00901999999ADDGA1041+002701999GA2071+010501999GA3071+014701999GF107991999999999999999999MA1100311999999MW1611REMMET073METAR ETGQ 281020Z VRB02KT 7000 -RA SCT009 BKN035 BKN049 11/09 Q1003 WHT;
0180102340999992009042811204+53133+009350FM-15+0061ETGQ V0201501N002610105019N0070001N1+01201+00901999999ADDGA1021+003601999GA2071+010501999GA3081+015001999GF108991999999999999999999MA1100311999999MW1611REMMET073METAR ETGQ 281120Z 15005KT 7000 -RA FEW012 BKN035 OVC050 12/09 Q1003 WHT;
0180102340999992009042812204+53133+009350FM-15+0061ETGQ V0202101N002610090019N0090001N1+01001+00701999999ADDGA1021+003601999GA2071+009001999GA3081+015001999GF108991999999999999999999MA1100411999999MW1611REMMET073METAR ETGQ 281220Z 21005KT 9000 -RA FEW012 BKN030 OVC050 10/07 Q1004 BLU;
0180102340999992009042813204+53133+009350FM-15+0061ETGQ V0202101N002110090019N0112651N1+01101+00801999999ADDGA1021+003601999GA2071+009001999GA3081+015001999GF108991999999999999999999MA1100511999999MW1611REMMET073METAR ETGQ 281320Z 21004KT 9999 -RA FEW012 BKN030 OVC050 11/08 Q1005 BLU;
0170102340999992009042814204+53133+009350FM-15+0061ETGQ V0202301N002610090019N0112651N1+01101+00701999999ADDGA1021+004501999GA2071+009001999GA3071+015001999GF107991999999999999999999MA1100511999999REMMET069METAR ETGQ 281420Z 23005KT 9999 FEW015 BKN030 BKN050 11/07 Q1005 BLU;
0170102340999992009042815204+53133+009350FM-15+0061ETGQ V0202001N001510105019N0112651N1+01201+00701999999ADDGA1041+005401999GA2071+010501999GA3071+015001999GF107991999999999999999999MA1100511999999REMMET069METAR ETGQ 281520Z 20003KT 9999 SCT018 BKN035 BKN050 12/07 Q1005 BLU;
0170102340999992009042816204+53133+009350FM-15+0061ETGQ V0202201N00211010501CN0112651N1+01201+00601999999ADDGA1021+006001999GA2041+010501999GA3071+015001999GF107991999999999999999999MA1100511999999REMMET069METAR ETGQ 281620Z 22004KT 9999 FEW020 SCT035 BKN050 12/06 Q1005 BLU;
0147102340999992009042817204+53133+009350FM-15+0061ETGQ V0202401N001510420019N0112651N1+01201+00601999999ADDGA1021+006001999GA2071+042001999GF107991999999999999999999MA1100511999999REMMET062METAR ETGQ 281720Z 24003KT 9999 FEW020 BKN140 12/06 Q1005 BLU;
0170102340999992009042818204+53133+009350FM-15+0061ETGQ V0209999V000510420019N0112651N1+01101+00501999999ADDGA1021+009001999GA2071+042001999GA3071+054001999GF107991999999999999999999MA1100611999999REMMET069METAR ETGQ 281820Z VRB01KT 9999 FEW030 BKN140 BKN180 11/05 Q1006 BLU;
0190102340999992009042904204+53133+009350FM-15+0061ETGQ V0209999C000010420019N0020001N1+00701+00601999999ADDGA1041+000901999GA2071+042001999GA3071+051001999GF107991999999999999999999MA1100711999999MW1101MW2401REMMET077METAR ETGQ 290420Z 00000KT 2000 VCFG BR SCT003 BKN140 BKN170 07/06 Q1007 YLO;
0167102340999992009042905204+53133+009350FM-15+0061ETGQ V0209999C000010009019N0030001N1+00701+00601999999ADDGA1071+000901999GA2071+001501999GF107991999999999999999999MA1100811999999MW1101MW2401REMMET070METAR ETGQ 290520Z 00000KT 3000 VCFG BR BKN003 BKN005 07/06 Q1008 YLO;
0179102340999992009042906204+53133+009350FM-15+0061ETGQ V0209999C00001001501CN0040001N1+00801+00601999999ADDGA1021+000901999GA2041+001501999GA3071+066001999GF107991999999999999999999MA1100811999999MW1101REMMET072METAR ETGQ 290620Z 00000KT 4000 BR FEW003 SCT005 BKN220 08/06 Q1008 GRN;
0179102340999992009042907204+53133+009350FM-15+0061ETGQ V0209999C000010024019N0050001N1+00901+00701999999ADDGA1021+001801999GA2071+002401999GA3071+063001999GF107991999999999999999999MA1100811999999MW1101REMMET072METAR ETGQ 290720Z 00000KT 5000 BR FEW006 BKN008 BKN210 09/07 Q1008 GRN;
0170102340999992009042908204+53133+009350FM-15+0061ETGQ V0209999V000510360019N0070001N1+01001+00701999999ADDGA1021+003301999GA2071+036001999GA3081+045001999GF108991999999999999999999MA1100811999999REMMET069METAR ETGQ 290820Z VRB01KT 7000 FEW011 BKN120 OVC150 10/07 Q1008 WHT;
0170102340999992009042909204+53133+009350FM-15+0061ETGQ V0203301N000510330019N0112651N1+01101+00701999999ADDGA1021+004501999GA2071+033001999GA3071+060001999GF107991999999999999999999MA1100911999999REMMET069METAR ETGQ 290920Z 33001KT 9999 FEW015 BKN110 BKN200 11/07 Q1009 BLU;
0147102340999992009042910204+53133+009350FM-15+0061ETGQ V0209999V000510300019N0112651N1+01401+00601999999ADDGA1021+009001999GA2071+030001999GF107991999999999999999999MA1100911999999REMMET062METAR ETGQ 291020Z VRB01KT 9999 FEW030 BKN100 14/06 Q1009 BLU;
0170102340999992009042911204+53133+009350FM-15+0061ETGQ V0203101N00211030001CN0112651N1+01501+00301999999ADDGA1021+013501999GA2041+030001999GA3071+036001999GF107991999999999999999999MA1100911999999REMMET069METAR ETGQ 291120Z 31004KT 9999 FEW045 SCT100 BKN120 15/03 Q1009 BLU;
0147102340999992009042912204+53133+009350FM-15+0061ETGQ V0200201N002610270019N0112651N1+01601+00501999999ADDGA1041+012001999GA2071+027001999GF107991999999999999999999MA1100911999999REMMET062METAR ETGQ 291220Z 02005KT 9999 SCT040 BKN090 16/05 Q1009 BLU;
0161102340999992009042913204+53133+009350FM-15+0061ETGQ V0203401N002610240019N0112651N1+01501+00701999999ADDGA1041+009001091GA2071+024001999GF107991999999999999999999MA1100911999999MW1801REMMET070METAR ETGQ 291320Z 34005KT 9999 -SHRA SCT030CB BKN080 15/07 Q1009 BLU;
0172102340999992009042914204+53133+009350FM-15+0061ETGQ V0203001N00151009001CN0112651N1+01501+00501999999ADDGA1021+005401999GA2041+009001091GA3071+024001999GF107991999999999999999999MA1101021999999REMMET071METAR ETGQ 291420Z 30003KT 9999 FEW018 SCT030CB BKN080 15/05 Q1010 BLU;
0184102340999992009042915204+53133+009350FM-15+0061ETGQ V0200501N00211007501CN0112651N1+01401+00501999999ADDGA1021+004501999GA2041+007501091GA3071+024001999GF107991999999999999999999MA1101021999999MW1801REMMET077METAR ETGQ 291520Z 05004KT 9999 -SHRA FEW015 SCT025CB BKN080 14/05 Q1010 BLU;
0161102340999992009042916204+53133+009350FM-15+0061ETGQ V0201501N001010150019N0112651N1+01301+00701999999ADDGA1021+009001091GA2071+015001999GF107991999999999999999999MA1101081999999MW1801REMMET070METAR ETGQ 291620Z 15002KT 9999 -SHRA FEW030CB BKN050 13/07 Q1011 BLU;
0170102340999992009042917204+53133+009350FM-15+0061ETGQ V0201401N00211018001CN0112651N1+01301+00701999999ADDGA1021+009001999GA2041+018001999GA3071+027001999GF107991999999999999999999MA1101191999999REMMET069METAR ETGQ 291720Z 14004KT 9999 FEW030 SCT060 BKN090 13/07 Q1012 BLU;
0170102340999992009042918204+53133+009350FM-15+0061ETGQ V0201701N00151012001CN0112651N1+01201+00801999999ADDGA1021+009001999GA2041+012001999GA3071+018001999GF107991999999999999999999MA1101291999999REMMET069METAR ETGQ 291820Z 17003KT 9999 FEW030 SCT040 BKN060 12/08 Q1013 BLU;
0156102340999992009043004204+53133+009350FM-15+0061ETGQ V0202101N001510150019N0015001N1+00801+00701999999ADDGA1021+000901999GA2071+015001999GF107991999999999999999999MA1101691999999MW1101REMMET065METAR ETGQ 300420Z 21003KT 1500 BR FEW003 BKN050 08/07 Q1017 AMB;
0156102340999992009043005204+53133+009350FM-15+0061ETGQ V0202201N001010150019N0025001N1+00801+00701999999ADDGA1041+001201999GA2071+015001999GF107991999999999999999999MA1101691999999MW1101REMMET065METAR ETGQ 300520Z 22002KT 2500 BR SCT004 BKN050 08/07 Q1017 YLO;
0179102340999992009043006204+53133+009350FM-15+0061ETGQ V0209999C000010150019N0025001N1+00901+00701999999ADDGA1021+001201999GA2071+015001999GA3071+033001999GF107991999999999999999999MA1101691999999MW1101REMMET072METAR ETGQ 300620Z 00000KT 2500 BR FEW004 BKN050 BKN110 09/07 Q1017 YLO;
0156102340999992009043007204+53133+009350FM-15+0061ETGQ V0209999C000010210019N0030001N1+01001+00701999999ADDGA1041+015001999GA2071+021001999GF107991999999999999999999MA1101801999999MW1101REMMET065METAR ETGQ 300720Z 00000KT 3000 BR SCT050 BKN070 10/07 Q1018 YLO;
0156102340999992009043008204+53133+009350FM-15+0061ETGQ V0209999C000010144019N0035001N1+01001+00701999999ADDGA1021+001201999GA2071+014401999GF107991999999999999999999MA1101801999999MW1101REMMET065METAR ETGQ 300820Z 00000KT 3500 BR FEW004 BKN048 10/07 Q1018 YLO;
0156102340999992009043009204+53133+009350FM-15+0061ETGQ V0209999C000010117019N0035001N1+01101+00801999999ADDGA1021+003601999GA2071+011701999GF107991999999999999999999MA1101801999999MW1101REMMET065METAR ETGQ 300920Z 00000KT 3500 BR FEW012 BKN039 11/08 Q1018 YLO;
0179102340999992009043010204+53133+009350FM-15+0061ETGQ V0209999C000010117019N0035001N1+01201+00801999999ADDGA1021+003601999GA2071+011701999GA3071+018001999GF107991999999999999999999MA1101801999999MW1051REMMET072METAR ETGQ 301020Z 00000KT 3500 HZ FEW012 BKN039 BKN060 12/08 Q1018 YLO;
0170102340999992009043011204+53133+009350FM-15+0061ETGQ V0209999C000010090019N0070001N1+01301+00701999999ADDGA1021+005401999GA2071+009001999GA3071+015001999GF107991999999999999999999MA1101801999999REMMET069METAR ETGQ 301120Z 00000KT 7000 FEW018 BKN030 BKN050 13/07 Q1018 WHT;
0147102340999992009043012204+53133+009350FM-15+0061ETGQ V0209999V000510084019N0112651N1+01401+00801999999ADDGA1021+006001999GA2071+008401999GF107991999999999999999999MA1101801999999REMMET062METAR ETGQ 301220Z VRB01KT 9999 FEW020 BKN028 14/08 Q1018 BLU;
0147102340999992009043013204+53133+009350FM-15+0061ETGQ V0209999C000010084019N0112651N1+01401+00701999999ADDGA1021+006001999GA2071+008401999GF107991999999999999999999MA1101801999999REMMET062METAR ETGQ 301320Z 00000KT 9999 FEW020 BKN028 14/07 Q1018 BLU;
0170102340999992009043014204+53133+009350FM-15+0061ETGQ V0209999C00001010501CN0112651N1+01501+00801999999ADDGA1021+007501999GA2041+010501999GA3071+013501999GF107991999999999999999999MA1101801999999REMMET069METAR ETGQ 301420Z 00000KT 9999 FEW025 SCT035 BKN045 15/08 Q1018 BLU;
0147102340999992009043015204+53133+009350FM-15+0061ETGQ V0209999C000010126019N0112651N1+01501+00801999999ADDGA1041+008401999GA2071+012601999GF107991999999999999999999MA1101801999999REMMET062METAR ETGQ 301520Z 00000KT 9999 SCT028 BKN042 15/08 Q1018 BLU;
0148102340999992009043016204+53133+009350FM-15+0061ETGQ V0209999C000012200019N0112651N1+01501+00801999999ADDGA1021+008401999GA2041+014101999GF104991999999999999999999MA1101801999999REMMET063METAR ETGQ 301620Z 00000KT 9999 FEW028 SCT047 15/08 Q1018 BLU/;
0148102340999992009043017204+53133+009350FM-15+0061ETGQ V0209999C000012200019N0112651N1+01601+00801999999ADDGA1021+009001999GA2041+012001999GF104991999999999999999999MA1101801999999REMMET063METAR ETGQ 301720Z 00000KT 9999 FEW030 SCT040 16/08 Q1018 BLU/;
0147102340999992009043018204+53133+009350FM-15+0061ETGQ V0209999C000010093019N0112651N1+01501+00901999999ADDGA1071+009301999GA2071+081001999GF107991999999999999999999MA1101901999999REMMET062METAR ETGQ 301820Z 00000KT 9999 BKN031 BKN270 15/09 Q1019 BLU;
0138102340999992009050116004+53133+009350FM-16+0061ETGQ V0203101N002612200019N0112651N1+02201+00701999999ADDGA1041+015001091GF104991999999999999999999MA1102101999999MW1171REMMET063SPECI ETGQ 011600Z 31005KT 9999 VCTS SCT050CB 22/07 Q1021 BLU/;
0125102340999992009050404204+53133+009350FM-15+0061ETGQ V0202701N001012200019N0112651N1+00601+00201999999ADDGA1041+012001999GF104991999999999999999999MA1102611999999REMMET056METAR ETGQ 040420Z 27002KT 9999 SCT040 06/02 Q1026 BLU/;
0125102340999992009050405204+53133+009350FM-15+0061ETGQ V0209999V001012200019N0112651N1+00601+00301999999ADDGA1041+007501999GF104991999999999999999999MA1102611999999REMMET056METAR ETGQ 040520Z VRB02KT 9999 SCT025 06/03 Q1026 BLU/;
0125102340999992009050406204+53133+009350FM-15+0061ETGQ V0203201N002112200019N0112651N1+00701+00301999999ADDGA1041+007501999GF104991999999999999999999MA1102711999999REMMET056METAR ETGQ 040620Z 32004KT 9999 SCT025 07/03 Q1027 BLU/;
0125102340999992009050407204+53133+009350FM-15+0061ETGQ V0203301N003112200019N0112651N1+00901+00301999999ADDGA1041+013801999GF104991999999999999999999MA1102711999999REMMET056METAR ETGQ 040720Z 33006KT 9999 SCT046 09/03 Q1027 BLU/;
0147102340999992009050408204+53133+009350FM-15+0061ETGQ V0203201N003610150019N0112651N1+00901+00301999999ADDGA1021+008401999GA2071+015001999GF107991999999999999999999MA1102711999999REMMET062METAR ETGQ 040820Z 32007KT 9999 FEW028 BKN050 09/03 Q1027 BLU;
0125102340999992009050410204+53133+009350FM-15+0061ETGQ V0203401N002612200019N0112651N1+01101+00201999999ADDGA1041+018001999GF104991999999999999999999MA1102611999999REMMET056METAR ETGQ 041020Z 34005KT 9999 SCT060 11/02 Q1026 BLU/;
0126102340999992009050411204+53133+009350FM-15+0061ETGQ V0203401N003612200019N0112651N1+01301+00001999999ADDGA1041+018001999GF104991999999999999999999MA1102611999999REMMET057METAR ETGQ 041120Z 34007KT 9999 SCT060 13/M00 Q1026 BLU/;
0125102340999992009050412204+53133+009350FM-15+0061ETGQ V0203201N004110210019N0112651N1+01301-00201999999ADDGA1071+021001999GF107991999999999999999999MA1102511999999REMMET056METAR ETGQ 041220Z 32008KT 9999 BKN070 13/M02 Q1025 BLU;
0148102340999992009050413204+53133+009350FM-15+0061ETGQ V0203201N003610240019N0112651N1+01301-00101999999ADDGA1021+018001999GA2071+024001999GF107991999999999999999999MA1102511999999REMMET063METAR ETGQ 041320Z 32007KT 9999 FEW060 BKN080 13/M01 Q1025 BLU;
0148102340999992009050414204+53133+009350FM-15+0061ETGQ V0203301N003110240019N0112651N1+01401-00101999999ADDGA1021+018001999GA2071+024001999GF107991999999999999999999MA1102511999999REMMET063METAR ETGQ 041420Z 33006KT 9999 FEW060 BKN080 14/M01 Q1025 BLU;
0148102340999992009050415204+53133+009350FM-15+0061ETGQ V0203401N002610240019N0112651N1+01301-00201999999ADDGA1021+018001999GA2071+024001999GF107991999999999999999999MA1102511999999REMMET063METAR ETGQ 041520Z 34005KT 9999 FEW060 BKN080 13/M02 Q1025 BLU;
0148102340999992009050416204+53133+009350FM-15+0061ETGQ V0203401N001510270019N0112651N1+01401-00101999999ADDGA1021+018001999GA2071+027001999GF107991999999999999999999MA1102401999999REMMET063METAR ETGQ 041620Z 34003KT 9999 FEW060 BKN090 14/M01 Q1024 BLU;
0149102340999992009050417204+53133+009350FM-15+0061ETGQ V0203101N001512200019N0112651N1+01301+00001999999ADDGA1021+018001999GA2041+027001999GF104991999999999999999999MA1102401999999REMMET064METAR ETGQ 041720Z 31003KT 9999 FEW060 SCT090 13/M00 Q1024 BLU/;
0149102340999992009050418204+53133+009350FM-15+0061ETGQ V0200601N001012200019N0112651N1+01301-00101999999ADDGA1021+018001999GA2041+027001999GF104991999999999999999999MA1102401999999REMMET064METAR ETGQ 041820Z 06002KT 9999 FEW060 SCT090 13/M01 Q1024 BLU/;
0124102340999992009050504204+53133+009350FM-15+0061ETGQ V0209999C000010180019N0112651N1+00801+00301999999ADDGA1071+018001999GF107991999999999999999999MA1102201999999REMMET055METAR ETGQ 050420Z 00000KT 9999 BKN060 08/03 Q1022 BLU;
0147102340999992009050505204+53133+009350FM-15+0061ETGQ V0202101N001510180019N0112651N1+00901+00301999999ADDGA1071+018001999GA2071+030001999GF107991999999999999999999MA1102201999999REMMET062METAR ETGQ 050520Z 21003KT 9999 BKN060 BKN100 09/03 Q1022 BLU;
0124102340999992009050506204+53133+009350FM-15+0061ETGQ V0202301N002110123019N0112651N1+00901+00401999999ADDGA1071+012301999GF107991999999999999999999MA1102201999999REMMET055METAR ETGQ 050620Z 23004KT 9999 BKN041 09/04 Q1022 BLU;
0124102340999992009050507204+53133+009350FM-15+0061ETGQ V0202101N003110096019N0112651N1+01001+00401999999ADDGA1071+009601999GF107991999999999999999999MA1102201999999REMMET055METAR ETGQ 050720Z 21006KT 9999 BKN032 10/04 Q1022 BLU;
0124102340999992009050508204+53133+009350FM-15+0061ETGQ V0202201N002610084019N0112651N1+01001+00401999999ADDGA1071+008401999GF107991999999999999999999MA1102201999999REMMET055METAR ETGQ 050820Z 22005KT 9999 BKN028 10/04 Q1022 BLU;
0124102340999992009050509204+53133+009350FM-15+0061ETGQ V0201901N003110081019N0112651N1+01101+00501999999ADDGA1071+008101999GF107991999999999999999999MA1102201999999REMMET055METAR ETGQ 050920Z 19006KT 9999 BKN027 11/05 Q1022 BLU;
0124102340999992009050510204+53133+009350FM-15+0061ETGQ V0202601N002610081019N0112651N1+01101+00701999999ADDGA1071+008101999GF107991999999999999999999MA1102201999999REMMET055METAR ETGQ 051020Z 26005KT 9999 BKN027 11/07 Q1022 BLU;
0134102340999992009050511204+53133+009350FM-15+0061ETGQ V0202101N001510072019N0112651N1+01101+00801999999ADDGA1071+007201999GF107991999999999999999999MA1102201999999MW1511REMMET059METAR ETGQ 051120Z 21003KT 9999 -DZ BKN024 11/08 Q1022 WHT;
0152102340999992009050512204+53133+009350FM-15+0061ETGQ V0202401N002610072019N0112651N1+01201+00701999999ADDGA1041+006001999GA2081+007201999GF108991999999999999999999MA1102201999999REMMET067METAR ETGQ 051220Z 24005KT 9999 SCT020 OVC024 12/07 Q1022 REDZ WHT;
0152102340999992009050513204+53133+009350FM-15+0061ETGQ V0203601N002110090019N0112651N1+01201+00801999999ADDGA1021+006001999GA2081+009001999GF108991999999999999999999MA1102101999999REMMET067METAR ETGQ 051320Z 36004KT 9999 FEW020 OVC030 12/08 Q1021 REDZ BLU;
0152102340999992009050514204+53133+009350FM-15+0061ETGQ V0202201N003110105019N0080001N1+01201+00901999999ADDGA1041+006001999GA2081+010501999GF108991999999999999999999MA1102101999999REMMET067METAR ETGQ 051420Z 22006KT 8000 SCT020 OVC035 12/09 Q1021 REDZ BLU;
0147102340999992009050515204+53133+009350FM-15+0061ETGQ V0202701N003110090019N0080001N1+01201+00901999999ADDGA1041+007501999GA2081+009001999GF108991999999999999999999MA1102101999999REMMET062METAR ETGQ 051520Z 27006KT 8000 SCT025 OVC030 12/09 Q1021 BLU;
0157102340999992009050516204+53133+009350FM-15+0061ETGQ V0201601N002610090019N0080001N1+01201+00901999999ADDGA1041+007501999GA2081+009001999GF108991999999999999999999MA1102101999999MW1611REMMET066METAR ETGQ 051620Z 16005KT 8000 -RA SCT025 OVC030 12/09 Q1021 BLU;
0134102340999992009050517204+53133+009350FM-15+0061ETGQ V0202201N002610084019N0060001N1+01101+01001999999ADDGA1081+008401999GF108991999999999999999999MA1102001999999MW1611REMMET059METAR ETGQ 051720Z 22005KT 6000 -RA OVC028 11/10 Q1020 WHT;
0134102340999992009050518204+53133+009350FM-15+0061ETGQ V0202201N002610090019N0060001N1+01101+01001999999ADDGA1081+009001999GF108991999999999999999999MA1102001999999MW1611REMMET059METAR ETGQ 051820Z 22005KT 6000 -RA OVC030 11/10 Q1020 WHT;
0147102340999992009050604204+53133+009350FM-15+0061ETGQ V0202601N002110300019N0112651N1+01201+00701999999ADDGA1041+009001999GA2071+030001999GF107991999999999999999999MA1101691999999REMMET062METAR ETGQ 060420Z 26004KT 9999 SCT030 BKN100 12/07 Q1017 BLU;
0147102340999992009050605204+53133+009350FM-15+0061ETGQ V0201601N002110300019N0112651N1+01201+00701999999ADDGA1041+009001999GA2071+030001999GF107991999999999999999999MA1101691999999REMMET062METAR ETGQ 060520Z 16004KT 9999 SCT030 BKN100 12/07 Q1017 BLU;
0124102340999992009050606204+53133+009350FM-15+0061ETGQ V0202501N002610105019N0112651N1+01201+00601999999ADDGA1071+010501999GF107991999999999999999999MA1101801999999REMMET055METAR ETGQ 060620Z 25005KT 9999 BKN035 12/06 Q1018 BLU;
0124102340999992009050607204+53133+009350FM-15+0061ETGQ V0202401N002610105019N0112651N1+01201+00601999999ADDGA1071+010501999GF107991999999999999999999MA1101801999999REMMET055METAR ETGQ 060720Z 24005KT 9999 BKN035 12/06 Q1018 BLU;
0147102340999992009050608204+53133+009350FM-15+0061ETGQ V0202701N002110105019N0112651N1+01301+00701999999ADDGA1071+010501999GA2071+027001999GF107991999999999999999999MA1101801999999REMMET062METAR ETGQ 060820Z 27004KT 9999 BKN035 BKN090 13/07 Q1018 BLU;
0124102340999992009050609204+53133+009350FM-15+0061ETGQ V0202501N003610114019N0112651N1+01401+00601999999ADDGA1071+011401999GF107991999999999999999999MA1101801999999REMMET055METAR ETGQ 060920Z 25007KT 9999 BKN038 14/06 Q1018 BLU;
0124102340999992009050610204+53133+009350FM-15+0061ETGQ V0202601N003110108019N0112651N1+01401+00601999999ADDGA1071+010801999GF107991999999999999999999MA1101801999999REMMET055METAR ETGQ 061020Z 26006KT 9999 BKN036 14/06 Q1018 BLU;
0124102340999992009050611204+53133+009350FM-15+0061ETGQ V0202601N002610114019N0112651N1+01501+00701999999ADDGA1071+011401999GF107991999999999999999999MA1101801999999REMMET055METAR ETGQ 061120Z 26005KT 9999 BKN038 15/07 Q1018 BLU;
0124102340999992009050612204+53133+009350FM-15+0061ETGQ V0202701N002610111019N0112651N1+01501+00701999999ADDGA1071+011101999GF107991999999999999999999MA1101801999999REMMET055METAR ETGQ 061220Z 27005KT 9999 BKN037 15/07 Q1018 BLU;
0124102340999992009050613204+53133+009350FM-15+0061ETGQ V0203301N002610105019N0112651N1+01401+00801999999ADDGA1071+010501999GF107991999999999999999999MA1101801999999REMMET055METAR ETGQ 061320Z 33005KT 9999 BKN035 14/08 Q1018 BLU;
0124102340999992009050614204+53133+009350FM-15+0061ETGQ V0200101N001010114019N0112651N1+01401+00801999999ADDGA1071+011401999GF107991999999999999999999MA1101801999999REMMET055METAR ETGQ 061420Z 01002KT 9999 BKN038 14/08 Q1018 BLU;
0124102340999992009050615204+53133+009350FM-15+0061ETGQ V0209999C000010123019N0112651N1+01501+00801999999ADDGA1071+012301999GF107991999999999999999999MA1101801999999REMMET055METAR ETGQ 061520Z 00000KT 9999 BKN041 15/08 Q1018 BLU;
0124102340999992009050616204+53133+009350FM-15+0061ETGQ V0202801N002110141019N0112651N1+01601+00801999999ADDGA1071+014101999GF107991999999999999999999MA1101801999999REMMET055METAR ETGQ 061620Z 28004KT 9999 BKN047 16/08 Q1018 BLU;
0124102340999992009050617204+53133+009350FM-15+0061ETGQ V0202601N001510132019N0112651N1+01501+00801999999ADDGA1071+013201999GF107991999999999999999999MA1101801999999REMMET055METAR ETGQ 061720Z 26003KT 9999 BKN044 15/08 Q1018 BLU;
0124102340999992009050618204+53133+009350FM-15+0061ETGQ V0202501N002110114019N0112651N1+01501+00901999999ADDGA1071+011401999GF107991999999999999999999MA1101801999999REMMET055METAR ETGQ 061820Z 25004KT 9999 BKN038 15/09 Q1018 BLU;
0076102340999992009050704204+53133+009350FM-15+0061ETGQ V0209999C000012200019N0112651N1+00701+00601999999ADDMA1101901999999REMMET049METAR ETGQ 070420Z 00000KT 9999 07/06 Q1019 BLU/;
0076102340999992009050705204+53133+009350FM-15+0061ETGQ V0209999C000012200019N0112651N1+01001+00801999999ADDMA1101901999999REMMET049METAR ETGQ 070520Z 00000KT 9999 10/08 Q1019 BLU/;
0125102340999992009050706204+53133+009350FM-15+0061ETGQ V0209999V001012200019N0112651N1+01201+00801999999ADDGA1021+010801999GF102991999999999999999999MA1101901999999REMMET056METAR ETGQ 070620Z VRB02KT 9999 FEW036 12/08 Q1019 BLU/;
0125102340999992009050707204+53133+009350FM-15+0061ETGQ V0202201N002112200019N0112651N1+01401+00901999999ADDGA1021+010501999GF102991999999999999999999MA1101901999999REMMET056METAR ETGQ 070720Z 22004KT 9999 FEW035 14/09 Q1019 BLU/;
0125102340999992009050709204+53133+009350FM-15+0061ETGQ V0202501N002612200019N0112651N1+01701+00901999999ADDGA1041+009901999GF104991999999999999999999MA1101801999999REMMET056METAR ETGQ 070920Z 25005KT 9999 SCT033 17/09 Q1018 BLU/;
0125102340999992009050710204+53133+009350FM-15+0061ETGQ V0202201N002612200019N0112651N1+01701+00801999999ADDGA1041+010801999GF104991999999999999999999MA1101801999999REMMET056METAR ETGQ 071020Z 22005KT 9999 SCT036 17/08 Q1018 BLU/;
0125102340999992009050711204+53133+009350FM-15+0061ETGQ V0202101N002112200019N0112651N1+01801+00701999999ADDGA1041+012001999GF104991999999999999999999MA1101801999999REMMET056METAR ETGQ 071120Z 21004KT 9999 SCT040 18/07 Q1018 BLU/;
0125102340999992009050712204+53133+009350FM-15+0061ETGQ V0202601N002112200019N0112651N1+01901+00601999999ADDGA1041+014401999GF104991999999999999999999MA1101801999999REMMET056METAR ETGQ 071220Z 26004KT 9999 SCT048 19/06 Q1018 BLU/;
0125102340999992009050713204+53133+009350FM-15+0061ETGQ V0202401N002612200019N0112651N1+02001+00701999999ADDGA1021+015001999GF102991999999999999999999MA1101691999999REMMET056METAR ETGQ 071320Z 24005KT 9999 FEW050 20/07 Q1017 BLU/;
0125102340999992009050714204+53133+009350FM-15+0061ETGQ V0200201N002112200019N0112651N1+02101+00701999999ADDGA1021+015001999GF102991999999999999999999MA1101591999999REMMET056METAR ETGQ 071420Z 02004KT 9999 FEW050 21/07 Q1016 BLU/;
0148102340999992009050715204+53133+009350FM-15+0061ETGQ V0202601N002112200019N0112651N1+02101+00701999999ADDGA1021+015001999GA2041+090001999GF104991999999999999999999MA1101591999999REMMET063METAR ETGQ 071520Z 26004KT 9999 FEW050 SCT320 21/07 Q1016 BLU/;
0148102340999992009050716204+53133+009350FM-15+0061ETGQ V0200601N001510870019N0112651N1+02101+00701999999ADDGA1021+015001999GA2071+087001999GF107991999999999999999999MA1101491999999REMMET063METAR ETGQ 071620Z 06003KT 9999 FEW050 BKN290 21/07 Q1015 BLU/;
0148102340999992009050717204+53133+009350FM-15+0061ETGQ V0209999V001010870019N0112651N1+02101+00701999999ADDGA1021+015001999GA2071+087001999GF107991999999999999999999MA1101491999999REMMET063METAR ETGQ 071720Z VRB02KT 9999 FEW050 BKN290 21/07 Q1015 BLU/;
0148102340999992009050718204+53133+009350FM-15+0061ETGQ V0202401N000512200019N0112651N1+02101+00701999999ADDGA1021+015001999GA2041+087001999GF104991999999999999999999MA1101491999999REMMET063METAR ETGQ 071820Z 24001KT 9999 FEW050 SCT290 21/07 Q1015 BLU/;
0149102340999992009050804204+53133+009350FM-15+0061ETGQ V0209999C000010270019N0112651N1+01301+01101999999ADDGA1041+007501091GA2071+027001999GF107991999999999999999999MA1101191999999REMMET064METAR ETGQ 080420Z 00000KT 9999 SCT025CB BKN090 13/11 Q1012 BLU;
0147102340999992009050805204+53133+009350FM-15+0061ETGQ V0209999C000010300019N0112651N1+01301+01101999999ADDGA1041+012001999GA2071+030001999GF107991999999999999999999MA1101291999999REMMET062METAR ETGQ 080520Z 00000KT 9999 SCT040 BKN100 13/11 Q1013 BLU;
0147102340999992009050806204+53133+009350FM-15+0061ETGQ V0201601N002110180019N0112651N1+01401+01201999999ADDGA1041+009001999GA2071+018001999GF107991999999999999999999MA1101291999999REMMET062METAR ETGQ 080620Z 16004KT 9999 SCT030 BKN060 14/12 Q1013 BLU;
0124102340999992009050807204+53133+009350FM-15+0061ETGQ V0201601N001010099019N0112651N1+01501+01201999999ADDGA1071+009901999GF107991999999999999999999MA1101291999999REMMET055METAR ETGQ 080720Z 16002KT 9999 BKN033 15/12 Q1013 BLU;
0147102340999992009050808204+53133+009350FM-15+0061ETGQ V0202101N002110300019N0112651N1+01701+01201999999ADDGA1021+009001999GA2071+030001999GF107991999999999999999999MA1101291999999REMMET062METAR ETGQ 080820Z 21004KT 9999 FEW030 BKN100 17/12 Q1013 BLU;
0148102340999992009050809204+53133+009350FM-15+0061ETGQ V0202101N002110900019N0112651N1+01901+01301999999ADDGA1041+012001999GA2071+090001999GF107991999999999999999999MA1101291999999REMMET063METAR ETGQ 080920Z 21004KT 9999 SCT040 BKN300 19/13 Q1013 BLU/;
0147102340999992009050810204+53133+009350FM-15+0061ETGQ V0202201N002110126019N0112651N1+01901+01201999999ADDGA1021+007501999GA2071+012601999GF107991999999999999999999MA1101291999999REMMET062METAR ETGQ 081020Z 22004KT 9999 FEW025 BKN042 19/12 Q1013 BLU;
0147102340999992009050811204+53133+009350FM-15+0061ETGQ V0202401N002610150019N0112651N1+01901+01201999999ADDGA1021+009901999GA2071+015001999GF107991999999999999999999MA1101291999999REMMET062METAR ETGQ 081120Z 24005KT 9999 FEW033 BKN050 19/12 Q1013 BLU;
0147102340999992009050812204+53133+009350FM-15+0061ETGQ V0202201N003610270019N0112651N1+01901+01201999999ADDGA1041+007801999GA2071+027001999GF107991999999999999999999MA1101291999999REMMET062METAR ETGQ 081220Z 22007KT 9999 SCT026 BKN090 19/12 Q1013 BLU;
0159102340999992009050813204+53133+009350FM-15+0061ETGQ V0202101N003610660019N0112651N1+02101+01101999999ADDGA1021+010501999GA2071+066001999GF107991999999999999999999MA1101191999999OC100981REMMET066METAR ETGQ 081320Z 21007G19KT 9999 FEW035 BKN220 21/11 Q1012 BLU/;
0162102340999992009050814204+53133+009350FM-15+0061ETGQ V0202101N004612200019N0112651N1+02001+00901999999ADDGA1021+012001021GA2041+018001999GF104991999999999999999999MA1101291999999OC101031REMMET069METAR ETGQ 081420Z 21009G20KT 9999 FEW040TCU SCT060 20/09 Q1013 BLU/;
0148102340999992009050815204+53133+009350FM-15+0061ETGQ V0202601N003612200019N0112651N1+02001+00801999999ADDGA1041+012001999GA2041+018001999GF104991999999999999999999MA1101391999999REMMET063METAR ETGQ 081520Z 26007KT 9999 SCT040 SCT060 20/08 Q1014 BLU/;
0147102340999992009050816204+53133+009350FM-15+0061ETGQ V0202601N003110240019N0112651N1+02001+00701999999ADDGA1041+015001999GA2071+024001999GF107991999999999999999999MA1101391999999REMMET062METAR ETGQ 081620Z 26006KT 9999 SCT050 BKN080 20/07 Q1014 BLU;
0148102340999992009050817204+53133+009350FM-15+0061ETGQ V0202801N002612200019N0112651N1+01901+00801999999ADDGA1041+015001999GA2041+024001999GF104991999999999999999999MA1101491999999REMMET063METAR ETGQ 081720Z 28005KT 9999 SCT050 SCT080 19/08 Q1015 BLU/;
0147102340999992009050818204+53133+009350FM-15+0061ETGQ V0203001N004610180019N0112651N1+01601+00601999999ADDGA1021+013501999GA2071+018001999GF107991999999999999999999MA1101691999999REMMET062METAR ETGQ 081820Z 30009KT 9999 FEW045 BKN060 16/06 Q1017 BLU;
0199102340999992009050918514+53133+009350FM-16+0061ETGQ V0209999C000010060019N0020001N1+01501+01201999999ADDGA1021+003901999GA2071+006001091GA3081+012001999GF108991999999999999999999MA1101391999999MW1101MW2821MW3971REMMET080SPECI ETGQ 091851Z 00000KT 2000 +TSRA BR FEW013 BKN020CB OVC040 15/12 Q1014 YLO;
0157102340999992009051104204+53133+009350FM-15+0061ETGQ V0209999C000010150019N0112651N1+01301+01201999999ADDGA1041+007501999GA2071+015001999GF107991999999999999999999MA1101591999999MW1611REMMET066METAR ETGQ 110420Z 00000KT 9999 -RA SCT025 BKN050 13/12 Q1016 BLU;
0157102340999992009051105204+53133+009350FM-15+0061ETGQ V0209999C000010150019N0112651N1+01301+01201999999ADDGA1041+003001999GA2071+015001999GF107991999999999999999999MA1101591999999MW1611REMMET066METAR ETGQ 110520Z 00000KT 9999 -RA SCT010 BKN050 13/12 Q1016 BLU;
0143102340999992009051106204+53133+009350FM-15+0061ETGQ V0209999C000010036019N0050001N1+01401+01201999999ADDGA1081+003601999GF108991999999999999999999MA1101491999999MW1101MW2611REMMET062METAR ETGQ 110620Z 00000KT 5000 -RA BR OVC012 14/12 Q1015 GRN;
0157102340999992009051107204+53133+009350FM-15+0061ETGQ V0209999C000010075019N0070001N1+01401+01201999999ADDGA1041+004501999GA2081+007501999GF108991999999999999999999MA1101491999999MW1611REMMET066METAR ETGQ 110720Z 00000KT 7000 -RA SCT015 OVC025 14/12 Q1015 WHT;
0124102340999992009051108204+53133+009350FM-15+0061ETGQ V0209999C000010042019N0112651N1+01401+01201999999ADDGA1071+004201999GF107991999999999999999999MA1101491999999REMMET055METAR ETGQ 110820Z 00000KT 9999 BKN014 14/12 Q1015 GRN;
0143102340999992009051109204+53133+009350FM-15+0061ETGQ V0209999C000010036019N0050001N1+01401+01201999999ADDGA1081+003601999GF108991999999999999999999MA1101491999999MW1101MW2611REMMET062METAR ETGQ 110920Z 00000KT 5000 -RA BR OVC012 14/12 Q1015 GRN;
0124102340999992009051110204+53133+009350FM-15+0061ETGQ V0209999V000510042019N0070001N1+01401+01201999999ADDGA1071+004201999GF107991999999999999999999MA1101591999999REMMET055METAR ETGQ 111020Z VRB01KT 7000 BKN014 14/12 Q1016 GRN;
0156102340999992009051111204+53133+009350FM-15+0061ETGQ V0209999V000510045019N0112651N1+01401+01201999999ADDGA1021+003001999GA2071+004501999GF107991999999999999999999MA1101591999999MW1631REMMET065METAR ETGQ 111120Z VRB01KT 9999 RA FEW010 BKN015 14/12 Q1016 WHT;
0162102340999992009051112204+53133+009350FM-15+0061ETGQ V0200201N001510063019N0112651N1+01401+01201999999ADDGA1041+003001999GA2071+006301999GF107991999999999999999999MA1101591999999MW1611REMMET071METAR ETGQ 111220Z 02003KT 9999 -RA SCT010 BKN021 14/12 Q1016 RERA WHT;
0162102340999992009051113204+53133+009350FM-15+0061ETGQ V0200401N001510051019N0112651N1+01401+01101999999ADDGA1041+004501999GA2071+005101999GF107991999999999999999999MA1101591999999MW1611REMMET071METAR ETGQ 111320Z 04003KT 9999 -RA SCT015 BKN017 14/11 Q1016 RERA WHT;
0157102340999992009051114204+53133+009350FM-15+0061ETGQ V0200201N001010063019N0112651N1+01401+01101999999ADDGA1021+005101999GA2071+006301999GF107991999999999999999999MA1101591999999MW1611REMMET066METAR ETGQ 111420Z 02002KT 9999 -RA FEW017 BKN021 14/11 Q1016 WHT;
0134102340999992009051115204+53133+009350FM-15+0061ETGQ V0209999C000010054019N0090001N1+01301+01101999999ADDGA1071+005401999GF107991999999999999999999MA1101691999999MW1611REMMET059METAR ETGQ 111520Z 00000KT 9000 -RA BKN018 13/11 Q1017 WHT;
0134102340999992009051116204+53133+009350FM-15+0061ETGQ V0203301N002110048019N0090001N1+01301+01201999999ADDGA1071+004801999GF107991999999999999999999MA1101691999999MW1611REMMET059METAR ETGQ 111620Z 33004KT 9000 -RA BKN016 13/12 Q1017 WHT;
0180102340999992009051117204+53133+009350FM-15+0061ETGQ V0203501N00261003001CN0090001N1+01301+01101999999ADDGA1021+001501999GA2041+003001999GA3071+007501999GF107991999999999999999999MA1101691999999MW1611REMMET073METAR ETGQ 111720Z 35005KT 9000 -RA FEW005 SCT010 BKN025 13/11 Q1017 BLU;
0180102340999992009051118204+53133+009350FM-15+0061ETGQ V0203601N002110084019N0112651N1+01301+01101999999ADDGA1021+001801999GA2071+008401999GA3081+015001999GF108991999999999999999999MA1101801999999MW1611REMMET073METAR ETGQ 111820Z 36004KT 9999 -RA FEW006 BKN028 OVC050 13/11 Q1018 BLU;
0148102340999992009051204204+53133+009350FM-15+0061ETGQ V0209999V001012200019N0112651N1+01101+00701999999ADDGA1041+005701999GA2041+075001999GF104991999999999999999999MA1101901999999REMMET063METAR ETGQ 120420Z VRB02KT 9999 SCT019 SCT250 11/07 Q1019 BLU/;
0124102340999992009051205204+53133+009350FM-15+0061ETGQ V0200801N002110054019N0112651N1+01201+00801999999ADDGA1071+005401999GF107991999999999999999999MA1101901999999REMMET055METAR ETGQ 120520Z 08004KT 9999 BKN018 12/08 Q1019 WHT;
0124102340999992009051206204+53133+009350FM-15+0061ETGQ V0201101N001510057019N0112651N1+01201+00801999999ADDGA1071+005701999GF107991999999999999999999MA1101901999999REMMET055METAR ETGQ 120620Z 11003KT 9999 BKN019 12/08 Q1019 WHT;
0147102340999992009051207204+53133+009350FM-15+0061ETGQ V0200901N002610060019N0112651N1+01201+00801999999ADDGA1071+006001999GA2071+024001999GF107991999999999999999999MA1101901999999REMMET062METAR ETGQ 120720Z 09005KT 9999 BKN020 BKN080 12/08 Q1019 WHT;
0147102340999992009051208204+53133+009350FM-15+0061ETGQ V0200701N002610240019N0112651N1+01301+00801999999ADDGA1041+007201999GA2071+024001999GF107991999999999999999999MA1101901999999REMMET062METAR ETGQ 120820Z 07005KT 9999 SCT024 BKN080 13/08 Q1019 BLU;
0156102340999992009051209204+53133+009350FM-15+0061ETGQ V0200901N002610150019N0070001N1+01201+00901999999ADDGA1041+006001999GA2081+015001999GF108991999999999999999999MA1101901999999MW1631REMMET065METAR ETGQ 120920Z 09005KT 7000 RA SCT020 OVC050 12/09 Q1019 WHT;
0133102340999992009051210204+53133+009350FM-15+0061ETGQ V0201001N001010048019N0080001N1+01201+00901999999ADDGA1071+004801999GF107991999999999999999999MA1101901999999MW1631REMMET058METAR ETGQ 121020Z 10002KT 8000 RA BKN016 12/09 Q1019 WHT;
0156102340999992009051211204+53133+009350FM-15+0061ETGQ V0209999C000010057019N0070001N1+01201+01001999999ADDGA1041+003601999GA2081+005701999GF108991999999999999999999MA1102001999999MW1631REMMET065METAR ETGQ 121120Z 00000KT 7000 RA SCT012 OVC019 12/10 Q1020 WHT;
0156102340999992009051212204+53133+009350FM-15+0061ETGQ V0209999V000510102019N0080001N1+01201+01001999999ADDGA1041+004501999GA2081+010201999GF108991999999999999999999MA1102001999999MW1631REMMET065METAR ETGQ 121220Z VRB01KT 8000 RA SCT015 OVC034 12/10 Q1020 BLU;
0175102340999992009051213204+53133+009350FM-15+0061ETGQ V0209999V00101003601CN0080001N1+01201+00901999999ADDGA1021+000301999GA2041+003601999GA3071+009001999GF107991999999999999999999MA1101901999999REMMET074METAR ETGQ 121320Z VRB02KT 8000 FEW001 SCT012 BKN030 12/09 Q1019 RERA BLU;
0170102340999992009051214204+53133+009350FM-15+0061ETGQ V0209999V000510090019N0112651N1+01201+00901999999ADDGA1021+004501999GA2071+009001999GA3071+012001999GF107991999999999999999999MA1101901999999REMMET069METAR ETGQ 121420Z VRB01KT 9999 FEW015 BKN030 BKN040 12/09 Q1019 BLU;
0180102340999992009051215204+53133+009350FM-15+0061ETGQ V0209999V00101009001CN0112651N1+01201+00901999999ADDGA1021+005401999GA2041+009001999GA3071+013501999GF107991999999999999999999MA1101901999999MW1611REMMET073METAR ETGQ 121520Z VRB02KT 9999 -RA FEW018 SCT030 BKN045 12/09 Q1019 BLU;
0157102340999992009051216204+53133+009350FM-15+0061ETGQ V0209999C000010045019N0112651N1+01201+00901999999ADDGA1071+004501999GA2071+012001999GF107991999999999999999999MA1101901999999MW1611REMMET066METAR ETGQ 121620Z 00000KT 9999 -RA BKN015 BKN040 12/09 Q1019 WHT;
0175102340999992009051217204+53133+009350FM-15+0061ETGQ V0200501N00151005401CN0090001N1+01201+01001999999ADDGA1021+002401999GA2041+005401999GA3071+010801999GF107991999999999999999999MA1101801999999REMMET074METAR ETGQ 121720Z 05003KT 9000 FEW008 SCT018 BKN036 12/10 Q1018 RERA BLU;
0170102340999992009051218204+53133+009350FM-15+0061ETGQ V0201201N00261005401CN0112651N1+01201+00901999999ADDGA1021+002401999GA2041+005401999GA3071+010501999GF107991999999999999999999MA1101801999999REMMET069METAR ETGQ 121820Z 12005KT 9999 FEW008 SCT018 BKN035 12/09 Q1018 BLU;
0124102340999992009051304204+53133+009350FM-15+0061ETGQ V0209999C000010090019N0112651N1+01101+00701999999ADDGA1071+009001999GF107991999999999999999999MA1101691999999REMMET055METAR ETGQ 130420Z 00000KT 9999 BKN030 11/07 Q1017 BLU;
0124102340999992009051305204+53133+009350FM-15+0061ETGQ V0209999C000010096019N0112651N1+01201+00701999999ADDGA1071+009601999GF107991999999999999999999MA1101691999999REMMET055METAR ETGQ 130520Z 00000KT 9999 BKN032 12/07 Q1017 BLU;
0147102340999992009051306204+53133+009350FM-15+0061ETGQ V0209999C000010105019N0112651N1+01301+00701999999ADDGA1041+006301999GA2071+010501999GF107991999999999999999999MA1101801999999REMMET062METAR ETGQ 130620Z 00000KT 9999 SCT021 BKN035 13/07 Q1018 BLU;
0124102340999992009051307204+53133+009350FM-15+0061ETGQ V0209999V001010057019N0112651N1+01301+00801999999ADDGA1071+005701999GF107991999999999999999999MA1101801999999REMMET055METAR ETGQ 130720Z VRB02KT 9999 BKN019 13/08 Q1018 WHT;
0147102340999992009051308204+53133+009350FM-15+0061ETGQ V0201001N001510102019N0112651N1+01401+00801999999ADDGA1041+006901999GA2071+010201999GF107991999999999999999999MA1101691999999REMMET062METAR ETGQ 130820Z 10003KT 9999 SCT023 BKN034 14/08 Q1017 BLU;
0147102340999992009051309204+53133+009350FM-15+0061ETGQ V0201701N002110099019N0112651N1+01501+00901999999ADDGA1041+006901999GA2071+009901999GF107991999999999999999999MA1101691999999REMMET062METAR ETGQ 130920Z 17004KT 9999 SCT023 BKN033 15/09 Q1017 BLU;
0148102340999992009051310204+53133+009350FM-15+0061ETGQ V0201701N002612200019N0112651N1+01701+01001999999ADDGA1021+007501999GA2041+090001999GF104991999999999999999999MA1101691999999REMMET063METAR ETGQ 131020Z 17005KT 9999 FEW025 SCT300 17/10 Q1017 BLU/;
0125102340999992009051311204+53133+009350FM-15+0061ETGQ V0201601N003112200019N0112651N1+01901+01101999999ADDGA1041+007501999GF104991999999999999999999MA1101591999999REMMET056METAR ETGQ 131120Z 16006KT 9999 SCT025 19/11 Q1016 BLU/;
0147102340999992009051312204+53133+009350FM-15+0061ETGQ V0201301N002610390019N0112651N1+01901+01101999999ADDGA1041+011101999GA2071+039001999GF107991999999999999999999MA1101491999999REMMET062METAR ETGQ 131220Z 13005KT 9999 SCT037 BKN130 19/11 Q1015 BLU;
0148102340999992009051313204+53133+009350FM-15+0061ETGQ V0201101N002612200019N0112651N1+02001+01101999999ADDGA1041+008701999GA2041+012001999GF104991999999999999999999MA1101491999999REMMET063METAR ETGQ 131320Z 11005KT 9999 SCT029 SCT040 20/11 Q1015 BLU/;
0147102340999992009051314204+53133+009350FM-15+0061ETGQ V0200901N003610126019N0112651N1+01901+01101999999ADDGA1041+009601999GA2071+012601999GF107991999999999999999999MA1101491999999REMMET062METAR ETGQ 131420Z 09007KT 9999 SCT032 BKN042 19/11 Q1015 BLU;
0170102340999992009051315204+53133+009350FM-15+0061ETGQ V0201201N00151012001CN0112651N1+01901+01201999999ADDGA1041+009001999GA2041+012001999GA3071+039001999GF107991999999999999999999MA1101391999999REMMET069METAR ETGQ 131520Z 12003KT 9999 SCT030 SCT040 BKN130 19/12 Q1014 BLU;
0170102340999992009051316204+53133+009350FM-15+0061ETGQ V0201101N00261012001CN0112651N1+01801+01101999999ADDGA1041+009001999GA2041+012001999GA3071+039001999GF107991999999999999999999MA1101391999999REMMET069METAR ETGQ 131620Z 11005KT 9999 SCT030 SCT040 BKN130 18/11 Q1014 BLU;
0147102340999992009051317204+53133+009350FM-15+0061ETGQ V0201601N000510105019N0112651N1+01701+01201999999ADDGA1041+009001999GA2071+010501999GF107991999999999999999999MA1101391999999REMMET062METAR ETGQ 131720Z 16001KT 9999 SCT030 BKN035 17/12 Q1014 BLU;
0170102340999992009051318204+53133+009350FM-15+0061ETGQ V0201201N00101012601CN0112651N1+01701+01201999999ADDGA1021+009001999GA2041+012601999GA3071+030001999GF107991999999999999999999MA1101391999999REMMET069METAR ETGQ 131820Z 12002KT 9999 FEW030 SCT042 BKN100 17/12 Q1014 BLU;
0147102340999992009051404204+53133+009350FM-15+0061ETGQ V0209999C000010450019N0112651N1+01301+00901999999ADDGA1041+010501999GA2071+045001999GF107991999999999999999999MA1101021999999REMMET062METAR ETGQ 140420Z 00000KT 9999 SCT035 BKN150 13/09 Q1010 BLU;
0124102340999992009051405204+53133+009350FM-15+0061ETGQ V0209999C000010108019N0112651N1+01401+00901999999ADDGA1071+010801999GF107991999999999999999999MA1101021999999REMMET055METAR ETGQ 140520Z 00000KT 9999 BKN036 14/09 Q1010 BLU;
0147102340999992009051406204+53133+009350FM-15+0061ETGQ V0209999C000010114019N0112651N1+01401+00901999999ADDGA1041+007501999GA2071+011401999GF107991999999999999999999MA1101021999999REMMET062METAR ETGQ 140620Z 00000KT 9999 SCT025 BKN038 14/09 Q1010 BLU;
0124102340999992009051408204+53133+009350FM-15+0061ETGQ V0209999C000010072019N0112651N1+01501+00901999999ADDGA1071+007201999GF107991999999999999999999MA1101021999999REMMET055METAR ETGQ 140820Z 00000KT 9999 BKN024 15/09 Q1010 WHT;
0124102340999992009051409204+53133+009350FM-15+0061ETGQ V0201101N001010075019N0112651N1+01501+01001999999ADDGA1071+007501999GF107991999999999999999999MA1100911999999REMMET055METAR ETGQ 140920Z 11002KT 9999 BKN025 15/10 Q1009 BLU;
0124102340999992009051410204+53133+009350FM-15+0061ETGQ V0201301N001010075019N0112651N1+01601+01001999999ADDGA1071+007501999GF107991999999999999999999MA1100911999999REMMET055METAR ETGQ 141020Z 13002KT 9999 BKN025 16/10 Q1009 BLU;
0124102340999992009051411204+53133+009350FM-15+0061ETGQ V0201201N002110069019N0112651N1+01601+01101999999ADDGA1071+006901999GF107991999999999999999999MA1100911999999REMMET055METAR ETGQ 141120Z 12004KT 9999 BKN023 16/11 Q1009 WHT;
0124102340999992009051412204+53133+009350FM-15+0061ETGQ V0201201N002110069019N0112651N1+01701+01101999999ADDGA1071+006901999GF107991999999999999999999MA1100911999999REMMET055METAR ETGQ 141220Z 12004KT 9999 BKN023 17/11 Q1009 WHT;
0124102340999992009051413204+53133+009350FM-15+0061ETGQ V0201501N002110069019N0112651N1+01701+01201999999ADDGA1071+006901999GF107991999999999999999999MA1100811999999REMMET055METAR ETGQ 141320Z 15004KT 9999 BKN023 17/12 Q1008 WHT;
0147102340999992009051414204+53133+009350FM-15+0061ETGQ V0201201N001010069019N0112651N1+01701+01201999999ADDGA1021+005401999GA2071+006901999GF107991999999999999999999MA1100811999999REMMET062METAR ETGQ 141420Z 12002KT 9999 FEW018 BKN023 17/12 Q1008 WHT;
0147102340999992009051415204+53133+009350FM-15+0061ETGQ V0201201N002610075019N0112651N1+01701+01201999999ADDGA1021+006001999GA2081+007501999GF108991999999999999999999MA1100711999999REMMET062METAR ETGQ 141520Z 12005KT 9999 FEW020 OVC025 17/12 Q1007 BLU;
0147102340999992009051416204+53133+009350FM-15+0061ETGQ V0201301N002110081019N0112651N1+01701+01201999999ADDGA1021+006601999GA2081+008101999GF108991999999999999999999MA1100711999999REMMET062METAR ETGQ 141620Z 13004KT 9999 FEW022 OVC027 17/12 Q1007 BLU;
0147102340999992009051417204+53133+009350FM-15+0061ETGQ V0201101N002110141019N0112651N1+01701+01201999999ADDGA1021+008401999GA2081+014101999GF108991999999999999999999MA1100611999999REMMET062METAR ETGQ 141720Z 11004KT 9999 FEW028 OVC047 17/12 Q1006 BLU;
0156102340999992009051418204+53133+009350FM-15+0061ETGQ V0201401N001010090019N0060001N1+01601+01201999999ADDGA1071+009001999GA2081+014401999GF108991999999999999999999MA1100611999999MW1631REMMET065METAR ETGQ 141820Z 14002KT 6000 RA BKN030 OVC048 16/12 Q1006 WHT;
0147102340999992009051504204+53133+009350FM-15+0061ETGQ V0201801N002610180019N0112651N1+01401+01201999999ADDGA1041+009001999GA2071+018001999GF107991999999999999999999MA1100611999999REMMET062METAR ETGQ 150420Z 18005KT 9999 SCT030 BKN060 14/12 Q1006 BLU;
0147102340999992009051505204+53133+009350FM-15+0061ETGQ V0201601N002610150019N0112651N1+01401+01201999999ADDGA1071+015001999GA2071+060001999GF107991999999999999999999MA1100611999999REMMET062METAR ETGQ 150520Z 16005KT 9999 BKN050 BKN200 14/12 Q1006 BLU;
0124102340999992009051506204+53133+009350FM-15+0061ETGQ V0209999C000010060019N0112651N1+01601+01301999999ADDGA1071+006001999GF107991999999999999999999MA1100611999999REMMET055METAR ETGQ 150620Z 00000KT 9999 BKN020 16/13 Q1006 WHT;
0147102340999992009051507204+53133+009350FM-15+0061ETGQ V0209999V001010300019N0112651N1+01601+01301999999ADDGA1041+009901999GA2071+030001999GF107991999999999999999999MA1100711999999REMMET062METAR ETGQ 150720Z VRB02KT 9999 SCT033 BKN100 16/13 Q1007 BLU;
0147102340999992009051508204+53133+009350FM-15+0061ETGQ V0202201N002110270019N0112651N1+01601+01201999999ADDGA1041+009601999GA2071+027001999GF107991999999999999999999MA1100711999999REMMET062METAR ETGQ 150820Z 22004KT 9999 SCT032 BKN090 16/12 Q1007 BLU;
0124102340999992009051509204+53133+009350FM-15+0061ETGQ V0201801N000510117019N0112651N1+01701+01201999999ADDGA1071+011701999GF107991999999999999999999MA1100711999999REMMET055METAR ETGQ 150920Z 18001KT 9999 BKN039 17/12 Q1007 BLU;
0147102340999992009051510204+53133+009350FM-15+0061ETGQ V0201301N000510138019N0112651N1+01801+01301999999ADDGA1041+007501999GA2071+013801999GF107991999999999999999999MA1100711999999REMMET062METAR ETGQ 151020Z 13001KT 9999 SCT025 BKN046 18/13 Q1007 BLU;
0139102340999992009051511204+53133+009350FM-15+0061ETGQ V0209999C000010081019N0112651N1+01801+01201999999ADDGA1071+008101021GF107991999999999999999999MA1100711999999MW1801REMMET064METAR ETGQ 151120Z 00000KT 9999 -SHRA BKN027TCU 18/12 Q1007 BLU;
0147102340999992009051512204+53133+009350FM-15+0061ETGQ V0202601N002110114019N0112651N1+01601+01301999999ADDGA1041+006301999GA2071+011401999GF107991999999999999999999MA1100711999999REMMET062METAR ETGQ 151220Z 26004KT 9999 SCT021 BKN038 16/13 Q1007 BLU;
0162102340999992009051513204+53133+009350FM-15+0061ETGQ V0201401N001010060019N0112651N1+01501+01301999999ADDGA1071+006001021GA2071+012001999GF107991999999999999999999MA1100711999999MW1801REMMET071METAR ETGQ 151320Z 14002KT 9999 -SHRA BKN020TCU BKN040 15/13 Q1007 WHT;
0150102340999992009051514204+53133+009350FM-15+0061ETGQ V0201401N000510135019N0112651N1+01601+01301999999ADDGA1041+006601021GA2071+013501999GF107991999999999999999999MA1100711999999REMMET065METAR ETGQ 151420Z 14001KT 9999 SCT022TCU BKN045 16/13 Q1007 BLU;
0150102340999992009051515204+53133+009350FM-15+0061ETGQ V0209999V001010135019N0112651N1+01601+01301999999ADDGA1041+006601021GA2071+013501999GF107991999999999999999999MA1100711999999REMMET065METAR ETGQ 151520Z VRB02KT 9999 SCT022TCU BKN045 16/13 Q1007 BLU;
0150102340999992009051516204+53133+009350FM-15+0061ETGQ V0202101N002110135019N0112651N1+01501+01201999999ADDGA1041+007501021GA2071+013501999GF107991999999999999999999MA1100711999999REMMET065METAR ETGQ 151620Z 21004KT 9999 SCT025TCU BKN045 15/12 Q1007 BLU;
0150102340999992009051517204+53133+009350FM-15+0061ETGQ V0202401N002110150019N0112651N1+01401+01101999999ADDGA1041+007501021GA2071+015001999GF107991999999999999999999MA1100811999999REMMET065METAR ETGQ 151720Z 24004KT 9999 SCT025TCU BKN050 14/11 Q1008 BLU;
0147102340999992009051518204+53133+009350FM-15+0061ETGQ V0209999C000010126019N0112651N1+01301+01101999999ADDGA1021+007501999GA2071+012601999GF107991999999999999999999MA1100911999999REMMET062METAR ETGQ 151820Z 00000KT 9999 FEW025 BKN042 13/11 Q1009 BLU;
0076102340999992009051804204+53133+009350FM-15+0061ETGQ V0209999C000012200019N0112651N1+01101+00901999999ADDMA1101801999999REMMET049METAR ETGQ 180420Z 00000KT 9999 11/09 Q1018 BLU/;
0125102340999992009051805204+53133+009350FM-15+0061ETGQ V0201801N000512200019N0112651N1+01301+00901999999ADDGA1021+039001999GF102991999999999999999999MA1101901999999REMMET056METAR ETGQ 180520Z 18001KT 9999 FEW130 13/09 Q1019 BLU/;
0125102340999992009051806204+53133+009350FM-15+0061ETGQ V0209999C000012200019N0112651N1+01501+01001999999ADDGA1021+007501999GF102991999999999999999999MA1101901999999REMMET056METAR ETGQ 180620Z 00000KT 9999 FEW025 15/10 Q1019 BLU/;
0125102340999992009051807204+53133+009350FM-15+0061ETGQ V0202201N002112200019N0112651N1+01601+00901999999ADDGA1041+008401999GF104991999999999999999999MA1101901999999REMMET056METAR ETGQ 180720Z 22004KT 9999 SCT028 16/09 Q1019 BLU/;
0147102340999992009051808204+53133+009350FM-15+0061ETGQ V0202301N002110180019N0112651N1+01601+00901999999ADDGA1041+010201999GA2071+018001999GF107991999999999999999999MA1101901999999REMMET062METAR ETGQ 180820Z 23004KT 9999 SCT034 BKN060 16/09 Q1019 BLU;
0148102340999992009051809204+53133+009350FM-15+0061ETGQ V0202301N003112200019N0112651N1+01701+00901999999ADDGA1041+009601999GA2041+018001999GF104991999999999999999999MA1101901999999REMMET063METAR ETGQ 180920Z 23006KT 9999 SCT032 SCT060 17/09 Q1019 BLU/;
0125102340999992009051810204+53133+009350FM-15+0061ETGQ V0202501N003112200019N0112651N1+01801+00701999999ADDGA1041+013501999GF104991999999999999999999MA1101901999999REMMET056METAR ETGQ 181020Z 25006KT 9999 SCT045 18/07 Q1019 BLU/;
0125102340999992009051811204+53133+009350FM-15+0061ETGQ V0202301N003112200019N0112651N1+01901+00701999999ADDGA1041+015001999GF104991999999999999999999MA1101901999999REMMET056METAR ETGQ 181120Z 23006KT 9999 SCT050 19/07 Q1019 BLU/;
0125102340999992009051812204+53133+009350FM-15+0061ETGQ V0202301N003612200019N0112651N1+02001+00301999999ADDGA1041+015001999GF104991999999999999999999MA1101901999999REMMET056METAR ETGQ 181220Z 23007KT 9999 SCT050 20/03 Q1019 BLU/;
0125102340999992009051813204+53133+009350FM-15+0061ETGQ V0202401N003112200019N0112651N1+02001+00401999999ADDGA1041+018001999GF104991999999999999999999MA1101901999999REMMET056METAR ETGQ 181320Z 24006KT 9999 SCT060 20/04 Q1019 BLU/;
0136102340999992009051814204+53133+009350FM-15+0061ETGQ V0202401N003112200019N0112651N1+02001+00401999999ADDGA1041+018001999GF104991999999999999999999MA1101901999999OC100821REMMET059METAR ETGQ 181420Z 24006G16KT 9999 SCT060 20/04 Q1019 BLU/;
0125102340999992009051815204+53133+009350FM-15+0061ETGQ V0202301N003112200019N0112651N1+01901+00301999999ADDGA1041+018001999GF104991999999999999999999MA1101901999999REMMET056METAR ETGQ 181520Z 23006KT 9999 SCT060 19/03 Q1019 BLU/;
0148102340999992009051816204+53133+009350FM-15+0061ETGQ V0202401N002112200019N0112651N1+01901+00401999999ADDGA1021+015001999GA2041+018001999GF104991999999999999999999MA1102001999999REMMET063METAR ETGQ 181620Z 24004KT 9999 FEW050 SCT060 19/04 Q1020 BLU/;
0148102340999992009051817204+53133+009350FM-15+0061ETGQ V0202301N002612200019N0112651N1+01901+00301999999ADDGA1021+015001999GA2041+018001999GF104991999999999999999999MA1102001999999REMMET063METAR ETGQ 181720Z 23005KT 9999 FEW050 SCT060 19/03 Q1020 BLU/;
0148102340999992009051818204+53133+009350FM-15+0061ETGQ V0209999V000512200019N0112651N1+01801+00501999999ADDGA1021+015001999GA2041+018001999GF104991999999999999999999MA1102001999999REMMET063METAR ETGQ 181820Z VRB01KT 9999 FEW050 SCT060 18/05 Q1020 BLU/;
0125102340999992009051904204+53133+009350FM-15+0061ETGQ V0209999C000012200019N0112651N1+00801+00701999999ADDGA1021+039001999GF102991999999999999999999MA1102301999999REMMET056METAR ETGQ 190420Z 00000KT 9999 FEW130 08/07 Q1023 BLU/;
0124102340999992009051905204+53133+009350FM-15+0061ETGQ V0209999C000010270019N0112651N1+00901+00701999999ADDGA1071+027001999GF107991999999999999999999MA1102301999999REMMET055METAR ETGQ 190520Z 00000KT 9999 BKN090 09/07 Q1023 BLU;
0124102340999992009051906204+53133+009350FM-15+0061ETGQ V0209999C000010270019N0112651N1+01101+00701999999ADDGA1071+027001999GF107991999999999999999999MA1102301999999REMMET055METAR ETGQ 190620Z 00000KT 9999 BKN090 11/07 Q1023 BLU;
0148102340999992009051907204+53133+009350FM-15+0061ETGQ V0209999C000012200019N0112651N1+01401+00701999999ADDGA1041+027001999GA2041+084001999GF104991999999999999999999MA1102301999999REMMET063METAR ETGQ 190720Z 00000KT 9999 SCT090 SCT280 14/07 Q1023 BLU/;
0148102340999992009051908204+53133+009350FM-15+0061ETGQ V0203601N000512200019N0112651N1+01601+00801999999ADDGA1021+027001999GA2041+090001999GF104991999999999999999999MA1102201999999REMMET063METAR ETGQ 190820Z 36001KT 9999 FEW090 SCT330 16/08 Q1022 BLU/;
0148102340999992009051909204+53133+009350FM-15+0061ETGQ V0209999C000012200019N0112651N1+01901+00801999999ADDGA1021+013201999GA2041+090001999GF104991999999999999999999MA1102201999999REMMET063METAR ETGQ 190920Z 00000KT 9999 FEW044 SCT330 19/08 Q1022 BLU/;
0148102340999992009051910204+53133+009350FM-15+0061ETGQ V0201601N002112200019N0112651N1+02101+00701999999ADDGA1021+015001999GA2041+027001999GF104991999999999999999999MA1102101999999REMMET063METAR ETGQ 191020Z 16004KT 9999 FEW050 SCT090 21/07 Q1021 BLU/;
0148102340999992009051911204+53133+009350FM-15+0061ETGQ V0201601N002112200019N0112651N1+02201+00601999999ADDGA1021+018001999GA2041+105001999GF104991999999999999999999MA1102101999999REMMET063METAR ETGQ 191120Z 16004KT 9999 FEW060 SCT350 22/06 Q1021 BLU/;
0148102340999992009051912204+53133+009350FM-15+0061ETGQ V0209999V001012200019N0112651N1+02101+00601999999ADDGA1041+018001999GA2041+027001999GF104991999999999999999999MA1102001999999REMMET063METAR ETGQ 191220Z VRB02KT 9999 SCT060 SCT090 21/06 Q1020 BLU/;
0147102340999992009051913204+53133+009350FM-15+0061ETGQ V0202901N000510270019N0112651N1+02201+00601999999ADDGA1021+018001999GA2071+027001999GF107991999999999999999999MA1102001999999REMMET062METAR ETGQ 191320Z 29001KT 9999 FEW060 BKN090 22/06 Q1020 BLU;
0125102340999992009051914204+53133+009350FM-15+0061ETGQ V0209999V001012200019N0112651N1+02301+00701999999ADDGA1041+018001999GF104991999999999999999999MA1102001999999REMMET056METAR ETGQ 191420Z VRB02KT 9999 SCT060 23/07 Q1020 BLU/;
0150102340999992009051915204+53133+009350FM-15+0061ETGQ V0209999V001010300019N0112651N1+02201+00701999999ADDGA1021+018001021GA2071+030001999GF107991999999999999999999MA1101901999999REMMET065METAR ETGQ 191520Z VRB02KT 9999 FEW060TCU BKN100 22/07 Q1019 BLU;
0148102340999992009051916204+53133+009350FM-15+0061ETGQ V0201101N001010900019N0112651N1+02101+01001999999ADDGA1021+018001999GA2071+090001999GF107991999999999999999999MA1101901999999REMMET063METAR ETGQ 191620Z 11002KT 9999 FEW060 BKN330 21/10 Q1019 BLU/;
0171102340999992009051917204+53133+009350FM-15+0061ETGQ V0209999C00001039001CN0112651N1+02001+01101999999ADDGA1021+018001999GA2041+039001999GA3071+090001999GF107991999999999999999999MA1101901999999REMMET070METAR ETGQ 191720Z 00000KT 9999 FEW060 SCT130 BKN330 20/11 Q1019 BLU/;
0160102340999992009051918004+53133+009350FM-15+0061ETGQ V0209999C000010360019N0112651N1+02001+01101999999ADDGA1041+018001091GA2071+036001999GF107991999999999999999999MA1101901999999MW1171REMMET069SPECI ETGQ 191757Z 00000KT 9999 VCTS SCT060CB BKN120 20/11 Q1019 BLU;
0167102340999992009051918204+53133+009350FM-15+0061ETGQ V0202101N002610180019N0090001N1+01701+01001999999ADDGA1021+012001999GA2071+018001091GF107991999999999999999999MA1102101999999MW1801MW2951REMMET070METAR ETGQ 191820Z 21005KT 9000 -TSRA FEW040 BKN060CB 17/10 Q1021 BLU;
0133102340999992009052004204+53133+009350FM-15+0061ETGQ V0209999C000010009019N0005001N1+01001+00901999999ADDGA1071+000901999GF107991999999999999999999MA1102201999999MW1441REMMET058METAR ETGQ 200420Z 00000KT 0500 FG BKN003 10/09 Q1022 RED;
0156102340999992009052005204+53133+009350FM-15+0061ETGQ V0209999C000010180019N0012001N1+01101+01001999999ADDGA1041+000901999GA2071+018001999GF107991999999999999999999MA1102301999999MW1101REMMET065METAR ETGQ 200520Z 00000KT 1200 BR SCT003 BKN060 11/10 Q1023 AMB;
0133102340999992009052006204+53133+009350FM-15+0061ETGQ V0209999C000010006019N0008001N1+01101+01001999999ADDGA1071+000601999GF107991999999999999999999MA1102301999999MW1441REMMET058METAR ETGQ 200620Z 00000KT 0800 FG BKN002 11/10 Q1023 AMB;
0156102340999992009052007204+53133+009350FM-15+0061ETGQ V0209999C000010012019N0030001N1+01201+01101999999ADDGA1071+001201999GA2071+090001999GF107991999999999999999999MA1102301999999MW1101REMMET065METAR ETGQ 200720Z 00000KT 3000 BR BKN004 BKN300 12/11 Q1023 YLO;
0147102340999992009052008204+53133+009350FM-15+0061ETGQ V0209999C000010810019N0060001N1+01501+01201999999ADDGA1021+006001999GA2071+081001999GF107991999999999999999999MA1102301999999REMMET062METAR ETGQ 200820Z 00000KT 6000 FEW020 BKN270 15/12 Q1023 WHT;
0148102340999992009052009204+53133+009350FM-15+0061ETGQ V0209999C000010810019N0112651N1+01801+01201999999ADDGA1021+007501999GA2071+081001999GF107991999999999999999999MA1102201999999REMMET063METAR ETGQ 200920Z 00000KT 9999 FEW025 BKN270 18/12 Q1022 BLU/;
0148102340999992009052010204+53133+009350FM-15+0061ETGQ V0209999C000010840019N0112651N1+02101+01201999999ADDGA1021+010501999GA2071+084001999GF107991999999999999999999MA1102101999999REMMET063METAR ETGQ 201020Z 00000KT 9999 FEW035 BKN280 21/12 Q1021 BLU/;
0148102340999992009052011204+53133+009350FM-15+0061ETGQ V0209999V001010810019N0112651N1+02201+01001999999ADDGA1021+013501999GA2071+081001999GF107991999999999999999999MA1102101999999REMMET063METAR ETGQ 201120Z VRB02KT 9999 FEW045 BKN270 22/10 Q1021 BLU/;
0148102340999992009052012204+53133+009350FM-15+0061ETGQ V0203401N002110750019N0112651N1+02201+01001999999ADDGA1021+015001999GA2071+075001999GF107991999999999999999999MA1102001999999REMMET063METAR ETGQ 201220Z 34004KT 9999 FEW050 BKN250 22/10 Q1020 BLU/;
0148102340999992009052013204+53133+009350FM-15+0061ETGQ V0209999V001010810019N0112651N1+02301+01001999999ADDGA1021+015001999GA2071+081001999GF107991999999999999999999MA1101901999999REMMET063METAR ETGQ 201320Z VRB02KT 9999 FEW050 BKN270 23/10 Q1019 BLU/;
0151102340999992009052014204+53133+009350FM-15+0061ETGQ V0209999V001010810019N0112651N1+02401+01001999999ADDGA1041+015001021GA2071+081001999GF107991999999999999999999MA1101801999999REMMET066METAR ETGQ 201420Z VRB02KT 9999 SCT050TCU BKN270 24/10 Q1018 BLU/;
0160102340999992009052015204+53133+009350FM-15+0061ETGQ V0201601N001510270019N0112651N1+02401+01101999999ADDGA1041+015001091GA2071+027001999GF107991999999999999999999MA1101801999999MW1161REMMET069METAR ETGQ 201520Z 16003KT 9999 VCSH SCT050CB BKN090 24/11 Q1018 BLU;
0173102340999992009052016204+53133+009350FM-15+0061ETGQ V0201501N00311024001CN0112651N1+02201+01401999999ADDGA1021+015001091GA2041+024001999GA3071+081001999GF107991999999999999999999MA1101691999999REMMET072METAR ETGQ 201620Z 15006KT 9999 FEW050CB SCT080 BKN270 22/14 Q1017 BLU/;
0174102340999992009052017204+53133+009350FM-15+0061ETGQ V0201501N00101024001CN0112651N1+02101+01301999999ADDGA1021+015001021GA2041+024001999GA3071+081001999GF107991999999999999999999MA1101691999999REMMET073METAR ETGQ 201720Z 15002KT 9999 FEW050TCU SCT080 BKN270 21/13 Q1017 BLU/;
0148102340999992009052018204+53133+009350FM-15+0061ETGQ V0201401N000510810019N0112651N1+02101+01401999999ADDGA1021+015001999GA2081+081001999GF108991999999999999999999MA1101691999999REMMET063METAR ETGQ 201820Z 14001KT 9999 FEW050 OVC270 21/14 Q1017 BLU/;
0206102340999992009052106474+53133+009350FM-16+0061ETGQ V0209999C00001012001CN0060001N1+01601+01401999999ADDGA1041+002701999GA2021+012001091GA3041+027001999GA4071+081001999GF107991999999999999999999MA1101391999999MW1171REMMET083SPECI ETGQ 210647Z 00000KT 6000 VCTS SCT009 FEW040CB SCT090 BKN270 16/14 Q1014 WHT;
0160102340999992009052118444+53133+009350FM-16+0061ETGQ V0209999C00001012001CN0112651N1+01701+01301999999ADDGA1071+012001091GA2041+027001999MA1101191999999MW1801MW2951REMMET070SPECI ETGQ 211844Z 00000KT 9999 -TSRA BKN040CB SCT090 17/13 Q1012 BLU;EQDQ01+000042SCOTCV
0147102340999992009052204204+53133+009350FM-15+0061ETGQ V0209999C000010450019N0112651N1+01301+01001999999ADDGA1041+014101999GA2071+045001999GF107991999999999999999999MA1101391999999REMMET062METAR ETGQ 220420Z 00000KT 9999 SCT047 BKN150 13/10 Q1014 BLU;
0147102340999992009052205204+53133+009350FM-15+0061ETGQ V0209999C000010480019N0112651N1+01401+01101999999ADDGA1041+015001999GA2071+048001999GF107991999999999999999999MA1101391999999REMMET062METAR ETGQ 220520Z 00000KT 9999 SCT050 BKN160 14/11 Q1014 BLU;
0147102340999992009052206204+53133+009350FM-15+0061ETGQ V0209999C000010450019N0112651N1+01501+01001999999ADDGA1041+015001999GA2071+045001999GF107991999999999999999999MA1101391999999REMMET062METAR ETGQ 220620Z 00000KT 9999 SCT050 BKN150 15/10 Q1014 BLU;
0125102340999992009052207204+53133+009350FM-15+0061ETGQ V0203001N000512200019N0112651N1+01601+00801999999ADDGA1041+015001999GF104991999999999999999999MA1101491999999REMMET056METAR ETGQ 220720Z 30001KT 9999 SCT050 16/08 Q1015 BLU/;
0125102340999992009052209204+53133+009350FM-15+0061ETGQ V0209999C000012200019N0112651N1+01901+00801999999ADDGA1041+015001999GF104991999999999999999999MA1101491999999REMMET056METAR ETGQ 220920Z 00000KT 9999 SCT050 19/08 Q1015 BLU/;
0125102340999992009052210204+53133+009350FM-15+0061ETGQ V0201701N001512200019N0112651N1+01901+00701999999ADDGA1041+015001999GF104991999999999999999999MA1101491999999REMMET056METAR ETGQ 221020Z 17003KT 9999 SCT050 19/07 Q1015 BLU/;
0125102340999992009052211204+53133+009350FM-15+0061ETGQ V0202701N004112200019N0112651N1+02101+00601999999ADDGA1041+015001999GF104991999999999999999999MA1101491999999REMMET056METAR ETGQ 221120Z 27008KT 9999 SCT050 21/06 Q1015 BLU/;
0125102340999992009052212204+53133+009350FM-15+0061ETGQ V0203001N003612200019N0112651N1+02001+00701999999ADDGA1041+015001999GF104991999999999999999999MA1101491999999REMMET056METAR ETGQ 221220Z 30007KT 9999 SCT050 20/07 Q1015 BLU/;
0125102340999992009052213204+53133+009350FM-15+0061ETGQ V0203101N004612200019N0112651N1+02101+00401999999ADDGA1021+018001999GF102991999999999999999999MA1101591999999REMMET056METAR ETGQ 221320Z 31009KT 9999 FEW060 21/04 Q1016 BLU/;
0125102340999992009052214204+53133+009350FM-15+0061ETGQ V0203101N004612200019N0112651N1+02001+00301999999ADDGA1021+018001999GF102991999999999999999999MA1101591999999REMMET056METAR ETGQ 221420Z 31009KT 9999 FEW060 20/03 Q1016 BLU/;
0125102340999992009052215204+53133+009350FM-15+0061ETGQ V0203201N004612200019N0112651N1+02001+00201999999ADDGA1021+018001999GF102991999999999999999999MA1101591999999REMMET056METAR ETGQ 221520Z 32009KT 9999 FEW060 20/02 Q1016 BLU/;
0125102340999992009052216204+53133+009350FM-15+0061ETGQ V0203301N004112200019N0112651N1+02001+00301999999ADDGA1021+021001999GF102991999999999999999999MA1101691999999REMMET056METAR ETGQ 221620Z 33008KT 9999 FEW070 20/03 Q1017 BLU/;
0125102340999992009052217204+53133+009350FM-15+0061ETGQ V0203301N004112200019N0112651N1+01901+00201999999ADDGA1021+021001999GF102991999999999999999999MA1101691999999REMMET056METAR ETGQ 221720Z 33008KT 9999 FEW070 19/02 Q1017 BLU/;
0125102340999992009052218204+53133+009350FM-15+0061ETGQ V0203301N003112200019N0112651N1+01801+00301999999ADDGA1021+021001999GF102991999999999999999999MA1101801999999REMMET056METAR ETGQ 221820Z 33006KT 9999 FEW070 18/03 Q1018 BLU/;
0076102340999992009052504204+53133+009350FM-15+0061ETGQ V0209999C000012200019N0112651N1+01501+01301999999ADDMA1101801999999REMMET049METAR ETGQ 250420Z 00000KT 9999 15/13 Q1018 BLU/;
0076102340999992009052505204+53133+009350FM-15+0061ETGQ V0209999C000012200019N0112651N1+01601+01401999999ADDMA1101801999999REMMET049METAR ETGQ 250520Z 00000KT 9999 16/14 Q1018 BLU/;
0076102340999992009052506204+53133+009350FM-15+0061ETGQ V0209999C000012200019N0112651N1+01801+01401999999ADDMA1101801999999REMMET049METAR ETGQ 250620Z 00000KT 9999 18/14 Q1018 BLU/;
0125102340999992009052507204+53133+009350FM-15+0061ETGQ V0209999C000012200019N0112651N1+02001+01401999999ADDGA1021+105001999GF102991999999999999999999MA1101801999999REMMET056METAR ETGQ 250720Z 00000KT 9999 FEW370 20/14 Q1018 BLU/;
0125102340999992009052508204+53133+009350FM-15+0061ETGQ V0203301N000512200019N0112651N1+02201+01401999999ADDGA1021+105001999GF102991999999999999999999MA1101801999999REMMET056METAR ETGQ 250820Z 33001KT 9999 FEW360 22/14 Q1018 BLU/;
0125102340999992009052509204+53133+009350FM-15+0061ETGQ V0209999V000512200019N0112651N1+02601+01401999999ADDGA1021+033001999GF102991999999999999999999MA1101801999999REMMET056METAR ETGQ 250920Z VRB01KT 9999 FEW110 26/14 Q1018 BLU/;
0125102340999992009052510204+53133+009350FM-15+0061ETGQ V0209999V001012200019N0112651N1+02701+01401999999ADDGA1021+030001999GF102991999999999999999999MA1101691999999REMMET056METAR ETGQ 251020Z VRB02KT 9999 FEW100 27/14 Q1017 BLU/;
0125102340999992009052511204+53133+009350FM-15+0061ETGQ V0201201N001512200019N0112651N1+02801+01501999999ADDGA1021+030001999GF102991999999999999999999MA1101591999999REMMET056METAR ETGQ 251120Z 12003KT 9999 FEW100 28/15 Q1016 BLU/;
0125102340999992009052512204+53133+009350FM-15+0061ETGQ V0201201N002112200019N0112651N1+02901+01401999999ADDGA1021+030001999GF102991999999999999999999MA1101491999999REMMET056METAR ETGQ 251220Z 12004KT 9999 FEW100 29/14 Q1015 BLU/;
0124102340999992009052513204+53133+009350FM-15+0061ETGQ V0201901N002110330019N0112651N1+03101+01301999999ADDGA1071+033001999GF107991999999999999999999MA1101491999999REMMET055METAR ETGQ 251320Z 19004KT 9999 BKN110 31/13 Q1015 BLU;
0148102340999992009052514204+53133+009350FM-15+0061ETGQ V0201901N001510900019N0112651N1+03001+01401999999ADDGA1041+033001999GA2071+090001999GF107991999999999999999999MA1101391999999REMMET063METAR ETGQ 251420Z 19003KT 9999 SCT110 BKN300 30/14 Q1014 BLU/;
0148102340999992009052515204+53133+009350FM-15+0061ETGQ V0209999C000010900019N0112651N1+02901+01501999999ADDGA1041+033001999GA2071+090001999GF107991999999999999999999MA1101391999999REMMET063METAR ETGQ 251520Z 00000KT 9999 SCT110 BKN300 29/15 Q1014 BLU/;
0126102340999992009052516204+53133+009350FM-15+0061ETGQ V0203201N005110150019N0112651N1+02601+01301999999ADDGA1071+015001091GF107991999999999999999999MA1101391999999REMMET057METAR ETGQ 251620Z 32010KT 9999 BKN050CB 26/13 Q1014 BLU;
0126102340999992009052517204+53133+009350FM-15+0061ETGQ V0200501N001510150019N0112651N1+02501+01101999999ADDGA1071+015001091GF107991999999999999999999MA1101291999999REMMET057METAR ETGQ 251720Z 05003KT 9999 BKN050CB 25/11 Q1013 BLU;
0178102340999992009052518204+53133+009350FM-15+0061ETGQ V0203201N00151030001CN0112651N1+02401+01201999999ADDGA1021+010501091GA2041+030001999GA3071+090001999GF107991999999999999999999MA1101191999999REMMET077METAR ETGQ 251820Z 32003KT 9999 FEW035CB SCT100 BKN300 24/12 Q1012 RETS BLU/;
0124102340999992009052604204+53133+009350FM-15+0061ETGQ V0209999V001010450019N0112651N1+01701+01501999999ADDGA1071+045001999GF107991999999999999999999MA1101021999999REMMET055METAR ETGQ 260420Z VRB02KT 9999 BKN150 17/15 Q1010 BLU;
0148102340999992009052605204+53133+009350FM-15+0061ETGQ V0209999C000012200019N0112651N1+01901+01501999999ADDGA1041+042001999GA2041+051001999GF104991999999999999999999MA1101021999999REMMET063METAR ETGQ 260520Z 00000KT 9999 SCT140 SCT170 19/15 Q1010 BLU/;
0124102340999992009052606204+53133+009350FM-15+0061ETGQ V0202001N000510390019N0112651N1+02101+01601999999ADDGA1071+039001999GF107991999999999999999999MA1101081999999REMMET055METAR ETGQ 260620Z 20001KT 9999 BKN130 21/16 Q1011 BLU;
0170102340999992009052607204+53133+009350FM-15+0061ETGQ V0209999V00051015001CN0112651N1+02101+01301999999ADDGA1021+010501999GA2041+015001999GA3071+030001999GF107991999999999999999999MA1101191999999REMMET069METAR ETGQ 260720Z VRB01KT 9999 FEW035 SCT050 BKN100 21/13 Q1012 BLU;
0147102340999992009052608204+53133+009350FM-15+0061ETGQ V0202301N003110420019N0112651N1+02301+01401999999ADDGA1021+012001999GA2071+042001999GF107991999999999999999999MA1101191999999REMMET062METAR ETGQ 260820Z 23006KT 9999 FEW040 BKN140 23/14 Q1012 BLU;
0147102340999992009052609204+53133+009350FM-15+0061ETGQ V0202201N003110420019N0112651N1+02201+01401999999ADDGA1021+012001999GA2071+042001999GF107991999999999999999999MA1101191999999REMMET062METAR ETGQ 260920Z 22006KT 9999 FEW040 BKN140 22/14 Q1012 BLU;
0147102340999992009052610204+53133+009350FM-15+0061ETGQ V0202301N003610450019N0112651N1+02301+01301999999ADDGA1021+012001999GA2071+045001999GF107991999999999999999999MA1101191999999REMMET062METAR ETGQ 261020Z 23007KT 9999 FEW040 BKN150 23/13 Q1012 BLU;
0158102340999992009052611204+53133+009350FM-15+0061ETGQ V0202401N004610510019N0112651N1+02401+01301999999ADDGA1041+013501999GA2071+051001999GF107991999999999999999999MA1101191999999OC101291REMMET065METAR ETGQ 261120Z 24009G25KT 9999 SCT045 BKN170 24/13 Q1012 BLU;
0148102340999992009052612204+53133+009350FM-15+0061ETGQ V0202401N004112200019N0112651N1+02401+01201999999ADDGA1041+015001999GA2041+042001999GF104991999999999999999999MA1101191999999REMMET063METAR ETGQ 261220Z 24008KT 9999 SCT050 SCT140 24/12 Q1012 BLU/;
0136102340999992009052613204+53133+009350FM-15+0061ETGQ V0202401N004112200019N0112651N1+02301+01201999999ADDGA1041+013501999GF104991999999999999999999MA1101191999999OC100931REMMET059METAR ETGQ 261320Z 24008G18KT 9999 SCT045 23/12 Q1012 BLU/;
0136102340999992009052614204+53133+009350FM-15+0061ETGQ V0202401N003112200019N0112651N1+02201+01101999999ADDGA1041+013501999GF104991999999999999999999MA1101291999999OC100931REMMET059METAR ETGQ 261420Z 24006G18KT 9999 SCT045 22/11 Q1013 BLU/;
0148102340999992009052615204+53133+009350FM-15+0061ETGQ V0202601N004610690019N0112651N1+02101+01101999999ADDGA1041+014701999GA2071+069001999GF107991999999999999999999MA1101191999999REMMET063METAR ETGQ 261520Z 26009KT 9999 SCT049 BKN230 21/11 Q1012 BLU/;
0150102340999992009052616204+53133+009350FM-15+0061ETGQ V0202601N003110135019N0112651N1+02101+01101999999ADDGA1071+013501021GA2071+069001999GF107991999999999999999999MA1101291999999REMMET065METAR ETGQ 261620Z 26006KT 9999 BKN045TCU BKN230 21/11 Q1013 BLU;
0150102340999992009052617204+53133+009350FM-15+0061ETGQ V0203301N004110090019N0112651N1+01601+01301999999ADDGA1071+009001021GA2071+018001999GF107991999999999999999999MA1101491999999REMMET065METAR ETGQ 261720Z 33008KT 9999 BKN030TCU BKN060 16/13 Q1015 BLU;
0173102340999992009052618204+53133+009350FM-15+0061ETGQ V0203401N00311006001CN0112651N1+01501+01101999999ADDGA1021+003001999GA2041+006001021GA3071+014101999GF107991999999999999999999MA1101591999999REMMET072METAR ETGQ 261820Z 34006KT 9999 FEW010 SCT020TCU BKN047 15/11 Q1016 BLU;
0076102340999992009052704204+53133+009350FM-15+0061ETGQ V0209999C000012200019N0112651N1+00901+00601999999ADDMA1102511999999REMMET049METAR ETGQ 270420Z 00000KT 9999 09/06 Q1025 BLU/;
0076102340999992009052705204+53133+009350FM-15+0061ETGQ V0202401N001512200019N0112651N1+01101+00701999999ADDMA1102511999999REMMET049METAR ETGQ 270520Z 24003KT 9999 11/07 Q1025 BLU/;
0125102340999992009052706204+53133+009350FM-15+0061ETGQ V0202001N002112200019N0112651N1+01201+00701999999ADDGA1021+006001999GF102991999999999999999999MA1102611999999REMMET056METAR ETGQ 270620Z 20004KT 9999 FEW020 12/07 Q1026 BLU/;
0125102340999992009052707204+53133+009350FM-15+0061ETGQ V0202001N001512200019N0112651N1+01401+00701999999ADDGA1021+006001999GF102991999999999999999999MA1102611999999REMMET056METAR ETGQ 270720Z 20003KT 9999 FEW020 14/07 Q1026 BLU/;
0124102340999992009052708204+53133+009350FM-15+0061ETGQ V0202201N003110135019N0112651N1+01501+00801999999ADDGA1071+013501999GF107991999999999999999999MA1102611999999REMMET055METAR ETGQ 270820Z 22006KT 9999 BKN045 15/08 Q1026 BLU;
0147102340999992009052709204+53133+009350FM-15+0061ETGQ V0202301N003110180019N0112651N1+01601+00701999999ADDGA1021+012001999GA2071+018001999GF107991999999999999999999MA1102611999999REMMET062METAR ETGQ 270920Z 23006KT 9999 FEW040 BKN060 16/07 Q1026 BLU;
0148102340999992009052710204+53133+009350FM-15+0061ETGQ V0202301N003612200019N0112651N1+01601+00501999999ADDGA1021+012001999GA2041+018001999GF104991999999999999999999MA1102611999999REMMET063METAR ETGQ 271020Z 23007KT 9999 FEW040 SCT060 16/05 Q1026 BLU/;
0125102340999992009052711204+53133+009350FM-15+0061ETGQ V0202501N003112200019N0112651N1+01801+00401999999ADDGA1041+015001999GF104991999999999999999999MA1102611999999REMMET056METAR ETGQ 271120Z 25006KT 9999 SCT050 18/04 Q1026 BLU/;
0148102340999992009052712204+53133+009350FM-15+0061ETGQ V0202301N004112200019N0112651N1+01801+00301999999ADDGA1041+015001999GA2041+069001999GF104991999999999999999999MA1102511999999REMMET063METAR ETGQ 271220Z 23008KT 9999 SCT050 SCT230 18/03 Q1025 BLU/;
0148102340999992009052713204+53133+009350FM-15+0061ETGQ V0202401N002610690019N0112651N1+01801+00301999999ADDGA1041+018001999GA2071+069001999GF107991999999999999999999MA1102511999999REMMET063METAR ETGQ 271320Z 24005KT 9999 SCT060 BKN230 18/03 Q1025 BLU/;
0148102340999992009052714204+53133+009350FM-15+0061ETGQ V0202701N003110690019N0112651N1+01801+00401999999ADDGA1021+018001999GA2071+069001999GF107991999999999999999999MA1102511999999REMMET063METAR ETGQ 271420Z 27006KT 9999 FEW060 BKN230 18/04 Q1025 BLU/;
0171102340999992009052715204+53133+009350FM-15+0061ETGQ V0202501N00361039001CN0112651N1+01701+00501999999ADDGA1021+015001999GA2041+039001999GA3071+066001999GF107991999999999999999999MA1102511999999REMMET070METAR ETGQ 271520Z 25007KT 9999 FEW050 SCT130 BKN220 17/05 Q1025 BLU/;
0170102340999992009052716204+53133+009350FM-15+0061ETGQ V0202501N003610360019N0112651N1+01601+00401999999ADDGA1021+015001999GA2071+036001999GA3071+066001999GF107991999999999999999999MA1102511999999REMMET069METAR ETGQ 271620Z 25007KT 9999 FEW050 BKN120 BKN220 16/04 Q1025 BLU;
0170102340999992009052717204+53133+009350FM-15+0061ETGQ V0201901N001510270019N0112651N1+01601+00501999999ADDGA1021+015001999GA2071+027001999GA3071+057001999GF107991999999999999999999MA1102511999999REMMET069METAR ETGQ 271720Z 19003KT 9999 FEW050 BKN090 BKN190 16/05 Q1025 BLU;
0170102340999992009052718204+53133+009350FM-15+0061ETGQ V0202401N00311021001CN0112651N1+01501+00501999999ADDGA1021+015001999GA2041+021001999GA3071+027001999GF107991999999999999999999MA1102511999999REMMET069METAR ETGQ 271820Z 24006KT 9999 FEW050 SCT070 BKN090 15/05 Q1025 BLU;
0147102340999992009052804204+53133+009350FM-15+0061ETGQ V0209999V000510102019N0112651N1+01301+00901999999ADDGA1021+009001999GA2071+010201999GF107991999999999999999999MA1102511999999REMMET062METAR ETGQ 280420Z VRB01KT 9999 FEW030 BKN034 13/09 Q1025 BLU;
0147102340999992009052805204+53133+009350FM-15+0061ETGQ V0200901N001510135019N0112651N1+01301+00901999999ADDGA1041+009001999GA2071+013501999GF107991999999999999999999MA1102511999999REMMET062METAR ETGQ 280520Z 09003KT 9999 SCT030 BKN045 13/09 Q1025 BLU;
0147102340999992009052806204+53133+009350FM-15+0061ETGQ V0202101N003110090019N0112651N1+01301+00901999999ADDGA1041+006001999GA2081+009001999GF108991999999999999999999MA1102611999999REMMET062METAR ETGQ 280620Z 21006KT 9999 SCT020 OVC030 13/09 Q1026 BLU;
0147102340999992009052807204+53133+009350FM-15+0061ETGQ V0202601N001510075019N0112651N1+01401+01001999999ADDGA1021+006001999GA2081+007501999GF108991999999999999999999MA1102611999999REMMET062METAR ETGQ 280720Z 26003KT 9999 FEW020 OVC025 14/10 Q1026 BLU;
0157102340999992009052808204+53133+009350FM-15+0061ETGQ V0202901N002610072019N0112651N1+01401+01001999999ADDGA1021+006001999GA2081+007201999GF108991999999999999999999MA1102711999999MW1611REMMET066METAR ETGQ 280820Z 29005KT 9999 -RA FEW020 OVC024 14/10 Q1027 WHT;
0147102340999992009052809204+53133+009350FM-15+0061ETGQ V0202201N002610072019N0112651N1+01501+01101999999ADDGA1021+006001999GA2081+007201999GF108991999999999999999999MA1102711999999REMMET062METAR ETGQ 280920Z 22005KT 9999 FEW020 OVC024 15/11 Q1027 WHT;
0157102340999992009052810204+53133+009350FM-15+0061ETGQ V0202201N002110072019N0112651N1+01601+01101999999ADDGA1021+006001999GA2081+007201999GF108991999999999999999999MA1102711999999MW1611REMMET066METAR ETGQ 281020Z 22004KT 9999 -RA FEW020 OVC024 16/11 Q1027 WHT;
0147102340999992009052811204+53133+009350FM-15+0061ETGQ V0209999C000010075019N0112651N1+01501+01201999999ADDGA1021+003001999GA2071+007501999GF107991999999999999999999MA1102811999999REMMET062METAR ETGQ 281120Z 00000KT 9999 FEW010 BKN025 15/12 Q1028 BLU;
0185102340999992009052812204+53133+009350FM-15+0061ETGQ V0202701N00151007501CN0112651N1+01601+01301999999ADDGA1021+003001999GA2041+007501021GA3071+012001999GF107991999999999999999999MA1102811999999MW1801REMMET078METAR ETGQ 281220Z 27003KT 9999 -SHRA FEW010 SCT025TCU BKN040 16/13 Q1028 BLU;
0185102340999992009052813204+53133+009350FM-15+0061ETGQ V0202701N000510075019N0112651N1+01601+01301999999ADDGA1021+003001999GA2071+007501021GA3071+015001999GF107991999999999999999999MA1102711999999MW1801REMMET078METAR ETGQ 281320Z 27001KT 9999 -SHRA FEW010 BKN025TCU BKN050 16/13 Q1027 BLU;
0173102340999992009052814204+53133+009350FM-15+0061ETGQ V0202701N00151007501CN0112651N1+01701+01401999999ADDGA1021+003001999GA2041+007501021GA3071+015001999GF107991999999999999999999MA1102711999999REMMET072METAR ETGQ 281420Z 27003KT 9999 FEW010 SCT025TCU BKN050 17/14 Q1027 BLU;
0150102340999992009052815204+53133+009350FM-15+0061ETGQ V0203101N003610150019N0112651N1+01801+01201999999ADDGA1041+007501021GA2071+015001999GF107991999999999999999999MA1102711999999REMMET065METAR ETGQ 281520Z 31007KT 9999 SCT025TCU BKN050 18/12 Q1027 BLU;
0150102340999992009052816204+53133+009350FM-15+0061ETGQ V0203401N003110180019N0112651N1+01801+01101999999ADDGA1041+009001021GA2071+018001999GF107991999999999999999999MA1102811999999REMMET065METAR ETGQ 281620Z 34006KT 9999 SCT030TCU BKN060 18/11 Q1028 BLU;
0161102340999992009052817204+53133+009350FM-15+0061ETGQ V0203401N000510180019N0112651N1+01801+01101999999ADDGA1041+009901021GA2071+018001999GF107991999999999999999999MA1102811999999MW1161REMMET070METAR ETGQ 281720Z 34001KT 9999 VCSH SCT033TCU BKN060 18/11 Q1028 BLU;
0173102340999992009052818204+53133+009350FM-15+0061ETGQ V0203501N00151012601CN0112651N1+01701+01101999999ADDGA1021+009901021GA2041+012601999GA3071+018001999GF107991999999999999999999MA1102811999999REMMET072METAR ETGQ 281820Z 35003KT 9999 FEW033TCU SCT042 BKN060 17/11 Q1028 BLU;
0125102340999992009052904204+53133+009350FM-15+0061ETGQ V0209999C000012200019N0112651N1+00901+00801999999ADDGA1041+090001999GF104991999999999999999999MA1103181999999REMMET056METAR ETGQ 290420Z 00000KT 9999 SCT300 09/08 Q1032 BLU/;
0125102340999992009052905204+53133+009350FM-15+0061ETGQ V0209999C000012200019N0112651N1+01101+00901999999ADDGA1041+090001999GF104991999999999999999999MA1103181999999REMMET056METAR ETGQ 290520Z 00000KT 9999 SCT300 11/09 Q1032 BLU/;
0125102340999992009052906204+53133+009350FM-15+0061ETGQ V0203201N001012200019N0112651N1+01201+00801999999ADDGA1021+090001999GF102991999999999999999999MA1103181999999REMMET056METAR ETGQ 290620Z 32002KT 9999 FEW300 12/08 Q1032 BLU/;
0125102340999992009052907204+53133+009350FM-15+0061ETGQ V0203401N002612200019N0112651N1+01401+00401999999ADDGA1021+090001999GF102991999999999999999999MA1103181999999REMMET056METAR ETGQ 290720Z 34005KT 9999 FEW300 14/04 Q1032 BLU/;
0125102340999992009052908204+53133+009350FM-15+0061ETGQ V0203401N002612200019N0112651N1+01501+00101999999ADDGA1021+090001999GF102991999999999999999999MA1103181999999REMMET056METAR ETGQ 290820Z 34005KT 9999 FEW300 15/01 Q1032 BLU/;
0125102340999992009052909204+53133+009350FM-15+0061ETGQ V0200101N003112200019N0112651N1+01701+00101999999ADDGA1021+090001999GF102991999999999999999999MA1103181999999REMMET056METAR ETGQ 290920Z 01006KT 9999 FEW300 17/01 Q1032 BLU/;
0125102340999992009052910204+53133+009350FM-15+0061ETGQ V0203601N002612200019N0112651N1+01701+00101999999ADDGA1021+090001999GF102991999999999999999999MA1103121999999REMMET056METAR ETGQ 291020Z 36005KT 9999 FEW300 17/01 Q1031 BLU/;
0125102340999992009052911204+53133+009350FM-15+0061ETGQ V0203601N003112200019N0112651N1+01901+00101999999ADDGA1021+090001999GF102991999999999999999999MA1103011999999REMMET056METAR ETGQ 291120Z 36006KT 9999 FEW300 19/01 Q1030 BLU/;
0125102340999992009052912204+53133+009350FM-15+0061ETGQ V0203401N003612200019N0112651N1+02001+00101999999ADDGA1021+090001999GF102991999999999999999999MA1103011999999REMMET056METAR ETGQ 291220Z 34007KT 9999 FEW300 20/01 Q1030 BLU/;
0126102340999992009052913204+53133+009350FM-15+0061ETGQ V0200601N002112200019N0112651N1+02101-00101999999ADDGA1021+018001999GF102991999999999999999999MA1102911999999REMMET057METAR ETGQ 291320Z 06004KT 9999 FEW060 21/M01 Q1029 BLU/;
0126102340999992009052914204+53133+009350FM-15+0061ETGQ V0200501N002112200019N0112651N1+02101-00101999999ADDGA1021+021001999GF102991999999999999999999MA1102811999999REMMET057METAR ETGQ 291420Z 05004KT 9999 FEW070 21/M01 Q1028 BLU/;
0125102340999992009052915204+53133+009350FM-15+0061ETGQ V0200601N003112200019N0112651N1+02101+00001999999ADDGA1021+024001999GF102991999999999999999999MA1102811999999REMMET056METAR ETGQ 291520Z 06006KT 9999 FEW080 21/00 Q1028 BLU/;
0125102340999992009052916204+53133+009350FM-15+0061ETGQ V0200801N003112200019N0112651N1+02101+00201999999ADDGA1021+024001999GF102991999999999999999999MA1102811999999REMMET056METAR ETGQ 291620Z 08006KT 9999 FEW080 21/02 Q1028 BLU/;
0125102340999992009052917204+53133+009350FM-15+0061ETGQ V0200801N002612200019N0112651N1+02001+00201999999ADDGA1021+018001999GF102991999999999999999999MA1102811999999REMMET056METAR ETGQ 291720Z 08005KT 9999 FEW060 20/02 Q1028 BLU/;
0125102340999992009052918204+53133+009350FM-15+0061ETGQ V0200601N001512200019N0112651N1+02001+00301999999ADDGA1041+018001999GF104991999999999999999999MA1102811999999REMMET056METAR ETGQ 291820Z 06003KT 9999 SCT060 20/03 Q1028 BLU/;
0076102340999992009060204204+53133+009350FM-15+0061ETGQ V0209999C000012200019N0112651N1+01201+01101999999ADDMA1101901999999REMMET049METAR ETGQ 020420Z 00000KT 9999 12/11 Q1019 BLU/;
0076102340999992009060205204+53133+009350FM-15+0061ETGQ V0209999C000012200019N0112651N1+01401+01101999999ADDMA1102001999999REMMET049METAR ETGQ 020520Z 00000KT 9999 14/11 Q1020 BLU/;
0076102340999992009060206204+53133+009350FM-15+0061ETGQ V0209999C000012200019N0112651N1+01501+00901999999ADDMA1102001999999REMMET049METAR ETGQ 020620Z 00000KT 9999 15/09 Q1020 BLU/;
0076102340999992009060207204+53133+009350FM-15+0061ETGQ V0203201N002112200019N0112651N1+01601+01001999999ADDMA1102001999999REMMET049METAR ETGQ 020720Z 32004KT 9999 16/10 Q1020 BLU/;
0076102340999992009060208204+53133+009350FM-15+0061ETGQ V0203001N002112200019N0112651N1+01801+01001999999ADDMA1102001999999REMMET049METAR ETGQ 020820Z 30004KT 9999 18/10 Q1020 BLU/;
0076102340999992009060209204+53133+009350FM-15+0061ETGQ V0202901N002612200019N0112651N1+02001+01101999999ADDMA1101901999999REMMET049METAR ETGQ 020920Z 29005KT 9999 20/11 Q1019 BLU/;
0076102340999992009060210204+53133+009350FM-15+0061ETGQ V0203201N003612200019N0112651N1+02101+01101999999ADDMA1101901999999REMMET049METAR ETGQ 021020Z 32007KT 9999 21/11 Q1019 BLU/;
0125102340999992009060211204+53133+009350FM-15+0061ETGQ V0203201N004612200019N0112651N1+02201+01001999999ADDGA1021+012001999GF102991999999999999999999MA1101901999999REMMET056METAR ETGQ 021120Z 32009KT 9999 FEW040 22/10 Q1019 BLU/;
0125102340999992009060212204+53133+009350FM-15+0061ETGQ V0203301N004612200019N0112651N1+02301+00701999999ADDGA1021+015001999GF102991999999999999999999MA1101801999999REMMET056METAR ETGQ 021220Z 33009KT 9999 FEW050 23/07 Q1018 BLU/;
0125102340999992009060213204+53133+009350FM-15+0061ETGQ V0203301N004612200019N0112651N1+02301+00801999999ADDGA1021+090001999GF102991999999999999999999MA1101801999999REMMET056METAR ETGQ 021320Z 33009KT 9999 FEW320 23/08 Q1018 BLU/;
0125102340999992009060214204+53133+009350FM-15+0061ETGQ V0203301N004612200019N0112651N1+02401+00601999999ADDGA1021+090001999GF102991999999999999999999MA1101801999999REMMET056METAR ETGQ 021420Z 33009KT 9999 FEW320 24/06 Q1018 BLU/;
0125102340999992009060215204+53133+009350FM-15+0061ETGQ V0203301N004612200019N0112651N1+02401+00601999999ADDGA1021+090001999GF102991999999999999999999MA1101801999999REMMET056METAR ETGQ 021520Z 33009KT 9999 FEW320 24/06 Q1018 BLU/;
0076102340999992009060216204+53133+009350FM-15+0061ETGQ V0203201N004612200019N0112651N1+02401+00501999999ADDMA1101691999999REMMET049METAR ETGQ 021620Z 32009KT 9999 24/05 Q1017 BLU/;
0125102340999992009060217204+53133+009350FM-15+0061ETGQ V0203401N004612200019N0112651N1+02401+00701999999ADDGA1021+018001999GF102991999999999999999999MA1101691999999REMMET056METAR ETGQ 021720Z 34009KT 9999 FEW060 24/07 Q1017 BLU/;
0125102340999992009060218204+53133+009350FM-15+0061ETGQ V0203301N003111050019N0112651N1+02301+00801999999ADDGA1071+105001999GF107991999999999999999999MA1101691999999REMMET056METAR ETGQ 021820Z 33006KT 9999 BKN350 23/08 Q1017 BLU/;
0125102340999992009060304204+53133+009350FM-15+0061ETGQ V0203201N003112200019N0112651N1+01201+00601999999ADDGA1021+090001999GF102991999999999999999999MA1101801999999REMMET056METAR ETGQ 030420Z 32006KT 9999 FEW300 12/06 Q1018 BLU/;
0148102340999992009060305204+53133+009350FM-15+0061ETGQ V0203501N003110900019N0112651N1+01201+00501999999ADDGA1021+009001999GA2071+090001999GF107991999999999999999999MA1101801999999REMMET063METAR ETGQ 030520Z 35006KT 9999 FEW030 BKN300 12/05 Q1018 BLU/;
0148102340999992009060307204+53133+009350FM-15+0061ETGQ V0203201N003610900019N0112651N1+01401+00401999999ADDGA1041+009001999GA2071+090001999GF107991999999999999999999MA1101801999999REMMET063METAR ETGQ 030720Z 32007KT 9999 SCT030 BKN300 14/04 Q1018 BLU/;
0148102340999992009060308204+53133+009350FM-15+0061ETGQ V0203401N004610900019N0112651N1+01401+00401999999ADDGA1041+012001999GA2071+090001999GF107991999999999999999999MA1101801999999REMMET063METAR ETGQ 030820Z 34009KT 9999 SCT040 BKN300 14/04 Q1018 BLU/;
0124102340999992009060309204+53133+009350FM-15+0061ETGQ V0203201N004110108019N0112651N1+01501+00601999999ADDGA1071+010801999GF107991999999999999999999MA1101801999999REMMET055METAR ETGQ 030920Z 32008KT 9999 BKN036 15/06 Q1018 BLU;
0148102340999992009060310204+53133+009350FM-15+0061ETGQ V0203201N005712200019N0112651N1+01501+00401999999ADDGA1041+012001999GA2041+090001999GF104991999999999999999999MA1101801999999REMMET063METAR ETGQ 031020Z 32011KT 9999 SCT040 SCT300 15/04 Q1018 BLU/;
0124102340999992009060311204+53133+009350FM-15+0061ETGQ V0200501N004610129019N0112651N1+01501+00401999999ADDGA1071+012901999GF107991999999999999999999MA1101801999999REMMET055METAR ETGQ 031120Z 05009KT 9999 BKN043 15/04 Q1018 BLU;
0124102340999992009060312204+53133+009350FM-15+0061ETGQ V0203301N004610150019N0112651N1+01601+00401999999ADDGA1071+015001999GF107991999999999999999999MA1101691999999REMMET055METAR ETGQ 031220Z 33009KT 9999 BKN050 16/04 Q1017 BLU;
0124102340999992009060313204+53133+009350FM-15+0061ETGQ V0203301N004610150019N0112651N1+01701+00401999999ADDGA1071+015001999GF107991999999999999999999MA1101691999999REMMET055METAR ETGQ 031320Z 33009KT 9999 BKN050 17/04 Q1017 BLU;
0124102340999992009060314204+53133+009350FM-15+0061ETGQ V0203301N004110150019N0112651N1+01701+00401999999ADDGA1071+015001999GF107991999999999999999999MA1101691999999REMMET055METAR ETGQ 031420Z 33008KT 9999 BKN050 17/04 Q1017 BLU;
0124102340999992009060316204+53133+009350FM-15+0061ETGQ V0203301N004110150019N0112651N1+01701+00301999999ADDGA1071+015001999GF107991999999999999999999MA1101591999999REMMET055METAR ETGQ 031620Z 33008KT 9999 BKN050 17/03 Q1016 BLU;
0147102340999992009060317204+53133+009350FM-15+0061ETGQ V0203401N003610180019N0112651N1+01601+00401999999ADDGA1071+018001999GA2071+066001999GF107991999999999999999999MA1101591999999REMMET062METAR ETGQ 031720Z 34007KT 9999 BKN060 BKN220 16/04 Q1016 BLU;
0147102340999992009060318204+53133+009350FM-15+0061ETGQ V0203401N003110180019N0112651N1+01501+00401999999ADDGA1041+015001999GA2071+018001999GF107991999999999999999999MA1101591999999REMMET062METAR ETGQ 031820Z 34006KT 9999 SCT050 BKN060 15/04 Q1016 BLU;
0124102340999992009060404204+53133+009350FM-15+0061ETGQ V0203301N001510180019N0112651N1+01001+00201999999ADDGA1071+018001999GF107991999999999999999999MA1101591999999REMMET055METAR ETGQ 040420Z 33003KT 9999 BKN060 10/02 Q1016 BLU;
0124102340999992009060405204+53133+009350FM-15+0061ETGQ V0203501N002110180019N0112651N1+01001+00201999999ADDGA1071+018001999GF107991999999999999999999MA1101591999999REMMET055METAR ETGQ 040520Z 35004KT 9999 BKN060 10/02 Q1016 BLU;
0147102340999992009060406204+53133+009350FM-15+0061ETGQ V0203001N002610150019N0112651N1+01001+00401999999ADDGA1041+007201999GA2071+015001999GF107991999999999999999999MA1101691999999REMMET062METAR ETGQ 040620Z 30005KT 9999 SCT024 BKN050 10/04 Q1017 BLU;
0147102340999992009060407204+53133+009350FM-15+0061ETGQ V0203101N002610180019N0112651N1+01101+00301999999ADDGA1041+009901999GA2071+018001999GF107991999999999999999999MA1101591999999REMMET062METAR ETGQ 040720Z 31005KT 9999 SCT033 BKN060 11/03 Q1016 BLU;
0147102340999992009060408204+53133+009350FM-15+0061ETGQ V0203101N003110180019N0112651N1+01101+00301999999ADDGA1041+011101999GA2071+018001999GF107991999999999999999999MA1101591999999REMMET062METAR ETGQ 040820Z 31006KT 9999 SCT037 BKN060 11/03 Q1016 BLU;
0147102340999992009060409204+53133+009350FM-15+0061ETGQ V0203101N003610150019N0112651N1+01201+00301999999ADDGA1041+009001999GA2071+015001999GF107991999999999999999999MA1101591999999REMMET062METAR ETGQ 040920Z 31007KT 9999 SCT030 BKN050 12/03 Q1016 BLU;
0147102340999992009060410204+53133+009350FM-15+0061ETGQ V0203001N003610180019N0112651N1+01201+00301999999ADDGA1021+009001999GA2071+018001999GF107991999999999999999999MA1101591999999REMMET062METAR ETGQ 041020Z 30007KT 9999 FEW030 BKN060 12/03 Q1016 BLU;
0147102340999992009060411204+53133+009350FM-15+0061ETGQ V0203301N003610180019N0112651N1+01201+00301999999ADDGA1021+009001999GA2071+018001999GF107991999999999999999999MA1101591999999REMMET062METAR ETGQ 041120Z 33007KT 9999 FEW030 BKN060 12/03 Q1016 BLU;
0147102340999992009060412204+53133+009350FM-15+0061ETGQ V0203201N003110180019N0112651N1+01401+00301999999ADDGA1021+009001999GA2071+018001999GF107991999999999999999999MA1101591999999REMMET062METAR ETGQ 041220Z 32006KT 9999 FEW030 BKN060 14/03 Q1016 BLU;
0147102340999992009060413204+53133+009350FM-15+0061ETGQ V0203201N002610180019N0112651N1+01401+00301999999ADDGA1021+012001999GA2071+018001999GF107991999999999999999999MA1101591999999REMMET062METAR ETGQ 041320Z 32005KT 9999 FEW040 BKN060 14/03 Q1016 BLU;
0147102340999992009060414204+53133+009350FM-15+0061ETGQ V0202901N003610180019N0112651N1+01401+00101999999ADDGA1021+012001999GA2071+018001999GF107991999999999999999999MA1101491999999REMMET062METAR ETGQ 041420Z 29007KT 9999 FEW040 BKN060 14/01 Q1015 BLU;
0147102340999992009060415204+53133+009350FM-15+0061ETGQ V0203101N003110180019N0112651N1+01401+00201999999ADDGA1021+012001999GA2071+018001999GF107991999999999999999999MA1101491999999REMMET062METAR ETGQ 041520Z 31006KT 9999 FEW040 BKN060 14/02 Q1015 BLU;
0147102340999992009060416204+53133+009350FM-15+0061ETGQ V0203101N002110180019N0112651N1+01401+00301999999ADDGA1021+012001999GA2071+018001999GF107991999999999999999999MA1101391999999REMMET062METAR ETGQ 041620Z 31004KT 9999 FEW040 BKN060 14/03 Q1014 BLU;
0147102340999992009060417204+53133+009350FM-15+0061ETGQ V0203301N003110210019N0112651N1+01401+00201999999ADDGA1021+012001999GA2071+021001999GF107991999999999999999999MA1101391999999REMMET062METAR ETGQ 041720Z 33006KT 9999 FEW040 BKN070 14/02 Q1014 BLU;
0147102340999992009060418204+53133+009350FM-15+0061ETGQ V0203101N002110210019N0112651N1+01301+00301999999ADDGA1021+012001999GA2071+021001999GF107991999999999999999999MA1101391999999REMMET062METAR ETGQ 041820Z 31004KT 9999 FEW040 BKN070 13/03 Q1014 BLU;
0124102340999992009060504204+53133+009350FM-15+0061ETGQ V0209999C000010150019N0112651N1+00801+00401999999ADDGA1071+015001999GF107991999999999999999999MA1101191999999REMMET055METAR ETGQ 050420Z 00000KT 9999 BKN050 08/04 Q1012 BLU;
0147102340999992009060505204+53133+009350FM-15+0061ETGQ V0202901N000510150019N0112651N1+00901+00401999999ADDGA1021+009001999GA2071+015001999GF107991999999999999999999MA1101191999999REMMET062METAR ETGQ 050520Z 29001KT 9999 FEW030 BKN050 09/04 Q1012 BLU;
0148102340999992009060506204+53133+009350FM-15+0061ETGQ V0203101N002112200019N0112651N1+01001+00401999999ADDGA1021+009001999GA2041+015001999GF104991999999999999999999MA1101191999999REMMET063METAR ETGQ 050620Z 31004KT 9999 FEW030 SCT050 10/04 Q1012 BLU/;
0147102340999992009060507204+53133+009350FM-15+0061ETGQ V0203201N001510150019N0112651N1+01101+00401999999ADDGA1041+007501999GA2071+015001999GF107991999999999999999999MA1101191999999REMMET062METAR ETGQ 050720Z 32003KT 9999 SCT025 BKN050 11/04 Q1012 BLU;
0148102340999992009060508204+53133+009350FM-15+0061ETGQ V0203101N001012200019N0112651N1+01101+00401999999ADDGA1041+007501999GA2041+015001999GF104991999999999999999999MA1101191999999REMMET063METAR ETGQ 050820Z 31002KT 9999 SCT025 SCT050 11/04 Q1012 BLU/;
0147102340999992009060509204+53133+009350FM-15+0061ETGQ V0203001N002110180019N0112651N1+01101+00301999999ADDGA1041+012001999GA2071+018001999GF107991999999999999999999MA1101191999999REMMET062METAR ETGQ 050920Z 30004KT 9999 SCT040 BKN060 11/03 Q1012 BLU;
0147102340999992009060510204+53133+009350FM-15+0061ETGQ V0209999V001010180019N0112651N1+01201+00301999999ADDGA1041+012001999GA2071+018001999GF107991999999999999999999MA1101081999999REMMET062METAR ETGQ 051020Z VRB02KT 9999 SCT040 BKN060 12/03 Q1011 BLU;
0147102340999992009060511204+53133+009350FM-15+0061ETGQ V0203001N001010180019N0112651N1+01301+00301999999ADDGA1041+012001999GA2071+018001999GF107991999999999999999999MA1101081999999REMMET062METAR ETGQ 051120Z 30002KT 9999 SCT040 BKN060 13/03 Q1011 BLU;
0147102340999992009060512204+53133+009350FM-15+0061ETGQ V0209999V000510180019N0112651N1+01301+00201999999ADDGA1041+012001999GA2071+018001999GF107991999999999999999999MA1101081999999REMMET062METAR ETGQ 051220Z VRB01KT 9999 SCT040 BKN060 13/02 Q1011 BLU;
0147102340999992009060513204+53133+009350FM-15+0061ETGQ V0209999V000510180019N0112651N1+01301+00201999999ADDGA1021+012001999GA2071+018001999GF107991999999999999999999MA1101021999999REMMET062METAR ETGQ 051320Z VRB01KT 9999 FEW040 BKN060 13/02 Q1010 BLU;
0147102340999992009060514204+53133+009350FM-15+0061ETGQ V0209999V000510180019N0112651N1+01301+00101999999ADDGA1021+012001999GA2071+018001999GF107991999999999999999999MA1101021999999REMMET062METAR ETGQ 051420Z VRB01KT 9999 FEW040 BKN060 13/01 Q1010 BLU;
0147102340999992009060515204+53133+009350FM-15+0061ETGQ V0200101N002110180019N0112651N1+01501+00101999999ADDGA1021+012001999GA2071+018001999GF107991999999999999999999MA1100911999999REMMET062METAR ETGQ 051520Z 01004KT 9999 FEW040 BKN060 15/01 Q1009 BLU;
0148102340999992009060516204+53133+009350FM-15+0061ETGQ V0200501N001510750019N0112651N1+01501+00201999999ADDGA1021+012001999GA2071+075001999GF107991999999999999999999MA1100811999999REMMET063METAR ETGQ 051620Z 05003KT 9999 FEW040 BKN250 15/02 Q1008 BLU/;
0148102340999992009060517204+53133+009350FM-15+0061ETGQ V0203501N002610690019N0112651N1+01401+00101999999ADDGA1021+012001999GA2071+069001999GF107991999999999999999999MA1100811999999REMMET063METAR ETGQ 051720Z 35005KT 9999 FEW040 BKN230 14/01 Q1008 BLU/;
0148102340999992009060518204+53133+009350FM-15+0061ETGQ V0200301N000510630019N0112651N1+01401+00201999999ADDGA1021+013501999GA2071+063001999GF107991999999999999999999MA1100811999999REMMET063METAR ETGQ 051820Z 03001KT 9999 FEW045 BKN210 14/02 Q1008 BLU/;
0134102340999992009060804204+53133+009350FM-15+0061ETGQ V0202201N002610150019N0112651N1+01201+00801999999ADDGA1071+015001999GF107991999999999999999999MA1100911999999MW1611REMMET059METAR ETGQ 080420Z 22005KT 9999 -RA BKN050 12/08 Q1009 BLU;
0124102340999992009060805204+53133+009350FM-15+0061ETGQ V0202001N002110150019N0112651N1+01201+00901999999ADDGA1071+015001999GF107991999999999999999999MA1100911999999REMMET055METAR ETGQ 080520Z 20004KT 9999 BKN050 12/09 Q1009 BLU;
0148102340999992009060806204+53133+009350FM-15+0061ETGQ V0202201N002612200019N0112651N1+01401+00901999999ADDGA1021+009001999GA2041+027001999GF104991999999999999999999MA1100911999999REMMET063METAR ETGQ 080620Z 22005KT 9999 FEW030 SCT090 14/09 Q1009 BLU/;
0148102340999992009060807204+53133+009350FM-15+0061ETGQ V0203601N002112200019N0112651N1+01501+00801999999ADDGA1021+009001999GA2041+027001999GF104991999999999999999999MA1100911999999REMMET063METAR ETGQ 080720Z 36004KT 9999 FEW030 SCT090 15/08 Q1009 BLU/;
0125102340999992009060808204+53133+009350FM-15+0061ETGQ V0202301N002112200019N0112651N1+01701+00801999999ADDGA1041+009001999GF104991999999999999999999MA1100911999999REMMET056METAR ETGQ 080820Z 23004KT 9999 SCT030 17/08 Q1009 BLU/;
0148102340999992009060809204+53133+009350FM-15+0061ETGQ V0201001N002612200019N0112651N1+01701+00701999999ADDGA1021+009001999GA2041+011401999GF104991999999999999999999MA1100911999999REMMET063METAR ETGQ 080920Z 10005KT 9999 FEW030 SCT038 17/07 Q1009 BLU/;
0148102340999992009060810204+53133+009350FM-15+0061ETGQ V0202401N002612200019N0112651N1+01801+00801999999ADDGA1021+009001999GA2041+015001999GF104991999999999999999999MA1100911999999REMMET063METAR ETGQ 081020Z 24005KT 9999 FEW030 SCT050 18/08 Q1009 BLU/;
0148102340999992009060811204+53133+009350FM-15+0061ETGQ V0202201N003112200019N0112651N1+01901+00601999999ADDGA1021+012001999GA2041+018001999GF104991999999999999999999MA1100911999999REMMET063METAR ETGQ 081120Z 22006KT 9999 FEW040 SCT060 19/06 Q1009 BLU/;
0148102340999992009060812204+53133+009350FM-15+0061ETGQ V0202401N002110900019N0112651N1+02001+00601999999ADDGA1021+015001999GA2071+090001999GF107991999999999999999999MA1100911999999REMMET063METAR ETGQ 081220Z 24004KT 9999 FEW050 BKN300 20/06 Q1009 BLU/;
0148102340999992009060813204+53133+009350FM-15+0061ETGQ V0202401N002110810019N0112651N1+01901+00401999999ADDGA1021+015001999GA2071+081001999GF107991999999999999999999MA1100911999999REMMET063METAR ETGQ 081320Z 24004KT 9999 FEW050 BKN270 19/04 Q1009 BLU/;
0148102340999992009060814204+53133+009350FM-15+0061ETGQ V0201801N001510810019N0112651N1+02101+00501999999ADDGA1021+015001999GA2071+081001999GF107991999999999999999999MA1100811999999REMMET063METAR ETGQ 081420Z 18003KT 9999 FEW050 BKN270 21/05 Q1008 BLU/;
0148102340999992009060815204+53133+009350FM-15+0061ETGQ V0209999V001010600019N0112651N1+02001+00501999999ADDGA1021+018001999GA2071+060001999GF107991999999999999999999MA1100811999999REMMET063METAR ETGQ 081520Z VRB02KT 9999 FEW060 BKN200 20/05 Q1008 BLU/;
0147102340999992009060816204+53133+009350FM-15+0061ETGQ V0201401N002110480019N0112651N1+02001+00601999999ADDGA1021+015001999GA2071+048001999GF107991999999999999999999MA1100811999999REMMET062METAR ETGQ 081620Z 14004KT 9999 FEW050 BKN160 20/06 Q1008 BLU;
0147102340999992009060817204+53133+009350FM-15+0061ETGQ V0201501N002610330019N0112651N1+01901+00701999999ADDGA1021+015001999GA2071+033001999GF107991999999999999999999MA1100811999999REMMET062METAR ETGQ 081720Z 15005KT 9999 FEW050 BKN110 19/07 Q1008 BLU;
0170102340999992009060818204+53133+009350FM-15+0061ETGQ V0201601N001010150019N0112651N1+01901+00801999999ADDGA1021+007501999GA2071+015001999GA3071+024001999GF107991999999999999999999MA1100811999999REMMET069METAR ETGQ 081820Z 16002KT 9999 FEW025 BKN050 BKN080 19/08 Q1008 BLU;
0180102340999992009060904204+53133+009350FM-15+0061ETGQ V0201601N000510150019N0112651N1+01501+01201999999ADDGA1021+004501999GA2071+015001999GA3081+024001999GF108991999999999999999999MA1100711999999MW1611REMMET073METAR ETGQ 090420Z 16001KT 9999 -RA FEW015 BKN050 OVC080 15/12 Q1007 BLU;
0170102340999992009060905204+53133+009350FM-15+0061ETGQ V0209999C000010150019N0112651N1+01501+01201999999ADDGA1021+006001999GA2071+015001999GA3081+024001999GF108991999999999999999999MA1100811999999REMMET069METAR ETGQ 090520Z 00000KT 9999 FEW020 BKN050 OVC080 15/12 Q1008 BLU;
0170102340999992009060906204+53133+009350FM-15+0061ETGQ V0201701N00051008701CN0112651N1+01501+01201999999ADDGA1021+005401999GA2041+008701999GA3081+027001999GF108991999999999999999999MA1100811999999REMMET069METAR ETGQ 090620Z 17001KT 9999 FEW018 SCT029 OVC090 15/12 Q1008 BLU;
0170102340999992009060907204+53133+009350FM-15+0061ETGQ V0202001N00151012001CN0112651N1+01501+01101999999ADDGA1021+006601999GA2041+012001999GA3071+036001999GF107991999999999999999999MA1100911999999REMMET069METAR ETGQ 090720Z 20003KT 9999 FEW022 SCT040 BKN120 15/11 Q1009 BLU;
0147102340999992009060908204+53133+009350FM-15+0061ETGQ V0202101N002110390019N0112651N1+01601+01101999999ADDGA1041+012001999GA2071+039001999GF107991999999999999999999MA1100911999999REMMET062METAR ETGQ 090820Z 21004KT 9999 SCT040 BKN130 16/11 Q1009 BLU;
0148102340999992009060909204+53133+009350FM-15+0061ETGQ V0202001N003112200019N0112651N1+01801+01001999999ADDGA1041+011401999GA2041+039001999GF104991999999999999999999MA1100911999999REMMET063METAR ETGQ 090920Z 20006KT 9999 SCT038 SCT130 18/10 Q1009 BLU/;
0125102340999992009060910204+53133+009350FM-15+0061ETGQ V0202001N003612200019N0112651N1+02001+00901999999ADDGA1041+012001999GF104991999999999999999999MA1100911999999REMMET056METAR ETGQ 091020Z 20007KT 9999 SCT040 20/09 Q1009 BLU/;
0125102340999992009060911204+53133+009350FM-15+0061ETGQ V0202601N002612200019N0112651N1+02101+00901999999ADDGA1041+013501999GF104991999999999999999999MA1100911999999REMMET056METAR ETGQ 091120Z 26005KT 9999 SCT045 21/09 Q1009 BLU/;
0137102340999992009060912204+53133+009350FM-15+0061ETGQ V0201901N001510120019N0112651N1+02201+01001999999ADDGA1071+012001091GF107991999999999999999999MA1100811999999MW1161REMMET062METAR ETGQ 091220Z 19003KT 9999 VCSH BKN040CB 22/10 Q1008 BLU;
0135102340999992009060912534+53133+009350FM-16+0061ETGQ V0201701N004110120019N0112651N1+02101+00901999999ADDGA1071+012001091GF107991999999999999999999MA1100811999999MW1171REMMET060SPECI ETGQ 091253Z 17008KT 9999 TS BKN040CB 21/09 Q1008 BLU;
0137102340999992009060913204+53133+009350FM-15+0061ETGQ V0202001N002610120019N0112651N1+02001+01101999999ADDGA1071+012001091GF107991999999999999999999MA1100911999999MW1171REMMET062METAR ETGQ 091320Z 20005KT 9999 VCTS BKN040CB 20/11 Q1009 BLU;
0143102340999992009060914204+53133+009350FM-15+0061ETGQ V0201501N004112200019N0112651N1+02001+01101999999ADDGA1041+012001091GF104991999999999999999999MA1100911999999OC100981REMMET066METAR ETGQ 091420Z 15008G19KT 9999 SCT040CB 20/11 Q1009 RETS BLU/;
0126102340999992009060915204+53133+009350FM-15+0061ETGQ V0201601N003610120019N0112651N1+02001+01001999999ADDGA1071+012001091GF107991999999999999999999MA1100911999999REMMET057METAR ETGQ 091520Z 16007KT 9999 BKN040CB 20/10 Q1009 BLU;
0138102340999992009060916204+53133+009350FM-15+0061ETGQ V0201701N002110120019N0112651N1+02001+01101999999ADDGA1071+012001091GF107991999999999999999999MA1100811999999MW1801REMMET063METAR ETGQ 091620Z 17004KT 9999 -SHRA BKN040CB 20/11 Q1008 BLU;
0155102340999992009060916354+53133+009350FM-16+0061ETGQ V0202201N006210120019N0112651N1+01901+00901999999ADDGA1071+012001091GF107991999999999999999999MA1100911999999MW1801MW2951OC101291REMMET066SPECI ETGQ 091635Z 22012G25KT 9999 -TSRA BKN040CB 19/09 Q1009 BLU;
0155102340999992009060917204+53133+009350FM-15+0061ETGQ V0202601N001512200019N0112651N1+01801+01001999999ADDGA1041+012001091GA2041+030001999GF104991999999999999999999MA1101021999999REMMET070METAR ETGQ 091720Z 26003KT 9999 SCT040CB SCT100 18/10 Q1010 RETS BLU/;
0135102340999992009060917364+53133+009350FM-16+0061ETGQ V0202601N001510120019N0112651N1+01701+01101999999ADDGA1071+012001091GF107991999999999999999999MA1101021999999MW1171REMMET060SPECI ETGQ 091736Z 26003KT 9999 TS BKN040CB 17/11 Q1010 BLU;
0158102340999992009060918204+53133+009350FM-15+0061ETGQ V0201601N00151010501CN0112651N1+01601+01201999999ADDGA1071+010501091GA2041+030001999MA1101021999999MW1161REMMET074METAR ETGQ 091820Z 16003KT 9999 VCSH BKN035CB SCT100 16/12 Q1010 RETS BLU;EQDQ01+000042SCOTCV
0147102340999992009061004204+53133+009350FM-15+0061ETGQ V0202101N002110150019N0112651N1+01401+01101999999ADDGA1021+003601999GA2071+015001999GF107991999999999999999999MA1101291999999REMMET062METAR ETGQ 100420Z 21004KT 9999 FEW012 BKN050 14/11 Q1013 BLU;
0147102340999992009061005204+53133+009350FM-15+0061ETGQ V0202601N001010150019N0112651N1+01501+01101999999ADDGA1021+007501999GA2071+015001999GF107991999999999999999999MA1101391999999REMMET062METAR ETGQ 100520Z 26002KT 9999 FEW025 BKN050 15/11 Q1014 BLU;
0147102340999992009061006204+53133+009350FM-15+0061ETGQ V0202301N002110120019N0112651N1+01501+01101999999ADDGA1021+007501999GA2071+012001999GF107991999999999999999999MA1101391999999REMMET062METAR ETGQ 100620Z 23004KT 9999 FEW025 BKN040 15/11 Q1014 BLU;
0150102340999992009061007204+53133+009350FM-15+0061ETGQ V0203101N001510045019N0112651N1+01501+01101999999ADDGA1071+004501021GA2071+015001999GF107991999999999999999999MA1101391999999REMMET065METAR ETGQ 100720Z 31003KT 9999 BKN015TCU BKN050 15/11 Q1014 WHT;
0147102340999992009061008204+53133+009350FM-15+0061ETGQ V0202101N003110150019N0112651N1+01501+01101999999ADDGA1041+004501999GA2071+015001999GF107991999999999999999999MA1101491999999REMMET062METAR ETGQ 100820Z 21006KT 9999 SCT015 BKN050 15/11 Q1015 BLU;
0147102340999992009061009204+53133+009350FM-15+0061ETGQ V0202101N002110180019N0112651N1+01501+01201999999ADDGA1041+004501999GA2071+018001999GF107991999999999999999999MA1101491999999REMMET062METAR ETGQ 100920Z 21004KT 9999 SCT015 BKN060 15/12 Q1015 BLU;
0170102340999992009061010204+53133+009350FM-15+0061ETGQ V0202301N00211012001CN0112651N1+01701+01201999999ADDGA1041+006001999GA2041+012001999GA3071+024001999GF107991999999999999999999MA1101491999999REMMET069METAR ETGQ 101020Z 23004KT 9999 SCT020 SCT040 BKN080 17/12 Q1015 BLU;
0170102340999992009061011204+53133+009350FM-15+0061ETGQ V0202501N002610150019N0112651N1+01901+01101999999ADDGA1041+006001999GA2071+015001999GA3071+024001999GF107991999999999999999999MA1101491999999REMMET069METAR ETGQ 101120Z 25005KT 9999 SCT020 BKN050 BKN080 19/11 Q1015 BLU;
0163102340999992009061012204+53133+009350FM-15+0061ETGQ V0203401N003610120019N0112651N1+01801+01101999999ADDGA1021+009001091GA2071+012001021GF107991999999999999999999MA1101491999999MW1161REMMET072METAR ETGQ 101220Z 34007KT 9999 VCSH FEW030CB BKN040TCU 18/11 Q1015 BLU;
0178102340999992009061013204+53133+009350FM-15+0061ETGQ V0202501N002110180019N0112651N1+02001+00901999999ADDGA1021+012001021GA2071+018001999GA3071+063001999GF107991999999999999999999MA1101391999999REMMET077METAR ETGQ 101320Z 25004KT 9999 FEW040TCU BKN060 BKN210 20/09 Q1014 RERA BLU;
0148102340999992009061014204+53133+009350FM-15+0061ETGQ V0202101N003110660019N0112651N1+02101+00601999999ADDGA1041+015001999GA2071+066001999GF107991999999999999999999MA1101391999999REMMET063METAR ETGQ 101420Z 21006KT 9999 SCT050 BKN220 21/06 Q1014 BLU/;
0174102340999992009061015204+53133+009350FM-15+0061ETGQ V0202301N00261018001CN0112651N1+02001+00501999999ADDGA1021+015001021GA2041+018001999GA3071+072001999GF107991999999999999999999MA1101391999999REMMET073METAR ETGQ 101520Z 23005KT 9999 FEW050TCU SCT060 BKN240 20/05 Q1014 BLU/;
0147102340999992009061016204+53133+009350FM-15+0061ETGQ V0202601N001510150019N0112651N1+01901+00601999999ADDGA1071+015001999GA2071+024001999GF107991999999999999999999MA1101291999999REMMET062METAR ETGQ 101620Z 26003KT 9999 BKN050 BKN080 19/06 Q1013 BLU;
0170102340999992009061017204+53133+009350FM-15+0061ETGQ V0209999C00001015001CN0112651N1+01801+00801999999ADDGA1021+009001999GA2041+015001999GA3071+024001999GF107991999999999999999999MA1101291999999REMMET069METAR ETGQ 101720Z 00000KT 9999 FEW030 SCT050 BKN080 18/08 Q1013 BLU;
0147102340999992009061018204+53133+009350FM-15+0061ETGQ V0202001N000510180019N0112651N1+01701+01001999999ADDGA1071+018001999GA2081+024001999GF108991999999999999999999MA1101291999999REMMET062METAR ETGQ 101820Z 20001KT 9999 BKN060 OVC080 17/10 Q1013 BLU;
0181102340999992009061104204+53133+009350FM-15+0061ETGQ V0202201N003110135019N0090001N1+01501+01301999999ADDGA1021+006001999GA2071+013501999GA3071+024001999GF107991999999999999999999MA1100611999999MW1161REMMET074METAR ETGQ 110420Z 22006KT 9000 VCSH FEW020 BKN045 BKN080 15/13 Q1006 BLU;
0167102340999992009061118004+53133+009350FM-15+0061ETGQ V0203301N002110135019N0112651N1+01301+01101999999ADDGA1021+006001999GA2071+013501091GF107991999999999999999999MA1101801999999MW1801MW2951REMMET070SPECI ETGQ 111758Z 33004KT 9999 -TSRA FEW020 BKN045CB 13/11 Q1018 BLU;
0125102340999992009061204204+53133+009350FM-15+0061ETGQ V0209999C000012200019N0112651N1+01001+00801999999ADDGA1041+018001999GF104991999999999999999999MA1102001999999REMMET056METAR ETGQ 120420Z 00000KT 9999 SCT060 10/08 Q1020 BLU/;
0125102340999992009061205204+53133+009350FM-15+0061ETGQ V0209999C000012200019N0112651N1+01101+00801999999ADDGA1021+018001999GF102991999999999999999999MA1102001999999REMMET056METAR ETGQ 120520Z 00000KT 9999 FEW060 11/08 Q1020 BLU/;
0125102340999992009061206204+53133+009350FM-15+0061ETGQ V0201801N001012200019N0112651N1+01201+00801999999ADDGA1041+021001999GF104991999999999999999999MA1102101999999REMMET056METAR ETGQ 120620Z 18002KT 9999 SCT070 12/08 Q1021 BLU/;
0148102340999992009061207204+53133+009350FM-15+0061ETGQ V0201501N002112200019N0112651N1+01401+00901999999ADDGA1021+006001999GA2041+021001999GF104991999999999999999999MA1102101999999REMMET063METAR ETGQ 120720Z 15004KT 9999 FEW020 SCT070 14/09 Q1021 BLU/;
0125102340999992009061208204+53133+009350FM-15+0061ETGQ V0203601N001512200019N0112651N1+01401+00801999999ADDGA1041+006001999GF104991999999999999999999MA1102101999999REMMET056METAR ETGQ 120820Z 36003KT 9999 SCT020 14/08 Q1021 BLU/;
0125102340999992009061209204+53133+009350FM-15+0061ETGQ V0203201N001512200019N0112651N1+01601+00801999999ADDGA1041+006001999GF104991999999999999999999MA1102001999999REMMET056METAR ETGQ 120920Z 32003KT 9999 SCT020 16/08 Q1020 BLU/;
0125102340999992009061210204+53133+009350FM-15+0061ETGQ V0202801N002612200019N0112651N1+01701+00701999999ADDGA1041+009001999GF104991999999999999999999MA1102001999999REMMET056METAR ETGQ 121020Z 28005KT 9999 SCT030 17/07 Q1020 BLU/;
0125102340999992009061211204+53133+009350FM-15+0061ETGQ V0203301N004112200019N0112651N1+01701+00601999999ADDGA1041+006001999GF104991999999999999999999MA1102001999999REMMET056METAR ETGQ 121120Z 33008KT 9999 SCT020 17/06 Q1020 BLU/;
0125102340999992009061212204+53133+009350FM-15+0061ETGQ V0203101N003612200019N0112651N1+01801+00701999999ADDGA1041+012001999GF104991999999999999999999MA1102001999999REMMET056METAR ETGQ 121220Z 31007KT 9999 SCT040 18/07 Q1020 BLU/;
0125102340999992009061213204+53133+009350FM-15+0061ETGQ V0203201N004612200019N0112651N1+01801+00501999999ADDGA1041+015001999GF104991999999999999999999MA1102001999999REMMET056METAR ETGQ 121320Z 32009KT 9999 SCT050 18/05 Q1020 BLU/;
0125102340999992009061214204+53133+009350FM-15+0061ETGQ V0203301N004612200019N0112651N1+01901+00601999999ADDGA1041+015001999GF104991999999999999999999MA1102001999999REMMET056METAR ETGQ 121420Z 33009KT 9999 SCT050 19/06 Q1020 BLU/;
0125102340999992009061215204+53133+009350FM-15+0061ETGQ V0203201N004112200019N0112651N1+01901+00601999999ADDGA1021+015001999GF102991999999999999999999MA1102001999999REMMET056METAR ETGQ 121520Z 32008KT 9999 FEW050 19/06 Q1020 BLU/;
0125102340999992009061216204+53133+009350FM-15+0061ETGQ V0203401N004112200019N0112651N1+01901+00501999999ADDGA1021+015001999GF102991999999999999999999MA1102001999999REMMET056METAR ETGQ 121620Z 34008KT 9999 FEW050 19/05 Q1020 BLU/;
0125102340999992009061217204+53133+009350FM-15+0061ETGQ V0203001N003612200019N0112651N1+01901+00601999999ADDGA1021+018001999GF102991999999999999999999MA1102001999999REMMET056METAR ETGQ 121720Z 30007KT 9999 FEW060 19/06 Q1020 BLU/;
0125102340999992009061218204+53133+009350FM-15+0061ETGQ V0203201N003112200019N0112651N1+01801+00501999999ADDGA1021+018001999GF102991999999999999999999MA1102101999999REMMET056METAR ETGQ 121820Z 32006KT 9999 FEW060 18/05 Q1021 BLU/;
0144102340999992009061417354+53133+009350FM-16+0061ETGQ V0202401N001010150019N0112651N1+02101+01701999999ADDGA1071+015001091GF107991999999999999999999MA1101591999999MW1801MW2951REMMET063SPECI ETGQ 141735Z 24002KT 9999 -TSRA BKN050CB 21/17 Q1016 BLU;
0133102340999992009061504204+53133+009350FM-15+0061ETGQ V0209999C000010012019N0035001N1+01601+01501999999ADDGA1081+001201999GF108991999999999999999999MA1101691999999MW1101REMMET058METAR ETGQ 150420Z 00000KT 3500 BR OVC004 16/15 Q1017 YLO;
0133102340999992009061505204+53133+009350FM-15+0061ETGQ V0209999C000010012019N0035001N1+01601+01501999999ADDGA1081+001201999GF108991999999999999999999MA1101691999999MW1101REMMET058METAR ETGQ 150520Z 00000KT 3500 BR OVC004 16/15 Q1017 YLO;
0133102340999992009061506204+53133+009350FM-15+0061ETGQ V0209999C000010018019N0035001N1+01701+01601999999ADDGA1081+001801999GF108991999999999999999999MA1101691999999MW1101REMMET058METAR ETGQ 150620Z 00000KT 3500 BR OVC006 17/16 Q1017 YLO;
0156102340999992009061507204+53133+009350FM-15+0061ETGQ V0209999C000010018019N0035001N1+01701+01601999999ADDGA1071+001801999GA2081+003901999GF108991999999999999999999MA1101691999999MW1101REMMET065METAR ETGQ 150720Z 00000KT 3500 BR BKN006 OVC013 17/16 Q1017 YLO;
0166102340999992009061508204+53133+009350FM-15+0061ETGQ V0209999C000010018019N0050001N1+01701+01601999999ADDGA1071+001801999GA2081+004501999GF108991999999999999999999MA1101691999999MW1101MW2611REMMET069METAR ETGQ 150820Z 00000KT 5000 -RA BR BKN006 OVC015 17/16 Q1017 YLO;
0176102340999992009061509204+53133+009350FM-15+0061ETGQ V0209999C000010009019N0050001N1+01701+01601999999ADDGA1071+000901999GA2071+003901091GF107991999999999999999999MA1101591999999MW1101MW2801MW3951REMMET073METAR ETGQ 150920Z 00000KT 5000 -TSRA BR BKN003 BKN013CB 17/16 Q1016 YLO;
0162102340999992009061510204+53133+009350FM-15+0061ETGQ V0209999C000010126019N0060001N1+01701+01601999999ADDGA1041+003001999GA2071+012601999GF107991999999999999999999MA1101591999999MW1611REMMET071METAR ETGQ 151020Z 00000KT 6000 -RA SCT010 BKN042 17/16 Q1016 RETS WHT;
0157102340999992009061511204+53133+009350FM-15+0061ETGQ V0203301N000510057019N0060001N1+01801+01601999999ADDGA1041+002701999GA2071+005701999GF107991999999999999999999MA1101591999999MW1611REMMET066METAR ETGQ 151120Z 33001KT 6000 -RA SCT009 BKN019 18/16 Q1016 WHT;
0157102340999992009061512204+53133+009350FM-15+0061ETGQ V0209999C000010054019N0060001N1+01801+01601999999ADDGA1041+003901999GA2081+005401999GF108991999999999999999999MA1101491999999MW1611REMMET066METAR ETGQ 151220Z 00000KT 6000 -RA SCT013 OVC018 18/16 Q1015 WHT;
0156102340999992009061513204+53133+009350FM-15+0061ETGQ V0203501N002110054019N0060001N1+01801+01601999999ADDGA1041+003601999GA2081+005401999GF108991999999999999999999MA1101391999999MW1631REMMET065METAR ETGQ 151320Z 35004KT 6000 RA SCT012 OVC018 18/16 Q1014 WHT;
0162102340999992009061514204+53133+009350FM-15+0061ETGQ V0209999V000510099019N0080001N1+01701+01501999999ADDGA1041+004501999GA2081+009901999GF108991999999999999999999MA1101391999999MW1611REMMET071METAR ETGQ 151420Z VRB01KT 8000 -RA SCT015 OVC033 17/15 Q1014 RERA BLU;
0157102340999992009061515204+53133+009350FM-15+0061ETGQ V0203401N001010150019N0080001N1+01601+01401999999ADDGA1041+005401999GA2081+015001999GF108991999999999999999999MA1101391999999MW1611REMMET066METAR ETGQ 151520Z 34002KT 8000 -RA SCT018 OVC050 16/14 Q1014 BLU;
0170102340999992009061516204+53133+009350FM-15+0061ETGQ V0209999C00001012001CN0112651N1+01701+01401999999ADDGA1021+004501999GA2041+012001999GA3081+018001999GF108991999999999999999999MA1101291999999REMMET069METAR ETGQ 151620Z 00000KT 9999 FEW015 SCT040 OVC060 17/14 Q1013 BLU;
0157102340999992009061517204+53133+009350FM-15+0061ETGQ V0203501N002110150019N0112651N1+01601+01401999999ADDGA1041+010501999GA2081+015001999GF108991999999999999999999MA1101391999999MW1611REMMET066METAR ETGQ 151720Z 35004KT 9999 -RA SCT035 OVC050 16/14 Q1014 BLU;
0180102340999992009061518204+53133+009350FM-15+0061ETGQ V0209999C000010180019N0080001N1+01601+01401999999ADDGA1021+007501999GA2071+018001999GA3081+024001999GF108991999999999999999999MA1101391999999MW1611REMMET073METAR ETGQ 151820Z 00000KT 8000 -RA FEW025 BKN060 OVC080 16/14 Q1014 BLU;
0156102340999992009061604204+53133+009350FM-15+0061ETGQ V0209999C000010180019N0050001N1+01201+01101999999ADDGA1041+003001999GA2071+018001999GF107991999999999999999999MA1101901999999MW1101REMMET065METAR ETGQ 160420Z 00000KT 5000 BR SCT010 BKN060 12/11 Q1019 WHT;
0166102340999992009061605204+53133+009350FM-15+0061ETGQ V0209999C000010180019N0050001N1+01201+01101999999ADDGA1041+003601999GA2071+018001999GF107991999999999999999999MA1101901999999MW1101MW2611REMMET069METAR ETGQ 160520Z 00000KT 5000 -RA BR SCT012 BKN060 12/11 Q1019 WHT;
0147102340999992009061606204+53133+009350FM-15+0061ETGQ V0209999C000010180019N0070001N1+01301+01201999999ADDGA1041+004501999GA2071+018001999GF107991999999999999999999MA1102001999999REMMET062METAR ETGQ 160620Z 00000KT 7000 SCT015 BKN060 13/12 Q1020 WHT;
0147102340999992009061607204+53133+009350FM-15+0061ETGQ V0209999C000010210019N0112651N1+01401+01201999999ADDGA1041+004501999GA2071+021001999GF107991999999999999999999MA1102101999999REMMET062METAR ETGQ 160720Z 00000KT 9999 SCT015 BKN070 14/12 Q1021 BLU;
0124102340999992009061608204+53133+009350FM-15+0061ETGQ V0201701N001010084019N0112651N1+01601+01201999999ADDGA1071+008401999GF107991999999999999999999MA1102101999999REMMET055METAR ETGQ 160820Z 17002KT 9999 BKN028 16/12 Q1021 BLU;
0125102340999992009061609204+53133+009350FM-15+0061ETGQ V0201001N003112200019N0112651N1+01701+01101999999ADDGA1041+007201999GF104991999999999999999999MA1102101999999REMMET056METAR ETGQ 160920Z 10006KT 9999 SCT024 17/11 Q1021 BLU/;
0125102340999992009061610204+53133+009350FM-15+0061ETGQ V0202701N002612200019N0112651N1+01801+00901999999ADDGA1041+011401999GF104991999999999999999999MA1102101999999REMMET056METAR ETGQ 161020Z 27005KT 9999 SCT038 18/09 Q1021 BLU/;
0125102340999992009061611204+53133+009350FM-15+0061ETGQ V0202401N003112200019N0112651N1+02001+01001999999ADDGA1041+012001999GF104991999999999999999999MA1102101999999REMMET056METAR ETGQ 161120Z 24006KT 9999 SCT040 20/10 Q1021 BLU/;
0124102340999992009061612204+53133+009350FM-15+0061ETGQ V0202601N003610135019N0112651N1+02101+00801999999ADDGA1071+013501999GF107991999999999999999999MA1102101999999REMMET055METAR ETGQ 161220Z 26007KT 9999 BKN045 21/08 Q1021 BLU;
0150102340999992009061613204+53133+009350FM-15+0061ETGQ V0203101N002610135019N0112651N1+01801+01101999999ADDGA1021+012001021GA2071+013501999GF107991999999999999999999MA1102201999999REMMET065METAR ETGQ 161320Z 31005KT 9999 FEW040TCU BKN045 18/11 Q1022 BLU;
0150102340999992009061614204+53133+009350FM-15+0061ETGQ V0203101N001510150019N0112651N1+01901+01201999999ADDGA1021+012001021GA2071+015001999GF107991999999999999999999MA1102201999999REMMET065METAR ETGQ 161420Z 31003KT 9999 FEW040TCU BKN050 19/12 Q1022 BLU;
0150102340999992009061615204+53133+009350FM-15+0061ETGQ V0203501N004110180019N0112651N1+01601+01201999999ADDGA1021+012001021GA2071+018001999GF107991999999999999999999MA1102301999999REMMET065METAR ETGQ 161520Z 35008KT 9999 FEW040TCU BKN060 16/12 Q1023 BLU;
0150102340999992009061616204+53133+009350FM-15+0061ETGQ V0203501N001510120019N0112651N1+01801+01301999999ADDGA1021+010501021GA2071+012001999GF107991999999999999999999MA1102301999999REMMET065METAR ETGQ 161620Z 35003KT 9999 FEW035TCU BKN040 18/13 Q1023 BLU;
0148102340999992009061617204+53133+009350FM-15+0061ETGQ V0203401N004112200019N0112651N1+01801+01201999999ADDGA1021+010501999GA2041+024001999GF104991999999999999999999MA1102301999999REMMET063METAR ETGQ 161720Z 34008KT 9999 FEW035 SCT080 18/12 Q1023 BLU/;
0148102340999992009061618204+53133+009350FM-15+0061ETGQ V0203501N002612200019N0112651N1+01701+01201999999ADDGA1021+009001999GA2041+024001999GF104991999999999999999999MA1102401999999REMMET063METAR ETGQ 161820Z 35005KT 9999 FEW030 SCT080 17/12 Q1024 BLU/;
0133102340999992009061704204+53133+009350FM-15+0061ETGQ V0209999V000510009019N0040001N1+01101+01001999999ADDGA1081+000901999GF108991999999999999999999MA1102511999999MW1101REMMET058METAR ETGQ 170420Z VRB01KT 4000 BR OVC003 11/10 Q1025 YLO;
0133102340999992009061705204+53133+009350FM-15+0061ETGQ V0209999C000010009019N0035001N1+01101+01101999999ADDGA1081+000901999GF108991999999999999999999MA1102511999999MW1101REMMET058METAR ETGQ 170520Z 00000KT 3500 BR OVC003 11/11 Q1025 YLO;
0133102340999992009061706204+53133+009350FM-15+0061ETGQ V0209999C000010012019N0040001N1+01201+01101999999ADDGA1081+001201999GF108991999999999999999999MA1102511999999MW1101REMMET058METAR ETGQ 170620Z 00000KT 4000 BR OVC004 12/11 Q1025 YLO;
0125102340999992009061707204+53133+009350FM-15+0061ETGQ V0209999C000012200019N0080001N1+01401+01201999999ADDGA1041+003601999GF104991999999999999999999MA1102511999999REMMET056METAR ETGQ 170720Z 00000KT 8000 SCT012 14/12 Q1025 BLU/;
0125102340999992009061708204+53133+009350FM-15+0061ETGQ V0209999V000512200019N0112651N1+01701+01201999999ADDGA1021+003601999GF102991999999999999999999MA1102511999999REMMET056METAR ETGQ 170820Z VRB01KT 9999 FEW012 17/12 Q1025 BLU/;
0125102340999992009061709204+53133+009350FM-15+0061ETGQ V0201701N002612200019N0112651N1+01901+01101999999ADDGA1021+009601999GF102991999999999999999999MA1102401999999REMMET056METAR ETGQ 170920Z 17005KT 9999 FEW032 19/11 Q1024 BLU/;
0148102340999992009061710204+53133+009350FM-15+0061ETGQ V0201701N002112200019N0112651N1+02001+00901999999ADDGA1021+012001999GA2041+090001999GF104991999999999999999999MA1102301999999REMMET063METAR ETGQ 171020Z 17004KT 9999 FEW040 SCT300 20/09 Q1023 BLU/;
0148102340999992009061711204+53133+009350FM-15+0061ETGQ V0201401N001512200019N0112651N1+02201+00901999999ADDGA1021+015001999GA2041+090001999GF104991999999999999999999MA1102201999999REMMET063METAR ETGQ 171120Z 14003KT 9999 FEW050 SCT300 22/09 Q1022 BLU/;
0148102340999992009061712204+53133+009350FM-15+0061ETGQ V0202201N001512200019N0112651N1+02301+01001999999ADDGA1021+015001999GA2041+090001999GF104991999999999999999999MA1102201999999REMMET063METAR ETGQ 171220Z 22003KT 9999 FEW050 SCT300 23/10 Q1022 BLU/;
0148102340999992009061713204+53133+009350FM-15+0061ETGQ V0201501N001510900019N0112651N1+02301+00901999999ADDGA1021+015001999GA2071+090001999GF107991999999999999999999MA1102101999999REMMET063METAR ETGQ 171320Z 15003KT 9999 FEW050 BKN300 23/09 Q1021 BLU/;
0148102340999992009061714204+53133+009350FM-15+0061ETGQ V0201801N002110900019N0112651N1+02401+00901999999ADDGA1021+015001999GA2071+090001999GF107991999999999999999999MA1102001999999REMMET063METAR ETGQ 171420Z 18004KT 9999 FEW050 BKN300 24/09 Q1020 BLU/;
0148102340999992009061715204+53133+009350FM-15+0061ETGQ V0201401N002610900019N0112651N1+02401+00901999999ADDGA1021+015001999GA2071+090001999GF107991999999999999999999MA1101901999999REMMET063METAR ETGQ 171520Z 14005KT 9999 FEW050 BKN300 24/09 Q1019 BLU/;
0125102340999992009061716204+53133+009350FM-15+0061ETGQ V0201701N002611050019N0112651N1+02301+00901999999ADDGA1071+105001999GF107991999999999999999999MA1101801999999REMMET056METAR ETGQ 171620Z 17005KT 9999 BKN350 23/09 Q1018 BLU/;
0148102340999992009061717204+53133+009350FM-15+0061ETGQ V0201401N002111050019N0112651N1+02201+00901999999ADDGA1021+036001999GA2071+105001999GF107991999999999999999999MA1101801999999REMMET063METAR ETGQ 171720Z 14004KT 9999 FEW120 BKN350 22/09 Q1018 BLU/;
0148102340999992009061718204+53133+009350FM-15+0061ETGQ V0201401N001010750019N0112651N1+02201+01101999999ADDGA1021+060001999GA2071+075001999GF107991999999999999999999MA1101691999999REMMET063METAR ETGQ 171820Z 14002KT 9999 FEW200 BKN250 22/11 Q1017 BLU/;
0147102340999992009061804204+53133+009350FM-15+0061ETGQ V0209999C000010360019N0112651N1+01301+01201999999ADDGA1041+015001999GA2071+036001999GF107991999999999999999999MA1101691999999REMMET062METAR ETGQ 180420Z 00000KT 9999 SCT050 BKN120 13/12 Q1017 BLU;
0124102340999992009061805204+53133+009350FM-15+0061ETGQ V0209999C000010240019N0112651N1+01401+01201999999ADDGA1071+024001999GF107991999999999999999999MA1101801999999REMMET055METAR ETGQ 180520Z 00000KT 9999 BKN080 14/12 Q1018 BLU;
0147102340999992009061806204+53133+009350FM-15+0061ETGQ V0209999C000010240019N0112651N1+01601+01201999999ADDGA1041+015001999GA2071+024001999GF107991999999999999999999MA1101801999999REMMET062METAR ETGQ 180620Z 00000KT 9999 SCT050 BKN080 16/12 Q1018 BLU;
0124102340999992009061807204+53133+009350FM-15+0061ETGQ V0209999C000010150019N0112651N1+01701+01301999999ADDGA1071+015001999GF107991999999999999999999MA1101801999999REMMET055METAR ETGQ 180720Z 00000KT 9999 BKN050 17/13 Q1018 BLU;
0124102340999992009061808204+53133+009350FM-15+0061ETGQ V0209999C000010150019N0112651N1+01801+01301999999ADDGA1071+015001999GF107991999999999999999999MA1101801999999REMMET055METAR ETGQ 180820Z 00000KT 9999 BKN050 18/13 Q1018 BLU;
0124102340999992009061809204+53133+009350FM-15+0061ETGQ V0209999C000010150019N0112651N1+01901+01401999999ADDGA1071+015001999GF107991999999999999999999MA1101801999999REMMET055METAR ETGQ 180920Z 00000KT 9999 BKN050 19/14 Q1018 BLU;
0147102340999992009061810204+53133+009350FM-15+0061ETGQ V0201501N001510150019N0112651N1+02101+01401999999ADDGA1021+006001999GA2071+015001999GF107991999999999999999999MA1101801999999REMMET062METAR ETGQ 181020Z 15003KT 9999 FEW020 BKN050 21/14 Q1018 BLU;
0147102340999992009061811204+53133+009350FM-15+0061ETGQ V0203201N000510150019N0112651N1+02101+01501999999ADDGA1021+007201999GA2071+015001999GF107991999999999999999999MA1101801999999REMMET062METAR ETGQ 181120Z 32001KT 9999 FEW024 BKN050 21/15 Q1018 BLU;
0147102340999992009061812204+53133+009350FM-15+0061ETGQ V0203201N001010150019N0112651N1+02101+01401999999ADDGA1021+008401999GA2071+015001999GF107991999999999999999999MA1101801999999REMMET062METAR ETGQ 181220Z 32002KT 9999 FEW028 BKN050 21/14 Q1018 BLU;
0147102340999992009061813204+53133+009350FM-15+0061ETGQ V0203301N001510135019N0112651N1+02101+01401999999ADDGA1021+008401999GA2071+013501999GF107991999999999999999999MA1101801999999REMMET062METAR ETGQ 181320Z 33003KT 9999 FEW028 BKN045 21/14 Q1018 BLU;
0170102340999992009061814204+53133+009350FM-15+0061ETGQ V0203201N00051010501CN0112651N1+02001+01401999999ADDGA1021+007501999GA2041+010501999GA3071+012001999GF107991999999999999999999MA1101801999999REMMET069METAR ETGQ 181420Z 32001KT 9999 FEW025 SCT035 BKN040 20/14 Q1018 BLU;
0147102340999992009061815204+53133+009350FM-15+0061ETGQ V0209999C000010105019N0112651N1+02101+01401999999ADDGA1021+007501999GA2071+010501999GF107991999999999999999999MA1101691999999REMMET062METAR ETGQ 181520Z 00000KT 9999 FEW025 BKN035 21/14 Q1017 BLU;
0171102340999992009061816204+53133+009350FM-15+0061ETGQ V0202101N00051018001CN0112651N1+02201+01501999999ADDGA1021+007501999GA2041+018001999GA3071+105001999GF107991999999999999999999MA1101691999999REMMET070METAR ETGQ 181620Z 21001KT 9999 FEW025 SCT060 BKN350 22/15 Q1017 BLU/;
0148102340999992009061817204+53133+009350FM-15+0061ETGQ V0202201N001512200019N0112651N1+02201+01501999999ADDGA1021+007501999GA2041+018001999GF104991999999999999999999MA1101591999999REMMET063METAR ETGQ 181720Z 22003KT 9999 FEW025 SCT060 22/15 Q1016 BLU/;
0148102340999992009061818204+53133+009350FM-15+0061ETGQ V0202601N002112200019N0112651N1+02201+01401999999ADDGA1021+009001999GA2041+105001999GF104991999999999999999999MA1101591999999REMMET063METAR ETGQ 181820Z 26004KT 9999 FEW030 SCT350 22/14 Q1016 BLU/;
0147102340999992009061904204+53133+009350FM-15+0061ETGQ V0202101N000510300019N0112651N1+01501+01101999999ADDGA1041+015001999GA2071+030001999GF107991999999999999999999MA1101591999999REMMET062METAR ETGQ 190420Z 21001KT 9999 SCT050 BKN100 15/11 Q1016 BLU;
0124102340999992009061905204+53133+009350FM-15+0061ETGQ V0209999C000010360019N0112651N1+01501+01201999999ADDGA1071+036001999GF107991999999999999999999MA1101691999999REMMET055METAR ETGQ 190520Z 00000KT 9999 BKN120 15/12 Q1017 BLU;
0124102340999992009061906204+53133+009350FM-15+0061ETGQ V0209999C000010300019N0112651N1+01601+01101999999ADDGA1071+030001999GF107991999999999999999999MA1101691999999REMMET055METAR ETGQ 190620Z 00000KT 9999 BKN100 16/11 Q1017 BLU;
0147102340999992009061907204+53133+009350FM-15+0061ETGQ V0209999C000010270019N0112651N1+01601+01001999999ADDGA1041+015001999GA2071+027001999GF107991999999999999999999MA1101801999999REMMET062METAR ETGQ 190720Z 00000KT 9999 SCT050 BKN090 16/10 Q1018 BLU;
0147102340999992009061908204+53133+009350FM-15+0061ETGQ V0202601N001510300019N0112651N1+01701+01001999999ADDGA1021+006001999GA2071+030001999GF107991999999999999999999MA1101801999999REMMET062METAR ETGQ 190820Z 26003KT 9999 FEW020 BKN100 17/10 Q1018 BLU;
0147102340999992009061909204+53133+009350FM-15+0061ETGQ V0202301N002110510019N0112651N1+01701+00901999999ADDGA1041+010501999GA2071+051001999GF107991999999999999999999MA1101801999999REMMET062METAR ETGQ 190920Z 23004KT 9999 SCT035 BKN170 17/09 Q1018 BLU;
0170102340999992009061910204+53133+009350FM-15+0061ETGQ V0203001N00311013501CN0112651N1+01801+00901999999ADDGA1021+010501999GA2041+013501999GA3071+054001999GF107991999999999999999999MA1101801999999REMMET069METAR ETGQ 191020Z 30006KT 9999 FEW035 SCT045 BKN180 18/09 Q1018 BLU;
0148102340999992009061911204+53133+009350FM-15+0061ETGQ V0203201N002111050019N0112651N1+01801+00901999999ADDGA1041+011401999GA2071+105001999GF107991999999999999999999MA1101801999999REMMET063METAR ETGQ 191120Z 32004KT 9999 SCT038 BKN350 18/09 Q1018 BLU/;
0148102340999992009061912204+53133+009350FM-15+0061ETGQ V0203201N002612200019N0112651N1+01801+00801999999ADDGA1041+012901999GA2041+105001999GF104991999999999999999999MA1101901999999REMMET063METAR ETGQ 191220Z 32005KT 9999 SCT043 SCT350 18/08 Q1019 BLU/;
0148102340999992009061913204+53133+009350FM-15+0061ETGQ V0203201N003612200019N0112651N1+01901+00701999999ADDGA1041+015001999GA2041+090001999GF104991999999999999999999MA1101801999999REMMET063METAR ETGQ 191320Z 32007KT 9999 SCT050 SCT340 19/07 Q1018 BLU/;
0148102340999992009061914204+53133+009350FM-15+0061ETGQ V0203201N004112200019N0112651N1+02001+00501999999ADDGA1041+015001999GA2041+090001999GF104991999999999999999999MA1101801999999REMMET063METAR ETGQ 191420Z 32008KT 9999 SCT050 SCT330 20/05 Q1018 BLU/;
0148102340999992009061915204+53133+009350FM-15+0061ETGQ V0203101N004612200019N0112651N1+02001+00501999999ADDGA1041+015001999GA2041+090001999GF104991999999999999999999MA1101801999999REMMET063METAR ETGQ 191520Z 31009KT 9999 SCT050 SCT330 20/05 Q1018 BLU/;
0148102340999992009061916204+53133+009350FM-15+0061ETGQ V0203201N005112200019N0112651N1+01901+00601999999ADDGA1041+015001999GA2041+090001999GF104991999999999999999999MA1101901999999REMMET063METAR ETGQ 191620Z 32010KT 9999 SCT050 SCT330 19/06 Q1019 BLU/;
0171102340999992009061917204+53133+009350FM-15+0061ETGQ V0203301N00411027001CN0112651N1+01901+00701999999ADDGA1021+015001999GA2041+027001999GA3071+090001999GF107991999999999999999999MA1101901999999REMMET070METAR ETGQ 191720Z 33008KT 9999 FEW050 SCT090 BKN320 19/07 Q1019 BLU/;
0171102340999992009061918204+53133+009350FM-15+0061ETGQ V0203301N00411027001CN0112651N1+01801+00701999999ADDGA1021+015001999GA2041+027001999GA3071+090001999GF107991999999999999999999MA1102001999999REMMET070METAR ETGQ 191820Z 33008KT 9999 FEW050 SCT090 BKN300 18/07 Q1020 BLU/;
0147102340999992009062204204+53133+009350FM-15+0061ETGQ V0203401N001510210019N0112651N1+01001+00801999999ADDGA1021+007501999GA2071+021001999GF107991999999999999999999MA1102401999999REMMET062METAR ETGQ 220420Z 34003KT 9999 FEW025 BKN070 10/08 Q1024 BLU;
0147102340999992009062205204+53133+009350FM-15+0061ETGQ V0203101N001510180019N0112651N1+01101+00801999999ADDGA1021+004501999GA2071+018001999GF107991999999999999999999MA1102401999999REMMET062METAR ETGQ 220520Z 31003KT 9999 FEW015 BKN060 11/08 Q1024 BLU;
0148102340999992009062206204+53133+009350FM-15+0061ETGQ V0203401N002112200019N0112651N1+01201+00901999999ADDGA1041+004501999GA2041+015001999GF104991999999999999999999MA1102511999999REMMET063METAR ETGQ 220620Z 34004KT 9999 SCT015 SCT050 12/09 Q1025 BLU/;
0148102340999992009062207204+53133+009350FM-15+0061ETGQ V0203301N002612200019N0112651N1+01301+00801999999ADDGA1041+006001999GA2041+015001999GF104991999999999999999999MA1102511999999REMMET063METAR ETGQ 220720Z 33005KT 9999 SCT020 SCT050 13/08 Q1025 BLU/;
0124102340999992009062208204+53133+009350FM-15+0061ETGQ V0200301N003110090019N0112651N1+01401+00701999999ADDGA1071+009001999GF107991999999999999999999MA1102511999999REMMET055METAR ETGQ 220820Z 03006KT 9999 BKN030 14/07 Q1025 BLU;
0147102340999992009062209204+53133+009350FM-15+0061ETGQ V0203401N002610150019N0112651N1+01501+00701999999ADDGA1021+009901999GA2071+015001999GF107991999999999999999999MA1102511999999REMMET062METAR ETGQ 220920Z 34005KT 9999 FEW033 BKN050 15/07 Q1025 BLU;
0147102340999992009062210204+53133+009350FM-15+0061ETGQ V0203501N004110150019N0112651N1+01501+00701999999ADDGA1041+009901999GA2071+015001999GF107991999999999999999999MA1102511999999REMMET062METAR ETGQ 221020Z 35008KT 9999 SCT033 BKN050 15/07 Q1025 BLU;
0147102340999992009062211204+53133+009350FM-15+0061ETGQ V0203501N004110180019N0112651N1+01601+00601999999ADDGA1021+012001999GA2071+018001999GF107991999999999999999999MA1102511999999REMMET062METAR ETGQ 221120Z 35008KT 9999 FEW040 BKN060 16/06 Q1025 BLU;
0147102340999992009062212204+53133+009350FM-15+0061ETGQ V0203601N003610180019N0112651N1+01701+00601999999ADDGA1021+012001999GA2071+018001999GF107991999999999999999999MA1102611999999REMMET062METAR ETGQ 221220Z 36007KT 9999 FEW040 BKN060 17/06 Q1026 BLU;
0124102340999992009062213204+53133+009350FM-15+0061ETGQ V0203601N003110126019N0112651N1+01701+00701999999ADDGA1071+012601999GF107991999999999999999999MA1102611999999REMMET055METAR ETGQ 221320Z 36006KT 9999 BKN042 17/07 Q1026 BLU;
0147102340999992009062214204+53133+009350FM-15+0061ETGQ V0203601N004110180019N0112651N1+01701+00701999999ADDGA1021+012001999GA2071+018001999GF107991999999999999999999MA1102511999999REMMET062METAR ETGQ 221420Z 36008KT 9999 FEW040 BKN060 17/07 Q1025 BLU;
0125102340999992009062215204+53133+009350FM-15+0061ETGQ V0203401N002112200019N0112651N1+01701+00701999999ADDGA1041+015001999GF104991999999999999999999MA1102511999999REMMET056METAR ETGQ 221520Z 34004KT 9999 SCT050 17/07 Q1025 BLU/;
0125102340999992009062216204+53133+009350FM-15+0061ETGQ V0203401N003112200019N0112651N1+01801+00701999999ADDGA1041+013201999GF104991999999999999999999MA1102511999999REMMET056METAR ETGQ 221620Z 34006KT 9999 SCT044 18/07 Q1025 BLU/;
0125102340999992009062217204+53133+009350FM-15+0061ETGQ V0203501N003112200019N0112651N1+01801+00801999999ADDGA1041+013501999GF104991999999999999999999MA1102511999999REMMET056METAR ETGQ 221720Z 35006KT 9999 SCT045 18/08 Q1025 BLU/;
0147102340999992009062218204+53133+009350FM-15+0061ETGQ V0203401N003110180019N0112651N1+01701+00701999999ADDGA1021+013501999GA2071+018001999GF107991999999999999999999MA1102511999999REMMET062METAR ETGQ 221820Z 34006KT 9999 FEW045 BKN060 17/07 Q1025 BLU;
0125102340999992009062304204+53133+009350FM-15+0061ETGQ V0209999C000011050019N0112651N1+01101+00901999999ADDGA1071+105001999GF107991999999999999999999MA1102611999999REMMET056METAR ETGQ 230420Z 00000KT 9999 BKN350 11/09 Q1026 BLU/;
0148102340999992009062305204+53133+009350FM-15+0061ETGQ V0209999C000011050019N0112651N1+01201+00901999999ADDGA1021+003001999GA2071+105001999GF107991999999999999999999MA1102611999999REMMET063METAR ETGQ 230520Z 00000KT 9999 FEW010 BKN350 12/09 Q1026 BLU/;
0125102340999992009062306204+53133+009350FM-15+0061ETGQ V0203201N001511050019N0112651N1+01401+01001999999ADDGA1071+105001999GF107991999999999999999999MA1102611999999REMMET056METAR ETGQ 230620Z 32003KT 9999 BKN350 14/10 Q1026 BLU/;
0125102340999992009062307204+53133+009350FM-15+0061ETGQ V0203401N003111050019N0112651N1+01501+01001999999ADDGA1071+105001999GF107991999999999999999999MA1102611999999REMMET056METAR ETGQ 230720Z 34006KT 9999 BKN350 15/10 Q1026 BLU/;
0148102340999992009062308204+53133+009350FM-15+0061ETGQ V0203301N004111050019N0112651N1+01701+00901999999ADDGA1021+009001999GA2071+105001999GF107991999999999999999999MA1102611999999REMMET063METAR ETGQ 230820Z 33008KT 9999 FEW030 BKN350 17/09 Q1026 BLU/;
0148102340999992009062309204+53133+009350FM-15+0061ETGQ V0203601N004111050019N0112651N1+01901+00901999999ADDGA1021+010501999GA2071+105001999GF107991999999999999999999MA1102511999999REMMET063METAR ETGQ 230920Z 36008KT 9999 FEW035 BKN350 19/09 Q1025 BLU/;
0124102340999992009062310204+53133+009350FM-15+0061ETGQ V0203601N004610150019N0112651N1+01901+00801999999ADDGA1071+015001999GF107991999999999999999999MA1102511999999REMMET055METAR ETGQ 231020Z 36009KT 9999 BKN050 19/08 Q1025 BLU;
0147102340999992009062311204+53133+009350FM-15+0061ETGQ V0203501N004110180019N0112651N1+02101+00901999999ADDGA1021+013501999GA2071+018001999GF107991999999999999999999MA1102401999999REMMET062METAR ETGQ 231120Z 35008KT 9999 FEW045 BKN060 21/09 Q1024 BLU;
0148102340999992009062312204+53133+009350FM-15+0061ETGQ V0200101N004112200019N0112651N1+02201+00701999999ADDGA1041+015001999GA2041+090001999GF104991999999999999999999MA1102401999999REMMET063METAR ETGQ 231220Z 01008KT 9999 SCT050 SCT300 22/07 Q1024 BLU/;
0148102340999992009062313204+53133+009350FM-15+0061ETGQ V0200101N004112200019N0112651N1+02201+00701999999ADDGA1041+021001999GA2041+090001999GF104991999999999999999999MA1102301999999REMMET063METAR ETGQ 231320Z 01008KT 9999 SCT070 SCT300 22/07 Q1023 BLU/;
0148102340999992009062314204+53133+009350FM-15+0061ETGQ V0203601N005112200019N0112651N1+02201+00701999999ADDGA1041+018001999GA2041+090001999GF104991999999999999999999MA1102301999999REMMET063METAR ETGQ 231420Z 36010KT 9999 SCT060 SCT300 22/07 Q1023 BLU/;
0124102340999992009062315204+53133+009350FM-15+0061ETGQ V0203501N004110180019N0112651N1+02301+00701999999ADDGA1071+018001999GF107991999999999999999999MA1102201999999REMMET055METAR ETGQ 231520Z 35008KT 9999 BKN060 23/07 Q1022 BLU;
0148102340999992009062316204+53133+009350FM-15+0061ETGQ V0200101N004112200019N0112651N1+02301+00701999999ADDGA1021+021001999GA2041+075001999GF104991999999999999999999MA1102201999999REMMET063METAR ETGQ 231620Z 01008KT 9999 FEW070 SCT250 23/07 Q1022 BLU/;
0147102340999992009062317204+53133+009350FM-15+0061ETGQ V0200101N003610390019N0112651N1+02201+00701999999ADDGA1021+018001999GA2071+039001999GF107991999999999999999999MA1102201999999REMMET062METAR ETGQ 231720Z 01007KT 9999 FEW060 BKN130 22/07 Q1022 BLU;
0147102340999992009062318204+53133+009350FM-15+0061ETGQ V0200101N003110330019N0112651N1+02201+00701999999ADDGA1021+018001999GA2071+033001999GF107991999999999999999999MA1102201999999REMMET062METAR ETGQ 231820Z 01006KT 9999 FEW060 BKN110 22/07 Q1022 BLU;
0148102340999992009062404204+53133+009350FM-15+0061ETGQ V0209999C000012200019N0112651N1+01201+00801999999ADDGA1021+033001999GA2041+090001999GF104991999999999999999999MA1102101999999REMMET063METAR ETGQ 240420Z 00000KT 9999 FEW110 SCT300 12/08 Q1021 BLU/;
0125102340999992009062405204+53133+009350FM-15+0061ETGQ V0203501N000512200019N0112651N1+01401+00901999999ADDGA1041+090001999GF104991999999999999999999MA1102101999999REMMET056METAR ETGQ 240520Z 35001KT 9999 SCT300 14/09 Q1021 BLU/;
0125102340999992009062406204+53133+009350FM-15+0061ETGQ V0203501N002112200019N0112651N1+01601+00801999999ADDGA1041+090001999GF104991999999999999999999MA1102001999999REMMET056METAR ETGQ 240620Z 35004KT 9999 SCT300 16/08 Q1020 BLU/;
0125102340999992009062407204+53133+009350FM-15+0061ETGQ V0203401N001012200019N0112651N1+01801+00901999999ADDGA1041+090001999GF104991999999999999999999MA1102001999999REMMET056METAR ETGQ 240720Z 34002KT 9999 SCT300 18/09 Q1020 BLU/;
0125102340999992009062408204+53133+009350FM-15+0061ETGQ V0200801N002612200019N0112651N1+02101+00601999999ADDGA1021+090001999GF102991999999999999999999MA1101901999999REMMET056METAR ETGQ 240820Z 08005KT 9999 FEW300 21/06 Q1019 BLU/;
0125102340999992009062409204+53133+009350FM-15+0061ETGQ V0202001N003612200019N0112651N1+02201+00601999999ADDGA1041+090001999GF104991999999999999999999MA1101901999999REMMET056METAR ETGQ 240920Z 20007KT 9999 SCT300 22/06 Q1019 BLU/;
0125102340999992009062410204+53133+009350FM-15+0061ETGQ V0200601N003612200019N0112651N1+02201+00601999999ADDGA1021+090001999GF102991999999999999999999MA1101801999999REMMET056METAR ETGQ 241020Z 06007KT 9999 FEW300 22/06 Q1018 BLU/;
0125102340999992009062411204+53133+009350FM-15+0061ETGQ V0200501N003112200019N0112651N1+02301+00701999999ADDGA1021+090001999GF102991999999999999999999MA1101801999999REMMET056METAR ETGQ 241120Z 05006KT 9999 FEW300 23/07 Q1018 BLU/;
0125102340999992009062413204+53133+009350FM-15+0061ETGQ V0200701N003612200019N0112651N1+02501+00701999999ADDGA1021+090001999GF102991999999999999999999MA1101691999999REMMET056METAR ETGQ 241320Z 07007KT 9999 FEW300 25/07 Q1017 BLU/;
0125102340999992009062414204+53133+009350FM-15+0061ETGQ V0200401N003112200019N0112651N1+02601+00701999999ADDGA1021+090001999GF102991999999999999999999MA1101591999999REMMET056METAR ETGQ 241420Z 04006KT 9999 FEW300 26/07 Q1016 BLU/;
0125102340999992009062415204+53133+009350FM-15+0061ETGQ V0201001N003612200019N0112651N1+02501+00701999999ADDGA1021+015001999GF102991999999999999999999MA1101591999999REMMET056METAR ETGQ 241520Z 10007KT 9999 FEW050 25/07 Q1016 BLU/;
0125102340999992009062416204+53133+009350FM-15+0061ETGQ V0200901N003112200019N0112651N1+02501+00801999999ADDGA1021+015001999GF102991999999999999999999MA1101591999999REMMET056METAR ETGQ 241620Z 09006KT 9999 FEW050 25/08 Q1016 BLU/;
0124102340999992009062417204+53133+009350FM-15+0061ETGQ V0200801N002610180019N0112651N1+02501+00901999999ADDGA1071+018001999GF107991999999999999999999MA1101591999999REMMET055METAR ETGQ 241720Z 08005KT 9999 BKN060 25/09 Q1016 BLU;
0125102340999992009062504204+53133+009350FM-15+0061ETGQ V0209999C000011050019N0112651N1+01601+01301999999ADDGA1071+105001999GF107991999999999999999999MA1101391999999REMMET056METAR ETGQ 250420Z 00000KT 9999 BKN350 16/13 Q1014 BLU/;
0125102340999992009062505204+53133+009350FM-15+0061ETGQ V0209999V000512200019N0112651N1+01701+01301999999ADDGA1041+105001999GF104991999999999999999999MA1101391999999REMMET056METAR ETGQ 250520Z VRB01KT 9999 SCT350 17/13 Q1014 BLU/;
0125102340999992009062506204+53133+009350FM-15+0061ETGQ V0209999C000012200019N0112651N1+02001+01201999999ADDGA1041+105001999GF104991999999999999999999MA1101391999999REMMET056METAR ETGQ 250620Z 00000KT 9999 SCT350 20/12 Q1014 BLU/;
0125102340999992009062507204+53133+009350FM-15+0061ETGQ V0203601N001512200019N0112651N1+02001+01201999999ADDGA1041+105001999GF104991999999999999999999MA1101291999999REMMET056METAR ETGQ 250720Z 36003KT 9999 SCT350 20/12 Q1013 BLU/;
0148102340999992009062508204+53133+009350FM-15+0061ETGQ V0200701N001512200019N0112651N1+02201+01301999999ADDGA1021+012001999GA2041+105001999GF104991999999999999999999MA1101291999999REMMET063METAR ETGQ 250820Z 07003KT 9999 FEW040 SCT350 22/13 Q1013 BLU/;
0148102340999992009062509204+53133+009350FM-15+0061ETGQ V0201101N002112200019N0112651N1+02301+01301999999ADDGA1021+012001999GA2041+105001999GF104991999999999999999999MA1101291999999REMMET063METAR ETGQ 250920Z 11004KT 9999 FEW040 SCT350 23/13 Q1013 BLU/;
0148102340999992009062510204+53133+009350FM-15+0061ETGQ V0200101N002112200019N0112651N1+02401+01401999999ADDGA1041+012001999GA2041+090001999GF104991999999999999999999MA1101191999999REMMET063METAR ETGQ 251020Z 01004KT 9999 SCT040 SCT300 24/14 Q1012 BLU/;
0148102340999992009062511204+53133+009350FM-15+0061ETGQ V0200401N001512200019N0112651N1+02501+01401999999ADDGA1041+012001999GA2041+090001999GF104991999999999999999999MA1101191999999REMMET063METAR ETGQ 251120Z 04003KT 9999 SCT040 SCT300 25/14 Q1012 BLU/;
0124102340999992009062512204+53133+009350FM-15+0061ETGQ V0209999V001010210019N0112651N1+02501+01301999999ADDGA1071+021001999GF107991999999999999999999MA1101191999999REMMET055METAR ETGQ 251220Z VRB02KT 9999 BKN070 25/13 Q1012 BLU;
0148102340999992009062514204+53133+009350FM-15+0061ETGQ V0200701N001512200019N0112651N1+02601+01301999999ADDGA1041+015001999GA2041+090001999GF104991999999999999999999MA1101021999999REMMET063METAR ETGQ 251420Z 07003KT 9999 SCT050 SCT300 26/13 Q1010 BLU/;
0128102340999992009062516204+53133+009350FM-15+0061ETGQ V0200401N001512200019N0112651N1+02601+01201999999ADDGA1041+015001021GF104991999999999999999999MA1100911999999REMMET059METAR ETGQ 251620Z 04003KT 9999 SCT050TCU 26/12 Q1009 BLU/;
0148102340999992009062517204+53133+009350FM-15+0061ETGQ V0209999C000012200019N0112651N1+02401+01601999999ADDGA1021+015001999GA2041+030001999GF104991999999999999999999MA1100911999999REMMET063METAR ETGQ 251720Z 00000KT 9999 FEW050 SCT100 24/16 Q1009 BLU/;
0148102340999992009062518204+53133+009350FM-15+0061ETGQ V0209999C000012200019N0112651N1+02601+01301999999ADDGA1021+015001999GA2041+090001999GF104991999999999999999999MA1100911999999REMMET063METAR ETGQ 251820Z 00000KT 9999 FEW050 SCT300 26/13 Q1009 BLU/;
0125102340999992009062604204+53133+009350FM-15+0061ETGQ V0209999C000012200019N0112651N1+01701+01401999999ADDGA1021+003901999GF102991999999999999999999MA1101081999999REMMET056METAR ETGQ 260420Z 00000KT 9999 FEW013 17/14 Q1011 BLU/;
0125102340999992009062605204+53133+009350FM-15+0061ETGQ V0201401N000512200019N0112651N1+01801+01401999999ADDGA1041+004201999GF104991999999999999999999MA1101081999999REMMET056METAR ETGQ 260520Z 14001KT 9999 SCT014 18/14 Q1011 BLU/;
0124102340999992009062606204+53133+009350FM-15+0061ETGQ V0201601N000510042019N0112651N1+01801+01401999999ADDGA1071+004201999GF107991999999999999999999MA1101191999999REMMET055METAR ETGQ 260620Z 16001KT 9999 BKN014 18/14 Q1012 GRN;
0147102340999992009062607204+53133+009350FM-15+0061ETGQ V0201501N000510150019N0112651N1+01901+01401999999ADDGA1021+004501999GA2071+015001999GF107991999999999999999999MA1101191999999REMMET062METAR ETGQ 260720Z 15001KT 9999 FEW015 BKN050 19/14 Q1012 BLU;
0148102340999992009062608204+53133+009350FM-15+0061ETGQ V0202001N001012200019N0112651N1+02101+01501999999ADDGA1021+006901999GA2041+015001999GF104991999999999999999999MA1101081999999REMMET063METAR ETGQ 260820Z 20002KT 9999 FEW023 SCT050 21/15 Q1011 BLU/;
0125102340999992009062609204+53133+009350FM-15+0061ETGQ V0209999V000512200019N0112651N1+02301+01501999999ADDGA1041+009001999GF104991999999999999999999MA1101081999999REMMET056METAR ETGQ 260920Z VRB01KT 9999 SCT030 23/15 Q1011 BLU/;
0128102340999992009062610204+53133+009350FM-15+0061ETGQ V0209999V001012200019N0112651N1+02401+01501999999ADDGA1041+010501021GF104991999999999999999999MA1101081999999REMMET059METAR ETGQ 261020Z VRB02KT 9999 SCT035TCU 24/15 Q1011 BLU/;
0125102340999992009062611204+53133+009350FM-15+0061ETGQ V0200901N001512200019N0112651N1+02401+01501999999ADDGA1041+013501999GF104991999999999999999999MA1101081999999REMMET056METAR ETGQ 261120Z 09003KT 9999 SCT045 24/15 Q1011 BLU/;
0125102340999992009062612204+53133+009350FM-15+0061ETGQ V0201401N002112200019N0112651N1+02701+01401999999ADDGA1041+015001999GF104991999999999999999999MA1101021999999REMMET056METAR ETGQ 261220Z 14004KT 9999 SCT050 27/14 Q1010 BLU/;
0125102340999992009062614204+53133+009350FM-15+0061ETGQ V0209999V001012200019N0112651N1+02701+01501999999ADDGA1041+015001999GF104991999999999999999999MA1100911999999REMMET056METAR ETGQ 261420Z VRB02KT 9999 SCT050 27/15 Q1009 BLU/;
0125102340999992009062615204+53133+009350FM-15+0061ETGQ V0201201N001012200019N0112651N1+02701+01301999999ADDGA1041+015001999GF104991999999999999999999MA1100911999999REMMET056METAR ETGQ 261520Z 12002KT 9999 SCT050 27/13 Q1009 BLU/;
0125102340999992009062616204+53133+009350FM-15+0061ETGQ V0201001N002112200019N0112651N1+02701+01201999999ADDGA1041+015001999GF104991999999999999999999MA1100911999999REMMET056METAR ETGQ 261620Z 10004KT 9999 SCT050 27/12 Q1009 BLU/;
0125102340999992009062617204+53133+009350FM-15+0061ETGQ V0201301N001512200019N0112651N1+02601+01301999999ADDGA1041+015001999GF104991999999999999999999MA1100911999999REMMET056METAR ETGQ 261720Z 13003KT 9999 SCT050 26/13 Q1009 BLU/;
0125102340999992009062618204+53133+009350FM-15+0061ETGQ V0209999C000012200019N0112651N1+02401+01501999999ADDGA1041+015001999GF104991999999999999999999MA1101021999999REMMET056METAR ETGQ 261820Z 00000KT 9999 SCT050 24/15 Q1010 BLU/;
0184102340999992009062710454+53133+009350FM-16+0061ETGQ V0200101N00151018001CN0112651N1+02401+01601999999ADDGA1041+007501091GA2041+018001999GA3071+075001999GF107991999999999999999999MA1101391999999MW1171REMMET077SPECI ETGQ 271045Z 01003KT 9999 VCTS SCT025CB SCT060 BKN250 24/16 Q1014 BLU/;
0076102340999992009062904204+53133+009350FM-15+0061ETGQ V0209999C000012200019N0112651N1+01701+01601999999ADDMA1101691999999REMMET049METAR ETGQ 290420Z 00000KT 9999 17/16 Q1017 BLU/;
0125102340999992009062905204+53133+009350FM-15+0061ETGQ V0201401N000512200019N0112651N1+01801+01601999999ADDGA1021+105001999GF102991999999999999999999MA1101691999999REMMET056METAR ETGQ 290520Z 14001KT 9999 FEW350 18/16 Q1017 BLU/;
0125102340999992009062906204+53133+009350FM-15+0061ETGQ V0209999C000012200019N0112651N1+02001+01601999999ADDGA1021+105001999GF102991999999999999999999MA1101801999999REMMET056METAR ETGQ 290620Z 00000KT 9999 FEW350 20/16 Q1018 BLU/;
0076102340999992009062907204+53133+009350FM-15+0061ETGQ V0209999C000012200019N0112651N1+02101+01601999999ADDMA1101801999999REMMET049METAR ETGQ 290720Z 00000KT 9999 21/16 Q1018 BLU/;
0125102340999992009062908204+53133+009350FM-15+0061ETGQ V0209999C000012200019N0112651N1+02301+01601999999ADDGA1021+008401999GF102991999999999999999999MA1101801999999REMMET056METAR ETGQ 290820Z 00000KT 9999 FEW028 23/16 Q1018 BLU/;
0125102340999992009062909204+53133+009350FM-15+0061ETGQ V0209999C000012200019N0112651N1+02401+01601999999ADDGA1021+009001999GF102991999999999999999999MA1101801999999REMMET056METAR ETGQ 290920Z 00000KT 9999 FEW030 24/16 Q1018 BLU/;
0128102340999992009062910204+53133+009350FM-15+0061ETGQ V0209999V000512200019N0112651N1+02601+01601999999ADDGA1021+012001021GF102991999999999999999999MA1101691999999REMMET059METAR ETGQ 291020Z VRB01KT 9999 FEW040TCU 26/16 Q1017 BLU/;
0128102340999992009062911204+53133+009350FM-15+0061ETGQ V0203401N003112200019N0112651N1+02601+01701999999ADDGA1041+012001021GF104991999999999999999999MA1101691999999REMMET059METAR ETGQ 291120Z 34006KT 9999 SCT040TCU 26/17 Q1017 BLU/;
0151102340999992009062912204+53133+009350FM-15+0061ETGQ V0203401N002612200019N0112651N1+02501+01601999999ADDGA1021+012001021GA2041+033001999GF104991999999999999999999MA1101691999999REMMET066METAR ETGQ 291220Z 34005KT 9999 FEW040TCU SCT110 25/16 Q1017 BLU/;
0149102340999992009062913204+53133+009350FM-15+0061ETGQ V0209999C000010330019N0112651N1+02601+01601999999ADDGA1041+012001091GA2071+033001999GF107991999999999999999999MA1101691999999REMMET064METAR ETGQ 291320Z 00000KT 9999 SCT040CB BKN110 26/16 Q1017 BLU;
0149102340999992009062914204+53133+009350FM-15+0061ETGQ V0209999C000010330019N0112651N1+02601+01701999999ADDGA1041+012001091GA2071+033001999GF107991999999999999999999MA1101691999999REMMET064METAR ETGQ 291420Z 00000KT 9999 SCT040CB BKN110 26/17 Q1017 BLU;
0158102340999992009062914294+53133+009350FM-16+0061ETGQ V0209999C000010330019N0112651N1+02601+01701999999ADDGA1041+012001091GA2071+033001999GF107991999999999999999999MA1101691999999MW1171REMMET067SPECI ETGQ 291429Z 00000KT 9999 TS SCT040CB BKN110 26/17 Q1017 BLU;
0152102340999992009062915204+53133+009350FM-15+0061ETGQ V0200701N001510330019N0112651N1+02601+01601999999ADDGA1041+010501999GA2071+033001999GF107991999999999999999999MA1101691999999REMMET067METAR ETGQ 291520Z 07003KT 9999 SCT035 BKN110 26/16 Q1017 RETS BLU;
0150102340999992009062916204+53133+009350FM-15+0061ETGQ V0209999C000012200019N0112651N1+02701+01501999999ADDGA1021+012001091GA2041+033001999GF104991999999999999999999MA1101691999999REMMET065METAR ETGQ 291620Z 00000KT 9999 FEW040CB SCT110 27/15 Q1017 BLU/;
0149102340999992009062917204+53133+009350FM-15+0061ETGQ V0203301N002110330019N0112651N1+02601+01601999999ADDGA1021+012001091GA2071+033001999GF107991999999999999999999MA1101691999999REMMET064METAR ETGQ 291720Z 33004KT 9999 FEW040CB BKN110 26/16 Q1017 BLU;
0150102340999992009062918204+53133+009350FM-15+0061ETGQ V0209999C000012200019N0112651N1+02601+01601999999ADDGA1021+010501091GA2041+033001999GF104991999999999999999999MA1101691999999REMMET065METAR ETGQ 291820Z 00000KT 9999 FEW035CB SCT110 26/16 Q1017 BLU/;
0124102340999992009063004204+53133+009350FM-15+0061ETGQ V0209999C000010300019N0112651N1+01801+01701999999ADDGA1071+030001999GF107991999999999999999999MA1101901999999REMMET055METAR ETGQ 300420Z 00000KT 9999 BKN100 18/17 Q1019 BLU;
0124102340999992009063005204+53133+009350FM-15+0061ETGQ V0209999C000012200019N0070001N1+01901+01701999999ADDGA1041+030001999GF104991999999999999999999MA1101901999999REMMET055METAR ETGQ 300520Z 00000KT 7000 SCT100 19/17 Q1019 WHT;
0124102340999992009063006204+53133+009350FM-15+0061ETGQ V0209999C000012200019N0070001N1+02001+01701999999ADDGA1021+090001999GF102991999999999999999999MA1102001999999REMMET055METAR ETGQ 300620Z 00000KT 7000 FEW300 20/17 Q1020 WHT;
0147102340999992009063007204+53133+009350FM-15+0061ETGQ V0209999C000012200019N0070001N1+02201+01801999999ADDGA1021+004501999GA2041+018001999GF104991999999999999999999MA1102001999999REMMET062METAR ETGQ 300720Z 00000KT 7000 FEW015 SCT060 22/18 Q1020 WHT;
0124102340999992009063008204+53133+009350FM-15+0061ETGQ V0209999C000012200019N0060001N1+02301+01801999999ADDGA1041+018001999GF104991999999999999999999MA1102001999999REMMET055METAR ETGQ 300820Z 00000KT 6000 SCT060 23/18 Q1020 WHT;
0147102340999992009063009204+53133+009350FM-15+0061ETGQ V0209999C000012200019N0070001N1+02401+01801999999ADDGA1021+007501999GA2041+030001999GF104991999999999999999999MA1102001999999REMMET062METAR ETGQ 300920Z 00000KT 7000 FEW025 SCT100 24/18 Q1020 WHT;
0125102340999992009063010204+53133+009350FM-15+0061ETGQ V0209999V000512200019N0080001N1+02501+01801999999ADDGA1041+008101999GF104991999999999999999999MA1102001999999REMMET056METAR ETGQ 301020Z VRB01KT 8000 SCT027 25/18 Q1020 BLU/;
0151102340999992009063011204+53133+009350FM-15+0061ETGQ V0209999C000012200019N0090001N1+02601+01801999999ADDGA1021+009301021GA2041+010801999GF104991999999999999999999MA1101901999999REMMET066METAR ETGQ 301120Z 00000KT 9000 FEW031TCU SCT036 26/18 Q1019 BLU/;
0151102340999992009063012204+53133+009350FM-15+0061ETGQ V0209999V001012200019N0112651N1+02701+01701999999ADDGA1041+012001021GA2041+027001999GF104991999999999999999999MA1101901999999REMMET066METAR ETGQ 301220Z VRB02KT 9999 SCT040TCU SCT090 27/17 Q1019 BLU/;
0158102340999992009063012454+53133+009350FM-16+0061ETGQ V0203401N003110240019N0112651N1+02701+01701999999ADDGA1041+010501091GA2071+024001999GF107991999999999999999999MA1101901999999MW1171REMMET067SPECI ETGQ 301245Z 34006KT 9999 TS SCT035CB BKN080 27/17 Q1019 BLU;
0167102340999992009063013204+53133+009350FM-15+0061ETGQ V0200401N004610135019N0060001N1+02401+01601999999ADDGA1071+013501091GA2071+024001999GF107991999999999999999999MA1101901999999MW1801MW2951REMMET070METAR ETGQ 301320Z 04009KT 6000 -TSRA BKN045CB BKN080 24/16 Q1019 WHT;
0167102340999992009063014204+53133+009350FM-15+0061ETGQ V0201401N000510360019N0112651N1+02101+01701999999ADDGA1041+013501091GA2071+036001999GF107991999999999999999999MA1102001999999MW1801MW2951REMMET070METAR ETGQ 301420Z 14001KT 9999 -TSRA SCT045CB BKN120 21/17 Q1020 BLU;
0154102340999992009063015204+53133+009350FM-15+0061ETGQ V0209999V000510390019N0112651N1+02001+01701999999ADDGA1021+012001091GA2071+039001999GF107991999999999999999999MA1102001999999REMMET069METAR ETGQ 301520Z VRB01KT 9999 FEW040CB BKN130 20/17 Q1020 RETS BLU;
0172102340999992009063016204+53133+009350FM-15+0061ETGQ V0209999C00001021001CN0112651N1+02001+01701999999ADDGA1021+013501091GA2041+021001999GA3071+051001999GF107991999999999999999999MA1102001999999REMMET071METAR ETGQ 301620Z 00000KT 9999 FEW045CB SCT070 BKN170 20/17 Q1020 BLU;
0148102340999992009063017204+53133+009350FM-15+0061ETGQ V0209999C000010630019N0112651N1+02101+01801999999ADDGA1021+045001999GA2071+063001999GF107991999999999999999999MA1102001999999REMMET063METAR ETGQ 301720Z 00000KT 9999 FEW150 BKN210 21/18 Q1020 BLU/;
0125102340999992009063018204+53133+009350FM-15+0061ETGQ V0209999C000010630019N0112651N1+02101+01801999999ADDGA1071+063001999GF107991999999999999999999MA1102001999999REMMET056METAR ETGQ 301820Z 00000KT 9999 BKN210 21/18 Q1020 BLU/;
0138102340999992009070104204+53133+009350FM-15+0061ETGQ V0209999C000010003019N0006001N1+01801+01701999999ADDGA1091+000301999GF109991999999000251999999MA1102101999999MW1451REMMET063METAR ETGQ 010420Z 00000KT 0600 FG VV001 18/17 Q1021 Q1021 RED;
0133102340999992009070105204+53133+009350FM-15+0061ETGQ V0209999C000010006019N0008001N1+01801+01701999999ADDGA1081+000601999GF108991999999999999999999MA1102101999999MW1441REMMET058METAR ETGQ 010520Z 00000KT 0800 FG OVC002 18/17 Q1021 AMB;
0133102340999992009070106204+53133+009350FM-15+0061ETGQ V0209999C000010018019N0020001N1+01901+01801999999ADDGA1071+001801999GF107991999999999999999999MA1102101999999MW1101REMMET058METAR ETGQ 010620Z 00000KT 2000 BR BKN006 19/18 Q1021 YLO;
0133102340999992009070107204+53133+009350FM-15+0061ETGQ V0209999C000012200019N0040001N1+02101+01701999999ADDGA1041+002701999GF104991999999999999999999MA1102101999999MW1051REMMET058METAR ETGQ 010720Z 00000KT 4000 HZ SCT009 21/17 Q1021 GRN;
0156102340999992009070108204+53133+009350FM-15+0061ETGQ V0209999C000012200019N0050001N1+02201+01801999999ADDGA1021+024001999GA2041+090001999GF104991999999999999999999MA1102101999999MW1051REMMET065METAR ETGQ 010820Z 00000KT 5000 HZ FEW080 SCT340 22/18 Q1021 WHT;
0125102340999992009070109204+53133+009350FM-15+0061ETGQ V0209999C000012200019N0080001N1+02501+01701999999ADDGA1021+009601999GF102991999999999999999999MA1102101999999REMMET056METAR ETGQ 010920Z 00000KT 8000 FEW032 25/17 Q1021 BLU/;
0128102340999992009070110204+53133+009350FM-15+0061ETGQ V0209999C000012200019N0112651N1+02601+01801999999ADDGA1021+010501021GF102991999999999999999999MA1102101999999REMMET059METAR ETGQ 011020Z 00000KT 9999 FEW035TCU 26/18 Q1021 BLU/;
0161102340999992009070111204+53133+009350FM-15+0061ETGQ V0203401N000510120019N0112651N1+02701+01701999999ADDGA1021+010501091GA2071+012001021GF107991999999999999999999MA1102001999999MW1171REMMET070METAR ETGQ 011120Z 34001KT 9999 TS FEW035CB BKN040TCU 27/17 Q1020 BLU;
0152102340999992009070111224+53133+009350FM-16+0061ETGQ V0203401N000510120019N0112651N1+02701+01701999999ADDGA1021+010501091GA2071+012001021GF107991999999999999999999MA1102001999999REMMET067SPECI ETGQ 011122Z 34001KT 9999 FEW035CB BKN040TCU 27/17 Q1020 BLU;
0132102340999992009070112204+53133+009350FM-15+0061ETGQ V0209999C000010090019N0112651N1+02101+01801999999ADDGA1071+009001021GF107991999999999999999999MA1102101999999REMMET063METAR ETGQ 011220Z 00000KT 9999 BKN030TCU 21/18 Q1021 RETS BLU;
0150102340999992009070113204+53133+009350FM-15+0061ETGQ V0209999C000010360019N0112651N1+02401+02001999999ADDGA1021+012001021GA2071+036001999GF107991999999999999999999MA1102001999999REMMET065METAR ETGQ 011320Z 00000KT 9999 FEW040TCU BKN120 24/20 Q1020 BLU;
0150102340999992009070114204+53133+009350FM-15+0061ETGQ V0209999C000010360019N0112651N1+02701+02001999999ADDGA1021+012001021GA2071+036001999GF107991999999999999999999MA1101901999999REMMET065METAR ETGQ 011420Z 00000KT 9999 FEW040TCU BKN120 27/20 Q1019 BLU;
0178102340999992009070115204+53133+009350FM-15+0061ETGQ V0200201N006710210019N0112651N1+02301+01701999999ADDGA1021+010501091GA2071+021001999GF107991999999999999999999MA1102001999999MW1801MW2951OC101341REMMET073METAR ETGQ 011520Z 02013G26KT 9999 -TSRA FEW035CB BKN070 23/17 Q1020 BLU;
0154102340999992009070116204+53133+009350FM-15+0061ETGQ V0209999C000010360019N0112651N1+02201+02001999999ADDGA1021+012001091GA2071+036001999GF107991999999999999999999MA1101901999999REMMET069METAR ETGQ 011620Z 00000KT 9999 FEW040CB BKN120 22/20 Q1019 RETS BLU;
0150102340999992009070117204+53133+009350FM-15+0061ETGQ V0209999C000010420019N0112651N1+02301+02001999999ADDGA1021+012001021GA2071+042001999GF107991999999999999999999MA1101901999999REMMET065METAR ETGQ 011720Z 00000KT 9999 FEW040TCU BKN140 23/20 Q1019 BLU;
0125102340999992009070118204+53133+009350FM-15+0061ETGQ V0209999C000012200019N0112651N1+02401+02001999999ADDGA1041+039001999GF104991999999999999999999MA1101901999999REMMET056METAR ETGQ 011820Z 00000KT 9999 SCT130 24/20 Q1019 BLU/;
0124102340999992009070204204+53133+009350FM-15+0061ETGQ V0209999C000012200019N0060001N1+01701+01701999999ADDGA1021+039001999GF102991999999999999999999MA1101901999999REMMET055METAR ETGQ 020420Z 00000KT 6000 FEW130 17/17 Q1019 WHT;
0156102340999992009070205204+53133+009350FM-15+0061ETGQ V0209999C000010420019N0030001N1+01801+01701999999ADDGA1041+000301999GA2071+042001999GF107991999999999999999999MA1101901999999MW1101REMMET065METAR ETGQ 020520Z 00000KT 3000 BR SCT001 BKN140 18/17 Q1019 YLO;
0124102340999992009070206204+53133+009350FM-15+0061ETGQ V0209999C000012200019N0060001N1+01901+01801999999ADDGA1041+042001999GF104991999999999999999999MA1101901999999REMMET055METAR ETGQ 020620Z 00000KT 6000 SCT140 19/18 Q1019 WHT;
0125102340999992009070207204+53133+009350FM-15+0061ETGQ V0209999C000012200019N0080001N1+02001+01801999999ADDGA1041+042001999GF104991999999999999999999MA1101901999999REMMET056METAR ETGQ 020720Z 00000KT 8000 SCT140 20/18 Q1019 BLU/;
0125102340999992009070208204+53133+009350FM-15+0061ETGQ V0209999C000012200019N0112651N1+02301+01801999999ADDGA1021+042001999GF102991999999999999999999MA1101901999999REMMET056METAR ETGQ 020820Z 00000KT 9999 FEW140 23/18 Q1019 BLU/;
0125102340999992009070209204+53133+009350FM-15+0061ETGQ V0209999C000012200019N0112651N1+02601+01801999999ADDGA1021+009001999GF102991999999999999999999MA1101801999999REMMET056METAR ETGQ 020920Z 00000KT 9999 FEW030 26/18 Q1018 BLU/;
0125102340999992009070210204+53133+009350FM-15+0061ETGQ V0200801N002112200019N0112651N1+02701+01701999999ADDGA1041+013501999GF104991999999999999999999MA1101801999999REMMET056METAR ETGQ 021020Z 08004KT 9999 SCT045 27/17 Q1018 BLU/;
0125102340999992009070211204+53133+009350FM-15+0061ETGQ V0200201N001512200019N0112651N1+02801+01601999999ADDGA1041+015001999GF104991999999999999999999MA1101691999999REMMET056METAR ETGQ 021120Z 02003KT 9999 SCT050 28/16 Q1017 BLU/;
0125102340999992009070212204+53133+009350FM-15+0061ETGQ V0201001N002112200019N0112651N1+02901+01501999999ADDGA1041+015001999GF104991999999999999999999MA1101691999999REMMET056METAR ETGQ 021220Z 10004KT 9999 SCT050 29/15 Q1017 BLU/;
0127102340999992009070213204+53133+009350FM-15+0061ETGQ V0201001N000512200019N0112651N1+03001+01601999999ADDGA1041+015001091GF104991999999999999999999MA1101591999999REMMET058METAR ETGQ 021320Z 10001KT 9999 SCT050CB 30/16 Q1016 BLU/;
0127102340999992009070214204+53133+009350FM-15+0061ETGQ V0209999C000012200019N0112651N1+03001+01401999999ADDGA1041+015001091GF104991999999999999999999MA1101491999999REMMET058METAR ETGQ 021420Z 00000KT 9999 SCT050CB 30/14 Q1015 BLU/;
0127102340999992009070215204+53133+009350FM-15+0061ETGQ V0200701N001012200019N0112651N1+03001+01301999999ADDGA1021+018001091GF102991999999999999999999MA1101491999999REMMET058METAR ETGQ 021520Z 07002KT 9999 FEW060CB 30/13 Q1015 BLU/;
0127102340999992009070216204+53133+009350FM-15+0061ETGQ V0203501N002112200019N0112651N1+03001+01301999999ADDGA1021+018001091GF102991999999999999999999MA1101391999999REMMET058METAR ETGQ 021620Z 35004KT 9999 FEW060CB 30/13 Q1014 BLU/;
0127102340999992009070217204+53133+009350FM-15+0061ETGQ V0209999V000512200019N0112651N1+03001+01301999999ADDGA1021+018001091GF102991999999999999999999MA1101391999999REMMET058METAR ETGQ 021720Z VRB01KT 9999 FEW060CB 30/13 Q1014 BLU/;
0127102340999992009070218204+53133+009350FM-15+0061ETGQ V0200301N002112200019N0112651N1+02801+01601999999ADDGA1021+018001091GF102991999999999999999999MA1101491999999REMMET058METAR ETGQ 021820Z 03004KT 9999 FEW060CB 28/16 Q1015 BLU/;
0125102340999992009070304204+53133+009350FM-15+0061ETGQ V0209999C000012200019N0112651N1+01901+01701999999ADDGA1041+036001999GF104991999999999999999999MA1101391999999REMMET056METAR ETGQ 030420Z 00000KT 9999 SCT120 19/17 Q1014 BLU/;
0125102340999992009070305204+53133+009350FM-15+0061ETGQ V0209999C000012200019N0112651N1+02101+01801999999ADDGA1021+039001999GF102991999999999999999999MA1101391999999REMMET056METAR ETGQ 030520Z 00000KT 9999 FEW130 21/18 Q1014 BLU/;
0125102340999992009070306204+53133+009350FM-15+0061ETGQ V0209999C000012200019N0112651N1+02201+01801999999ADDGA1021+039001999GF102991999999999999999999MA1101391999999REMMET056METAR ETGQ 030620Z 00000KT 9999 FEW130 22/18 Q1014 BLU/;
0125102340999992009070307204+53133+009350FM-15+0061ETGQ V0209999C000012200019N0112651N1+02401+01801999999ADDGA1021+045001999GF102991999999999999999999MA1101391999999REMMET056METAR ETGQ 030720Z 00000KT 9999 FEW150 24/18 Q1014 BLU/;
0125102340999992009070308204+53133+009350FM-15+0061ETGQ V0209999V001012200019N0112651N1+02601+01701999999ADDGA1021+045001999GF102991999999999999999999MA1101291999999REMMET056METAR ETGQ 030820Z VRB02KT 9999 FEW150 26/17 Q1013 BLU/;
0128102340999992009070309204+53133+009350FM-15+0061ETGQ V0209999C000012200019N0112651N1+02801+01701999999ADDGA1021+010501021GF102991999999999999999999MA1101291999999REMMET059METAR ETGQ 030920Z 00000KT 9999 FEW035TCU 28/17 Q1013 BLU/;
0128102340999992009070310204+53133+009350FM-15+0061ETGQ V0209999V000512200019N0112651N1+02901+01701999999ADDGA1021+013501021GF102991999999999999999999MA1101191999999REMMET059METAR ETGQ 031020Z VRB01KT 9999 FEW045TCU 29/17 Q1012 BLU/;
0126102340999992009070311204+53133+009350FM-15+0061ETGQ V0209999V001010150019N0112651N1+02901+01601999999ADDGA1071+015001091GF107991999999999999999999MA1101191999999REMMET057METAR ETGQ 031120Z VRB02KT 9999 BKN050CB 29/16 Q1012 BLU;
0135102340999992009070311244+53133+009350FM-16+0061ETGQ V0209999V001010150019N0112651N1+02901+01601999999ADDGA1071+015001091GF107991999999999999999999MA1101191999999MW1171REMMET060SPECI ETGQ 031124Z VRB02KT 9999 TS BKN050CB 29/16 Q1012 BLU;
0155102340999992009070312204+53133+009350FM-15+0061ETGQ V0202501N004610078019N0040001N1+02301+01701999999ADDGA1071+007801091GF107991999999999999999999MA1101291999999MW1821MW2971OC101031REMMET066METAR ETGQ 031220Z 25009G20KT 4000 +TSRA BKN026CB 23/17 Q1013 GRN;
0160102340999992009070312284+53133+009350FM-16+0061ETGQ V0202101N004610009019N0005001N1+02001+01701999999ADDGA1091+000901999GF109991999999000251999999MA1101391999999MW1821MW2901MW3971OC101341REMMET065SPECI ETGQ 031228Z 21009G26KT 0500 +TSRAGR VV003 20/17 Q1014 RED;
0189102340999992009070313204+53133+009350FM-15+0061ETGQ V0201101N000510147019N0070001N1+02001+01801999999ADDGA1021+004501999GA2071+014701091GA3071+018001999GF107991999999999999999999MA1101291999999MW1811MW2951REMMET076METAR ETGQ 031320Z 11001KT 7000 TSRA FEW015 BKN049CB BKN060 20/18 Q1013 WHT;
0152102340999992009070314204+53133+009350FM-15+0061ETGQ V0209999C000010420019N0090001N1+02001+01801999999ADDGA1041+030001999GA2071+042001999GF107991999999999999999999MA1101291999999REMMET067METAR ETGQ 031420Z 00000KT 9000 SCT100 BKN140 20/18 Q1013 RETS BLU;
0129102340999992009070315204+53133+009350FM-15+0061ETGQ V0209999C000010330019N0112651N1+02101+01801999999ADDGA1071+033001999GF107991999999999999999999MA1101291999999REMMET060METAR ETGQ 031520Z 00000KT 9999 BKN110 21/18 Q1013 RETS BLU;
0147102340999992009070316204+53133+009350FM-15+0061ETGQ V0209999C000010450019N0112651N1+02201+01801999999ADDGA1021+015001999GA2071+045001999GF107991999999999999999999MA1101291999999REMMET062METAR ETGQ 031620Z 00000KT 9999 FEW050 BKN150 22/18 Q1013 BLU;
0148102340999992009070317204+53133+009350FM-15+0061ETGQ V0209999C000010630019N0112651N1+02401+01901999999ADDGA1041+051001999GA2071+063001999GF107991999999999999999999MA1101291999999REMMET063METAR ETGQ 031720Z 00000KT 9999 SCT170 BKN210 24/19 Q1013 BLU/;
0148102340999992009070318204+53133+009350FM-15+0061ETGQ V0209999V000510660019N0112651N1+02301+01901999999ADDGA1021+012601999GA2071+066001999GF107991999999999999999999MA1101291999999REMMET063METAR ETGQ 031820Z VRB01KT 9999 FEW042 BKN220 23/19 Q1013 BLU/;
0147102340999992009070604204+53133+009350FM-15+0061ETGQ V0209999C000010330019N0112651N1+01701+01501999999ADDGA1021+018001999GA2071+033001999GF107991999999999999999999MA1101021999999REMMET062METAR ETGQ 060420Z 00000KT 9999 FEW060 BKN110 17/15 Q1010 BLU;
0147102340999992009070605204+53133+009350FM-15+0061ETGQ V0202801N000510180019N0112651N1+01801+01501999999ADDGA1021+015001999GA2071+018001999GF107991999999999999999999MA1101021999999REMMET062METAR ETGQ 060520Z 28001KT 9999 FEW050 BKN060 18/15 Q1010 BLU;
0148102340999992009070606204+53133+009350FM-15+0061ETGQ V0203001N000512200019N0112651N1+01901+01501999999ADDGA1021+006001999GA2041+033001999GF104991999999999999999999MA1101021999999REMMET063METAR ETGQ 060620Z 30001KT 9999 FEW020 SCT110 19/15 Q1010 BLU/;
0125102340999992009070607204+53133+009350FM-15+0061ETGQ V0209999V001012200019N0112651N1+02001+01401999999ADDGA1021+006601999GF102991999999999999999999MA1101021999999REMMET056METAR ETGQ 060720Z VRB02KT 9999 FEW022 20/14 Q1010 BLU/;
0125102340999992009070608204+53133+009350FM-15+0061ETGQ V0209999C000012200019N0112651N1+02201+01401999999ADDGA1041+009001999GF104991999999999999999999MA1101021999999REMMET056METAR ETGQ 060820Z 00000KT 9999 SCT030 22/14 Q1010 BLU/;
0125102340999992009070609204+53133+009350FM-15+0061ETGQ V0209999V000512200019N0112651N1+02301+01201999999ADDGA1041+012001999GF104991999999999999999999MA1101021999999REMMET056METAR ETGQ 060920Z VRB01KT 9999 SCT040 23/12 Q1010 BLU/;
0125102340999992009070610204+53133+009350FM-15+0061ETGQ V0203201N002612200019N0112651N1+02301+01301999999ADDGA1041+013501999GF104991999999999999999999MA1100911999999REMMET056METAR ETGQ 061020Z 32005KT 9999 SCT045 23/13 Q1009 BLU/;
0147102340999992009070611204+53133+009350FM-15+0061ETGQ V0202101N002110330019N0112651N1+02101+01501999999ADDGA1041+009001999GA2071+033001999GF107991999999999999999999MA1100911999999REMMET062METAR ETGQ 061120Z 21004KT 9999 SCT030 BKN110 21/15 Q1009 BLU;
0150102340999992009070612204+53133+009350FM-15+0061ETGQ V0201801N000510270019N0112651N1+02301+01401999999ADDGA1021+009001021GA2071+027001999GF107991999999999999999999MA1100911999999REMMET065METAR ETGQ 061220Z 18001KT 9999 FEW030TCU BKN090 23/14 Q1009 BLU;
0151102340999992009070613204+53133+009350FM-15+0061ETGQ V0201501N003110870019N0112651N1+02401+01401999999ADDGA1021+012001021GA2071+087001999GF107991999999999999999999MA1100811999999REMMET066METAR ETGQ 061320Z 15006KT 9999 FEW040TCU BKN290 24/14 Q1008 BLU/;
0160102340999992009070614204+53133+009350FM-15+0061ETGQ V0202901N003110180019N0112651N1+02201+01101999999ADDGA1041+013501091GA2071+018001999GF107991999999999999999999MA1100811999999MW1161REMMET069METAR ETGQ 061420Z 29006KT 9999 VCSH SCT045CB BKN060 22/11 Q1008 BLU;
0151102340999992009070614284+53133+009350FM-16+0061ETGQ V0203401N00361013501CN0112651N1+02201+01201999999ADDGA1071+013501091GA2041+018001999MA1100811999999MW1171REMMET067SPECI ETGQ 061428Z 34007KT 9999 TS BKN045CB SCT060 22/12 Q1008 BLU;EQDQ01+000042SCOTCV
0178102340999992009070615204+53133+009350FM-15+0061ETGQ V0209999V00051036001CN0112651N1+02001+01401999999ADDGA1021+012001091GA2041+036001999GA3071+087001999GF107991999999999999999999MA1100811999999REMMET077METAR ETGQ 061520Z VRB01KT 9999 FEW040CB SCT120 BKN290 20/14 Q1008 RETS BLU/;
0171102340999992009070616204+53133+009350FM-15+0061ETGQ V0200401N00151036001CN0112651N1+02201+01101999999ADDGA1021+009001999GA2041+036001999GA3071+078001999GF107991999999999999999999MA1100811999999REMMET070METAR ETGQ 061620Z 04003KT 9999 FEW030 SCT120 BKN260 22/11 Q1008 BLU/;
0151102340999992009070617204+53133+009350FM-15+0061ETGQ V0200301N000510750019N0112651N1+02301+01301999999ADDGA1041+012001021GA2071+075001999GF107991999999999999999999MA1100711999999REMMET066METAR ETGQ 061720Z 03001KT 9999 SCT040TCU BKN250 23/13 Q1007 BLU/;
0144102340999992009070618204+53133+009350FM-15+0061ETGQ V0203201N003110120019N0060001N1+02101+01601999999ADDGA1071+012001091GF107991999999999999999999MA1100811999999MW1801MW2951REMMET063METAR ETGQ 061820Z 32006KT 6000 -TSRA BKN040CB 21/16 Q1008 WHT;
0170102340999992009070704204+53133+009350FM-15+0061ETGQ V0209999C000010330019N0112651N1+01501+01401999999ADDGA1021+002401999GA2071+033001999GA3071+063001999GF107991999999999999999999MA1100811999999REMMET069METAR ETGQ 070420Z 00000KT 9999 FEW008 BKN110 BKN210 15/14 Q1008 BLU;
0180102340999992009070705204+53133+009350FM-15+0061ETGQ V0209999C00001012001CN0112651N1+01701+01401999999ADDGA1021+003001999GA2041+012001999GA3071+030001999GF107991999999999999999999MA1100811999999MW1611REMMET073METAR ETGQ 070520Z 00000KT 9999 -RA FEW010 SCT040 BKN100 17/14 Q1008 BLU;
0147102340999992009070706204+53133+009350FM-15+0061ETGQ V0202201N002110300019N0112651N1+01801+01501999999ADDGA1021+003601999GA2071+030001999GF107991999999999999999999MA1100811999999REMMET062METAR ETGQ 070620Z 22004KT 9999 FEW012 BKN100 18/15 Q1008 BLU;
0147102340999992009070707204+53133+009350FM-15+0061ETGQ V0202401N002610270019N0112651N1+01701+01401999999ADDGA1021+004501999GA2071+027001999GF107991999999999999999999MA1100711999999REMMET062METAR ETGQ 070720Z 24005KT 9999 FEW015 BKN090 17/14 Q1007 BLU;
0147102340999992009070708204+53133+009350FM-15+0061ETGQ V0202201N003110240019N0112651N1+01701+01301999999ADDGA1021+004801999GA2071+024001999GF107991999999999999999999MA1100811999999REMMET062METAR ETGQ 070820Z 22006KT 9999 FEW016 BKN080 17/13 Q1008 BLU;
0147102340999992009070709204+53133+009350FM-15+0061ETGQ V0202001N003610300019N0112651N1+01801+01301999999ADDGA1021+006001999GA2071+030001999GF107991999999999999999999MA1100811999999REMMET062METAR ETGQ 070920Z 20007KT 9999 FEW020 BKN100 18/13 Q1008 BLU;
0160102340999992009070710204+53133+009350FM-15+0061ETGQ V0202201N003610300019N0112651N1+01901+01201999999ADDGA1041+008401091GA2071+030001999GF107991999999999999999999MA1100811999999MW1811REMMET069METAR ETGQ 071020Z 22007KT 9999 SHRA SCT028CB BKN100 19/12 Q1008 BLU;
0162102340999992009070711204+53133+009350FM-15+0061ETGQ V0202601N003110630019N0112651N1+01801+01201999999ADDGA1021+007501021GA2071+063001999GF107991999999999999999999MA1100711999999MW1811REMMET071METAR ETGQ 071120Z 26006KT 9999 SHRA FEW025TCU BKN210 18/12 Q1007 BLU/;
0147102340999992009070712204+53133+009350FM-15+0061ETGQ V0202701N003110570019N0112651N1+02001+01101999999ADDGA1041+009001999GA2071+057001999GF107991999999999999999999MA1100711999999REMMET062METAR ETGQ 071220Z 27006KT 9999 SCT030 BKN190 20/11 Q1007 BLU;
0148102340999992009070713204+53133+009350FM-15+0061ETGQ V0202201N004612200019N0112651N1+02101+01101999999ADDGA1041+012001999GA2041+090001999GF104991999999999999999999MA1100611999999REMMET063METAR ETGQ 071320Z 22009KT 9999 SCT040 SCT300 21/11 Q1006 BLU/;
0158102340999992009070714204+53133+009350FM-15+0061ETGQ V0201301N005110270019N0112651N1+02001+00901999999ADDGA1021+012001999GA2071+027001999GF107991999999999999999999MA1100611999999OC101031REMMET065METAR ETGQ 071420Z 13010G20KT 9999 FEW040 BKN090 20/09 Q1006 BLU;
0151102340999992009070715204+53133+009350FM-15+0061ETGQ V0202201N004612200019N0112651N1+02001+01001999999ADDGA1021+012001021GA2041+027001999GF104991999999999999999999MA1100611999999REMMET066METAR ETGQ 071520Z 22009KT 9999 FEW040TCU SCT090 20/10 Q1006 BLU/;
0151102340999992009070716204+53133+009350FM-15+0061ETGQ V0203401N003112200019N0112651N1+02001+01101999999ADDGA1021+012001021GA2041+027001999GF104991999999999999999999MA1100611999999REMMET066METAR ETGQ 071620Z 34006KT 9999 FEW040TCU SCT090 20/11 Q1006 BLU/;
0151102340999992009070717204+53133+009350FM-15+0061ETGQ V0202101N003612200019N0112651N1+02001+01001999999ADDGA1041+012001021GA2041+033001999GF104991999999999999999999MA1100611999999REMMET066METAR ETGQ 071720Z 21007KT 9999 SCT040TCU SCT110 20/10 Q1006 BLU/;
0150102340999992009070718204+53133+009350FM-15+0061ETGQ V0202601N001510150019N0112651N1+01601+01101999999ADDGA1021+010501021GA2071+015001999GF107991999999999999999999MA1100711999999REMMET065METAR ETGQ 071820Z 26003KT 9999 FEW035TCU BKN050 16/11 Q1007 BLU;
0150102340999992009070804204+53133+009350FM-15+0061ETGQ V0202101N003110120019N0112651N1+01401+01201999999ADDGA1041+003001021GA2071+012001999GF107991999999999999999999MA1100611999999REMMET065METAR ETGQ 080420Z 21006KT 9999 SCT010TCU BKN040 14/12 Q1006 BLU;
0150102340999992009070805204+53133+009350FM-15+0061ETGQ V0202201N003610141019N0112651N1+01501+01201999999ADDGA1021+003001021GA2071+014101999GF107991999999999999999999MA1100611999999REMMET065METAR ETGQ 080520Z 22007KT 9999 FEW010TCU BKN047 15/12 Q1006 BLU;
0173102340999992009070806204+53133+009350FM-15+0061ETGQ V0202001N003110120019N0112651N1+01501+01201999999ADDGA1041+003001021GA2071+012001999GA3071+027001999GF107991999999999999999999MA1100711999999REMMET072METAR ETGQ 080620Z 20006KT 9999 SCT010TCU BKN040 BKN090 15/12 Q1007 BLU;
0150102340999992009070807204+53133+009350FM-15+0061ETGQ V0202701N001510090019N0112651N1+01601+01301999999ADDGA1071+009001021GA2071+013501999GF107991999999999999999999MA1100811999999REMMET065METAR ETGQ 080720Z 27003KT 9999 BKN030TCU BKN045 16/13 Q1008 BLU;
0127102340999992009070808204+53133+009350FM-15+0061ETGQ V0202401N002610054019N0112651N1+01701+01301999999ADDGA1071+005401021GF107991999999999999999999MA1100811999999REMMET058METAR ETGQ 080820Z 24005KT 9999 BKN018TCU 17/13 Q1008 WHT;
0173102340999992009070809204+53133+009350FM-15+0061ETGQ V0202501N00261006601CN0112651N1+01801+01301999999ADDGA1021+001801999GA2041+006601021GA3071+021001999GF107991999999999999999999MA1100811999999REMMET072METAR ETGQ 080920Z 25005KT 9999 FEW006 SCT022TCU BKN070 18/13 Q1008 BLU;
0128102340999992009070810204+53133+009350FM-15+0061ETGQ V0202601N003612200019N0112651N1+01901+01201999999ADDGA1041+008401021GF104991999999999999999999MA1100811999999REMMET059METAR ETGQ 081020Z 26007KT 9999 SCT028TCU 19/12 Q1008 BLU/;
0190102340999992009070811154+53133+009350FM-16+0061ETGQ V0203301N00361008401CN0080001N1+01801+01101999999ADDGA1021+006001999GA2041+008401091GA3071+012001999GF107991999999999999999999MA1100811999999MW1801MW2951REMMET077SPECI ETGQ 081115Z 33007KT 8000 -TSRA FEW020 SCT028CB BKN040 18/11 Q1008 BLU;
0195102340999992009070811204+53133+009350FM-15+0061ETGQ V0203201N003610084019N0060001N1+01801+01101999999ADDGA1021+006001999GA2071+008401091GA3071+013501999GF107991999999999999999999MA1100911999999MW1801MW2951REMMET082METAR ETGQ 081120Z 32007KT 6000 -TSRA FEW020 BKN028CB BKN045 18/11 Q1009 RERA WHT;
0210102340999992009070811344+53133+009350FM-16+0061ETGQ V0203001N002610060019N0010001N1+01501+01201999999ADDGA1021+003001999GA2071+006001091GA3071+013501999GF107991999999999999999999MA1100911999999MW1101MW2821MW3971OC101491REMMET083SPECI ETGQ 081134Z 30005G29KT 1000 +TSRA BR FEW010 BKN020CB BKN045 15/12 Q1009 AMB;
0212102340999992009070812204+53133+009350FM-15+0061ETGQ V0203001N00411013501CN0112651N1+01601+01201999999ADDGA1021+003901999GA2021+008401091GA3041+013501999GA4071+021001999GF107991999999999999999999MA1101021999999MW1801REMMET089METAR ETGQ 081220Z 30008KT 9999 -SHRA FEW013 FEW028CB SCT045 BKN070 16/12 Q1010 RETS BLU;
0185102340999992009070813204+53133+009350FM-15+0061ETGQ V0209999C00001008401CN0112651N1+01701+01301999999ADDGA1021+004501999GA2041+008401021GA3071+018001999GF107991999999999999999999MA1101021999999MW1801REMMET078METAR ETGQ 081320Z 00000KT 9999 -SHRA FEW015 SCT028TCU BKN060 17/13 Q1010 BLU;
0158102340999992009070814154+53133+009350FM-16+0061ETGQ V0209999C000010090019N0060001N1+01801+01301999999ADDGA1021+004501999GA2071+009001091GF107991999999999999999999MA1100911999999MW1171REMMET067SPECI ETGQ 081415Z 00000KT 6000 TS FEW015 BKN030CB 18/13 Q1009 WHT;
0167102340999992009070814204+53133+009350FM-15+0061ETGQ V0209999V001010075019N0060001N1+01801+01301999999ADDGA1021+004501999GA2071+007501091GF107991999999999999999999MA1101021999999MW1801MW2951REMMET070METAR ETGQ 081420Z VRB02KT 6000 -TSRA FEW015 BKN025CB 18/13 Q1010 WHT;
0189102340999992009070815204+53133+009350FM-15+0061ETGQ V0203301N003110150019N0112651N1+01601+01201999999ADDGA1021+004501999GA2021+007501091GA3071+015001999GF107991999999999999999999MA1101021999999MW1801REMMET082METAR ETGQ 081520Z 33006KT 9999 -SHRA FEW015 FEW025CB BKN050 16/12 Q1010 RETS BLU;
0173102340999992009070816204+53133+009350FM-15+0061ETGQ V0209999C000010180019N0112651N1+01601+01301999999ADDGA1021+009001021GA2071+018001999GA3071+027001999GF107991999999999999999999MA1101081999999REMMET072METAR ETGQ 081620Z 00000KT 9999 FEW030TCU BKN060 BKN090 16/13 Q1011 BLU;
0150102340999992009070817204+53133+009350FM-15+0061ETGQ V0203301N001510210019N0112651N1+01601+01201999999ADDGA1021+010501021GA2071+021001999GF107991999999999999999999MA1101081999999REMMET065METAR ETGQ 081720Z 33003KT 9999 FEW035TCU BKN070 16/12 Q1011 BLU;
0147102340999992009070818204+53133+009350FM-15+0061ETGQ V0203001N000510180019N0112651N1+01601+01101999999ADDGA1021+013501999GA2071+018001999GF107991999999999999999999MA1101191999999REMMET062METAR ETGQ 081820Z 30001KT 9999 FEW045 BKN060 16/11 Q1012 BLU;
0147102340999992009070904204+53133+009350FM-15+0061ETGQ V0202501N001510210019N0112651N1+01401+01001999999ADDGA1021+006001999GA2071+021001999GF107991999999999999999999MA1101391999999REMMET062METAR ETGQ 090420Z 25003KT 9999 FEW020 BKN070 14/10 Q1014 BLU;
0147102340999992009070905204+53133+009350FM-15+0061ETGQ V0209999V000510210019N0112651N1+01401+01001999999ADDGA1021+009001999GA2071+021001999GF107991999999999999999999MA1101391999999REMMET062METAR ETGQ 090520Z VRB01KT 9999 FEW030 BKN070 14/10 Q1014 BLU;
0147102340999992009070906204+53133+009350FM-15+0061ETGQ V0209999C000010210019N0112651N1+01401+01001999999ADDGA1021+009001999GA2071+021001999GF107991999999999999999999MA1101491999999REMMET062METAR ETGQ 090620Z 00000KT 9999 FEW030 BKN070 14/10 Q1015 BLU;
0147102340999992009070907204+53133+009350FM-15+0061ETGQ V0202501N001010210019N0112651N1+01401+01001999999ADDGA1021+009001999GA2071+021001999GF107991999999999999999999MA1101491999999REMMET062METAR ETGQ 090720Z 25002KT 9999 FEW030 BKN070 14/10 Q1015 BLU;
0147102340999992009070908204+53133+009350FM-15+0061ETGQ V0202301N001010210019N0112651N1+01501+01001999999ADDGA1021+007501999GA2071+021001999GF107991999999999999999999MA1101491999999REMMET062METAR ETGQ 090820Z 23002KT 9999 FEW025 BKN070 15/10 Q1015 BLU;
0124102340999992009070909204+53133+009350FM-15+0061ETGQ V0202201N002610096019N0112651N1+01701+00901999999ADDGA1071+009601999GF107991999999999999999999MA1101491999999REMMET055METAR ETGQ 090920Z 22005KT 9999 BKN032 17/09 Q1015 BLU;
0124102340999992009070910204+53133+009350FM-15+0061ETGQ V0202201N001510114019N0112651N1+01801+00801999999ADDGA1071+011401999GF107991999999999999999999MA1101491999999REMMET055METAR ETGQ 091020Z 22003KT 9999 BKN038 18/08 Q1015 BLU;
0148102340999992009070911204+53133+009350FM-15+0061ETGQ V0202001N002612200019N0112651N1+01801+00701999999ADDGA1041+013501999GA2041+018001999GF104991999999999999999999MA1101391999999REMMET063METAR ETGQ 091120Z 20005KT 9999 SCT045 SCT060 18/07 Q1014 BLU/;
0125102340999992009070912204+53133+009350FM-15+0061ETGQ V0202301N001512200019N0112651N1+02001+00701999999ADDGA1041+015001999GF104991999999999999999999MA1101391999999REMMET056METAR ETGQ 091220Z 23003KT 9999 SCT050 20/07 Q1014 BLU/;
0125102340999992009070913204+53133+009350FM-15+0061ETGQ V0202301N003112200019N0112651N1+02001+00701999999ADDGA1041+015001999GF104991999999999999999999MA1101391999999REMMET056METAR ETGQ 091320Z 23006KT 9999 SCT050 20/07 Q1014 BLU/;
0125102340999992009070914204+53133+009350FM-15+0061ETGQ V0202501N002612200019N0112651N1+02001+00701999999ADDGA1041+015001999GF104991999999999999999999MA1101291999999REMMET056METAR ETGQ 091420Z 25005KT 9999 SCT050 20/07 Q1013 BLU/;
0150102340999992009070915204+53133+009350FM-15+0061ETGQ V0202201N003110210019N0112651N1+02001+00801999999ADDGA1021+015001021GA2071+021001999GF107991999999999999999999MA1101291999999REMMET065METAR ETGQ 091520Z 22006KT 9999 FEW050TCU BKN070 20/08 Q1013 BLU;
0173102340999992009070916204+53133+009350FM-15+0061ETGQ V0202501N004610270019N0112651N1+01801+01001999999ADDGA1021+006001999GA2021+012001021GA3071+027001999GF107991999999999999999999MA1101291999999REMMET072METAR ETGQ 091620Z 25009KT 9999 FEW020 FEW040TCU BKN090 18/10 Q1013 BLU;
0150102340999992009070917204+53133+009350FM-15+0061ETGQ V0202901N003110180019N0112651N1+01501+00901999999ADDGA1041+012001021GA2071+018001999GF107991999999999999999999MA1101391999999REMMET065METAR ETGQ 091720Z 29006KT 9999 SCT040TCU BKN060 15/09 Q1014 BLU;
0157102340999992009070918204+53133+009350FM-15+0061ETGQ V0209999C000010210019N0112651N1+01401+01101999999ADDGA1021+007501999GA2071+021001999GF107991999999999999999999MA1101391999999MW1611REMMET066METAR ETGQ 091820Z 00000KT 9999 -RA FEW025 BKN070 14/11 Q1014 BLU;
0147102340999992009071004204+53133+009350FM-15+0061ETGQ V0202201N001510240019N0112651N1+01301+01001999999ADDGA1021+004501999GA2071+024001999GF107991999999999999999999MA1101291999999REMMET062METAR ETGQ 100420Z 22003KT 9999 FEW015 BKN080 13/10 Q1013 BLU;
0147102340999992009071005204+53133+009350FM-15+0061ETGQ V0202301N001510210019N0112651N1+01301+01001999999ADDGA1021+004501999GA2071+021001999GF107991999999999999999999MA1101391999999REMMET062METAR ETGQ 100520Z 23003KT 9999 FEW015 BKN070 13/10 Q1014 BLU;
0147102340999992009071006204+53133+009350FM-15+0061ETGQ V0202501N002110210019N0112651N1+01301+00901999999ADDGA1021+005401999GA2071+021001999GF107991999999999999999999MA1101391999999REMMET062METAR ETGQ 100620Z 25004KT 9999 FEW018 BKN070 13/09 Q1014 BLU;
0170102340999992009071007204+53133+009350FM-15+0061ETGQ V0202401N002610210019N0112651N1+01401+01001999999ADDGA1021+006001999GA2071+021001999GA3071+048001999GF107991999999999999999999MA1101391999999REMMET069METAR ETGQ 100720Z 24005KT 9999 FEW020 BKN070 BKN160 14/10 Q1014 BLU;
0147102340999992009071008204+53133+009350FM-15+0061ETGQ V0202401N002110180019N0112651N1+01501+01001999999ADDGA1041+010501999GA2071+018001999GF107991999999999999999999MA1101391999999REMMET062METAR ETGQ 100820Z 24004KT 9999 SCT035 BKN060 15/10 Q1014 BLU;
0147102340999992009071009204+53133+009350FM-15+0061ETGQ V0202901N001510180019N0112651N1+01501+00901999999ADDGA1021+007501999GA2071+018001999GF107991999999999999999999MA1101391999999REMMET062METAR ETGQ 100920Z 29003KT 9999 FEW025 BKN060 15/09 Q1014 BLU;
0170102340999992009071010204+53133+009350FM-15+0061ETGQ V0203401N00211012001CN0112651N1+01601+00901999999ADDGA1021+008401999GA2041+012001999GA3071+021001999GF107991999999999999999999MA1101391999999REMMET069METAR ETGQ 101020Z 34004KT 9999 FEW028 SCT040 BKN070 16/09 Q1014 BLU;
0170102340999992009071011204+53133+009350FM-15+0061ETGQ V0202901N00261018001CN0112651N1+01601+00801999999ADDGA1021+009601999GA2041+018001999GA3071+024001999GF107991999999999999999999MA1101391999999REMMET069METAR ETGQ 101120Z 29005KT 9999 FEW032 SCT060 BKN080 16/08 Q1014 BLU;
0157102340999992009071012204+53133+009350FM-15+0061ETGQ V0202801N003610240019N0112651N1+01701+00701999999ADDGA1021+010501999GA2071+024001999GF107991999999999999999999MA1101391999999MW1611REMMET066METAR ETGQ 101220Z 28007KT 9999 -RA FEW035 BKN080 17/07 Q1014 BLU;
0147102340999992009071013204+53133+009350FM-15+0061ETGQ V0202701N002110150019N0112651N1+01701+00701999999ADDGA1021+012001999GA2071+015001999GF107991999999999999999999MA1101491999999REMMET062METAR ETGQ 101320Z 27004KT 9999 FEW040 BKN050 17/07 Q1015 BLU;
0147102340999992009071014204+53133+009350FM-15+0061ETGQ V0202901N002110147019N0112651N1+01701+00701999999ADDGA1021+012001999GA2071+014701999GF107991999999999999999999MA1101491999999REMMET062METAR ETGQ 101420Z 29004KT 9999 FEW040 BKN049 17/07 Q1015 BLU;
0124102340999992009071015204+53133+009350FM-15+0061ETGQ V0202901N000510126019N0112651N1+01601+00901999999ADDGA1071+012601999GF107991999999999999999999MA1101491999999REMMET055METAR ETGQ 101520Z 29001KT 9999 BKN042 16/09 Q1015 BLU;
0124102340999992009071016204+53133+009350FM-15+0061ETGQ V0203101N002610117019N0112651N1+01601+00801999999ADDGA1071+011701999GF107991999999999999999999MA1101591999999REMMET055METAR ETGQ 101620Z 31005KT 9999 BKN039 16/08 Q1016 BLU;
0147102340999992009071017204+53133+009350FM-15+0061ETGQ V0202901N001010135019N0112651N1+01601+00901999999ADDGA1021+012001999GA2071+013501999GF107991999999999999999999MA1101591999999REMMET062METAR ETGQ 101720Z 29002KT 9999 FEW040 BKN045 16/09 Q1016 BLU;
0124102340999992009071018204+53133+009350FM-15+0061ETGQ V0203201N002110120019N0112651N1+01601+00901999999ADDGA1071+012001999GF107991999999999999999999MA1101591999999REMMET055METAR ETGQ 101820Z 32004KT 9999 BKN040 16/09 Q1016 BLU;
0143102340999992009071304204+53133+009350FM-15+0061ETGQ V0209999C000010012019N0050001N1+01701+01601999999ADDGA1071+001201999GF107991999999999999999999MA1101291999999MW1101MW2611REMMET062METAR ETGQ 130420Z 00000KT 5000 -RA BR BKN004 17/16 Q1013 YLO;
0124102340999992009071305204+53133+009350FM-15+0061ETGQ V0209999C000010036019N0112651N1+01601+01401999999ADDGA1071+003601999GF107991999999999999999999MA1101291999999REMMET055METAR ETGQ 130520Z 00000KT 9999 BKN012 16/14 Q1013 GRN;
0124102340999992009071306204+53133+009350FM-15+0061ETGQ V0209999C000010033019N0112651N1+01601+01501999999ADDGA1071+003301999GF107991999999999999999999MA1101291999999REMMET055METAR ETGQ 130620Z 00000KT 9999 BKN011 16/15 Q1013 GRN;
0148102340999992009071307204+53133+009350FM-15+0061ETGQ V0209999C000012200019N0112651N1+01801+01501999999ADDGA1041+008401999GA2041+090001999GF104991999999999999999999MA1101391999999REMMET063METAR ETGQ 130720Z 00000KT 9999 SCT028 SCT300 18/15 Q1014 BLU/;
0148102340999992009071308204+53133+009350FM-15+0061ETGQ V0209999C000012200019N0112651N1+02001+01501999999ADDGA1021+007501999GA2041+018001999GF104991999999999999999999MA1101391999999REMMET063METAR ETGQ 130820Z 00000KT 9999 FEW025 SCT060 20/15 Q1014 BLU/;
0125102340999992009071309204+53133+009350FM-15+0061ETGQ V0202101N001012200019N0112651N1+02201+01401999999ADDGA1041+021001999GF104991999999999999999999MA1101391999999REMMET056METAR ETGQ 130920Z 21002KT 9999 SCT070 22/14 Q1014 BLU/;
0148102340999992009071310204+53133+009350FM-15+0061ETGQ V0202001N002112200019N0112651N1+02201+01201999999ADDGA1021+012001999GA2041+021001999GF104991999999999999999999MA1101391999999REMMET063METAR ETGQ 131020Z 20004KT 9999 FEW040 SCT070 22/12 Q1014 BLU/;
0125102340999992009071311204+53133+009350FM-15+0061ETGQ V0201501N002112200019N0112651N1+02401+01301999999ADDGA1041+015001999GF104991999999999999999999MA1101291999999REMMET056METAR ETGQ 131120Z 15004KT 9999 SCT050 24/13 Q1013 BLU/;
0125102340999992009071312204+53133+009350FM-15+0061ETGQ V0209999V001012200019N0112651N1+02501+01101999999ADDGA1041+015001999GF104991999999999999999999MA1101291999999REMMET056METAR ETGQ 131220Z VRB02KT 9999 SCT050 25/11 Q1013 BLU/;
0148102340999992009071313204+53133+009350FM-15+0061ETGQ V0209999V001012200019N0112651N1+02501+01101999999ADDGA1021+015001999GA2041+018001999GF104991999999999999999999MA1101191999999REMMET063METAR ETGQ 131320Z VRB02KT 9999 FEW050 SCT060 25/11 Q1012 BLU/;
0148102340999992009071314204+53133+009350FM-15+0061ETGQ V0202801N001512200019N0112651N1+02601+01101999999ADDGA1021+015001999GA2041+021001999GF104991999999999999999999MA1101191999999REMMET063METAR ETGQ 131420Z 28003KT 9999 FEW050 SCT070 26/11 Q1012 BLU/;
0148102340999992009071315204+53133+009350FM-15+0061ETGQ V0209999V001012200019N0112651N1+02501+01301999999ADDGA1021+015001999GA2041+018001999GF104991999999999999999999MA1101081999999REMMET063METAR ETGQ 131520Z VRB02KT 9999 FEW050 SCT060 25/13 Q1011 BLU/;
0147102340999992009071316204+53133+009350FM-15+0061ETGQ V0201801N000510510019N0112651N1+02601+01301999999ADDGA1021+012001999GA2071+051001999GF107991999999999999999999MA1101081999999REMMET062METAR ETGQ 131620Z 18001KT 9999 FEW040 BKN170 26/13 Q1011 BLU;
0147102340999992009071317204+53133+009350FM-15+0061ETGQ V0209999C000010150019N0112651N1+02501+01301999999ADDGA1021+012001999GA2071+015001999GF107991999999999999999999MA1101081999999REMMET062METAR ETGQ 131720Z 00000KT 9999 FEW040 BKN050 25/13 Q1011 BLU;
0147102340999992009071318204+53133+009350FM-15+0061ETGQ V0209999C000010150019N0112651N1+02401+01501999999ADDGA1021+012001999GA2071+015001999GF107991999999999999999999MA1101081999999REMMET062METAR ETGQ 131820Z 00000KT 9999 FEW040 BKN050 24/15 Q1011 BLU;
0147102340999992009071404204+53133+009350FM-15+0061ETGQ V0209999C000010138019N0080001N1+01901+01701999999ADDGA1021+003601999GA2071+013801999GF107991999999999999999999MA1101081999999REMMET062METAR ETGQ 140420Z 00000KT 8000 FEW012 BKN046 19/17 Q1011 BLU;
0147102340999992009071405204+53133+009350FM-15+0061ETGQ V0201401N000510105019N0080001N1+01901+01701999999ADDGA1021+003601999GA2071+010501999GF107991999999999999999999MA1101191999999REMMET062METAR ETGQ 140520Z 14001KT 8000 FEW012 BKN035 19/17 Q1012 BLU;
0147102340999992009071406204+53133+009350FM-15+0061ETGQ V0209999C000010132019N0112651N1+01901+01801999999ADDGA1021+003001999GA2071+013201999GF107991999999999999999999MA1101191999999REMMET062METAR ETGQ 140620Z 00000KT 9999 FEW010 BKN044 19/18 Q1012 BLU;
0147102340999992009071407204+53133+009350FM-15+0061ETGQ V0209999V000510105019N0112651N1+02001+01801999999ADDGA1041+004801999GA2071+010501999GF107991999999999999999999MA1101191999999REMMET062METAR ETGQ 140720Z VRB01KT 9999 SCT016 BKN035 20/18 Q1012 BLU;
0147102340999992009071408204+53133+009350FM-15+0061ETGQ V0209999V000510108019N0112651N1+02001+01701999999ADDGA1041+006001999GA2071+010801999GF107991999999999999999999MA1101191999999REMMET062METAR ETGQ 140820Z VRB01KT 9999 SCT020 BKN036 20/17 Q1012 BLU;
0148102340999992009071409204+53133+009350FM-15+0061ETGQ V0201801N001012200019N0112651N1+02201+01801999999ADDGA1021+006001999GA2041+012001999GF104991999999999999999999MA1101191999999REMMET063METAR ETGQ 140920Z 18002KT 9999 FEW020 SCT040 22/18 Q1012 BLU/;
0148102340999992009071410204+53133+009350FM-15+0061ETGQ V0202101N002112200019N0112651N1+02401+01701999999ADDGA1041+007801999GA2041+075001999GF104991999999999999999999MA1101191999999REMMET063METAR ETGQ 141020Z 21004KT 9999 SCT026 SCT250 24/17 Q1012 BLU/;
0125102340999992009071411204+53133+009350FM-15+0061ETGQ V0202201N001512200019N0112651N1+02401+01701999999ADDGA1041+009601999GF104991999999999999999999MA1101191999999REMMET056METAR ETGQ 141120Z 22003KT 9999 SCT032 24/17 Q1012 BLU/;
0147102340999992009071412204+53133+009350FM-15+0061ETGQ V0202101N001510270019N0112651N1+02501+01601999999ADDGA1041+009601999GA2071+027001999GF107991999999999999999999MA1101191999999REMMET062METAR ETGQ 141220Z 21003KT 9999 SCT032 BKN090 25/16 Q1012 BLU;
0147102340999992009071413204+53133+009350FM-15+0061ETGQ V0202001N002610210019N0112651N1+02501+01601999999ADDGA1021+011101999GA2071+021001999GF107991999999999999999999MA1101191999999REMMET062METAR ETGQ 141320Z 20005KT 9999 FEW037 BKN070 25/16 Q1012 BLU;
0148102340999992009071414204+53133+009350FM-15+0061ETGQ V0202101N003610900019N0112651N1+02601+01601999999ADDGA1021+012001999GA2071+090001999GF107991999999999999999999MA1101191999999REMMET063METAR ETGQ 141420Z 21007KT 9999 FEW040 BKN300 26/16 Q1012 BLU/;
0148102340999992009071415204+53133+009350FM-15+0061ETGQ V0202301N002610900019N0112651N1+02501+01601999999ADDGA1021+012001999GA2071+090001999GF107991999999999999999999MA1101191999999REMMET063METAR ETGQ 141520Z 23005KT 9999 FEW040 BKN300 25/16 Q1012 BLU/;
0151102340999992009071416204+53133+009350FM-15+0061ETGQ V0202201N003112200019N0112651N1+02501+01601999999ADDGA1021+012001021GA2041+090001999GF104991999999999999999999MA1101191999999REMMET066METAR ETGQ 141620Z 22006KT 9999 FEW040TCU SCT300 25/16 Q1012 BLU/;
0151102340999992009071417204+53133+009350FM-15+0061ETGQ V0202301N002112200019N0112651N1+02501+01601999999ADDGA1021+012001021GA2041+081001999GF104991999999999999999999MA1101191999999REMMET066METAR ETGQ 141720Z 23004KT 9999 FEW040TCU SCT270 25/16 Q1012 BLU/;
0151102340999992009071418204+53133+009350FM-15+0061ETGQ V0201901N002112200019N0112651N1+02501+01601999999ADDGA1021+012001021GA2041+090001999GF104991999999999999999999MA1101191999999REMMET066METAR ETGQ 141820Z 19004KT 9999 FEW040TCU SCT300 25/16 Q1012 BLU/;
0124102340999992009071504204+53133+009350FM-15+0061ETGQ V0209999C000010060019N0112651N1+01901+01501999999ADDGA1071+006001999GF107991999999999999999999MA1101591999999REMMET055METAR ETGQ 150420Z 00000KT 9999 BKN020 19/15 Q1016 WHT;
0148102340999992009071505204+53133+009350FM-15+0061ETGQ V0209999C000012200019N0112651N1+02001+01601999999ADDGA1041+005701999GA2041+090001999GF104991999999999999999999MA1101691999999REMMET063METAR ETGQ 150520Z 00000KT 9999 SCT019 SCT300 20/16 Q1017 BLU/;
0148102340999992009071506204+53133+009350FM-15+0061ETGQ V0201301N001510900019N0112651N1+02001+01601999999ADDGA1041+006001999GA2071+090001999GF107991999999999999999999MA1101691999999REMMET063METAR ETGQ 150620Z 13003KT 9999 SCT020 BKN300 20/16 Q1017 BLU/;
0147102340999992009071507204+53133+009350FM-15+0061ETGQ V0202201N002610270019N0112651N1+02101+01501999999ADDGA1021+007501999GA2071+027001999GF107991999999999999999999MA1101691999999REMMET062METAR ETGQ 150720Z 22005KT 9999 FEW025 BKN090 21/15 Q1017 BLU;
0148102340999992009071508204+53133+009350FM-15+0061ETGQ V0209999V001012200019N0112651N1+02301+01601999999ADDGA1041+009301999GA2041+090001999GF104991999999999999999999MA1101691999999REMMET063METAR ETGQ 150820Z VRB02KT 9999 SCT031 SCT300 23/16 Q1017 BLU/;
0125102340999992009071509204+53133+009350FM-15+0061ETGQ V0202201N001512200019N0112651N1+02401+01601999999ADDGA1041+009601999GF104991999999999999999999MA1101691999999REMMET056METAR ETGQ 150920Z 22003KT 9999 SCT032 24/16 Q1017 BLU/;
0125102340999992009071510204+53133+009350FM-15+0061ETGQ V0202101N003112200019N0112651N1+02501+01501999999ADDGA1041+012001999GF104991999999999999999999MA1101691999999REMMET056METAR ETGQ 151020Z 21006KT 9999 SCT040 25/15 Q1017 BLU/;
0125102340999992009071511204+53133+009350FM-15+0061ETGQ V0202101N004112200019N0112651N1+02601+01301999999ADDGA1041+015001999GF104991999999999999999999MA1101691999999REMMET056METAR ETGQ 151120Z 21008KT 9999 SCT050 26/13 Q1017 BLU/;
0136102340999992009071512204+53133+009350FM-15+0061ETGQ V0202201N003612200019N0112651N1+02601+01101999999ADDGA1041+015001999GF104991999999999999999999MA1101691999999OC100931REMMET059METAR ETGQ 151220Z 22007G18KT 9999 SCT050 26/11 Q1017 BLU/;
0125102340999992009071513204+53133+009350FM-15+0061ETGQ V0202101N004112200019N0112651N1+02601+01001999999ADDGA1041+015001999GF104991999999999999999999MA1101691999999REMMET056METAR ETGQ 151320Z 21008KT 9999 SCT050 26/10 Q1017 BLU/;
0125102340999992009071514204+53133+009350FM-15+0061ETGQ V0202401N003112200019N0112651N1+02701+01101999999ADDGA1041+018001999GF104991999999999999999999MA1101801999999REMMET056METAR ETGQ 151420Z 24006KT 9999 SCT060 27/11 Q1018 BLU/;
0125102340999992009071515204+53133+009350FM-15+0061ETGQ V0202501N002112200019N0112651N1+02501+01101999999ADDGA1041+021001999GF104991999999999999999999MA1101801999999REMMET056METAR ETGQ 151520Z 25004KT 9999 SCT070 25/11 Q1018 BLU/;
0124102340999992009071516204+53133+009350FM-15+0061ETGQ V0202301N001510210019N0112651N1+02501+01101999999ADDGA1071+021001999GF107991999999999999999999MA1101801999999REMMET055METAR ETGQ 151620Z 23003KT 9999 BKN070 25/11 Q1018 BLU;
0125102340999992009071517204+53133+009350FM-15+0061ETGQ V0202601N002612200019N0112651N1+02501+01101999999ADDGA1041+021001999GF104991999999999999999999MA1101901999999REMMET056METAR ETGQ 151720Z 26005KT 9999 SCT070 25/11 Q1019 BLU/;
0124102340999992009071604204+53133+009350FM-15+0061ETGQ V0209999C000010270019N0112651N1+01501+01301999999ADDGA1071+027001999GF107991999999999999999999MA1102301999999REMMET055METAR ETGQ 160420Z 00000KT 9999 BKN090 15/13 Q1023 BLU;
0124102340999992009071605204+53133+009350FM-15+0061ETGQ V0209999C000010270019N0112651N1+01701+01401999999ADDGA1071+027001999GF107991999999999999999999MA1102301999999REMMET055METAR ETGQ 160520Z 00000KT 9999 BKN090 17/14 Q1023 BLU;
0125102340999992009071606204+53133+009350FM-15+0061ETGQ V0209999C000012200019N0112651N1+01801+01301999999ADDGA1021+027001999GF102991999999999999999999MA1102301999999REMMET056METAR ETGQ 160620Z 00000KT 9999 FEW090 18/13 Q1023 BLU/;
0076102340999992009071607204+53133+009350FM-15+0061ETGQ V0209999C000012200019N0112651N1+02101+01301999999ADDMA1102301999999REMMET049METAR ETGQ 160720Z 00000KT 9999 21/13 Q1023 BLU/;
0125102340999992009071608204+53133+009350FM-15+0061ETGQ V0209999C000012200019N0112651N1+02301+01401999999ADDGA1021+012001999GF102991999999999999999999MA1102301999999REMMET056METAR ETGQ 160820Z 00000KT 9999 FEW040 23/14 Q1023 BLU/;
0125102340999992009071609204+53133+009350FM-15+0061ETGQ V0209999V000512200019N0112651N1+02501+01201999999ADDGA1021+015001999GF102991999999999999999999MA1102201999999REMMET056METAR ETGQ 160920Z VRB01KT 9999 FEW050 25/12 Q1022 BLU/;
0125102340999992009071610204+53133+009350FM-15+0061ETGQ V0202201N002112200019N0112651N1+02601+01101999999ADDGA1021+018001999GF102991999999999999999999MA1102201999999REMMET056METAR ETGQ 161020Z 22004KT 9999 FEW060 26/11 Q1022 BLU/;
0125102340999992009071611204+53133+009350FM-15+0061ETGQ V0202301N002112200019N0112651N1+02701+00601999999ADDGA1041+018001999GF104991999999999999999999MA1102101999999REMMET056METAR ETGQ 161120Z 23004KT 9999 SCT060 27/06 Q1021 BLU/;
0125102340999992009071612204+53133+009350FM-15+0061ETGQ V0202501N001512200019N0112651N1+02701+00801999999ADDGA1041+021001999GF104991999999999999999999MA1102101999999REMMET056METAR ETGQ 161220Z 25003KT 9999 SCT070 27/08 Q1021 BLU/;
0125102340999992009071613204+53133+009350FM-15+0061ETGQ V0209999C000012200019N0112651N1+02801+00801999999ADDGA1041+024001999GF104991999999999999999999MA1102001999999REMMET056METAR ETGQ 161320Z 00000KT 9999 SCT080 28/08 Q1020 BLU/;
0125102340999992009071614204+53133+009350FM-15+0061ETGQ V0202701N002112200019N0112651N1+02801+00901999999ADDGA1021+024001999GF102991999999999999999999MA1102001999999REMMET056METAR ETGQ 161420Z 27004KT 9999 FEW080 28/09 Q1020 BLU/;
0125102340999992009071615204+53133+009350FM-15+0061ETGQ V0209999V000512200019N0112651N1+02701+00901999999ADDGA1021+024001999GF102991999999999999999999MA1101901999999REMMET056METAR ETGQ 161520Z VRB01KT 9999 FEW080 27/09 Q1019 BLU/;
0148102340999992009071616204+53133+009350FM-15+0061ETGQ V0202101N001011050019N0112651N1+02801+01001999999ADDGA1021+024001999GA2071+105001999GF107991999999999999999999MA1101801999999REMMET063METAR ETGQ 161620Z 21002KT 9999 FEW080 BKN350 28/10 Q1018 BLU/;
0148102340999992009071617204+53133+009350FM-15+0061ETGQ V0209999C000012200019N0112651N1+02801+01001999999ADDGA1021+024001999GA2041+105001999GF104991999999999999999999MA1101801999999REMMET063METAR ETGQ 161720Z 00000KT 9999 FEW080 SCT350 28/10 Q1018 BLU/;
0148102340999992009071618204+53133+009350FM-15+0061ETGQ V0201301N000512200019N0112651N1+02701+01001999999ADDGA1021+024001999GA2041+090001999GF104991999999999999999999MA1101691999999REMMET063METAR ETGQ 161820Z 13001KT 9999 FEW080 SCT320 27/10 Q1017 BLU/;
0124102340999992009071704204+53133+009350FM-15+0061ETGQ V0201301N000510390019N0112651N1+01801+01401999999ADDGA1071+039001999GF107991999999999999999999MA1100911999999REMMET055METAR ETGQ 170420Z 13001KT 9999 BKN130 18/14 Q1009 BLU;
0157102340999992009071705204+53133+009350FM-15+0061ETGQ V0201701N001510180019N0112651N1+02001+01401999999ADDGA1041+012001999GA2071+018001999GF107991999999999999999999MA1101191999999MW1611REMMET066METAR ETGQ 170520Z 17003KT 9999 -RA SCT040 BKN060 20/14 Q1012 BLU;
0133102340999992009071706204+53133+009350FM-15+0061ETGQ V0201301N000510054019N0112651N1+01801+01601999999ADDGA1071+005401999GF107991999999999999999999MA1101191999999MW1631REMMET058METAR ETGQ 170620Z 13001KT 9999 RA BKN018 18/16 Q1012 WHT;
0162102340999992009071707204+53133+009350FM-15+0061ETGQ V0209999C000010330019N0112651N1+01901+01601999999ADDGA1041+006001999GA2071+033001999GF107991999999999999999999MA1101021999999MW1611REMMET071METAR ETGQ 170720Z 00000KT 9999 -RA SCT020 BKN110 19/16 Q1010 RERA BLU;
0147102340999992009071708204+53133+009350FM-15+0061ETGQ V0201801N001010180019N0112651N1+02001+01701999999ADDGA1041+010501999GA2071+018001999GF107991999999999999999999MA1101081999999REMMET062METAR ETGQ 170820Z 18002KT 9999 SCT035 BKN060 20/17 Q1011 BLU;
0147102340999992009071709204+53133+009350FM-15+0061ETGQ V0201801N003110450019N0112651N1+02201+01501999999ADDGA1041+012901999GA2071+045001999GF107991999999999999999999MA1101081999999REMMET062METAR ETGQ 170920Z 18006KT 9999 SCT043 BKN150 22/15 Q1011 BLU;
0147102340999992009071710204+53133+009350FM-15+0061ETGQ V0202201N003610150019N0112651N1+02101+01401999999ADDGA1041+008401999GA2071+015001999GF107991999999999999999999MA1101081999999REMMET062METAR ETGQ 171020Z 22007KT 9999 SCT028 BKN050 21/14 Q1011 BLU;
0148102340999992009071711204+53133+009350FM-15+0061ETGQ V0202401N002612200019N0112651N1+02201+01301999999ADDGA1041+010801999GA2041+105001999GF104991999999999999999999MA1101081999999REMMET063METAR ETGQ 171120Z 24005KT 9999 SCT036 SCT350 22/13 Q1011 BLU/;
0125102340999992009071712204+53133+009350FM-15+0061ETGQ V0202401N003612200019N0112651N1+02301+01101999999ADDGA1041+014401999GF104991999999999999999999MA1101021999999REMMET056METAR ETGQ 171220Z 24007KT 9999 SCT048 23/11 Q1010 BLU/;
0147102340999992009071713204+53133+009350FM-15+0061ETGQ V0202201N002610450019N0112651N1+02201+01001999999ADDGA1021+015001999GA2071+045001999GF107991999999999999999999MA1101021999999REMMET062METAR ETGQ 171320Z 22005KT 9999 FEW050 BKN150 22/10 Q1010 BLU;
0147102340999992009071714204+53133+009350FM-15+0061ETGQ V0202501N002610390019N0112651N1+02201+01001999999ADDGA1021+015001999GA2071+039001999GF107991999999999999999999MA1101021999999REMMET062METAR ETGQ 171420Z 25005KT 9999 FEW050 BKN130 22/10 Q1010 BLU;
0170102340999992009071715204+53133+009350FM-15+0061ETGQ V0202101N00211030001CN0112651N1+02101+01001999999ADDGA1021+015001999GA2041+030001999GA3071+039001999GF107991999999999999999999MA1101021999999REMMET069METAR ETGQ 171520Z 21004KT 9999 FEW050 SCT100 BKN130 21/10 Q1010 BLU;
0147102340999992009071716204+53133+009350FM-15+0061ETGQ V0202301N001510420019N0112651N1+02101+01001999999ADDGA1041+015001999GA2071+042001999GF107991999999999999999999MA1100911999999REMMET062METAR ETGQ 171620Z 23003KT 9999 SCT050 BKN140 21/10 Q1009 BLU;
0147102340999992009071717204+53133+009350FM-15+0061ETGQ V0200201N001510360019N0112651N1+02001+01001999999ADDGA1021+015001999GA2071+036001999GF107991999999999999999999MA1100911999999REMMET062METAR ETGQ 171720Z 02003KT 9999 FEW050 BKN120 20/10 Q1009 BLU;
0147102340999992009071718204+53133+009350FM-15+0061ETGQ V0202001N002110420019N0112651N1+02001+01101999999ADDGA1021+015001999GA2071+042001999GF107991999999999999999999MA1101021999999REMMET062METAR ETGQ 171820Z 20004KT 9999 FEW050 BKN140 20/11 Q1010 BLU;
0147102340999992009072004204+53133+009350FM-15+0061ETGQ V0209999C000010300019N0112651N1+01601+01101999999ADDGA1021+018001999GA2071+030001999GF107991999999999999999999MA1101591999999REMMET062METAR ETGQ 200420Z 00000KT 9999 FEW060 BKN100 16/11 Q1016 BLU;
0147102340999992009072005204+53133+009350FM-15+0061ETGQ V0209999V001010180019N0112651N1+01601+01101999999ADDGA1021+012001999GA2071+018001999GF107991999999999999999999MA1101591999999REMMET062METAR ETGQ 200520Z VRB02KT 9999 FEW040 BKN060 16/11 Q1016 BLU;
0124102340999992009072006204+53133+009350FM-15+0061ETGQ V0202201N002110180019N0112651N1+01701+01201999999ADDGA1071+018001999GF107991999999999999999999MA1101691999999REMMET055METAR ETGQ 200620Z 22004KT 9999 BKN060 17/12 Q1017 BLU;
0147102340999992009072007204+53133+009350FM-15+0061ETGQ V0202501N001510240019N0112651N1+01801+01201999999ADDGA1021+007501999GA2071+024001999GF107991999999999999999999MA1101691999999REMMET062METAR ETGQ 200720Z 25003KT 9999 FEW025 BKN080 18/12 Q1017 BLU;
0147102340999992009072008204+53133+009350FM-15+0061ETGQ V0202801N002610240019N0112651N1+02001+01101999999ADDGA1041+012001999GA2071+024001999GF107991999999999999999999MA1101691999999REMMET062METAR ETGQ 200820Z 28005KT 9999 SCT040 BKN080 20/11 Q1017 BLU;
0147102340999992009072009204+53133+009350FM-15+0061ETGQ V0202201N003110270019N0112651N1+02101+01101999999ADDGA1041+012001999GA2071+027001999GF107991999999999999999999MA1101691999999REMMET062METAR ETGQ 200920Z 22006KT 9999 SCT040 BKN090 21/11 Q1017 BLU;
0147102340999992009072010204+53133+009350FM-15+0061ETGQ V0202701N003110270019N0112651N1+02001+01001999999ADDGA1021+012001999GA2071+027001999GF107991999999999999999999MA1101691999999REMMET062METAR ETGQ 201020Z 27006KT 9999 FEW040 BKN090 20/10 Q1017 BLU;
0147102340999992009072011204+53133+009350FM-15+0061ETGQ V0202801N003610270019N0112651N1+02001+01001999999ADDGA1021+012601999GA2071+027001999GF107991999999999999999999MA1101691999999REMMET062METAR ETGQ 201120Z 28007KT 9999 FEW042 BKN090 20/10 Q1017 BLU;
0147102340999992009072012204+53133+009350FM-15+0061ETGQ V0202701N002610270019N0112651N1+02201+01001999999ADDGA1041+014401999GA2071+027001999GF107991999999999999999999MA1101691999999REMMET062METAR ETGQ 201220Z 27005KT 9999 SCT048 BKN090 22/10 Q1017 BLU;
0124102340999992009072013204+53133+009350FM-15+0061ETGQ V0202801N004110150019N0112651N1+02201+00801999999ADDGA1071+015001999GF107991999999999999999999MA1101691999999REMMET055METAR ETGQ 201320Z 28008KT 9999 BKN050 22/08 Q1017 BLU;
0136102340999992009072014204+53133+009350FM-15+0061ETGQ V0202801N004112200019N0112651N1+02201+00801999999ADDGA1041+018001999GF104991999999999999999999MA1101691999999OC100931REMMET059METAR ETGQ 201420Z 28008G18KT 9999 SCT060 22/08 Q1017 BLU/;
0125102340999992009072015204+53133+009350FM-15+0061ETGQ V0202801N003612200019N0112651N1+02201+00801999999ADDGA1041+018001999GF104991999999999999999999MA1101691999999REMMET056METAR ETGQ 201520Z 28007KT 9999 SCT060 22/08 Q1017 BLU/;
0148102340999992009072016204+53133+009350FM-15+0061ETGQ V0202701N002612200019N0112651N1+02201+00801999999ADDGA1041+018001999GA2041+090001999GF104991999999999999999999MA1101691999999REMMET063METAR ETGQ 201620Z 27005KT 9999 SCT060 SCT300 22/08 Q1017 BLU/;
0147102340999992009072017204+53133+009350FM-15+0061ETGQ V0202601N002110390019N0112651N1+02201+00901999999ADDGA1021+018001999GA2071+039001999GF107991999999999999999999MA1101691999999REMMET062METAR ETGQ 201720Z 26004KT 9999 FEW060 BKN130 22/09 Q1017 BLU;
0147102340999992009072018204+53133+009350FM-15+0061ETGQ V0202701N001510420019N0112651N1+02101+00901999999ADDGA1021+018001999GA2071+042001999GF107991999999999999999999MA1101691999999REMMET062METAR ETGQ 201820Z 27003KT 9999 FEW060 BKN140 21/09 Q1017 BLU;
0147102340999992009072104204+53133+009350FM-15+0061ETGQ V0209999C000010270019N0112651N1+01501+01301999999ADDGA1021+009001999GA2071+027001999GF107991999999999999999999MA1101591999999REMMET062METAR ETGQ 210420Z 00000KT 9999 FEW030 BKN090 15/13 Q1016 BLU;
0147102340999992009072105204+53133+009350FM-15+0061ETGQ V0209999C000010300019N0112651N1+01601+01301999999ADDGA1041+015001999GA2071+030001999GF107991999999999999999999MA1101591999999REMMET062METAR ETGQ 210520Z 00000KT 9999 SCT050 BKN100 16/13 Q1016 BLU;
0147102340999992009072106204+53133+009350FM-15+0061ETGQ V0209999C000010450019N0112651N1+01701+01401999999ADDGA1041+030001999GA2071+045001999GF107991999999999999999999MA1101491999999REMMET062METAR ETGQ 210620Z 00000KT 9999 SCT100 BKN150 17/14 Q1015 BLU;
0147102340999992009072107204+53133+009350FM-15+0061ETGQ V0209999C000010450019N0112651N1+01801+01301999999ADDGA1021+006001999GA2071+045001999GF107991999999999999999999MA1101491999999REMMET062METAR ETGQ 210720Z 00000KT 9999 FEW020 BKN150 18/13 Q1015 BLU;
0148102340999992009072108204+53133+009350FM-15+0061ETGQ V0201401N001012200019N0112651N1+02001+01301999999ADDGA1041+027001999GA2041+045001999GF104991999999999999999999MA1101491999999REMMET063METAR ETGQ 210820Z 14002KT 9999 SCT090 SCT150 20/13 Q1015 BLU/;
0148102340999992009072109204+53133+009350FM-15+0061ETGQ V0209999C000010750019N0112651N1+02201+01401999999ADDGA1021+039001999GA2071+075001999GF107991999999999999999999MA1101491999999REMMET063METAR ETGQ 210920Z 00000KT 9999 FEW130 BKN250 22/14 Q1015 BLU/;
0148102340999992009072110204+53133+009350FM-15+0061ETGQ V0201201N001510900019N0112651N1+02501+01401999999ADDGA1021+042001999GA2071+090001999GF107991999999999999999999MA1101391999999REMMET063METAR ETGQ 211020Z 12003KT 9999 FEW140 BKN300 25/14 Q1014 BLU/;
0148102340999992009072111204+53133+009350FM-15+0061ETGQ V0201701N001510900019N0112651N1+02601+01301999999ADDGA1021+015001999GA2071+090001999GF107991999999999999999999MA1101291999999REMMET063METAR ETGQ 211120Z 17003KT 9999 FEW050 BKN300 26/13 Q1013 BLU/;
0148102340999992009072112204+53133+009350FM-15+0061ETGQ V0201401N002610900019N0112651N1+02701+01301999999ADDGA1021+015001999GA2071+090001999GF107991999999999999999999MA1101191999999REMMET063METAR ETGQ 211220Z 14005KT 9999 FEW050 BKN300 27/13 Q1012 BLU/;
0171102340999992009072113204+53133+009350FM-15+0061ETGQ V0201601N00311042001CN0112651N1+02801+01401999999ADDGA1021+018001999GA2041+042001999GA3071+090001999GF107991999999999999999999MA1101081999999REMMET070METAR ETGQ 211320Z 16006KT 9999 FEW060 SCT140 BKN300 28/14 Q1011 BLU/;
0147102340999992009072114204+53133+009350FM-15+0061ETGQ V0201901N003110360019N0112651N1+02801+01401999999ADDGA1021+018001999GA2071+036001999GF107991999999999999999999MA1101081999999REMMET062METAR ETGQ 211420Z 19006KT 9999 FEW060 BKN120 28/14 Q1011 BLU;
0147102340999992009072115204+53133+009350FM-15+0061ETGQ V0201801N001510360019N0112651N1+02801+01401999999ADDGA1021+018001999GA2071+036001999GF107991999999999999999999MA1101021999999REMMET062METAR ETGQ 211520Z 18003KT 9999 FEW060 BKN120 28/14 Q1010 BLU;
0171102340999992009072116204+53133+009350FM-15+0061ETGQ V0201601N00151042001CN0112651N1+02801+01501999999ADDGA1021+018001999GA2041+042001999GA3071+090001999GF107991999999999999999999MA1100911999999REMMET070METAR ETGQ 211620Z 16003KT 9999 FEW060 SCT140 BKN300 28/15 Q1009 BLU/;
0171102340999992009072117204+53133+009350FM-15+0061ETGQ V0201201N00151036001CN0112651N1+02801+01501999999ADDGA1021+018001999GA2041+036001999GA3071+090001999GF107991999999999999999999MA1100911999999REMMET070METAR ETGQ 211720Z 12003KT 9999 FEW060 SCT120 BKN300 28/15 Q1009 BLU/;
0148102340999992009072118204+53133+009350FM-15+0061ETGQ V0201301N002110900019N0112651N1+02701+01601999999ADDGA1041+045001999GA2071+090001999GF107991999999999999999999MA1100811999999REMMET063METAR ETGQ 211820Z 13004KT 9999 SCT150 BKN300 27/16 Q1008 BLU/;
0150102340999992009072204204+53133+009350FM-15+0061ETGQ V0201601N002610180019N0112651N1+02001+01601999999ADDGA1021+012001021GA2071+018001999GF107991999999999999999999MA1100811999999REMMET065METAR ETGQ 220420Z 16005KT 9999 FEW040TCU BKN060 20/16 Q1008 BLU;
0147102340999992009072205204+53133+009350FM-15+0061ETGQ V0201601N002110450019N0112651N1+02001+01601999999ADDGA1041+036001999GA2071+045001999GF107991999999999999999999MA1100811999999REMMET062METAR ETGQ 220520Z 16004KT 9999 SCT120 BKN150 20/16 Q1008 BLU;
0170102340999992009072206204+53133+009350FM-15+0061ETGQ V0201801N00261027001CN0112651N1+02001+01601999999ADDGA1021+018001999GA2041+027001999GA3071+036001999GF107991999999999999999999MA1100811999999REMMET069METAR ETGQ 220620Z 18005KT 9999 FEW060 SCT090 BKN120 20/16 Q1008 BLU;
0147102340999992009072207204+53133+009350FM-15+0061ETGQ V0201701N002110270019N0112651N1+02101+01601999999ADDGA1021+006001999GA2071+027001999GF107991999999999999999999MA1100911999999REMMET062METAR ETGQ 220720Z 17004KT 9999 FEW020 BKN090 21/16 Q1009 BLU;
0147102340999992009072208204+53133+009350FM-15+0061ETGQ V0209999V000510300019N0112651N1+02201+01701999999ADDGA1021+006001999GA2071+030001999GF107991999999999999999999MA1100911999999REMMET062METAR ETGQ 220820Z VRB01KT 9999 FEW020 BKN100 22/17 Q1009 BLU;
0170102340999992009072209204+53133+009350FM-15+0061ETGQ V0201601N00261027001CN0112651N1+02301+01701999999ADDGA1021+012001999GA2041+027001999GA3071+042001999GF107991999999999999999999MA1100911999999REMMET069METAR ETGQ 220920Z 16005KT 9999 FEW040 SCT090 BKN140 23/17 Q1009 BLU;
0124102340999992009072210204+53133+009350FM-15+0061ETGQ V0202401N002610135019N0112651N1+02401+01601999999ADDGA1071+013501999GF107991999999999999999999MA1100911999999REMMET055METAR ETGQ 221020Z 24005KT 9999 BKN045 24/16 Q1009 BLU;
0124102340999992009072211204+53133+009350FM-15+0061ETGQ V0202301N003110135019N0112651N1+02601+01501999999ADDGA1071+013501999GF107991999999999999999999MA1100911999999REMMET055METAR ETGQ 221120Z 23006KT 9999 BKN045 26/15 Q1009 BLU;
0147102340999992009072212204+53133+009350FM-15+0061ETGQ V0202501N003110480019N0112651N1+02801+01501999999ADDGA1041+015001999GA2071+048001999GF107991999999999999999999MA1100811999999REMMET062METAR ETGQ 221220Z 25006KT 9999 SCT050 BKN160 28/15 Q1008 BLU;
0124102340999992009072213204+53133+009350FM-15+0061ETGQ V0202301N003110180019N0112651N1+02701+01501999999ADDGA1071+018001999GF107991999999999999999999MA1100811999999REMMET055METAR ETGQ 221320Z 23006KT 9999 BKN060 27/15 Q1008 BLU;
0125102340999992009072214204+53133+009350FM-15+0061ETGQ V0202401N002612200019N0112651N1+02801+01501999999ADDGA1041+015001999GF104991999999999999999999MA1100711999999REMMET056METAR ETGQ 221420Z 24005KT 9999 SCT050 28/15 Q1007 BLU/;
0125102340999992009072215204+53133+009350FM-15+0061ETGQ V0202101N003112200019N0112651N1+02801+01501999999ADDGA1041+015001999GF104991999999999999999999MA1100711999999REMMET056METAR ETGQ 221520Z 21006KT 9999 SCT050 28/15 Q1007 BLU/;
0125102340999992009072216204+53133+009350FM-15+0061ETGQ V0202301N002612200019N0112651N1+02801+01501999999ADDGA1021+018001999GF102991999999999999999999MA1100611999999REMMET056METAR ETGQ 221620Z 23005KT 9999 FEW060 28/15 Q1006 BLU/;
0148102340999992009072217204+53133+009350FM-15+0061ETGQ V0202101N001511050019N0112651N1+02801+01401999999ADDGA1021+018001999GA2071+105001999GF107991999999999999999999MA1100611999999REMMET063METAR ETGQ 221720Z 21003KT 9999 FEW060 BKN350 28/14 Q1006 BLU/;
0148102340999992009072218204+53133+009350FM-15+0061ETGQ V0201501N000511050019N0112651N1+02801+01501999999ADDGA1021+015001999GA2071+105001999GF107991999999999999999999MA1100511999999REMMET063METAR ETGQ 221820Z 15001KT 9999 FEW050 BKN350 28/15 Q1005 BLU/;
0150102340999992009072304204+53133+009350FM-15+0061ETGQ V0209999C000010300019N0112651N1+02001+01601999999ADDGA1041+009001021GA2071+030001999GF107991999999999999999999MA1100311999999REMMET065METAR ETGQ 230420Z 00000KT 9999 SCT030TCU BKN100 20/16 Q1003 BLU;
0147102340999992009072305204+53133+009350FM-15+0061ETGQ V0202001N002110330019N0112651N1+02001+01701999999ADDGA1041+012001999GA2071+033001999GF107991999999999999999999MA1100411999999REMMET062METAR ETGQ 230520Z 20004KT 9999 SCT040 BKN110 20/17 Q1004 BLU;
0162102340999992009072306204+53133+009350FM-15+0061ETGQ V0209999V000510270019N0112651N1+02101+01701999999ADDGA1021+009001021GA2071+027001999GF107991999999999999999999MA1100411999999MW1801REMMET071METAR ETGQ 230620Z VRB01KT 9999 -SHRA FEW030TCU BKN090 21/17 Q1004 BLU;
0180102340999992009072307204+53133+009350FM-15+0061ETGQ V0201601N002110180019N0080001N1+01901+01701999999ADDGA1021+006001999GA2071+018001999GA3081+033001999GF108991999999999999999999MA1100611999999MW1611REMMET073METAR ETGQ 230720Z 16004KT 8000 -RA FEW020 BKN060 OVC110 19/17 Q1006 BLU;
0170102340999992009072308204+53133+009350FM-15+0061ETGQ V0202201N00261030001CN0112651N1+02001+01701999999ADDGA1021+007501999GA2041+030001999GA3071+051001999GF107991999999999999999999MA1100411999999REMMET069METAR ETGQ 230820Z 22005KT 9999 FEW025 SCT100 BKN170 20/17 Q1004 BLU;
0159102340999992009072309204+53133+009350FM-15+0061ETGQ V0201701N002112200019N0112651N1+02301+01801999999ADDGA1041+006001999GA2041+048001999GF104991999999999999999999MA1100411999999OC100771REMMET066METAR ETGQ 230920Z 17004G15KT 9999 SCT020 SCT160 23/18 Q1004 BLU/;
0148102340999992009072310204+53133+009350FM-15+0061ETGQ V0202301N001512200019N0112651N1+02401+01701999999ADDGA1041+009001999GA2041+021001999GF104991999999999999999999MA1100411999999REMMET063METAR ETGQ 231020Z 23003KT 9999 SCT030 SCT070 24/17 Q1004 BLU/;
0147102340999992009072311204+53133+009350FM-15+0061ETGQ V0202701N004110270019N0112651N1+02301+01501999999ADDGA1041+010501999GA2071+027001999GF107991999999999999999999MA1100511999999REMMET062METAR ETGQ 231120Z 27008KT 9999 SCT035 BKN090 23/15 Q1005 BLU;
0125102340999992009072312204+53133+009350FM-15+0061ETGQ V0202101N003612200019N0112651N1+02301+01501999999ADDGA1041+011101999GF104991999999999999999999MA1100511999999REMMET056METAR ETGQ 231220Z 21007KT 9999 SCT037 23/15 Q1005 BLU/;
0148102340999992009072314204+53133+009350FM-15+0061ETGQ V0202101N003112200019N0112651N1+02501+01501999999ADDGA1041+015001999GA2041+090001999GF104991999999999999999999MA1100511999999REMMET063METAR ETGQ 231420Z 21006KT 9999 SCT050 SCT300 25/15 Q1005 BLU/;
0125102340999992009072315204+53133+009350FM-15+0061ETGQ V0202101N003112200019N0112651N1+02501+01401999999ADDGA1041+014101999GF104991999999999999999999MA1100511999999REMMET056METAR ETGQ 231520Z 21006KT 9999 SCT047 25/14 Q1005 BLU/;
0124102340999992009072316204+53133+009350FM-15+0061ETGQ V0203401N003610150019N0112651N1+02301+01601999999ADDGA1071+015001999GF107991999999999999999999MA1100611999999REMMET055METAR ETGQ 231620Z 34007KT 9999 BKN050 23/16 Q1006 BLU;
0125102340999992009072317204+53133+009350FM-15+0061ETGQ V0203401N003112200019N0112651N1+02201+01501999999ADDGA1041+015001999GF104991999999999999999999MA1100711999999REMMET056METAR ETGQ 231720Z 34006KT 9999 SCT050 22/15 Q1007 BLU/;
0124102340999992009072318204+53133+009350FM-15+0061ETGQ V0203301N000510105019N0112651N1+02101+01501999999ADDGA1071+010501999GF107991999999999999999999MA1100711999999REMMET055METAR ETGQ 231820Z 33001KT 9999 BKN035 21/15 Q1007 BLU;
0148102340999992009072404204+53133+009350FM-15+0061ETGQ V0209999V000512200019N0112651N1+01701+01401999999ADDGA1021+015001999GA2041+039001999GF104991999999999999999999MA1101291999999REMMET063METAR ETGQ 240420Z VRB01KT 9999 FEW050 SCT130 17/14 Q1013 BLU/;
0148102340999992009072405204+53133+009350FM-15+0061ETGQ V0202301N001010750019N0112651N1+01701+01401999999ADDGA1041+024001999GA2071+075001999GF107991999999999999999999MA1101291999999REMMET063METAR ETGQ 240520Z 23002KT 9999 SCT080 BKN250 17/14 Q1013 BLU/;
0147102340999992009072406204+53133+009350FM-15+0061ETGQ V0202501N001510210019N0112651N1+01801+01401999999ADDGA1041+010801999GA2071+021001999GF107991999999999999999999MA1101291999999REMMET062METAR ETGQ 240620Z 25003KT 9999 SCT036 BKN070 18/14 Q1013 BLU;
0147102340999992009072407204+53133+009350FM-15+0061ETGQ V0202001N002110300019N0112651N1+01901+01401999999ADDGA1021+012001999GA2071+030001999GF107991999999999999999999MA1101391999999REMMET062METAR ETGQ 240720Z 20004KT 9999 FEW040 BKN100 19/14 Q1014 BLU;
0163102340999992009072408204+53133+009350FM-15+0061ETGQ V0202101N002112200019N0112651N1+01901+01401999999ADDGA1041+010501021GA2041+024001999GF104991999999999999999999MA1101391999999MW1801REMMET072METAR ETGQ 240820Z 21004KT 9999 -SHRA SCT035TCU SCT080 19/14 Q1014 BLU/;
0125102340999992009072409204+53133+009350FM-15+0061ETGQ V0201901N001512200019N0112651N1+02001+01401999999ADDGA1041+015001999GF104991999999999999999999MA1101391999999REMMET056METAR ETGQ 240920Z 19003KT 9999 SCT050 20/14 Q1014 BLU/;
0125102340999992009072410204+53133+009350FM-15+0061ETGQ V0202001N003112200019N0112651N1+02001+01301999999ADDGA1041+012001999GF104991999999999999999999MA1101391999999REMMET056METAR ETGQ 241020Z 20006KT 9999 SCT040 20/13 Q1014 BLU/;
0127102340999992009072411204+53133+009350FM-15+0061ETGQ V0202001N004110150019N0112651N1+02201+01201999999ADDGA1071+015001021GF107991999999999999999999MA1101291999999REMMET058METAR ETGQ 241120Z 20008KT 9999 BKN050TCU 22/12 Q1013 BLU;
0127102340999992009072412204+53133+009350FM-15+0061ETGQ V0202801N003610150019N0112651N1+02201+01001999999ADDGA1071+015001021GF107991999999999999999999MA1101291999999REMMET058METAR ETGQ 241220Z 28007KT 9999 BKN050TCU 22/10 Q1013 BLU;
0128102340999992009072413204+53133+009350FM-15+0061ETGQ V0202601N003612200019N0112651N1+02401+00901999999ADDGA1041+015001021GF104991999999999999999999MA1101291999999REMMET059METAR ETGQ 241320Z 26007KT 9999 SCT050TCU 24/09 Q1013 BLU/;
0138102340999992009072414204+53133+009350FM-15+0061ETGQ V0203201N003610150019N0112651N1+02301+00701999999ADDGA1071+015001021GF107991999999999999999999MA1101291999999OC100871REMMET061METAR ETGQ 241420Z 32007G17KT 9999 BKN050TCU 23/07 Q1013 BLU;
0125102340999992009072415204+53133+009350FM-15+0061ETGQ V0202601N003112200019N0112651N1+02401+00801999999ADDGA1041+018001999GF104991999999999999999999MA1101291999999REMMET056METAR ETGQ 241520Z 26006KT 9999 SCT060 24/08 Q1013 BLU/;
0148102340999992009072416204+53133+009350FM-15+0061ETGQ V0202201N004612200019N0112651N1+02201+01001999999ADDGA1041+018001999GA2041+090001999GF104991999999999999999999MA1101291999999REMMET063METAR ETGQ 241620Z 22009KT 9999 SCT060 SCT320 22/10 Q1013 BLU/;
0147102340999992009072417204+53133+009350FM-15+0061ETGQ V0202601N003110300019N0112651N1+02201+00901999999ADDGA1041+015001999GA2071+030001999GF107991999999999999999999MA1101391999999REMMET062METAR ETGQ 241720Z 26006KT 9999 SCT050 BKN100 22/09 Q1014 BLU;
0147102340999992009072418204+53133+009350FM-15+0061ETGQ V0202501N003110300019N0112651N1+01901+01001999999ADDGA1041+015001999GA2071+030001999GF107991999999999999999999MA1101391999999REMMET062METAR ETGQ 241820Z 25006KT 9999 SCT050 BKN100 19/10 Q1014 BLU;
0125102340999992009072704204+53133+009350FM-15+0061ETGQ V0209999C000012200019N0112651N1+01401+01201999999ADDGA1021+090001999GF102991999999999999999999MA1101491999999REMMET056METAR ETGQ 270420Z 00000KT 9999 FEW300 14/12 Q1015 BLU/;
0076102340999992009072705204+53133+009350FM-15+0061ETGQ V0201501N001012200019N0112651N1+01501+01201999999ADDMA1101491999999REMMET049METAR ETGQ 270520Z 15002KT 9999 15/12 Q1015 BLU/;
0076102340999992009072706204+53133+009350FM-15+0061ETGQ V0209999C000012200019N0112651N1+01701+01301999999ADDMA1101391999999REMMET049METAR ETGQ 270620Z 00000KT 9999 17/13 Q1014 BLU/;
0076102340999992009072707204+53133+009350FM-15+0061ETGQ V0201601N000512200019N0112651N1+01901+01201999999ADDMA1101391999999REMMET049METAR ETGQ 270720Z 16001KT 9999 19/12 Q1014 BLU/;
0076102340999992009072708204+53133+009350FM-15+0061ETGQ V0209999V001012200019N0112651N1+02201+01201999999ADDMA1101291999999REMMET049METAR ETGQ 270820Z VRB02KT 9999 22/12 Q1013 BLU/;
0076102340999992009072709204+53133+009350FM-15+0061ETGQ V0201401N001512200019N0112651N1+02401+01301999999ADDMA1101191999999REMMET049METAR ETGQ 270920Z 14003KT 9999 24/13 Q1012 BLU/;
0125102340999992009072710204+53133+009350FM-15+0061ETGQ V0201401N002612200019N0112651N1+02601+01001999999ADDGA1021+090001999GF102991999999999999999999MA1101081999999REMMET056METAR ETGQ 271020Z 14005KT 9999 FEW340 26/10 Q1011 BLU/;
0125102340999992009072711204+53133+009350FM-15+0061ETGQ V0201501N002612200019N0112651N1+02701+01101999999ADDGA1021+105001999GF102991999999999999999999MA1101081999999REMMET056METAR ETGQ 271120Z 15005KT 9999 FEW350 27/11 Q1011 BLU/;
0125102340999992009072712204+53133+009350FM-15+0061ETGQ V0202301N002612200019N0112651N1+02801+01001999999ADDGA1021+018001999GF102991999999999999999999MA1101021999999REMMET056METAR ETGQ 271220Z 23005KT 9999 FEW060 28/10 Q1010 BLU/;
0148102340999992009072713204+53133+009350FM-15+0061ETGQ V0202501N003612200019N0112651N1+02901+00801999999ADDGA1021+015001999GA2041+039001999GF104991999999999999999999MA1101081999999REMMET063METAR ETGQ 271320Z 25007KT 9999 FEW050 SCT130 29/08 Q1011 BLU/;
0171102340999992009072714204+53133+009350FM-15+0061ETGQ V0202401N00261042001CN0112651N1+02701+01101999999ADDGA1021+015001999GA2041+042001999GA3071+060001999GF107991999999999999999999MA1101081999999REMMET070METAR ETGQ 271420Z 24005KT 9999 FEW050 SCT140 BKN200 27/11 Q1011 BLU/;
0147102340999992009072715204+53133+009350FM-15+0061ETGQ V0202701N003110390019N0112651N1+02701+01001999999ADDGA1021+018001999GA2071+039001999GF107991999999999999999999MA1101081999999REMMET062METAR ETGQ 271520Z 27006KT 9999 FEW060 BKN130 27/10 Q1011 BLU;
0159102340999992009072716204+53133+009350FM-15+0061ETGQ V0202801N003110270019N0112651N1+02301+01201999999ADDGA1021+009001999GA2071+027001999GF107991999999999999999999MA1101291999999MW1801REMMET068METAR ETGQ 271620Z 28006KT 9999 -SHRA FEW030 BKN090 23/12 Q1013 BLU;
0185102340999992009072717204+53133+009350FM-15+0061ETGQ V0202101N001510180019N0112651N1+02001+01601999999ADDGA1021+009001021GA2071+018001999GA3071+030001999GF107991999999999999999999MA1101291999999MW1801REMMET078METAR ETGQ 271720Z 21003KT 9999 -SHRA FEW030TCU BKN060 BKN100 20/16 Q1013 BLU;
0159102340999992009072718204+53133+009350FM-15+0061ETGQ V0209999C000010330019N0112651N1+01901+01601999999ADDGA1021+015001999GA2071+033001999GF107991999999999999999999MA1101291999999MW1801REMMET068METAR ETGQ 271820Z 00000KT 9999 -SHRA FEW050 BKN110 19/16 Q1013 BLU;
0125102340999992009072804204+53133+009350FM-15+0061ETGQ V0209999V000512200019N0112651N1+01301+01001999999ADDGA1021+003601999GF102991999999999999999999MA1102001999999REMMET056METAR ETGQ 280420Z VRB01KT 9999 FEW012 13/10 Q1020 BLU/;
0148102340999992009072805204+53133+009350FM-15+0061ETGQ V0202101N002112200019N0112651N1+01401+01101999999ADDGA1021+004501999GA2041+090001999GF104991999999999999999999MA1102101999999REMMET063METAR ETGQ 280520Z 21004KT 9999 FEW015 SCT300 14/11 Q1021 BLU/;
0148102340999992009072806204+53133+009350FM-15+0061ETGQ V0202301N002110900019N0112651N1+01501+01101999999ADDGA1021+004501999GA2071+090001999GF107991999999999999999999MA1102101999999REMMET063METAR ETGQ 280620Z 23004KT 9999 FEW015 BKN300 15/11 Q1021 BLU/;
0148102340999992009072807204+53133+009350FM-15+0061ETGQ V0202201N001510900019N0112651N1+01701+01101999999ADDGA1021+004501999GA2071+090001999GF107991999999999999999999MA1102201999999REMMET063METAR ETGQ 280720Z 22003KT 9999 FEW015 BKN300 17/11 Q1022 BLU/;
0148102340999992009072808204+53133+009350FM-15+0061ETGQ V0202101N001010900019N0112651N1+01801+01001999999ADDGA1021+009601999GA2071+090001999GF107991999999999999999999MA1102201999999REMMET063METAR ETGQ 280820Z 21002KT 9999 FEW032 BKN300 18/10 Q1022 BLU/;
0148102340999992009072809204+53133+009350FM-15+0061ETGQ V0209999V000510900019N0112651N1+02001+01001999999ADDGA1041+012001999GA2071+090001999GF107991999999999999999999MA1102201999999REMMET063METAR ETGQ 280920Z VRB01KT 9999 SCT040 BKN300 20/10 Q1022 BLU/;
0125102340999992009072810204+53133+009350FM-15+0061ETGQ V0202701N002612200019N0112651N1+02101+00901999999ADDGA1041+014401999GF104991999999999999999999MA1102201999999REMMET056METAR ETGQ 281020Z 27005KT 9999 SCT048 21/09 Q1022 BLU/;
0125102340999992009072811204+53133+009350FM-15+0061ETGQ V0209999V001012200019N0112651N1+02201+01001999999ADDGA1041+015001999GF104991999999999999999999MA1102201999999REMMET056METAR ETGQ 281120Z VRB02KT 9999 SCT050 22/10 Q1022 BLU/;
0125102340999992009072812204+53133+009350FM-15+0061ETGQ V0202301N001512200019N0112651N1+02301+00901999999ADDGA1041+015001999GF104991999999999999999999MA1102101999999REMMET056METAR ETGQ 281220Z 23003KT 9999 SCT050 23/09 Q1021 BLU/;
0125102340999992009072813204+53133+009350FM-15+0061ETGQ V0203501N002612200019N0112651N1+02201+00701999999ADDGA1041+018001999GF104991999999999999999999MA1102101999999REMMET056METAR ETGQ 281320Z 35005KT 9999 SCT060 22/07 Q1021 BLU/;
0125102340999992009072814204+53133+009350FM-15+0061ETGQ V0209999C000012200019N0112651N1+02201+00701999999ADDGA1041+018001999GF104991999999999999999999MA1102101999999REMMET056METAR ETGQ 281420Z 00000KT 9999 SCT060 22/07 Q1021 BLU/;
0125102340999992009072815204+53133+009350FM-15+0061ETGQ V0209999V000512200019N0112651N1+02301+00701999999ADDGA1041+018001999GF104991999999999999999999MA1102001999999REMMET056METAR ETGQ 281520Z VRB01KT 9999 SCT060 23/07 Q1020 BLU/;
0125102340999992009072816204+53133+009350FM-15+0061ETGQ V0209999V000512200019N0112651N1+02301+00601999999ADDGA1041+018001999GF104991999999999999999999MA1102001999999REMMET056METAR ETGQ 281620Z VRB01KT 9999 SCT060 23/06 Q1020 BLU/;
0125102340999992009072817204+53133+009350FM-15+0061ETGQ V0209999C000012200019N0112651N1+02201+00801999999ADDGA1021+015001999GF102991999999999999999999MA1102001999999REMMET056METAR ETGQ 281720Z 00000KT 9999 FEW050 22/08 Q1020 BLU/;
0125102340999992009072818204+53133+009350FM-15+0061ETGQ V0209999C000012200019N0112651N1+02201+00901999999ADDGA1021+018001999GF102991999999999999999999MA1102001999999REMMET056METAR ETGQ 281820Z 00000KT 9999 FEW060 22/09 Q1020 BLU/;
0125102340999992009072904204+53133+009350FM-15+0061ETGQ V0209999C000010900019N0112651N1+01201+01101999999ADDGA1071+090001999GF107991999999999999999999MA1102001999999REMMET056METAR ETGQ 290420Z 00000KT 9999 BKN300 12/11 Q1020 BLU/;
0125102340999992009072905204+53133+009350FM-15+0061ETGQ V0209999C000010750019N0112651N1+01301+01101999999ADDGA1071+075001999GF107991999999999999999999MA1102001999999REMMET056METAR ETGQ 290520Z 00000KT 9999 BKN250 13/11 Q1020 BLU/;
0148102340999992009072906204+53133+009350FM-15+0061ETGQ V0209999V000512200019N0112651N1+01501+01101999999ADDGA1021+004501999GA2041+090001999GF104991999999999999999999MA1102001999999REMMET063METAR ETGQ 290620Z VRB01KT 9999 FEW015 SCT300 15/11 Q1020 BLU/;
0125102340999992009072907204+53133+009350FM-15+0061ETGQ V0209999C000010900019N0112651N1+01701+01101999999ADDGA1071+090001999GF107991999999999999999999MA1102001999999REMMET056METAR ETGQ 290720Z 00000KT 9999 BKN300 17/11 Q1020 BLU/;
0125102340999992009072908204+53133+009350FM-15+0061ETGQ V0209999C000010900019N0112651N1+02001+01201999999ADDGA1071+090001999GF107991999999999999999999MA1101901999999REMMET056METAR ETGQ 290820Z 00000KT 9999 BKN300 20/12 Q1019 BLU/;
0125102340999992009072909204+53133+009350FM-15+0061ETGQ V0209999V001011050019N0112651N1+02301+01201999999ADDGA1071+105001999GF107991999999999999999999MA1101901999999REMMET056METAR ETGQ 290920Z VRB02KT 9999 BKN350 23/12 Q1019 BLU/;
0125102340999992009072910204+53133+009350FM-15+0061ETGQ V0201801N001010900019N0112651N1+02501+01001999999ADDGA1071+090001999GF107991999999999999999999MA1101801999999REMMET056METAR ETGQ 291020Z 18002KT 9999 BKN300 25/10 Q1018 BLU/;
0148102340999992009072911204+53133+009350FM-15+0061ETGQ V0202001N001511050019N0112651N1+02601+01001999999ADDGA1021+015001999GA2071+105001999GF107991999999999999999999MA1101691999999REMMET063METAR ETGQ 291120Z 20003KT 9999 FEW050 BKN350 26/10 Q1017 BLU/;
0148102340999992009072912204+53133+009350FM-15+0061ETGQ V0201501N002111050019N0112651N1+02701+00901999999ADDGA1021+015001999GA2071+105001999GF107991999999999999999999MA1101591999999REMMET063METAR ETGQ 291220Z 15004KT 9999 FEW050 BKN350 27/09 Q1016 BLU/;
0148102340999992009072913204+53133+009350FM-15+0061ETGQ V0201601N003110780019N0112651N1+02701+01101999999ADDGA1021+018001999GA2071+078001999GF107991999999999999999999MA1101591999999REMMET063METAR ETGQ 291320Z 16006KT 9999 FEW060 BKN260 27/11 Q1016 BLU/;
0148102340999992009072914204+53133+009350FM-15+0061ETGQ V0201501N002610870019N0112651N1+02801+01101999999ADDGA1021+018001999GA2071+087001999GF107991999999999999999999MA1101491999999REMMET063METAR ETGQ 291420Z 15005KT 9999 FEW060 BKN290 28/11 Q1015 BLU/;
0125102340999992009072915204+53133+009350FM-15+0061ETGQ V0201601N002610900019N0112651N1+02801+01201999999ADDGA1071+090001999GF107991999999999999999999MA1101391999999REMMET056METAR ETGQ 291520Z 16005KT 9999 BKN300 28/12 Q1014 BLU/;
0125102340999992009072916204+53133+009350FM-15+0061ETGQ V0201501N001510900019N0112651N1+02801+01201999999ADDGA1071+090001999GF107991999999999999999999MA1101391999999REMMET056METAR ETGQ 291620Z 15003KT 9999 BKN300 28/12 Q1014 BLU/;
0125102340999992009072917204+53133+009350FM-15+0061ETGQ V0201701N001510900019N0112651N1+02701+01101999999ADDGA1071+090001999GF107991999999999999999999MA1101391999999REMMET056METAR ETGQ 291720Z 17003KT 9999 BKN300 27/11 Q1014 BLU/;
0148102340999992009072918204+53133+009350FM-15+0061ETGQ V0209999C000010840019N0112651N1+02601+01301999999ADDGA1021+042001999GA2071+084001999GF107991999999999999999999MA1101291999999REMMET063METAR ETGQ 291820Z 00000KT 9999 FEW140 BKN280 26/13 Q1013 BLU/;
0124102340999992009073004204+53133+009350FM-15+0061ETGQ V0202301N001510150019N0112651N1+01801+01601999999ADDGA1071+015001999GF107991999999999999999999MA1101591999999REMMET055METAR ETGQ 300420Z 23003KT 9999 BKN050 18/16 Q1016 BLU;
0125102340999992009073005204+53133+009350FM-15+0061ETGQ V0202401N002612200019N0112651N1+01801+01401999999ADDGA1041+012001999GF104991999999999999999999MA1101691999999REMMET056METAR ETGQ 300520Z 24005KT 9999 SCT040 18/14 Q1017 BLU/;
0148102340999992009073006204+53133+009350FM-15+0061ETGQ V0202401N001512200019N0112651N1+01901+01401999999ADDGA1041+012001999GA2041+090001999GF104991999999999999999999MA1101801999999REMMET063METAR ETGQ 300620Z 24003KT 9999 SCT040 SCT300 19/14 Q1018 BLU/;
0124102340999992009073007204+53133+009350FM-15+0061ETGQ V0202501N002610105019N0112651N1+01901+01301999999ADDGA1071+010501999GF107991999999999999999999MA1101901999999REMMET055METAR ETGQ 300720Z 25005KT 9999 BKN035 19/13 Q1019 BLU;
0148102340999992009073008204+53133+009350FM-15+0061ETGQ V0202601N003610900019N0112651N1+02001+01101999999ADDGA1041+014401999GA2071+090001999GF107991999999999999999999MA1102001999999REMMET063METAR ETGQ 300820Z 26007KT 9999 SCT048 BKN300 20/11 Q1020 BLU/;
0147102340999992009073009204+53133+009350FM-15+0061ETGQ V0202601N003110132019N0112651N1+01901+01001999999ADDGA1071+013201999GA2071+090001999GF107991999999999999999999MA1102001999999REMMET062METAR ETGQ 300920Z 26006KT 9999 BKN044 BKN300 19/10 Q1020 BLU;
0124102340999992009073010204+53133+009350FM-15+0061ETGQ V0202501N003110144019N0112651N1+02001+00901999999ADDGA1071+014401999GF107991999999999999999999MA1102101999999REMMET055METAR ETGQ 301020Z 25006KT 9999 BKN048 20/09 Q1021 BLU;
0124102340999992009073011204+53133+009350FM-15+0061ETGQ V0202501N003110150019N0112651N1+02001+00801999999ADDGA1071+015001999GF107991999999999999999999MA1102201999999REMMET055METAR ETGQ 301120Z 25006KT 9999 BKN050 20/08 Q1022 BLU;
0124102340999992009073012204+53133+009350FM-15+0061ETGQ V0202201N003110180019N0112651N1+02101+00801999999ADDGA1071+018001999GF107991999999999999999999MA1102101999999REMMET055METAR ETGQ 301220Z 22006KT 9999 BKN060 21/08 Q1021 BLU;
0148102340999992009073013204+53133+009350FM-15+0061ETGQ V0202601N002612200019N0112651N1+02101+00701999999ADDGA1041+021001999GA2041+105001999GF104991999999999999999999MA1102101999999REMMET063METAR ETGQ 301320Z 26005KT 9999 SCT070 SCT350 21/07 Q1021 BLU/;
0148102340999992009073014204+53133+009350FM-15+0061ETGQ V0203301N003612200019N0112651N1+02201+00701999999ADDGA1021+015001999GA2041+021001999GF104991999999999999999999MA1102101999999REMMET063METAR ETGQ 301420Z 33007KT 9999 FEW050 SCT070 22/07 Q1021 BLU/;
0148102340999992009073015204+53133+009350FM-15+0061ETGQ V0202501N002610900019N0112651N1+02301+00801999999ADDGA1021+018001999GA2071+090001999GF107991999999999999999999MA1102101999999REMMET063METAR ETGQ 301520Z 25005KT 9999 FEW060 BKN310 23/08 Q1021 BLU/;
0148102340999992009073016204+53133+009350FM-15+0061ETGQ V0202401N002612200019N0112651N1+02201+00701999999ADDGA1041+018001999GA2041+090001999GF104991999999999999999999MA1102101999999REMMET063METAR ETGQ 301620Z 24005KT 9999 SCT060 SCT300 22/07 Q1021 BLU/;
0148102340999992009073017204+53133+009350FM-15+0061ETGQ V0202701N003112200019N0112651N1+02201+00601999999ADDGA1021+018001999GA2041+039001999GF104991999999999999999999MA1102101999999REMMET063METAR ETGQ 301720Z 27006KT 9999 FEW060 SCT130 22/06 Q1021 BLU/;
0147102340999992009073018204+53133+009350FM-15+0061ETGQ V0202501N002610510019N0112651N1+02101+00701999999ADDGA1021+018001999GA2071+051001999GF107991999999999999999999MA1102201999999REMMET062METAR ETGQ 301820Z 25005KT 9999 FEW060 BKN170 21/07 Q1022 BLU;
0125102340999992009073104204+53133+009350FM-15+0061ETGQ V0209999C000010750019N0112651N1+01301+01001999999ADDGA1071+075001999GF107991999999999999999999MA1102511999999REMMET056METAR ETGQ 310420Z 00000KT 9999 BKN250 13/10 Q1025 BLU/;
0148102340999992009073106204+53133+009350FM-15+0061ETGQ V0209999C000010750019N0112651N1+01501+00901999999ADDGA1041+045001999GA2071+075001999GF107991999999999999999999MA1102511999999REMMET063METAR ETGQ 310620Z 00000KT 9999 SCT150 BKN250 15/09 Q1025 BLU/;
0124102340999992009073107204+53133+009350FM-15+0061ETGQ V0209999C000010540019N0112651N1+01701+01001999999ADDGA1071+054001999GF107991999999999999999999MA1102511999999REMMET055METAR ETGQ 310720Z 00000KT 9999 BKN180 17/10 Q1025 BLU;
0148102340999992009073108204+53133+009350FM-15+0061ETGQ V0209999C000010900019N0112651N1+01801+00901999999ADDGA1041+042001999GA2071+090001999GF107991999999999999999999MA1102511999999REMMET063METAR ETGQ 310820Z 00000KT 9999 SCT140 BKN300 18/09 Q1025 BLU/;
0124102340999992009073109204+53133+009350FM-15+0061ETGQ V0209999C000010420019N0112651N1+01901+00801999999ADDGA1071+042001999GF107991999999999999999999MA1102401999999REMMET055METAR ETGQ 310920Z 00000KT 9999 BKN140 19/08 Q1024 BLU;
0124102340999992009073110204+53133+009350FM-15+0061ETGQ V0209999V000510480019N0112651N1+01901+00801999999ADDGA1071+048001999GF107991999999999999999999MA1102401999999REMMET055METAR ETGQ 311020Z VRB01KT 9999 BKN160 19/08 Q1024 BLU;
0147102340999992009073111204+53133+009350FM-15+0061ETGQ V0209999V000510450019N0112651N1+02101+00801999999ADDGA1021+015001999GA2071+045001999GF107991999999999999999999MA1102301999999REMMET062METAR ETGQ 311120Z VRB01KT 9999 FEW050 BKN150 21/08 Q1023 BLU;
0147102340999992009073112204+53133+009350FM-15+0061ETGQ V0202901N001510360019N0112651N1+02101+00801999999ADDGA1021+015001999GA2071+036001999GF107991999999999999999999MA1102301999999REMMET062METAR ETGQ 311220Z 29003KT 9999 FEW050 BKN120 21/08 Q1023 BLU;
0148102340999992009073113204+53133+009350FM-15+0061ETGQ V0209999C000012200019N0112651N1+02201+00701999999ADDGA1021+015001999GA2041+036001999GF104991999999999999999999MA1102201999999REMMET063METAR ETGQ 311320Z 00000KT 9999 FEW050 SCT120 22/07 Q1022 BLU/;
0148102340999992009073114204+53133+009350FM-15+0061ETGQ V0201001N002612200019N0112651N1+02201+00701999999ADDGA1021+018001999GA2041+045001999GF104991999999999999999999MA1102101999999REMMET063METAR ETGQ 311420Z 10005KT 9999 FEW060 SCT150 22/07 Q1021 BLU/;
0148102340999992009073115204+53133+009350FM-15+0061ETGQ V0209999V001012200019N0112651N1+02201+00701999999ADDGA1021+018001999GA2041+036001999GF104991999999999999999999MA1102101999999REMMET063METAR ETGQ 311520Z VRB02KT 9999 FEW060 SCT120 22/07 Q1021 BLU/;
0147102340999992009073116204+53133+009350FM-15+0061ETGQ V0200901N001010450019N0112651N1+02201+00701999999ADDGA1021+018001999GA2071+045001999GF107991999999999999999999MA1102101999999REMMET062METAR ETGQ 311620Z 09002KT 9999 FEW060 BKN150 22/07 Q1021 BLU;
0147102340999992009073117204+53133+009350FM-15+0061ETGQ V0200901N001510420019N0112651N1+02201+00801999999ADDGA1021+018001999GA2071+042001999GF107991999999999999999999MA1102001999999REMMET062METAR ETGQ 311720Z 09003KT 9999 FEW060 BKN140 22/08 Q1020 BLU;
0124102340999992009073118204+53133+009350FM-15+0061ETGQ V0200901N002110420019N0112651N1+02201+00801999999ADDGA1071+042001999GF107991999999999999999999MA1102001999999REMMET055METAR ETGQ 311820Z 09004KT 9999 BKN140 22/08 Q1020 BLU;
0147102340999992009080304204+53133+009350FM-15+0061ETGQ V0209999C000010090019N0080001N1+01501+01301999999ADDGA1021+003001999GA2071+009001999GF107991999999999999999999MA1101591999999REMMET062METAR ETGQ 030420Z 00000KT 8000 FEW010 BKN030 15/13 Q1016 BLU;
0157102340999992009080305204+53133+009350FM-15+0061ETGQ V0209999C000010105019N0070001N1+01501+01301999999ADDGA1041+001801999GA2071+010501999GF107991999999999999999999MA1101691999999MW1511REMMET066METAR ETGQ 030520Z 00000KT 7000 -DZ SCT006 BKN035 15/13 Q1017 WHT;
0170102340999992009080306204+53133+009350FM-15+0061ETGQ V0209999C00001015001CN0112651N1+01601+01301999999ADDGA1021+003001999GA2041+015001999GA3071+030001999GF107991999999999999999999MA1101691999999REMMET069METAR ETGQ 030620Z 00000KT 9999 FEW010 SCT050 BKN100 16/13 Q1017 BLU;
0147102340999992009080307204+53133+009350FM-15+0061ETGQ V0209999C000010300019N0112651N1+01701+01301999999ADDGA1041+005401999GA2071+030001999GF107991999999999999999999MA1101691999999REMMET062METAR ETGQ 030720Z 00000KT 9999 SCT018 BKN100 17/13 Q1017 BLU;
0148102340999992009080308204+53133+009350FM-15+0061ETGQ V0209999C000012200019N0112651N1+01801+01201999999ADDGA1041+005401999GA2041+015001999GF104991999999999999999999MA1101691999999REMMET063METAR ETGQ 030820Z 00000KT 9999 SCT018 SCT050 18/12 Q1017 BLU/;
0148102340999992009080309204+53133+009350FM-15+0061ETGQ V0209999V000512200019N0112651N1+02001+01201999999ADDGA1041+009901999GA2041+045001999GF104991999999999999999999MA1101691999999REMMET063METAR ETGQ 030920Z VRB01KT 9999 SCT033 SCT150 20/12 Q1017 BLU/;
0147102340999992009080310204+53133+009350FM-15+0061ETGQ V0200101N001010300019N0112651N1+02001+00901999999ADDGA1041+015001999GA2071+030001999GF107991999999999999999999MA1101691999999REMMET062METAR ETGQ 031020Z 01002KT 9999 SCT050 BKN100 20/09 Q1017 BLU;
0147102340999992009080311204+53133+009350FM-15+0061ETGQ V0203401N002110240019N0112651N1+02001+01001999999ADDGA1041+012001999GA2071+024001999GF107991999999999999999999MA1101691999999REMMET062METAR ETGQ 031120Z 34004KT 9999 SCT040 BKN080 20/10 Q1017 BLU;
0147102340999992009080312204+53133+009350FM-15+0061ETGQ V0200601N000510300019N0112651N1+02101+00801999999ADDGA1041+012001999GA2071+030001999GF107991999999999999999999MA1101691999999REMMET062METAR ETGQ 031220Z 06001KT 9999 SCT040 BKN100 21/08 Q1017 BLU;
0147102340999992009080313204+53133+009350FM-15+0061ETGQ V0203401N001010240019N0112651N1+02101+00901999999ADDGA1021+014401999GA2071+024001999GF107991999999999999999999MA1101691999999REMMET062METAR ETGQ 031320Z 34002KT 9999 FEW048 BKN080 21/09 Q1017 BLU;
0151102340999992009080314204+53133+009350FM-15+0061ETGQ V0209999V000512200019N0112651N1+02101+00901999999ADDGA1041+013501021GA2041+021001999GF104991999999999999999999MA1101591999999REMMET066METAR ETGQ 031420Z VRB01KT 9999 SCT045TCU SCT070 21/09 Q1016 BLU/;
0150102340999992009080315204+53133+009350FM-15+0061ETGQ V0203601N005110240019N0112651N1+02001+00801999999ADDGA1041+013501021GA2071+024001999GF107991999999999999999999MA1101691999999REMMET065METAR ETGQ 031520Z 36010KT 9999 SCT045TCU BKN080 20/08 Q1017 BLU;
0161102340999992009080316204+53133+009350FM-15+0061ETGQ V0203501N002110240019N0112651N1+02001+00901999999ADDGA1021+013501021GA2071+024001999GF107991999999999999999999MA1101691999999MW1161REMMET070METAR ETGQ 031620Z 35004KT 9999 VCSH FEW045TCU BKN080 20/09 Q1017 BLU;
0152102340999992009080317204+53133+009350FM-15+0061ETGQ V0203401N001510270019N0112651N1+02001+00801999999ADDGA1021+015001999GA2071+027001999GF107991999999999999999999MA1101691999999REMMET067METAR ETGQ 031720Z 34003KT 9999 FEW050 BKN090 20/08 Q1017 RERA BLU;
0147102340999992009080318204+53133+009350FM-15+0061ETGQ V0209999C000010300019N0112651N1+01901+00901999999ADDGA1021+015001999GA2071+030001999GF107991999999999999999999MA1101801999999REMMET062METAR ETGQ 031820Z 00000KT 9999 FEW050 BKN100 19/09 Q1018 BLU;
0133102340999992009080404204+53133+009350FM-15+0061ETGQ V0209999C000010009019N0035001N1+01201+01101999999ADDGA1071+000901999GF107991999999999999999999MA1102101999999MW1101REMMET058METAR ETGQ 040420Z 00000KT 3500 BR BKN003 12/11 Q1021 YLO;
0133102340999992009080405204+53133+009350FM-15+0061ETGQ V0209999C000010009019N0035001N1+01201+01101999999ADDGA1071+000901999GF107991999999999999999999MA1102101999999MW1101REMMET058METAR ETGQ 040520Z 00000KT 3500 BR BKN003 12/11 Q1021 YLO;
0133102340999992009080406204+53133+009350FM-15+0061ETGQ V0209999C000010012019N0050001N1+01201+01101999999ADDGA1071+001201999GF107991999999999999999999MA1102101999999MW1101REMMET058METAR ETGQ 040620Z 00000KT 5000 BR BKN004 12/11 Q1021 YLO;
0125102340999992009080407204+53133+009350FM-15+0061ETGQ V0209999C000012200019N0080001N1+01401+01201999999ADDGA1021+002401999GF102991999999999999999999MA1102201999999REMMET056METAR ETGQ 040720Z 00000KT 8000 FEW008 14/12 Q1022 BLU/;
0125102340999992009080408204+53133+009350FM-15+0061ETGQ V0209999C000012200019N0112651N1+01701+01101999999ADDGA1021+003001999GF102991999999999999999999MA1102201999999REMMET056METAR ETGQ 040820Z 00000KT 9999 FEW010 17/11 Q1022 BLU/;
0125102340999992009080409204+53133+009350FM-15+0061ETGQ V0209999C000012200019N0112651N1+02001+01101999999ADDGA1021+008401999GF102991999999999999999999MA1102201999999REMMET056METAR ETGQ 040920Z 00000KT 9999 FEW028 20/11 Q1022 BLU/;
0125102340999992009080410204+53133+009350FM-15+0061ETGQ V0209999V000512200019N0112651N1+02201+00401999999ADDGA1021+015001999GF102991999999999999999999MA1102201999999REMMET056METAR ETGQ 041020Z VRB01KT 9999 FEW050 22/04 Q1022 BLU/;
0125102340999992009080411204+53133+009350FM-15+0061ETGQ V0209999V001012200019N0112651N1+02301+00101999999ADDGA1021+015001999GF102991999999999999999999MA1102101999999REMMET056METAR ETGQ 041120Z VRB02KT 9999 FEW050 23/01 Q1021 BLU/;
0125102340999992009080412204+53133+009350FM-15+0061ETGQ V0202801N002112200019N0112651N1+02301+00002999999ADDGA1021+018001999GF102991999999999999999999MA1102101999999REMMET056METAR ETGQ 041220Z 28004KT 9999 FEW060 23/00 Q1021 BLU/;
0125102340999992009080413204+53133+009350FM-15+0061ETGQ V0202701N001512200019N0112651N1+02401+00101999999ADDGA1021+021001999GF102991999999999999999999MA1102101999999REMMET056METAR ETGQ 041320Z 27003KT 9999 FEW070 24/01 Q1021 BLU/;
0125102340999992009080414204+53133+009350FM-15+0061ETGQ V0200601N001512200019N0112651N1+02501+00301999999ADDGA1021+021001999GF102991999999999999999999MA1102001999999REMMET056METAR ETGQ 041420Z 06003KT 9999 FEW070 25/03 Q1020 BLU/;
0125102340999992009080415204+53133+009350FM-15+0061ETGQ V0203601N002612200019N0112651N1+02501+00301999999ADDGA1021+021001999GF102991999999999999999999MA1102001999999REMMET056METAR ETGQ 041520Z 36005KT 9999 FEW070 25/03 Q1020 BLU/;
0125102340999992009080416204+53133+009350FM-15+0061ETGQ V0200101N001512200019N0112651N1+02501+00301999999ADDGA1021+021001999GF102991999999999999999999MA1102001999999REMMET056METAR ETGQ 041620Z 01003KT 9999 FEW070 25/03 Q1020 BLU/;
0125102340999992009080417204+53133+009350FM-15+0061ETGQ V0200501N002112200019N0112651N1+02501+00401999999ADDGA1021+024001999GF102991999999999999999999MA1102001999999REMMET056METAR ETGQ 041720Z 05004KT 9999 FEW080 25/04 Q1020 BLU/;
0076102340999992009080418204+53133+009350FM-15+0061ETGQ V0200201N002612200019N0112651N1+02401+00501999999ADDMA1102001999999REMMET049METAR ETGQ 041820Z 02005KT 9999 24/05 Q1020 BLU/;
0125102340999992009080504204+53133+009350FM-15+0061ETGQ V0209999C000012200019N0112651N1+01101+00901999999ADDGA1021+090001999GF102991999999999999999999MA1102201999999REMMET056METAR ETGQ 050420Z 00000KT 9999 FEW300 11/09 Q1022 BLU/;
0076102340999992009080505204+53133+009350FM-15+0061ETGQ V0209999V000512200019N0112651N1+01301+01001999999ADDMA1102201999999REMMET049METAR ETGQ 050520Z VRB01KT 9999 13/10 Q1022 BLU/;
0125102340999992009080506204+53133+009350FM-15+0061ETGQ V0209999C000012200019N0112651N1+01501+01001999999ADDGA1021+030001999GF102991999999999999999999MA1102201999999REMMET056METAR ETGQ 050620Z 00000KT 9999 FEW100 15/10 Q1022 BLU/;
0125102340999992009080507204+53133+009350FM-15+0061ETGQ V0209999V000512200019N0112651N1+01601+01001999999ADDGA1021+060001999GF102991999999999999999999MA1102201999999REMMET056METAR ETGQ 050720Z VRB01KT 9999 FEW200 16/10 Q1022 BLU/;
0125102340999992009080508204+53133+009350FM-15+0061ETGQ V0203301N001012200019N0112651N1+01901+01001999999ADDGA1021+045001999GF102991999999999999999999MA1102201999999REMMET056METAR ETGQ 050820Z 33002KT 9999 FEW150 19/10 Q1022 BLU/;
0125102340999992009080509204+53133+009350FM-15+0061ETGQ V0203501N001012200019N0112651N1+02201+01001999999ADDGA1041+105001999GF104991999999999999999999MA1102201999999REMMET056METAR ETGQ 050920Z 35002KT 9999 SCT350 22/10 Q1022 BLU/;
0125102340999992009080510204+53133+009350FM-15+0061ETGQ V0209999V001012200019N0112651N1+02401+00901999999ADDGA1041+105001999GF104991999999999999999999MA1102101999999REMMET056METAR ETGQ 051020Z VRB02KT 9999 SCT350 24/09 Q1021 BLU/;
0125102340999992009080511204+53133+009350FM-15+0061ETGQ V0201001N002112200019N0112651N1+02601+00601999999ADDGA1041+105001999GF104991999999999999999999MA1102101999999REMMET056METAR ETGQ 051120Z 10004KT 9999 SCT350 26/06 Q1021 BLU/;
0125102340999992009080512204+53133+009350FM-15+0061ETGQ V0200501N001512200019N0112651N1+02601+00601999999ADDGA1041+105001999GF104991999999999999999999MA1102001999999REMMET056METAR ETGQ 051220Z 05003KT 9999 SCT350 26/06 Q1020 BLU/;
0125102340999992009080513204+53133+009350FM-15+0061ETGQ V0200301N002112200019N0112651N1+02701+00701999999ADDGA1021+105001999GF102991999999999999999999MA1102001999999REMMET056METAR ETGQ 051320Z 03004KT 9999 FEW350 27/07 Q1020 BLU/;
0125102340999992009080514204+53133+009350FM-15+0061ETGQ V0200101N002112200019N0112651N1+02801+00801999999ADDGA1021+105001999GF102991999999999999999999MA1102001999999REMMET056METAR ETGQ 051420Z 01004KT 9999 FEW350 28/08 Q1020 BLU/;
0125102340999992009080515204+53133+009350FM-15+0061ETGQ V0200401N002112200019N0112651N1+02801+00701999999ADDGA1041+105001999GF104991999999999999999999MA1101901999999REMMET056METAR ETGQ 051520Z 04004KT 9999 SCT350 28/07 Q1019 BLU/;
0125102340999992009080516204+53133+009350FM-15+0061ETGQ V0200601N002112200019N0112651N1+02801+00801999999ADDGA1041+090001999GF104991999999999999999999MA1101901999999REMMET056METAR ETGQ 051620Z 06004KT 9999 SCT300 28/08 Q1019 BLU/;
0125102340999992009080517204+53133+009350FM-15+0061ETGQ V0200701N001512200019N0112651N1+02701+00801999999ADDGA1041+090001999GF104991999999999999999999MA1101901999999REMMET056METAR ETGQ 051720Z 07003KT 9999 SCT300 27/08 Q1019 BLU/;
0125102340999992009080518204+53133+009350FM-15+0061ETGQ V0200701N002112200019N0112651N1+02601+00901999999ADDGA1041+090001999GF104991999999999999999999MA1101901999999REMMET056METAR ETGQ 051820Z 07004KT 9999 SCT300 26/09 Q1019 BLU/;
0125102340999992009080604204+53133+009350FM-15+0061ETGQ V0202001N001012200019N0112651N1+01401+01201999999ADDGA1021+090001999GF102991999999999999999999MA1102001999999REMMET056METAR ETGQ 060420Z 20002KT 9999 FEW300 14/12 Q1020 BLU/;
0125102340999992009080605204+53133+009350FM-15+0061ETGQ V0209999V001012200019N0112651N1+01601+01301999999ADDGA1021+090001999GF102991999999999999999999MA1102101999999REMMET056METAR ETGQ 060520Z VRB02KT 9999 FEW300 16/13 Q1021 BLU/;
0125102340999992009080606204+53133+009350FM-15+0061ETGQ V0203001N001012200019N0112651N1+01701+01301999999ADDGA1021+012001999GF102991999999999999999999MA1102001999999REMMET056METAR ETGQ 060620Z 30002KT 9999 FEW040 17/13 Q1020 BLU/;
0125102340999992009080607204+53133+009350FM-15+0061ETGQ V0209999V001012200019N0112651N1+01901+01201999999ADDGA1021+045001999GF102991999999999999999999MA1102001999999REMMET056METAR ETGQ 060720Z VRB02KT 9999 FEW150 19/12 Q1020 BLU/;
0125102340999992009080608204+53133+009350FM-15+0061ETGQ V0209999V001012200019N0112651N1+02201+01301999999ADDGA1021+045001999GF102991999999999999999999MA1102001999999REMMET056METAR ETGQ 060820Z VRB02KT 9999 FEW150 22/13 Q1020 BLU/;
0125102340999992009080609204+53133+009350FM-15+0061ETGQ V0200601N001512200019N0112651N1+02501+01301999999ADDGA1041+090001999GF104991999999999999999999MA1102001999999REMMET056METAR ETGQ 060920Z 06003KT 9999 SCT300 25/13 Q1020 BLU/;
0148102340999992009080610204+53133+009350FM-15+0061ETGQ V0200801N002112200019N0112651N1+02601+01201999999ADDGA1021+015001999GA2041+090001999GF104991999999999999999999MA1102001999999REMMET063METAR ETGQ 061020Z 08004KT 9999 FEW050 SCT300 26/12 Q1020 BLU/;
0148102340999992009080611204+53133+009350FM-15+0061ETGQ V0200701N003112200019N0112651N1+02701+01101999999ADDGA1021+015001999GA2041+090001999GF104991999999999999999999MA1101901999999REMMET063METAR ETGQ 061120Z 07006KT 9999 FEW050 SCT300 27/11 Q1019 BLU/;
0148102340999992009080612204+53133+009350FM-15+0061ETGQ V0200801N002110750019N0112651N1+02901+01001999999ADDGA1021+015001999GA2071+075001999GF107991999999999999999999MA1101901999999REMMET063METAR ETGQ 061220Z 08004KT 9999 FEW050 BKN250 29/10 Q1019 BLU/;
0148102340999992009080613204+53133+009350FM-15+0061ETGQ V0201201N002610750019N0112651N1+02901+00901999999ADDGA1021+015001999GA2071+075001999GF107991999999999999999999MA1101801999999REMMET063METAR ETGQ 061320Z 12005KT 9999 FEW050 BKN250 29/09 Q1018 BLU/;
0148102340999992009080614204+53133+009350FM-15+0061ETGQ V0201301N003110750019N0112651N1+03001+00901999999ADDGA1021+015001999GA2071+075001999GF107991999999999999999999MA1101801999999REMMET063METAR ETGQ 061420Z 13006KT 9999 FEW050 BKN250 30/09 Q1018 BLU/;
0125102340999992009080615204+53133+009350FM-15+0061ETGQ V0200701N002612200019N0112651N1+03001+01001999999ADDGA1041+090001999GF104991999999999999999999MA1101691999999REMMET056METAR ETGQ 061520Z 07005KT 9999 SCT340 30/10 Q1017 BLU/;
0125102340999992009080616204+53133+009350FM-15+0061ETGQ V0200701N002612200019N0112651N1+02901+01001999999ADDGA1021+105001999GF102991999999999999999999MA1101691999999REMMET056METAR ETGQ 061620Z 07005KT 9999 FEW350 29/10 Q1017 BLU/;
0125102340999992009080617204+53133+009350FM-15+0061ETGQ V0200801N003112200019N0112651N1+02901+01001999999ADDGA1021+105001999GF102991999999999999999999MA1101691999999REMMET056METAR ETGQ 061720Z 08006KT 9999 FEW350 29/10 Q1017 BLU/;
0125102340999992009080618204+53133+009350FM-15+0061ETGQ V0200901N002112200019N0112651N1+02801+01001999999ADDGA1021+105001999GF102991999999999999999999MA1101691999999REMMET056METAR ETGQ 061820Z 09004KT 9999 FEW350 28/10 Q1017 BLU/;
0125102340999992009080704204+53133+009350FM-15+0061ETGQ V0202101N001012200019N0112651N1+01601+01401999999ADDGA1021+090001999GF102991999999999999999999MA1101691999999REMMET056METAR ETGQ 070420Z 21002KT 9999 FEW300 16/14 Q1017 BLU/;
0125102340999992009080706204+53133+009350FM-15+0061ETGQ V0209999C000012200019N0112651N1+02001+01401999999ADDGA1021+090001999GF102991999999999999999999MA1101691999999REMMET056METAR ETGQ 070620Z 00000KT 9999 FEW300 20/14 Q1017 BLU/;
0125102340999992009080707204+53133+009350FM-15+0061ETGQ V0203601N001012200019N0112651N1+02201+01401999999ADDGA1021+090001999GF102991999999999999999999MA1101691999999REMMET056METAR ETGQ 070720Z 36002KT 9999 FEW300 22/14 Q1017 BLU/;
0125102340999992009080708204+53133+009350FM-15+0061ETGQ V0201301N001512200019N0112651N1+02501+01401999999ADDGA1021+090001999GF102991999999999999999999MA1101691999999REMMET056METAR ETGQ 070820Z 13003KT 9999 FEW300 25/14 Q1017 BLU/;
0148102340999992009080710204+53133+009350FM-15+0061ETGQ V0201101N002611050019N0112651N1+02801+01201999999ADDGA1021+015001999GA2071+105001999GF107991999999999999999999MA1101691999999REMMET063METAR ETGQ 071020Z 11005KT 9999 FEW050 BKN350 28/12 Q1017 BLU/;
0148102340999992009080711204+53133+009350FM-15+0061ETGQ V0209999V001011050019N0112651N1+02901+01101999999ADDGA1041+018001999GA2071+105001999GF107991999999999999999999MA1101591999999REMMET063METAR ETGQ 071120Z VRB02KT 9999 SCT060 BKN350 29/11 Q1016 BLU/;
0148102340999992009080712204+53133+009350FM-15+0061ETGQ V0200701N002111050019N0112651N1+02901+01001999999ADDGA1041+018001999GA2071+105001999GF107991999999999999999999MA1101591999999REMMET063METAR ETGQ 071220Z 07004KT 9999 SCT060 BKN350 29/10 Q1016 BLU/;
0148102340999992009080713204+53133+009350FM-15+0061ETGQ V0201001N001510900019N0112651N1+03001+00901999999ADDGA1021+018001999GA2071+090001999GF107991999999999999999999MA1101591999999REMMET063METAR ETGQ 071320Z 10003KT 9999 FEW060 BKN320 30/09 Q1016 BLU/;
0148102340999992009080714204+53133+009350FM-15+0061ETGQ V0201101N002110900019N0112651N1+03101+00901999999ADDGA1021+021001999GA2071+090001999GF107991999999999999999999MA1101591999999REMMET063METAR ETGQ 071420Z 11004KT 9999 FEW070 BKN310 31/09 Q1016 BLU/;
0148102340999992009080715204+53133+009350FM-15+0061ETGQ V0201301N001510900019N0112651N1+03001+00801999999ADDGA1021+021001999GA2071+090001999GF107991999999999999999999MA1101591999999REMMET063METAR ETGQ 071520Z 13003KT 9999 FEW070 BKN310 30/08 Q1016 BLU/;
0148102340999992009080716204+53133+009350FM-15+0061ETGQ V0200601N002110900019N0112651N1+03001+00901999999ADDGA1021+021001999GA2071+090001999GF107991999999999999999999MA1101491999999REMMET063METAR ETGQ 071620Z 06004KT 9999 FEW070 BKN310 30/09 Q1015 BLU/;
0148102340999992009080717204+53133+009350FM-15+0061ETGQ V0200701N002110900019N0112651N1+03001+00901999999ADDGA1021+021001999GA2071+090001999GF107991999999999999999999MA1101491999999REMMET063METAR ETGQ 071720Z 07004KT 9999 FEW070 BKN310 30/09 Q1015 BLU/;
0148102340999992009080718204+53133+009350FM-15+0061ETGQ V0200801N001010900019N0112651N1+02801+01001999999ADDGA1021+021001999GA2071+090001999GF107991999999999999999999MA1101591999999REMMET063METAR ETGQ 071820Z 08002KT 9999 FEW070 BKN300 28/10 Q1016 BLU/;
0156102340999992009081004204+53133+009350FM-15+0061ETGQ V0203101N001510150019N0050001N1+01801+01501999999ADDGA1041+003001999GA2071+015001999GF107991999999999999999999MA1101491999999MW1101REMMET065METAR ETGQ 100420Z 31003KT 5000 BR SCT010 BKN050 18/15 Q1015 WHT;
0133102340999992009081005204+53133+009350FM-15+0061ETGQ V0202801N001010027019N0040001N1+01801+01601999999ADDGA1081+002701999GF108991999999999999999999MA1101591999999MW1101REMMET058METAR ETGQ 100520Z 28002KT 4000 BR OVC009 18/16 Q1016 GRN;
0133102340999992009081006204+53133+009350FM-15+0061ETGQ V0203001N001510027019N0050001N1+01901+01601999999ADDGA1081+002701999GF108991999999999999999999MA1101591999999MW1101REMMET058METAR ETGQ 100620Z 30003KT 5000 BR OVC009 19/16 Q1016 GRN;
0124102340999992009081008204+53133+009350FM-15+0061ETGQ V0202901N002110039019N0070001N1+02001+01601999999ADDGA1081+003901999GF108991999999999999999999MA1101591999999REMMET055METAR ETGQ 100820Z 29004KT 7000 OVC013 20/16 Q1016 GRN;
0124102340999992009081009204+53133+009350FM-15+0061ETGQ V0202801N002110045019N0070001N1+02001+01601999999ADDGA1081+004501999GF108991999999999999999999MA1101591999999REMMET055METAR ETGQ 100920Z 28004KT 7000 OVC015 20/16 Q1016 WHT;
0124102340999992009081010204+53133+009350FM-15+0061ETGQ V0202001N001510045019N0080001N1+02001+01601999999ADDGA1081+004501999GF108991999999999999999999MA1101591999999REMMET055METAR ETGQ 101020Z 20003KT 8000 OVC015 20/16 Q1016 WHT;
0161102340999992009081011204+53133+009350FM-15+0061ETGQ V0201601N001510150019N0050001N1+02001+01801999999ADDGA1041+005701999GA2071+015001999GF107991999999999999999999MA1101591999999MW1101REMMET070METAR ETGQ 101120Z 16003KT 5000 BR SCT019 BKN050 20/18 Q1016 RERA WHT;
0179102340999992009081012204+53133+009350FM-15+0061ETGQ V0209999V000510360019N0050001N1+02301+01701999999ADDGA1021+006601999GA2071+036001999GA3071+066001999GF107991999999999999999999MA1101491999999MW1051REMMET072METAR ETGQ 101220Z VRB01KT 5000 HZ FEW022 BKN120 BKN220 23/17 Q1015 WHT;
0147102340999992009081013204+53133+009350FM-15+0061ETGQ V0203401N001510096019N0060001N1+02401+01501999999ADDGA1071+009601999GA2071+066001999GF107991999999999999999999MA1101491999999REMMET062METAR ETGQ 101320Z 34003KT 6000 BKN032 BKN220 24/15 Q1015 WHT;
0147102340999992009081014204+53133+009350FM-15+0061ETGQ V0203301N002610099019N0070001N1+02401+01501999999ADDGA1071+009901999GA2071+066001999GF107991999999999999999999MA1101491999999REMMET062METAR ETGQ 101420Z 33005KT 7000 BKN033 BKN220 24/15 Q1015 WHT;
0140102340999992009081015204+53133+009350FM-15+0061ETGQ V0203001N00311009901CN0070001N1+02301+01501999999ADDGA1071+009901999GA2041+015001999MA1101491999999REMMET062METAR ETGQ 101520Z 30006KT 7000 BKN033 SCT050 23/15 Q1015 WHT;EQDQ01+000042SCOTCV
0147102340999992009081016204+53133+009350FM-15+0061ETGQ V0203201N003110150019N0060001N1+02301+01401999999ADDGA1041+009601999GA2071+015001999GF107991999999999999999999MA1101491999999REMMET062METAR ETGQ 101620Z 32006KT 6000 SCT032 BKN050 23/14 Q1015 WHT;
0171102340999992009081017204+53133+009350FM-15+0061ETGQ V0203201N00361015001CN0080001N1+02301+01301999999ADDGA1021+009601999GA2041+015001999GA3071+090001999GF107991999999999999999999MA1101491999999REMMET070METAR ETGQ 101720Z 32007KT 8000 FEW032 SCT050 BKN340 23/13 Q1015 BLU/;
0125102340999992009081018204+53133+009350FM-15+0061ETGQ V0203101N002612200019N0112651N1+02201+00901999999ADDGA1041+072001999GF104991999999999999999999MA1101591999999REMMET056METAR ETGQ 101820Z 31005KT 9999 SCT240 22/09 Q1016 BLU/;
0124102340999992009081104204+53133+009350FM-15+0061ETGQ V0202901N001010150019N0112651N1+01601+01401999999ADDGA1071+015001999GF107991999999999999999999MA1101691999999REMMET055METAR ETGQ 110420Z 29002KT 9999 BKN050 16/14 Q1017 BLU;
0124102340999992009081105204+53133+009350FM-15+0061ETGQ V0203001N001510150019N0112651N1+01701+01401999999ADDGA1071+015001999GF107991999999999999999999MA1101691999999REMMET055METAR ETGQ 110520Z 30003KT 9999 BKN050 17/14 Q1017 BLU;
0124102340999992009081106204+53133+009350FM-15+0061ETGQ V0209999V000510102019N0112651N1+01801+01401999999ADDGA1071+010201999GF107991999999999999999999MA1101691999999REMMET055METAR ETGQ 110620Z VRB01KT 9999 BKN034 18/14 Q1017 BLU;
0151102340999992009081107204+53133+009350FM-15+0061ETGQ V0202401N002610051019N0050001N1+01801+01501999999ADDGA1071+005101999GF107991999999999999999999MA1101801999999MW1101MW2511MW3611REMMET064METAR ETGQ 110720Z 24005KT 5000 -DZRA BR BKN017 18/15 Q1018 WHT;
0147102340999992009081108204+53133+009350FM-15+0061ETGQ V0209999V001010081019N0112651N1+01801+01501999999ADDGA1021+004501999GA2071+008101999GF107991999999999999999999MA1101801999999REMMET062METAR ETGQ 110820Z VRB02KT 9999 FEW015 BKN027 18/15 Q1018 BLU;
0147102340999992009081109204+53133+009350FM-15+0061ETGQ V0202001N002110087019N0112651N1+02001+01501999999ADDGA1021+004501999GA2071+008701999GF107991999999999999999999MA1101801999999REMMET062METAR ETGQ 110920Z 20004KT 9999 FEW015 BKN029 20/15 Q1018 BLU;
0147102340999992009081110204+53133+009350FM-15+0061ETGQ V0201801N002110084019N0112651N1+01901+01601999999ADDGA1021+004501999GA2071+008401999GF107991999999999999999999MA1101801999999REMMET062METAR ETGQ 111020Z 18004KT 9999 FEW015 BKN028 19/16 Q1018 BLU;
0147102340999992009081111204+53133+009350FM-15+0061ETGQ V0201001N002110150019N0112651N1+02001+01501999999ADDGA1041+006901999GA2071+015001999GF107991999999999999999999MA1101901999999REMMET062METAR ETGQ 111120Z 10004KT 9999 SCT023 BKN050 20/15 Q1019 BLU;
0147102340999992009081112204+53133+009350FM-15+0061ETGQ V0201701N002110180019N0112651N1+02101+01501999999ADDGA1041+007201999GA2071+018001999GF107991999999999999999999MA1101901999999REMMET062METAR ETGQ 111220Z 17004KT 9999 SCT024 BKN060 21/15 Q1019 BLU;
0147102340999992009081113204+53133+009350FM-15+0061ETGQ V0202201N001510240019N0112651N1+02201+01601999999ADDGA1041+007201999GA2071+024001999GF107991999999999999999999MA1101801999999REMMET062METAR ETGQ 111320Z 22003KT 9999 SCT024 BKN080 22/16 Q1018 BLU;
0147102340999992009081114204+53133+009350FM-15+0061ETGQ V0200801N001510240019N0112651N1+02301+01601999999ADDGA1041+008401999GA2071+024001999GF107991999999999999999999MA1101801999999REMMET062METAR ETGQ 111420Z 08003KT 9999 SCT028 BKN080 23/16 Q1018 BLU;
0147102340999992009081115204+53133+009350FM-15+0061ETGQ V0201901N002110240019N0112651N1+02301+01601999999ADDGA1041+009001999GA2071+024001999GF107991999999999999999999MA1101801999999REMMET062METAR ETGQ 111520Z 19004KT 9999 SCT030 BKN080 23/16 Q1018 BLU;
0147102340999992009081116204+53133+009350FM-15+0061ETGQ V0203101N003610240019N0112651N1+02301+01401999999ADDGA1021+012001999GA2071+024001999GF107991999999999999999999MA1101801999999REMMET062METAR ETGQ 111620Z 31007KT 9999 FEW040 BKN080 23/14 Q1018 BLU;
0147102340999992009081117204+53133+009350FM-15+0061ETGQ V0203201N002610270019N0112651N1+02301+01401999999ADDGA1021+012001999GA2071+027001999GF107991999999999999999999MA1101901999999REMMET062METAR ETGQ 111720Z 32005KT 9999 FEW040 BKN090 23/14 Q1019 BLU;
0147102340999992009081118204+53133+009350FM-15+0061ETGQ V0203101N002110240019N0112651N1+02201+01401999999ADDGA1041+012001999GA2071+024001999GF107991999999999999999999MA1101901999999REMMET062METAR ETGQ 111820Z 31004KT 9999 SCT040 BKN080 22/14 Q1019 BLU;
0125102340999992009081204204+53133+009350FM-15+0061ETGQ V0202101N000512200019N0112651N1+01501+01301999999ADDGA1041+006901999GF104991999999999999999999MA1102101999999REMMET056METAR ETGQ 120420Z 21001KT 9999 SCT023 15/13 Q1021 BLU/;
0148102340999992009081205204+53133+009350FM-15+0061ETGQ V0202001N001512200019N0112651N1+01601+01401999999ADDGA1021+030001999GA2041+090001999GF104991999999999999999999MA1102101999999REMMET063METAR ETGQ 120520Z 20003KT 9999 FEW100 SCT300 16/14 Q1021 BLU/;
0124102340999992009081206204+53133+009350FM-15+0061ETGQ V0202301N002110360019N0112651N1+01601+01301999999ADDGA1071+036001999GF107991999999999999999999MA1102101999999REMMET055METAR ETGQ 120620Z 23004KT 9999 BKN120 16/13 Q1021 BLU;
0124102340999992009081207204+53133+009350FM-15+0061ETGQ V0202101N001510360019N0112651N1+01801+01301999999ADDGA1071+036001999GF107991999999999999999999MA1102101999999REMMET055METAR ETGQ 120720Z 21003KT 9999 BKN120 18/13 Q1021 BLU;
0124102340999992009081208204+53133+009350FM-15+0061ETGQ V0209999V001010135019N0112651N1+01901+01301999999ADDGA1071+013501999GF107991999999999999999999MA1102101999999REMMET055METAR ETGQ 120820Z VRB02KT 9999 BKN045 19/13 Q1021 BLU;
0148102340999992009081209204+53133+009350FM-15+0061ETGQ V0209999V001010900019N0112651N1+02301+01301999999ADDGA1041+013501999GA2071+090001999GF107991999999999999999999MA1102001999999REMMET063METAR ETGQ 120920Z VRB02KT 9999 SCT045 BKN300 23/13 Q1020 BLU/;
0148102340999992009081210204+53133+009350FM-15+0061ETGQ V0201801N002110900019N0112651N1+02401+01301999999ADDGA1041+015001999GA2071+090001999GF107991999999999999999999MA1101901999999REMMET063METAR ETGQ 121020Z 18004KT 9999 SCT050 BKN300 24/13 Q1019 BLU/;
0147102340999992009081211204+53133+009350FM-15+0061ETGQ V0202201N002610300019N0112651N1+02401+01301999999ADDGA1041+015001999GA2071+030001999GF107991999999999999999999MA1101901999999REMMET062METAR ETGQ 121120Z 22005KT 9999 SCT050 BKN100 24/13 Q1019 BLU;
0147102340999992009081212204+53133+009350FM-15+0061ETGQ V0202201N002610270019N0112651N1+02501+01201999999ADDGA1041+014101999GA2071+027001999GF107991999999999999999999MA1101801999999REMMET062METAR ETGQ 121220Z 22005KT 9999 SCT047 BKN090 25/12 Q1018 BLU;
0147102340999992009081213204+53133+009350FM-15+0061ETGQ V0200801N002610150019N0112651N1+02501+01201999999ADDGA1071+015001999GA2071+030001999GF107991999999999999999999MA1101801999999REMMET062METAR ETGQ 121320Z 08005KT 9999 BKN050 BKN100 25/12 Q1018 BLU;
0147102340999992009081214204+53133+009350FM-15+0061ETGQ V0202201N002110150019N0112651N1+02501+01201999999ADDGA1071+015001999GA2071+030001999GF107991999999999999999999MA1101691999999REMMET062METAR ETGQ 121420Z 22004KT 9999 BKN050 BKN100 25/12 Q1017 BLU;
0124102340999992009081215204+53133+009350FM-15+0061ETGQ V0202301N002110150019N0112651N1+02401+01301999999ADDGA1071+015001999GF107991999999999999999999MA1101691999999REMMET055METAR ETGQ 121520Z 23004KT 9999 BKN050 24/13 Q1017 BLU;
0124102340999992009081216204+53133+009350FM-15+0061ETGQ V0202401N003110150019N0112651N1+02501+01301999999ADDGA1071+015001999GF107991999999999999999999MA1101591999999REMMET055METAR ETGQ 121620Z 24006KT 9999 BKN050 25/13 Q1016 BLU;
0147102340999992009081217204+53133+009350FM-15+0061ETGQ V0202301N002110150019N0112651N1+02401+01401999999ADDGA1071+015001999GA2071+027001999GF107991999999999999999999MA1101491999999REMMET062METAR ETGQ 121720Z 23004KT 9999 BKN050 BKN090 24/14 Q1015 BLU;
0161102340999992009081218204+53133+009350FM-15+0061ETGQ V0203101N003610150019N0112651N1+02301+01501999999ADDGA1021+013501021GA2071+015001999GF107991999999999999999999MA1101591999999MW1161REMMET070METAR ETGQ 121820Z 31007KT 9999 VCSH FEW045TCU BKN050 23/15 Q1016 BLU;
0147102340999992009081304204+53133+009350FM-15+0061ETGQ V0202901N001010180019N0112651N1+01601+01501999999ADDGA1041+003901999GA2071+018001999GF107991999999999999999999MA1101591999999REMMET062METAR ETGQ 130420Z 29002KT 9999 SCT013 BKN060 16/15 Q1016 BLU;
0148102340999992009081305204+53133+009350FM-15+0061ETGQ V0202801N001012200019N0112651N1+01601+01501999999ADDGA1021+003601999GA2041+018001999GF104991999999999999999999MA1101591999999REMMET063METAR ETGQ 130520Z 28002KT 9999 FEW012 SCT060 16/15 Q1016 BLU/;
0147102340999992009081306204+53133+009350FM-15+0061ETGQ V0202601N001510210019N0112651N1+01701+01501999999ADDGA1041+004501999GA2071+021001999GF107991999999999999999999MA1101691999999REMMET062METAR ETGQ 130620Z 26003KT 9999 SCT015 BKN070 17/15 Q1017 BLU;
0148102340999992009081307204+53133+009350FM-15+0061ETGQ V0202901N001012200019N0112651N1+01701+01401999999ADDGA1021+004501999GA2041+024001999GF104991999999999999999999MA1101691999999REMMET063METAR ETGQ 130720Z 29002KT 9999 FEW015 SCT080 17/14 Q1017 BLU/;
0148102340999992009081308204+53133+009350FM-15+0061ETGQ V0209999V000512200019N0112651N1+01901+01401999999ADDGA1041+006001999GA2041+048001999GF104991999999999999999999MA1101691999999REMMET063METAR ETGQ 130820Z VRB01KT 9999 SCT020 SCT160 19/14 Q1017 BLU/;
0148102340999992009081309204+53133+009350FM-15+0061ETGQ V0200701N001512200019N0112651N1+02001+01401999999ADDGA1041+009601999GA2041+054001999GF104991999999999999999999MA1101691999999REMMET063METAR ETGQ 130920Z 07003KT 9999 SCT032 SCT180 20/14 Q1017 BLU/;
0147102340999992009081310204+53133+009350FM-15+0061ETGQ V0209999V001010240019N0112651N1+02101+01301999999ADDGA1021+009601999GA2071+024001999GF107991999999999999999999MA1101691999999REMMET062METAR ETGQ 131020Z VRB02KT 9999 FEW032 BKN080 21/13 Q1017 BLU;
0147102340999992009081311204+53133+009350FM-15+0061ETGQ V0209999V000510270019N0112651N1+02201+01301999999ADDGA1041+010801999GA2071+027001999GF107991999999999999999999MA1101691999999REMMET062METAR ETGQ 131120Z VRB01KT 9999 SCT036 BKN090 22/13 Q1017 BLU;
0170102340999992009081312204+53133+009350FM-15+0061ETGQ V0202301N00051027001CN0112651N1+02201+01401999999ADDGA1021+012001999GA2041+027001999GA3071+039001999GF107991999999999999999999MA1101591999999REMMET069METAR ETGQ 131220Z 23001KT 9999 FEW040 SCT090 BKN130 22/14 Q1016 BLU;
0170102340999992009081313204+53133+009350FM-15+0061ETGQ V0202801N00101033001CN0112651N1+02201+01301999999ADDGA1021+010801999GA2041+033001999GA3071+039001999GF107991999999999999999999MA1101591999999REMMET069METAR ETGQ 131320Z 28002KT 9999 FEW036 SCT110 BKN130 22/13 Q1016 BLU;
0157102340999992009081314204+53133+009350FM-15+0061ETGQ V0202601N001510093019N0112651N1+02101+01501999999ADDGA1071+009301999GA2081+027001999GF108991999999999999999999MA1101591999999MW1611REMMET066METAR ETGQ 131420Z 26003KT 9999 -RA BKN031 OVC090 21/15 Q1016 BLU;
0133102340999992009081315204+53133+009350FM-15+0061ETGQ V0202301N001510078019N0060001N1+01801+01601999999ADDGA1071+007801999GF107991999999999999999999MA1101691999999MW1631REMMET058METAR ETGQ 131520Z 23003KT 6000 RA BKN026 18/16 Q1017 WHT;
0185102340999992009081316204+53133+009350FM-15+0061ETGQ V0201801N00051018001CN0070001N1+01801+01701999999ADDGA1021+005701999GA2041+018001999GA3071+027001999GF107991999999999999999999MA1101691999999MW1611REMMET078METAR ETGQ 131620Z 18001KT 7000 -RA FEW019 SCT060 BKN090 18/17 Q1017 RERA WHT;
0182102340999992009081317204+53133+009350FM-15+0061ETGQ V0202801N002110078019N0070001N1+01801+01601999999ADDGA1021+004501999GA2071+007801999GA3071+011101999GF107991999999999999999999MA1101691999999MW1801REMMET075METAR ETGQ 131720Z 28004KT 7000 -SHRA FEW015 BKN026 BKN037 18/16 Q1017 WHT;
0170102340999992009081318204+53133+009350FM-15+0061ETGQ V0209999C00001012901CN0080001N1+01701+01501999999ADDGA1021+003301999GA2041+012901999GA3071+024001999GF107991999999999999999999MA1101691999999REMMET069METAR ETGQ 131820Z 00000KT 8000 FEW011 SCT043 BKN080 17/15 Q1017 BLU;
0133102340999992009081404204+53133+009350FM-15+0061ETGQ V0202701N001010012019N0035001N1+01401+01301999999ADDGA1081+001201999GF108991999999999999999999MA1101801999999MW1101REMMET058METAR ETGQ 140420Z 27002KT 3500 BR OVC004 14/13 Q1018 YLO;
0133102340999992009081405204+53133+009350FM-15+0061ETGQ V0202901N000510012019N0035001N1+01401+01301999999ADDGA1081+001201999GF108991999999999999999999MA1101901999999MW1101REMMET058METAR ETGQ 140520Z 29001KT 3500 BR OVC004 14/13 Q1019 YLO;
0133102340999992009081406204+53133+009350FM-15+0061ETGQ V0209999C000010021019N0050001N1+01501+01301999999ADDGA1081+002101999GF108991999999999999999999MA1101901999999MW1101REMMET058METAR ETGQ 140620Z 00000KT 5000 BR OVC007 15/13 Q1019 GRN;
0124102340999992009081407204+53133+009350FM-15+0061ETGQ V0203201N001510027019N0070001N1+01501+01301999999ADDGA1081+002701999GF108991999999999999999999MA1101901999999REMMET055METAR ETGQ 140720Z 32003KT 7000 OVC009 15/13 Q1019 GRN;
0124102340999992009081408204+53133+009350FM-15+0061ETGQ V0203101N001010030019N0080001N1+01601+01301999999ADDGA1081+003001999GF108991999999999999999999MA1102001999999REMMET055METAR ETGQ 140820Z 31002KT 8000 OVC010 16/13 Q1020 GRN;
0124102340999992009081409204+53133+009350FM-15+0061ETGQ V0209999C000010036019N0080001N1+01601+01301999999ADDGA1081+003601999GF108991999999999999999999MA1102001999999REMMET055METAR ETGQ 140920Z 00000KT 8000 OVC012 16/13 Q1020 GRN;
0124102340999992009081410204+53133+009350FM-15+0061ETGQ V0200401N001510054019N0112651N1+01701+01301999999ADDGA1071+005401999GF107991999999999999999999MA1102001999999REMMET055METAR ETGQ 141020Z 04003KT 9999 BKN018 17/13 Q1020 WHT;
0124102340999992009081411204+53133+009350FM-15+0061ETGQ V0209999V001010066019N0112651N1+01901+01401999999ADDGA1071+006601999GF107991999999999999999999MA1102001999999REMMET055METAR ETGQ 141120Z VRB02KT 9999 BKN022 19/14 Q1020 WHT;
0148102340999992009081412204+53133+009350FM-15+0061ETGQ V0209999V001012200019N0112651N1+02001+01201999999ADDGA1021+009601999GA2041+090001999GF104991999999999999999999MA1101901999999REMMET063METAR ETGQ 141220Z VRB02KT 9999 FEW032 SCT300 20/12 Q1019 BLU/;
0148102340999992009081413204+53133+009350FM-15+0061ETGQ V0209999V001010900019N0112651N1+02201+01101999999ADDGA1021+011401999GA2071+090001999GF107991999999999999999999MA1101901999999REMMET063METAR ETGQ 141320Z VRB02KT 9999 FEW038 BKN300 22/11 Q1019 BLU/;
0148102340999992009081414204+53133+009350FM-15+0061ETGQ V0202801N001512200019N0112651N1+02201+01001999999ADDGA1021+012601999GA2041+018001999GF104991999999999999999999MA1101801999999REMMET063METAR ETGQ 141420Z 28003KT 9999 FEW042 SCT060 22/10 Q1018 BLU/;
0125102340999992009081415204+53133+009350FM-15+0061ETGQ V0200201N001512200019N0112651N1+02301+01101999999ADDGA1021+013501999GF102991999999999999999999MA1101801999999REMMET056METAR ETGQ 141520Z 02003KT 9999 FEW045 23/11 Q1018 BLU/;
0125102340999992009081416204+53133+009350FM-15+0061ETGQ V0203001N001512200019N0112651N1+02201+01101999999ADDGA1021+013501999GF102991999999999999999999MA1101801999999REMMET056METAR ETGQ 141620Z 30003KT 9999 FEW045 22/11 Q1018 BLU/;
0148102340999992009081417204+53133+009350FM-15+0061ETGQ V0209999V001010900019N0112651N1+02201+01101999999ADDGA1021+013501999GA2071+090001999GF107991999999999999999999MA1101691999999REMMET063METAR ETGQ 141720Z VRB02KT 9999 FEW045 BKN300 22/11 Q1017 BLU/;
0148102340999992009081418204+53133+009350FM-15+0061ETGQ V0200301N001010900019N0112651N1+02201+01101999999ADDGA1021+013501999GA2071+090001999GF107991999999999999999999MA1101801999999REMMET063METAR ETGQ 141820Z 03002KT 9999 FEW045 BKN300 22/11 Q1018 BLU/;
0133102340999992009081504204+53133+009350FM-15+0061ETGQ V0202101N001010003019N0010001N1+01301+01201999999ADDGA1081+000301999GF108991999999999999999999MA1101801999999MW1101REMMET058METAR ETGQ 150420Z 21002KT 1000 BR OVC001 13/12 Q1018 RED;
0125102340999992009081704204+53133+009350FM-15+0061ETGQ V0209999C000012200019N0112651N1+01701+01501999999ADDGA1041+090001999GF104991999999999999999999MA1101491999999REMMET056METAR ETGQ 170420Z 00000KT 9999 SCT300 17/15 Q1015 BLU/;
0148102340999992009081705204+53133+009350FM-15+0061ETGQ V0209999C000010690019N0112651N1+01801+01601999999ADDGA1041+027001999GA2071+069001999GF107991999999999999999999MA1101491999999REMMET063METAR ETGQ 170520Z 00000KT 9999 SCT090 BKN230 18/16 Q1015 BLU/;
0148102340999992009081706204+53133+009350FM-15+0061ETGQ V0202901N001010750019N0112651N1+01801+01601999999ADDGA1041+027001999GA2071+075001999GF107991999999999999999999MA1101491999999REMMET063METAR ETGQ 170620Z 29002KT 9999 SCT090 BKN250 18/16 Q1015 BLU/;
0148102340999992009081707204+53133+009350FM-15+0061ETGQ V0209999C000010900019N0112651N1+01901+01601999999ADDGA1041+024001999GA2071+090001999GF107991999999999999999999MA1101491999999REMMET063METAR ETGQ 170720Z 00000KT 9999 SCT080 BKN300 19/16 Q1015 BLU/;
0125102340999992009081708204+53133+009350FM-15+0061ETGQ V0203401N001012200019N0112651N1+02101+01601999999ADDGA1041+021001999GF104991999999999999999999MA1101491999999REMMET056METAR ETGQ 170820Z 34002KT 9999 SCT070 21/16 Q1015 BLU/;
0125102340999992009081709204+53133+009350FM-15+0061ETGQ V0203501N001012200019N0112651N1+02301+01601999999ADDGA1041+024001999GF104991999999999999999999MA1101391999999REMMET056METAR ETGQ 170920Z 35002KT 9999 SCT080 23/16 Q1014 BLU/;
0148102340999992009081710204+53133+009350FM-15+0061ETGQ V0200401N001512200019N0112651N1+02501+01601999999ADDGA1041+021001999GA2041+090001999GF104991999999999999999999MA1101391999999REMMET063METAR ETGQ 171020Z 04003KT 9999 SCT070 SCT300 25/16 Q1014 BLU/;
0148102340999992009081711204+53133+009350FM-15+0061ETGQ V0201201N001512200019N0112651N1+02601+01601999999ADDGA1041+014401999GA2041+090001999GF104991999999999999999999MA1101291999999REMMET063METAR ETGQ 171120Z 12003KT 9999 SCT048 SCT300 26/16 Q1013 BLU/;
0148102340999992009081712204+53133+009350FM-15+0061ETGQ V0203401N001510900019N0112651N1+02701+01601999999ADDGA1041+013501999GA2071+090001999GF107991999999999999999999MA1101291999999REMMET063METAR ETGQ 171220Z 34003KT 9999 SCT045 BKN300 27/16 Q1013 BLU/;
0125102340999992009081713204+53133+009350FM-15+0061ETGQ V0203201N003612200019N0112651N1+02701+01601999999ADDGA1041+015001999GF104991999999999999999999MA1101291999999REMMET056METAR ETGQ 171320Z 32007KT 9999 SCT050 27/16 Q1013 BLU/;
0138102340999992009081714084+53133+009350FM-16+0061ETGQ V0202901N002612200019N0112651N1+02701+01501999999ADDGA1041+015001091GF104991999999999999999999MA1101191999999MW1171REMMET063SPECI ETGQ 171408Z 29005KT 9999 VCTS SCT050CB 27/15 Q1012 BLU/;
0138102340999992009081714204+53133+009350FM-15+0061ETGQ V0202901N003612200019N0112651N1+02701+01601999999ADDGA1041+015001091GF104991999999999999999999MA1101291999999MW1171REMMET063METAR ETGQ 171420Z 29007KT 9999 VCTS SCT050CB 27/16 Q1013 BLU/;
0133102340999992009081715204+53133+009350FM-15+0061ETGQ V0203101N004112200019N0112651N1+02701+01501999999ADDGA1021+015001021GF102991999999999999999999MA1101191999999REMMET064METAR ETGQ 171520Z 31008KT 9999 FEW050TCU 27/15 Q1012 RETS BLU/;
0148102340999992009081716204+53133+009350FM-15+0061ETGQ V0203101N004612200019N0112651N1+02601+01401999999ADDGA1021+015001999GA2041+024001999GF104991999999999999999999MA1101191999999REMMET063METAR ETGQ 171620Z 31009KT 9999 FEW050 SCT080 26/14 Q1012 BLU/;
0125102340999992009081717204+53133+009350FM-15+0061ETGQ V0203301N005112200019N0112651N1+02501+01301999999ADDGA1021+015001999GF102991999999999999999999MA1101291999999REMMET056METAR ETGQ 171720Z 33010KT 9999 FEW050 25/13 Q1013 BLU/;
0125102340999992009081718204+53133+009350FM-15+0061ETGQ V0203101N005112200019N0112651N1+02301+01401999999ADDGA1021+024001999GF102991999999999999999999MA1101391999999REMMET056METAR ETGQ 171820Z 31010KT 9999 FEW080 23/14 Q1014 BLU/;
0076102340999992009081804204+53133+009350FM-15+0061ETGQ V0202201N001012200019N0112651N1+01401+01201999999ADDMA1102001999999REMMET049METAR ETGQ 180420Z 22002KT 9999 14/12 Q1020 BLU/;
0076102340999992009081805204+53133+009350FM-15+0061ETGQ V0209999V000512200019N0112651N1+01501+01301999999ADDMA1102101999999REMMET049METAR ETGQ 180520Z VRB01KT 9999 15/13 Q1021 BLU/;
0125102340999992009081806204+53133+009350FM-15+0061ETGQ V0201801N000512200019N0112651N1+01601+01301999999ADDGA1021+003601999GF102991999999999999999999MA1102101999999REMMET056METAR ETGQ 180620Z 18001KT 9999 FEW012 16/13 Q1021 BLU/;
0076102340999992009081807204+53133+009350FM-15+0061ETGQ V0209999V000512200019N0112651N1+01801+01301999999ADDMA1102101999999REMMET049METAR ETGQ 180720Z VRB01KT 9999 18/13 Q1021 BLU/;
0076102340999992009081808204+53133+009350FM-15+0061ETGQ V0203101N001012200019N0112651N1+01901+01301999999ADDMA1102201999999REMMET049METAR ETGQ 180820Z 31002KT 9999 19/13 Q1022 BLU/;
0125102340999992009081809204+53133+009350FM-15+0061ETGQ V0201801N001512200019N0112651N1+02101+01201999999ADDGA1021+012001999GF102991999999999999999999MA1102201999999REMMET056METAR ETGQ 180920Z 18003KT 9999 FEW040 21/12 Q1022 BLU/;
0125102340999992009081810204+53133+009350FM-15+0061ETGQ V0209999V001012200019N0112651N1+02301+01101999999ADDGA1021+012001999GF102991999999999999999999MA1102201999999REMMET056METAR ETGQ 181020Z VRB02KT 9999 FEW040 23/11 Q1022 BLU/;
0125102340999992009081811204+53133+009350FM-15+0061ETGQ V0202301N001512200019N0112651N1+02401+01001999999ADDGA1021+015001999GF102991999999999999999999MA1102201999999REMMET056METAR ETGQ 181120Z 23003KT 9999 FEW050 24/10 Q1022 BLU/;
0125102340999992009081812204+53133+009350FM-15+0061ETGQ V0202001N001512200019N0112651N1+02401+00801999999ADDGA1021+018001999GF102991999999999999999999MA1102101999999REMMET056METAR ETGQ 181220Z 20003KT 9999 FEW060 24/08 Q1021 BLU/;
0125102340999992009081813204+53133+009350FM-15+0061ETGQ V0202601N001512200019N0112651N1+02501+00601999999ADDGA1021+021001999GF102991999999999999999999MA1102101999999REMMET056METAR ETGQ 181320Z 26003KT 9999 FEW070 25/06 Q1021 BLU/;
0125102340999992009081814204+53133+009350FM-15+0061ETGQ V0202501N001512200019N0112651N1+02601+00601999999ADDGA1021+021001999GF102991999999999999999999MA1102101999999REMMET056METAR ETGQ 181420Z 25003KT 9999 FEW070 26/06 Q1021 BLU/;
0125102340999992009081815204+53133+009350FM-15+0061ETGQ V0209999V001012200019N0112651N1+02601+00801999999ADDGA1041+090001999GF104991999999999999999999MA1102001999999REMMET056METAR ETGQ 181520Z VRB02KT 9999 SCT340 26/08 Q1020 BLU/;
0125102340999992009081816204+53133+009350FM-15+0061ETGQ V0209999V001012200019N0112651N1+02601+00701999999ADDGA1041+090001999GF104991999999999999999999MA1102001999999REMMET056METAR ETGQ 181620Z VRB02KT 9999 SCT340 26/07 Q1020 BLU/;
0125102340999992009081817204+53133+009350FM-15+0061ETGQ V0200501N001510900019N0112651N1+02601+00701999999ADDGA1071+090001999GF107991999999999999999999MA1102001999999REMMET056METAR ETGQ 181720Z 05003KT 9999 BKN340 26/07 Q1020 BLU/;
0125102340999992009081818204+53133+009350FM-15+0061ETGQ V0200401N001510900019N0112651N1+02401+01001999999ADDGA1071+090001999GF107991999999999999999999MA1102001999999REMMET056METAR ETGQ 181820Z 04003KT 9999 BKN340 24/10 Q1020 BLU/;
0125102340999992009081904204+53133+009350FM-15+0061ETGQ V0209999C000012200019N0112651N1+01401+01201999999ADDGA1021+090001999GF102991999999999999999999MA1102101999999REMMET056METAR ETGQ 190420Z 00000KT 9999 FEW300 14/12 Q1021 BLU/;
0125102340999992009081905204+53133+009350FM-15+0061ETGQ V0201401N001012200019N0112651N1+01501+01201999999ADDGA1021+090001999GF102991999999999999999999MA1102101999999REMMET056METAR ETGQ 190520Z 14002KT 9999 FEW300 15/12 Q1021 BLU/;
0125102340999992009081906204+53133+009350FM-15+0061ETGQ V0201801N001012200019N0112651N1+01701+01301999999ADDGA1021+090001999GF102991999999999999999999MA1102101999999REMMET056METAR ETGQ 190620Z 18002KT 9999 FEW300 17/13 Q1021 BLU/;
0125102340999992009081907204+53133+009350FM-15+0061ETGQ V0209999V000512200019N0112651N1+01901+01201999999ADDGA1021+090001999GF102991999999999999999999MA1102101999999REMMET056METAR ETGQ 190720Z VRB01KT 9999 FEW300 19/12 Q1021 BLU/;
0125102340999992009081908204+53133+009350FM-15+0061ETGQ V0209999V000512200019N0112651N1+02101+01301999999ADDGA1021+090001999GF102991999999999999999999MA1102101999999REMMET056METAR ETGQ 190820Z VRB01KT 9999 FEW300 21/13 Q1021 BLU/;
0125102340999992009081909204+53133+009350FM-15+0061ETGQ V0209999V001012200019N0112651N1+02401+01301999999ADDGA1021+105001999GF102991999999999999999999MA1102101999999REMMET056METAR ETGQ 190920Z VRB02KT 9999 FEW350 24/13 Q1021 BLU/;
0125102340999992009081910204+53133+009350FM-15+0061ETGQ V0209999V001012200019N0112651N1+02601+01301999999ADDGA1021+105001999GF102991999999999999999999MA1102101999999REMMET056METAR ETGQ 191020Z VRB02KT 9999 FEW350 26/13 Q1021 BLU/;
0125102340999992009081911204+53133+009350FM-15+0061ETGQ V0200901N001512200019N0112651N1+02801+01201999999ADDGA1021+105001999GF102991999999999999999999MA1102001999999REMMET056METAR ETGQ 191120Z 09003KT 9999 FEW350 28/12 Q1020 BLU/;
0125102340999992009081913204+53133+009350FM-15+0061ETGQ V0201501N001512200019N0112651N1+03001+01101999999ADDGA1021+105001999GF102991999999999999999999MA1101901999999REMMET056METAR ETGQ 191320Z 15003KT 9999 FEW350 30/11 Q1019 BLU/;
0125102340999992009081914204+53133+009350FM-15+0061ETGQ V0201901N001512200019N0112651N1+03201+01201999999ADDGA1021+105001999GF102991999999999999999999MA1101901999999REMMET056METAR ETGQ 191420Z 19003KT 9999 FEW350 32/12 Q1019 BLU/;
0125102340999992009081915204+53133+009350FM-15+0061ETGQ V0201801N001512200019N0112651N1+03101+01101999999ADDGA1021+105001999GF102991999999999999999999MA1101801999999REMMET056METAR ETGQ 191520Z 18003KT 9999 FEW350 31/11 Q1018 BLU/;
0125102340999992009081916204+53133+009350FM-15+0061ETGQ V0202301N001512200019N0112651N1+03101+01001999999ADDGA1021+105001999GF102991999999999999999999MA1101801999999REMMET056METAR ETGQ 191620Z 23003KT 9999 FEW350 31/10 Q1018 BLU/;
0125102340999992009081917204+53133+009350FM-15+0061ETGQ V0202501N001012200019N0112651N1+03101+00901999999ADDGA1021+105001999GF102991999999999999999999MA1101801999999REMMET056METAR ETGQ 191720Z 25002KT 9999 FEW350 31/09 Q1018 BLU/;
0125102340999992009081918204+53133+009350FM-15+0061ETGQ V0201301N001012200019N0112651N1+02901+01301999999ADDGA1021+105001999GF102991999999999999999999MA1101801999999REMMET056METAR ETGQ 191820Z 13002KT 9999 FEW350 29/13 Q1018 BLU/;
0125102340999992009082004204+53133+009350FM-15+0061ETGQ V0201501N001512200019N0112651N1+01801+01501999999ADDGA1021+105001999GF102991999999999999999999MA1101801999999REMMET056METAR ETGQ 200420Z 15003KT 9999 FEW350 18/15 Q1018 BLU/;
0125102340999992009082005204+53133+009350FM-15+0061ETGQ V0202201N001012200019N0112651N1+01801+01501999999ADDGA1021+039001999GF102991999999999999999999MA1101901999999REMMET056METAR ETGQ 200520Z 22002KT 9999 FEW130 18/15 Q1019 BLU/;
0124102340999992009082006204+53133+009350FM-15+0061ETGQ V0201701N001010450019N0112651N1+02001+01601999999ADDGA1071+045001999GF107991999999999999999999MA1101801999999REMMET055METAR ETGQ 200620Z 17002KT 9999 BKN150 20/16 Q1018 BLU;
0125102340999992009082007204+53133+009350FM-15+0061ETGQ V0201001N001012200019N0112651N1+02201+01601999999ADDGA1041+042001999GF104991999999999999999999MA1101801999999REMMET056METAR ETGQ 200720Z 10002KT 9999 SCT140 22/16 Q1018 BLU/;
0125102340999992009082008204+53133+009350FM-15+0061ETGQ V0202101N001012200019N0112651N1+02501+01701999999ADDGA1041+045001999GF104991999999999999999999MA1101801999999REMMET056METAR ETGQ 200820Z 21002KT 9999 SCT150 25/17 Q1018 BLU/;
0125102340999992009082009204+53133+009350FM-15+0061ETGQ V0201001N002112200019N0112651N1+02801+01701999999ADDGA1041+045001999GF104991999999999999999999MA1101801999999REMMET056METAR ETGQ 200920Z 10004KT 9999 SCT150 28/17 Q1018 BLU/;
0125102340999992009082010204+53133+009350FM-15+0061ETGQ V0201501N003112200019N0112651N1+03201+01501999999ADDGA1041+045001999GF104991999999999999999999MA1101691999999REMMET056METAR ETGQ 201020Z 15006KT 9999 SCT150 32/15 Q1017 BLU/;
0125102340999992009082011204+53133+009350FM-15+0061ETGQ V0201401N002612200019N0112651N1+03301+01501999999ADDGA1041+045001999GF104991999999999999999999MA1101591999999REMMET056METAR ETGQ 201120Z 14005KT 9999 SCT150 33/15 Q1016 BLU/;
0125102340999992009082012204+53133+009350FM-15+0061ETGQ V0201501N002612200019N0112651N1+03301+01601999999ADDGA1041+048001999GF104991999999999999999999MA1101591999999REMMET056METAR ETGQ 201220Z 15005KT 9999 SCT160 33/16 Q1016 BLU/;
0125102340999992009082013204+53133+009350FM-15+0061ETGQ V0201401N003112200019N0112651N1+03501+01501999999ADDGA1041+051001999GF104991999999999999999999MA1101491999999REMMET056METAR ETGQ 201320Z 14006KT 9999 SCT170 35/15 Q1015 BLU/;
0124102340999992009082014204+53133+009350FM-15+0061ETGQ V0201401N002610540019N0112651N1+03501+01501999999ADDGA1071+054001999GF107991999999999999999999MA1101491999999REMMET055METAR ETGQ 201420Z 14005KT 9999 BKN180 35/15 Q1015 BLU;
0124102340999992009082015204+53133+009350FM-15+0061ETGQ V0201701N001010510019N0112651N1+03401+01601999999ADDGA1071+051001999GF107991999999999999999999MA1101391999999REMMET055METAR ETGQ 201520Z 17002KT 9999 BKN170 34/16 Q1014 BLU;
0124102340999992009082016204+53133+009350FM-15+0061ETGQ V0201401N002110540019N0112651N1+03401+01401999999ADDGA1071+054001999GF107991999999999999999999MA1101391999999REMMET055METAR ETGQ 201620Z 14004KT 9999 BKN180 34/14 Q1014 BLU;
0148102340999992009082017204+53133+009350FM-15+0061ETGQ V0201901N001510840019N0112651N1+03401+01401999999ADDGA1041+054001999GA2071+084001999GF107991999999999999999999MA1101291999999REMMET063METAR ETGQ 201720Z 19003KT 9999 SCT180 BKN280 34/14 Q1013 BLU/;
0173102340999992009082018204+53133+009350FM-15+0061ETGQ V0201401N00211045001CN0112651N1+03201+01301999999ADDGA1021+021001091GA2041+045001999GA3071+090001999GF107991999999999999999999MA1101291999999REMMET072METAR ETGQ 201820Z 14004KT 9999 FEW070CB SCT150 BKN330 32/13 Q1013 BLU/;
0147102340999992009082104204+53133+009350FM-15+0061ETGQ V0203001N002610081019N0112651N1+01801+01401999999ADDGA1041+006301999GA2071+008101999GF107991999999999999999999MA1102101999999REMMET062METAR ETGQ 210420Z 30005KT 9999 SCT021 BKN027 18/14 Q1021 BLU;
0170102340999992009082105204+53133+009350FM-15+0061ETGQ V0200101N00101033001CN0112651N1+01801+01401999999ADDGA1021+021001999GA2041+033001999GA3071+036001999GF107991999999999999999999MA1102001999999REMMET069METAR ETGQ 210520Z 01002KT 9999 FEW070 SCT110 BKN120 18/14 Q1020 BLU;
0147102340999992009082106204+53133+009350FM-15+0061ETGQ V0203501N002110099019N0112651N1+01801+01201999999ADDGA1071+009901999GA2071+021001999GF107991999999999999999999MA1102101999999REMMET062METAR ETGQ 210620Z 35004KT 9999 BKN033 BKN070 18/12 Q1021 BLU;
0147102340999992009082107204+53133+009350FM-15+0061ETGQ V0203401N001510114019N0112651N1+01801+01101999999ADDGA1071+011401999GA2071+027001999GF107991999999999999999999MA1102101999999REMMET062METAR ETGQ 210720Z 34003KT 9999 BKN038 BKN090 18/11 Q1021 BLU;
0124102340999992009082108204+53133+009350FM-15+0061ETGQ V0203201N002610117019N0112651N1+01801+01001999999ADDGA1071+011701999GF107991999999999999999999MA1102101999999REMMET055METAR ETGQ 210820Z 32005KT 9999 BKN039 18/10 Q1021 BLU;
0134102340999992009082109204+53133+009350FM-15+0061ETGQ V0202901N004110123019N0090001N1+01701+01001999999ADDGA1071+012301999GF107991999999999999999999MA1102201999999MW1611REMMET059METAR ETGQ 210920Z 29008KT 9000 -RA BKN041 17/10 Q1022 BLU;
0171102340999992009082110204+53133+009350FM-15+0061ETGQ V0203201N002110114019N0045001N1+01301+01101999999ADDGA1041+006301999GA2071+011401999GF107991999999999999999999MA1102301999999MW1101MW2611REMMET074METAR ETGQ 211020Z 32004KT 4500 -RA BR SCT021 BKN038 13/11 Q1023 RERA GRN;
0157102340999992009082111204+53133+009350FM-15+0061ETGQ V0209999V000510150019N0060001N1+01401+01201999999ADDGA1041+006901999GA2071+015001999GF107991999999999999999999MA1102301999999MW1611REMMET066METAR ETGQ 211120Z VRB01KT 6000 -RA SCT023 BKN050 14/12 Q1023 WHT;
0157102340999992009082112204+53133+009350FM-15+0061ETGQ V0200301N000510210019N0112651N1+01501+01101999999ADDGA1021+007501999GA2071+021001999GF107991999999999999999999MA1102201999999MW1611REMMET066METAR ETGQ 211220Z 03001KT 9999 -RA FEW025 BKN070 15/11 Q1022 BLU;
0124102340999992009082113204+53133+009350FM-15+0061ETGQ V0201101N001010210019N0112651N1+01601+01201999999ADDGA1071+021001999GF107991999999999999999999MA1102201999999REMMET055METAR ETGQ 211320Z 11002KT 9999 BKN070 16/12 Q1022 BLU;
0125102340999992009082114204+53133+009350FM-15+0061ETGQ V0202801N001012200019N0112651N1+01801+01101999999ADDGA1021+007201999GF102991999999999999999999MA1102201999999REMMET056METAR ETGQ 211420Z 28002KT 9999 FEW024 18/11 Q1022 BLU/;
0125102340999992009082115204+53133+009350FM-15+0061ETGQ V0209999V001012200019N0112651N1+01901+01201999999ADDGA1021+008401999GF102991999999999999999999MA1102101999999REMMET056METAR ETGQ 211520Z VRB02KT 9999 FEW028 19/12 Q1021 BLU/;
0148102340999992009082116204+53133+009350FM-15+0061ETGQ V0209999V001011050019N0112651N1+02001+01201999999ADDGA1021+009601999GA2071+105001999GF107991999999999999999999MA1102101999999REMMET063METAR ETGQ 211620Z VRB02KT 9999 FEW032 BKN350 20/12 Q1021 BLU/;
0148102340999992009082118204+53133+009350FM-15+0061ETGQ V0201601N001011050019N0112651N1+01901+01301999999ADDGA1021+007501999GA2071+105001999GF107991999999999999999999MA1102101999999REMMET063METAR ETGQ 211820Z 16002KT 9999 FEW025 BKN350 19/13 Q1021 BLU/;
0076102340999992009082404204+53133+009350FM-15+0061ETGQ V0209999V001012200019N0112651N1+01401+01101999999ADDMA1101291999999REMMET049METAR ETGQ 240420Z VRB02KT 9999 14/11 Q1013 BLU/;
0076102340999992009082405204+53133+009350FM-15+0061ETGQ V0202901N001512200019N0112651N1+01401+01001999999ADDMA1101191999999REMMET049METAR ETGQ 240520Z 29003KT 9999 14/10 Q1012 BLU/;
0076102340999992009082406204+53133+009350FM-15+0061ETGQ V0202301N001012200019N0112651N1+01601+01201999999ADDMA1101191999999REMMET049METAR ETGQ 240620Z 23002KT 9999 16/12 Q1012 BLU/;
0076102340999992009082407204+53133+009350FM-15+0061ETGQ V0201001N002112200019N0112651N1+01901+01101999999ADDMA1101191999999REMMET049METAR ETGQ 240720Z 10004KT 9999 19/11 Q1012 BLU/;
0076102340999992009082408204+53133+009350FM-15+0061ETGQ V0200901N002112200019N0112651N1+02001+01201999999ADDMA1101191999999REMMET049METAR ETGQ 240820Z 09004KT 9999 20/12 Q1012 BLU/;
0076102340999992009082409204+53133+009350FM-15+0061ETGQ V0200901N002612200019N0112651N1+02201+01201999999ADDMA1101081999999REMMET049METAR ETGQ 240920Z 09005KT 9999 22/12 Q1011 BLU/;
0076102340999992009082410204+53133+009350FM-15+0061ETGQ V0201101N002612200019N0112651N1+02501+01201999999ADDMA1101021999999REMMET049METAR ETGQ 241020Z 11005KT 9999 25/12 Q1010 BLU/;
0076102340999992009082411204+53133+009350FM-15+0061ETGQ V0202801N002112200019N0112651N1+02601+01201999999ADDMA1101021999999REMMET049METAR ETGQ 241120Z 28004KT 9999 26/12 Q1010 BLU/;
0076102340999992009082412204+53133+009350FM-15+0061ETGQ V0201301N002612200019N0112651N1+02701+01201999999ADDMA1100911999999REMMET049METAR ETGQ 241220Z 13005KT 9999 27/12 Q1009 BLU/;
0076102340999992009082413204+53133+009350FM-15+0061ETGQ V0201501N002612200019N0112651N1+02801+01101999999ADDMA1100911999999REMMET049METAR ETGQ 241320Z 15005KT 9999 28/11 Q1009 BLU/;
0076102340999992009082414204+53133+009350FM-15+0061ETGQ V0201501N002112200019N0112651N1+02901+01101999999ADDMA1100811999999REMMET049METAR ETGQ 241420Z 15004KT 9999 29/11 Q1008 BLU/;
0076102340999992009082415204+53133+009350FM-15+0061ETGQ V0201401N002612200019N0112651N1+02901+01101999999ADDMA1100811999999REMMET049METAR ETGQ 241520Z 14005KT 9999 29/11 Q1008 BLU/;
0076102340999992009082416204+53133+009350FM-15+0061ETGQ V0201501N002112200019N0112651N1+02901+01201999999ADDMA1100711999999REMMET049METAR ETGQ 241620Z 15004KT 9999 29/12 Q1007 BLU/;
0125102340999992009082417204+53133+009350FM-15+0061ETGQ V0201501N002612200019N0112651N1+02901+01201999999ADDGA1021+039001999GF102991999999999999999999MA1100711999999REMMET056METAR ETGQ 241720Z 15005KT 9999 FEW130 29/12 Q1007 BLU/;
0125102340999992009082418204+53133+009350FM-15+0061ETGQ V0201201N002112200019N0112651N1+02701+01301999999ADDGA1041+045001999GF104991999999999999999999MA1100711999999REMMET056METAR ETGQ 241820Z 12004KT 9999 SCT150 27/13 Q1007 BLU/;
0160102340999992009082503084+53133+009350FM-16+0061ETGQ V0203601N001510240019N0112651N1+01901+01501999999ADDGA1041+012001091GA2071+024001999GF107991999999999999999999MA1101021999999MW1171REMMET069SPECI ETGQ 250308Z 36003KT 9999 VCTS SCT040CB BKN080 19/15 Q1010 BLU;
0130102340999992009082504204+53133+009350FM-15+0061ETGQ V0203101N000512200019N0112651N1+01801+01401999999ADDGA1041+036001999GF104991999999999999999999MA1101021999999REMMET061METAR ETGQ 250420Z 31001KT 9999 SCT120 18/14 Q1010 RETS BLU/;
0129102340999992009082505204+53133+009350FM-15+0061ETGQ V0201601N002110390019N0112651N1+01901+01501999999ADDGA1071+039001999GF107991999999999999999999MA1100911999999REMMET060METAR ETGQ 250520Z 16004KT 9999 BKN130 19/15 Q1009 RETS BLU;
0124102340999992009082506204+53133+009350FM-15+0061ETGQ V0201501N001510450019N0112651N1+01901+01501999999ADDGA1071+045001999GF107991999999999999999999MA1101021999999REMMET055METAR ETGQ 250620Z 15003KT 9999 BKN150 19/15 Q1010 BLU;
0124102340999992009082507204+53133+009350FM-15+0061ETGQ V0200701N000510180019N0112651N1+02001+01501999999ADDGA1071+018001999GF107991999999999999999999MA1101021999999REMMET055METAR ETGQ 250720Z 07001KT 9999 BKN060 20/15 Q1010 BLU;
0167102340999992009082507334+53133+009350FM-16+0061ETGQ V0209999V001010210019N0080001N1+02001+01501999999ADDGA1041+006001091GA2071+021001999GF107991999999999999999999MA1101021999999MW1801MW2951REMMET070SPECI ETGQ 250733Z VRB02KT 8000 -TSRA SCT020CB BKN070 20/15 Q1010 BLU;
0175102340999992009082508204+53133+009350FM-15+0061ETGQ V0209999V00101018001CN0112651N1+02101+01501999999ADDGA1021+006001999GA2041+018001999GA3071+039001999GF107991999999999999999999MA1101081999999REMMET074METAR ETGQ 250820Z VRB02KT 9999 FEW020 SCT060 BKN130 21/15 Q1011 RETS BLU;
0171102340999992009082509204+53133+009350FM-15+0061ETGQ V0203201N00151039001CN0112651N1+02001+01501999999ADDGA1041+012001999GA2041+039001999GA3071+090001999GF107991999999999999999999MA1101081999999REMMET070METAR ETGQ 250920Z 32003KT 9999 SCT040 SCT130 BKN300 20/15 Q1011 BLU/;
0147102340999992009082510204+53133+009350FM-15+0061ETGQ V0209999V000510480019N0112651N1+02201+01501999999ADDGA1041+015001999GA2071+048001999GF107991999999999999999999MA1101081999999REMMET062METAR ETGQ 251020Z VRB01KT 9999 SCT050 BKN160 22/15 Q1011 BLU;
0147102340999992009082511204+53133+009350FM-15+0061ETGQ V0209999V001010450019N0112651N1+02501+01501999999ADDGA1021+012001999GA2071+045001999GF107991999999999999999999MA1101021999999REMMET062METAR ETGQ 251120Z VRB02KT 9999 FEW040 BKN150 25/15 Q1010 BLU;
0147102340999992009082512204+53133+009350FM-15+0061ETGQ V0202001N002110390019N0112651N1+02701+01501999999ADDGA1041+015001999GA2071+039001999GF107991999999999999999999MA1101021999999REMMET062METAR ETGQ 251220Z 20004KT 9999 SCT050 BKN130 27/15 Q1010 BLU;
0170102340999992009082513204+53133+009350FM-15+0061ETGQ V0202601N00261021001CN0112651N1+02601+01501999999ADDGA1021+013501999GA2041+021001999GA3071+042001999GF107991999999999999999999MA1101021999999REMMET069METAR ETGQ 251320Z 26005KT 9999 FEW045 SCT070 BKN140 26/15 Q1010 BLU;
0171102340999992009082514204+53133+009350FM-15+0061ETGQ V0202501N00261042001CN0112651N1+02701+01401999999ADDGA1021+015001999GA2041+042001999GA3071+060001999GF107991999999999999999999MA1101021999999REMMET070METAR ETGQ 251420Z 25005KT 9999 FEW050 SCT140 BKN200 27/14 Q1010 BLU/;
0147102340999992009082515204+53133+009350FM-15+0061ETGQ V0202401N003110270019N0112651N1+02501+01401999999ADDGA1021+015001999GA2071+027001999GF107991999999999999999999MA1101081999999REMMET062METAR ETGQ 251520Z 24006KT 9999 FEW050 BKN090 25/14 Q1011 BLU;
0147102340999992009082516204+53133+009350FM-15+0061ETGQ V0202001N003110330019N0112651N1+02401+01401999999ADDGA1021+015001999GA2071+033001999GF107991999999999999999999MA1101081999999REMMET062METAR ETGQ 251620Z 20006KT 9999 FEW050 BKN110 24/14 Q1011 BLU;
0147102340999992009082517204+53133+009350FM-15+0061ETGQ V0201601N001510390019N0112651N1+02301+01601999999ADDGA1021+012001999GA2071+039001999GF107991999999999999999999MA1101081999999REMMET062METAR ETGQ 251720Z 16003KT 9999 FEW040 BKN130 23/16 Q1011 BLU;
0147102340999992009082518204+53133+009350FM-15+0061ETGQ V0201901N002110390019N0112651N1+02201+01601999999ADDGA1021+012001999GA2071+039001999GF107991999999999999999999MA1101191999999REMMET062METAR ETGQ 251820Z 19004KT 9999 FEW040 BKN130 22/16 Q1012 BLU;
0125102340999992009082604204+53133+009350FM-15+0061ETGQ V0209999V000512200019N0112651N1+01401+01201999999ADDGA1041+021001999GF104991999999999999999999MA1101591999999REMMET056METAR ETGQ 260420Z VRB01KT 9999 SCT070 14/12 Q1016 BLU/;
0125102340999992009082605204+53133+009350FM-15+0061ETGQ V0201701N001012200019N0112651N1+01501+01301999999ADDGA1041+105001999GF104991999999999999999999MA1101591999999REMMET056METAR ETGQ 260520Z 17002KT 9999 SCT350 15/13 Q1016 BLU/;
0125102340999992009082606204+53133+009350FM-15+0061ETGQ V0209999V000510900019N0112651N1+01601+01301999999ADDGA1071+090001999GF107991999999999999999999MA1101691999999REMMET056METAR ETGQ 260620Z VRB01KT 9999 BKN300 16/13 Q1017 BLU/;
0125102340999992009082607204+53133+009350FM-15+0061ETGQ V0209999V001011050019N0112651N1+01701+01301999999ADDGA1071+105001999GF107991999999999999999999MA1101691999999REMMET056METAR ETGQ 260720Z VRB02KT 9999 BKN360 17/13 Q1017 BLU/;
0125102340999992009082608204+53133+009350FM-15+0061ETGQ V0200201N000511050019N0112651N1+01901+01301999999ADDGA1071+105001999GF107991999999999999999999MA1101691999999REMMET056METAR ETGQ 260820Z 02001KT 9999 BKN360 19/13 Q1017 BLU/;
0148102340999992009082609204+53133+009350FM-15+0061ETGQ V0209999V001011050019N0112651N1+02101+01101999999ADDGA1021+015001999GA2071+105001999GF107991999999999999999999MA1101691999999REMMET063METAR ETGQ 260920Z VRB02KT 9999 FEW050 BKN360 21/11 Q1017 BLU/;
0148102340999992009082610204+53133+009350FM-15+0061ETGQ V0201001N001511050019N0112651N1+02301+00901999999ADDGA1021+015001999GA2071+105001999GF107991999999999999999999MA1101591999999REMMET063METAR ETGQ 261020Z 10003KT 9999 FEW050 BKN360 23/09 Q1016 BLU/;
0148102340999992009082611204+53133+009350FM-15+0061ETGQ V0201401N001512200019N0112651N1+02401+00901999999ADDGA1021+018001999GA2041+105001999GF104991999999999999999999MA1101591999999REMMET063METAR ETGQ 261120Z 14003KT 9999 FEW060 SCT350 24/09 Q1016 BLU/;
0125102340999992009082612204+53133+009350FM-15+0061ETGQ V0202201N001512200019N0112651N1+02501+00901999999ADDGA1041+018001999GF104991999999999999999999MA1101591999999REMMET056METAR ETGQ 261220Z 22003KT 9999 SCT060 25/09 Q1016 BLU/;
0125102340999992009082613204+53133+009350FM-15+0061ETGQ V0201301N003112200019N0112651N1+02501+01101999999ADDGA1041+018001999GF104991999999999999999999MA1101491999999REMMET056METAR ETGQ 261320Z 13006KT 9999 SCT060 25/11 Q1015 BLU/;
0125102340999992009082614204+53133+009350FM-15+0061ETGQ V0201701N002112200019N0112651N1+02501+01101999999ADDGA1041+018001999GF104991999999999999999999MA1101491999999REMMET056METAR ETGQ 261420Z 17004KT 9999 SCT060 25/11 Q1015 BLU/;
0148102340999992009082615204+53133+009350FM-15+0061ETGQ V0209999V001012200019N0112651N1+02501+01201999999ADDGA1041+018001999GA2041+090001999GF104991999999999999999999MA1101491999999REMMET063METAR ETGQ 261520Z VRB02KT 9999 SCT060 SCT300 25/12 Q1015 BLU/;
0148102340999992009082616204+53133+009350FM-15+0061ETGQ V0202301N002612200019N0112651N1+02601+01001999999ADDGA1041+018001999GA2041+090001999GF104991999999999999999999MA1101391999999REMMET063METAR ETGQ 261620Z 23005KT 9999 SCT060 SCT300 26/10 Q1014 BLU/;
0148102340999992009082617204+53133+009350FM-15+0061ETGQ V0201901N001510900019N0112651N1+02501+01001999999ADDGA1021+021001999GA2071+090001999GF107991999999999999999999MA1101391999999REMMET063METAR ETGQ 261720Z 19003KT 9999 FEW070 BKN300 25/10 Q1014 BLU/;
0124102340999992009082618204+53133+009350FM-15+0061ETGQ V0209999C000010540019N0112651N1+02301+01101999999ADDGA1071+054001999GF107991999999999999999999MA1101491999999REMMET055METAR ETGQ 261820Z 00000KT 9999 BKN180 23/11 Q1015 BLU;
0125102340999992009082704204+53133+009350FM-15+0061ETGQ V0201401N001512200019N0112651N1+01601+01501999999ADDGA1021+015001999GF102991999999999999999999MA1101691999999REMMET056METAR ETGQ 270420Z 14003KT 9999 FEW050 16/15 Q1017 BLU/;
0125102340999992009082705204+53133+009350FM-15+0061ETGQ V0202201N000512200019N0112651N1+01601+01501999999ADDGA1021+015001999GF102991999999999999999999MA1101691999999REMMET056METAR ETGQ 270520Z 22001KT 9999 FEW050 16/15 Q1017 BLU/;
0125102340999992009082706204+53133+009350FM-15+0061ETGQ V0202201N001012200019N0112651N1+01801+01501999999ADDGA1021+078001999GF102991999999999999999999MA1101691999999REMMET056METAR ETGQ 270620Z 22002KT 9999 FEW260 18/15 Q1017 BLU/;
0125102340999992009082707204+53133+009350FM-15+0061ETGQ V0201401N001512200019N0112651N1+02001+01501999999ADDGA1021+078001999GF102991999999999999999999MA1101691999999REMMET056METAR ETGQ 270720Z 14003KT 9999 FEW260 20/15 Q1017 BLU/;
0125102340999992009082708204+53133+009350FM-15+0061ETGQ V0201301N001512200019N0112651N1+02301+01501999999ADDGA1021+009001999GF102991999999999999999999MA1101691999999REMMET056METAR ETGQ 270820Z 13003KT 9999 FEW030 23/15 Q1017 BLU/;
0125102340999992009082709204+53133+009350FM-15+0061ETGQ V0202201N001512200019N0112651N1+02601+01301999999ADDGA1021+013501999GF102991999999999999999999MA1101691999999REMMET056METAR ETGQ 270920Z 22003KT 9999 FEW045 26/13 Q1017 BLU/;
0125102340999992009082710204+53133+009350FM-15+0061ETGQ V0202101N003612200019N0112651N1+02701+01101999999ADDGA1021+015001999GF102991999999999999999999MA1101591999999REMMET056METAR ETGQ 271020Z 21007KT 9999 FEW050 27/11 Q1016 BLU/;
0125102340999992009082711204+53133+009350FM-15+0061ETGQ V0202101N003112200019N0112651N1+02801+01001999999ADDGA1041+018001999GF104991999999999999999999MA1101591999999REMMET056METAR ETGQ 271120Z 21006KT 9999 SCT060 28/10 Q1016 BLU/;
0125102340999992009082712204+53133+009350FM-15+0061ETGQ V0202201N002112200019N0112651N1+02901+01001999999ADDGA1041+015001999GF104991999999999999999999MA1101491999999REMMET056METAR ETGQ 271220Z 22004KT 9999 SCT050 29/10 Q1015 BLU/;
0136102340999992009082713204+53133+009350FM-15+0061ETGQ V0201901N002112200019N0112651N1+02901+01001999999ADDGA1041+015001999GF104991999999999999999999MA1101491999999OC100771REMMET059METAR ETGQ 271320Z 19004G15KT 9999 SCT050 29/10 Q1015 BLU/;
0125102340999992009082714204+53133+009350FM-15+0061ETGQ V0202001N002612200019N0112651N1+03001+01001999999ADDGA1041+015001999GF104991999999999999999999MA1101491999999REMMET056METAR ETGQ 271420Z 20005KT 9999 SCT050 30/10 Q1015 BLU/;
0124102340999992009082715204+53133+009350FM-15+0061ETGQ V0202201N001510210019N0112651N1+02801+01101999999ADDGA1071+021001999GF107991999999999999999999MA1101391999999REMMET055METAR ETGQ 271520Z 22003KT 9999 BKN070 28/11 Q1014 BLU;
0124102340999992009082716204+53133+009350FM-15+0061ETGQ V0202101N002610210019N0112651N1+02901+01101999999ADDGA1071+021001999GF107991999999999999999999MA1101391999999REMMET055METAR ETGQ 271620Z 21005KT 9999 BKN070 29/11 Q1014 BLU;
0124102340999992009082717204+53133+009350FM-15+0061ETGQ V0202101N001510210019N0112651N1+02801+01101999999ADDGA1071+021001999GF107991999999999999999999MA1101391999999REMMET055METAR ETGQ 271720Z 21003KT 9999 BKN070 28/11 Q1014 BLU;
0125102340999992009082718204+53133+009350FM-15+0061ETGQ V0202701N001012200019N0112651N1+02601+01101999999ADDGA1021+021001999GF102991999999999999999999MA1101391999999REMMET056METAR ETGQ 271820Z 27002KT 9999 FEW070 26/11 Q1014 BLU/;
0147102340999992009082804204+53133+009350FM-15+0061ETGQ V0202401N000510210019N0112651N1+01901+01401999999ADDGA1021+012001999GA2071+021001999GF107991999999999999999999MA1101191999999REMMET062METAR ETGQ 280420Z 24001KT 9999 FEW040 BKN070 19/14 Q1012 BLU;
0124102340999992009082805204+53133+009350FM-15+0061ETGQ V0209999C000010210019N0112651N1+01901+01401999999ADDGA1071+021001999GF107991999999999999999999MA1101191999999REMMET055METAR ETGQ 280520Z 00000KT 9999 BKN070 19/14 Q1012 BLU;
0147102340999992009082806204+53133+009350FM-15+0061ETGQ V0202001N002110420019N0112651N1+02001+01401999999ADDGA1041+021001999GA2071+042001999GF107991999999999999999999MA1101191999999REMMET062METAR ETGQ 280620Z 20004KT 9999 SCT070 BKN140 20/14 Q1012 BLU;
0147102340999992009082807204+53133+009350FM-15+0061ETGQ V0201901N002610480019N0112651N1+02101+01401999999ADDGA1041+012001999GA2071+048001999GF107991999999999999999999MA1101291999999REMMET062METAR ETGQ 280720Z 19005KT 9999 SCT040 BKN160 21/14 Q1013 BLU;
0124102340999992009082808204+53133+009350FM-15+0061ETGQ V0202101N003610138019N0112651N1+02101+01401999999ADDGA1071+013801999GF107991999999999999999999MA1101291999999REMMET055METAR ETGQ 280820Z 21007KT 9999 BKN046 21/14 Q1013 BLU;
0125102340999992009082809204+53133+009350FM-15+0061ETGQ V0202101N003112200019N0112651N1+02101+01301999999ADDGA1041+015001999GF104991999999999999999999MA1101291999999REMMET056METAR ETGQ 280920Z 21006KT 9999 SCT050 21/13 Q1013 BLU/;
0124102340999992009082810204+53133+009350FM-15+0061ETGQ V0202501N002610180019N0112651N1+02301+01201999999ADDGA1071+018001999GF107991999999999999999999MA1101291999999REMMET055METAR ETGQ 281020Z 25005KT 9999 BKN060 23/12 Q1013 BLU;
0147102340999992009082811204+53133+009350FM-15+0061ETGQ V0202501N003610150019N0112651N1+02201+01101999999ADDGA1021+012001999GA2071+015001999GF107991999999999999999999MA1101291999999REMMET062METAR ETGQ 281120Z 25007KT 9999 FEW040 BKN050 22/11 Q1013 BLU;
0124102340999992009082812204+53133+009350FM-15+0061ETGQ V0202501N003610135019N0112651N1+02301+01201999999ADDGA1071+013501999GF107991999999999999999999MA1101291999999REMMET055METAR ETGQ 281220Z 25007KT 9999 BKN045 23/12 Q1013 BLU;
0136102340999992009082813204+53133+009350FM-15+0061ETGQ V0202601N003612200019N0112651N1+02301+01001999999ADDGA1041+013501999GF104991999999999999999999MA1101391999999OC100981REMMET059METAR ETGQ 281320Z 26007G19KT 9999 SCT045 23/10 Q1014 BLU/;
0136102340999992009082814204+53133+009350FM-15+0061ETGQ V0202501N003612200019N0112651N1+02301+00801999999ADDGA1041+015001999GF104991999999999999999999MA1101291999999OC100871REMMET059METAR ETGQ 281420Z 25007G17KT 9999 SCT050 23/08 Q1013 BLU/;
0125102340999992009082815204+53133+009350FM-15+0061ETGQ V0202401N003612200019N0112651N1+02201+00801999999ADDGA1041+018001999GF104991999999999999999999MA1101391999999REMMET056METAR ETGQ 281520Z 24007KT 9999 SCT060 22/08 Q1014 BLU/;
0136102340999992009082816204+53133+009350FM-15+0061ETGQ V0202701N004612200019N0112651N1+02201+00501999999ADDGA1041+021001999GF104991999999999999999999MA1101391999999OC101031REMMET059METAR ETGQ 281620Z 27009G20KT 9999 SCT070 22/05 Q1014 BLU/;
0125102340999992009082817204+53133+009350FM-15+0061ETGQ V0202601N003612200019N0112651N1+02101+00501999999ADDGA1041+021001999GF104991999999999999999999MA1101391999999REMMET056METAR ETGQ 281720Z 26007KT 9999 SCT070 21/05 Q1014 BLU/;
0125102340999992009082818204+53133+009350FM-15+0061ETGQ V0202401N002112200019N0112651N1+01901+00501999999ADDGA1021+021001999GF102991999999999999999999MA1101491999999REMMET056METAR ETGQ 281820Z 24004KT 9999 FEW070 19/05 Q1015 BLU/;
0125102340999992009083104204+53133+009350FM-15+0061ETGQ V0201601N001012200019N0112651N1+01001+00801999999ADDGA1021+105001999GF102991999999999999999999MA1102001999999REMMET056METAR ETGQ 310420Z 16002KT 9999 FEW350 10/08 Q1020 BLU/;
0125102340999992009083105204+53133+009350FM-15+0061ETGQ V0201601N001012200019N0112651N1+01101+00801999999ADDGA1041+105001999GF104991999999999999999999MA1102001999999REMMET056METAR ETGQ 310520Z 16002KT 9999 SCT350 11/08 Q1020 BLU/;
0125102340999992009083106204+53133+009350FM-15+0061ETGQ V0201601N001012200019N0112651N1+01201+00901999999ADDGA1041+105001999GF104991999999999999999999MA1102101999999REMMET056METAR ETGQ 310620Z 16002KT 9999 SCT360 12/09 Q1021 BLU/;
0125102340999992009083107204+53133+009350FM-15+0061ETGQ V0209999V000512200019N0112651N1+01401+00801999999ADDGA1041+105001999GF104991999999999999999999MA1102001999999REMMET056METAR ETGQ 310720Z VRB01KT 9999 SCT360 14/08 Q1020 BLU/;
0125102340999992009083108204+53133+009350FM-15+0061ETGQ V0209999V001011050019N0112651N1+01701+00801999999ADDGA1071+105001999GF107991999999999999999999MA1102001999999REMMET056METAR ETGQ 310820Z VRB02KT 9999 BKN360 17/08 Q1020 BLU/;
0125102340999992009083109204+53133+009350FM-15+0061ETGQ V0209999V000511050019N0112651N1+02001+00801999999ADDGA1071+105001999GF107991999999999999999999MA1101901999999REMMET056METAR ETGQ 310920Z VRB01KT 9999 BKN360 20/08 Q1019 BLU/;
0125102340999992009083110204+53133+009350FM-15+0061ETGQ V0209999V001011050019N0112651N1+02301+00701999999ADDGA1071+105001999GF107991999999999999999999MA1101901999999REMMET056METAR ETGQ 311020Z VRB02KT 9999 BKN360 23/07 Q1019 BLU/;
0125102340999992009083111204+53133+009350FM-15+0061ETGQ V0201601N002111050019N0112651N1+02501+00601999999ADDGA1071+105001999GF107991999999999999999999MA1101801999999REMMET056METAR ETGQ 311120Z 16004KT 9999 BKN370 25/06 Q1018 BLU/;
0125102340999992009083112204+53133+009350FM-15+0061ETGQ V0201501N001512200019N0112651N1+02601+00601999999ADDGA1041+105001999GF104991999999999999999999MA1101691999999REMMET056METAR ETGQ 311220Z 15003KT 9999 SCT350 26/06 Q1017 BLU/;
0125102340999992009083113204+53133+009350FM-15+0061ETGQ V0201501N003112200019N0112651N1+02601+00501999999ADDGA1041+090001999GF104991999999999999999999MA1101591999999REMMET056METAR ETGQ 311320Z 15006KT 9999 SCT300 26/05 Q1016 BLU/;
0125102340999992009083114204+53133+009350FM-15+0061ETGQ V0201601N002112200019N0112651N1+02701+00501999999ADDGA1021+090001999GF102991999999999999999999MA1101491999999REMMET056METAR ETGQ 311420Z 16004KT 9999 FEW300 27/05 Q1015 BLU/;
0125102340999992009083115204+53133+009350FM-15+0061ETGQ V0201601N002612200019N0112651N1+02701+00501999999ADDGA1021+090001999GF102991999999999999999999MA1101391999999REMMET056METAR ETGQ 311520Z 16005KT 9999 FEW300 27/05 Q1014 BLU/;
0076102340999992009083116204+53133+009350FM-15+0061ETGQ V0201401N002612200019N0112651N1+02701+00501999999ADDMA1101391999999REMMET049METAR ETGQ 311620Z 14005KT 9999 27/05 Q1014 BLU/;
0076102340999992009083117204+53133+009350FM-15+0061ETGQ V0201301N002612200019N0112651N1+02601+00401999999ADDMA1101291999999REMMET049METAR ETGQ 311720Z 13005KT 9999 26/04 Q1013 BLU/;
0076102340999992009090104204+53133+009350FM-15+0061ETGQ V0202301N000512200019N0112651N1+01301+01001999999ADDMA1101081999999REMMET049METAR ETGQ 010420Z 23001KT 9999 13/10 Q1011 BLU/;
0125102340999992009090105204+53133+009350FM-15+0061ETGQ V0209999C000012200019N0112651N1+01301+01001999999ADDGA1021+015001999GF102991999999999999999999MA1101191999999REMMET056METAR ETGQ 010520Z 00000KT 9999 FEW050 13/10 Q1012 BLU/;
0076102340999992009090106204+53133+009350FM-15+0061ETGQ V0209999V000512200019N0112651N1+01701+01201999999ADDMA1101191999999REMMET049METAR ETGQ 010620Z VRB01KT 9999 17/12 Q1012 BLU/;
0125102340999992009090107204+53133+009350FM-15+0061ETGQ V0201801N001012200019N0112651N1+01901+01101999999ADDGA1021+045001999GF102991999999999999999999MA1101081999999REMMET056METAR ETGQ 010720Z 18002KT 9999 FEW150 19/11 Q1011 BLU/;
0125102340999992009090108204+53133+009350FM-15+0061ETGQ V0201401N001512200019N0112651N1+02301+01201999999ADDGA1021+045001999GF102991999999999999999999MA1101191999999REMMET056METAR ETGQ 010820Z 14003KT 9999 FEW150 23/12 Q1012 BLU/;
0148102340999992009090109204+53133+009350FM-15+0061ETGQ V0201801N002612200019N0112651N1+02701+01301999999ADDGA1021+045001999GA2041+090001999GF104991999999999999999999MA1101191999999REMMET063METAR ETGQ 010920Z 18005KT 9999 FEW150 SCT300 27/13 Q1012 BLU/;
0125102340999992009090110204+53133+009350FM-15+0061ETGQ V0202001N001512200019N0112651N1+02901+01201999999ADDGA1041+036001999GF104991999999999999999999MA1101081999999REMMET056METAR ETGQ 011020Z 20003KT 9999 SCT120 29/12 Q1011 BLU/;
0124102340999992009090111204+53133+009350FM-15+0061ETGQ V0202001N002110360019N0112651N1+02801+01201999999ADDGA1071+036001999GF107991999999999999999999MA1101081999999REMMET055METAR ETGQ 011120Z 20004KT 9999 BKN120 28/12 Q1011 BLU;
0124102340999992009090112204+53133+009350FM-15+0061ETGQ V0202501N001510390019N0112651N1+02901+01301999999ADDGA1071+039001999GF107991999999999999999999MA1101081999999REMMET055METAR ETGQ 011220Z 25003KT 9999 BKN130 29/13 Q1011 BLU;
0147102340999992009090113204+53133+009350FM-15+0061ETGQ V0202901N004110210019N0112651N1+02701+01201999999ADDGA1071+021001999GA2071+039001999GF107991999999999999999999MA1101191999999REMMET062METAR ETGQ 011320Z 29008KT 9999 BKN070 BKN130 27/12 Q1012 BLU;
0147102340999992009090114204+53133+009350FM-15+0061ETGQ V0202601N004110270019N0112651N1+02401+01401999999ADDGA1041+012001999GA2071+027001999GF107991999999999999999999MA1101291999999REMMET062METAR ETGQ 011420Z 26008KT 9999 SCT040 BKN090 24/14 Q1013 BLU;
0157102340999992009090115204+53133+009350FM-15+0061ETGQ V0201901N001510240019N0112651N1+02101+01601999999ADDGA1041+018001999GA2081+024001999GF108991999999999999999999MA1101291999999MW1611REMMET066METAR ETGQ 011520Z 19003KT 9999 -RA SCT060 OVC080 21/16 Q1013 BLU;
0180102340999992009090116204+53133+009350FM-15+0061ETGQ V0201901N00101015001CN0112651N1+02001+01701999999ADDGA1021+007501999GA2041+015001999GA3081+030001999GF108991999999999999999999MA1101291999999MW1611REMMET073METAR ETGQ 011620Z 19002KT 9999 -RA FEW025 SCT050 OVC100 20/17 Q1013 BLU;
0170102340999992009090117204+53133+009350FM-15+0061ETGQ V0202201N000510210019N0112651N1+01901+01701999999ADDGA1021+003901999GA2071+021001999GA3071+033001999GF107991999999999999999999MA1101191999999REMMET069METAR ETGQ 011720Z 22001KT 9999 FEW013 BKN070 BKN110 19/17 Q1012 BLU;
0147102340999992009090118204+53133+009350FM-15+0061ETGQ V0201301N000510084019N0112651N1+01901+01801999999ADDGA1021+003901999GA2071+008401999GF107991999999999999999999MA1101291999999REMMET062METAR ETGQ 011820Z 13001KT 9999 FEW013 BKN028 19/18 Q1013 BLU;
0125102340999992009090204204+53133+009350FM-15+0061ETGQ V0201501N001012200019N0112651N1+02001+01801999999ADDGA1041+010501999GF104991999999999999999999MA1101291999999REMMET056METAR ETGQ 020420Z 15002KT 9999 SCT035 20/18 Q1013 BLU/;
0125102340999992009090205204+53133+009350FM-15+0061ETGQ V0209999V001012200019N0112651N1+01501+01301999999ADDGA1021+004501999GF102991999999999999999999MA1101591999999REMMET056METAR ETGQ 020520Z VRB02KT 9999 FEW015 15/13 Q1016 BLU/;
0148102340999992009090206204+53133+009350FM-15+0061ETGQ V0209999V000510750019N0112651N1+01601+01301999999ADDGA1021+004501999GA2071+075001999GF107991999999999999999999MA1101591999999REMMET063METAR ETGQ 020620Z VRB01KT 9999 FEW015 BKN250 16/13 Q1016 BLU/;
0148102340999992009090207204+53133+009350FM-15+0061ETGQ V0209999V001010630019N0112651N1+01801+01301999999ADDGA1021+006001999GA2071+063001999GF107991999999999999999999MA1101691999999REMMET063METAR ETGQ 020720Z VRB02KT 9999 FEW020 BKN210 18/13 Q1017 BLU/;
0148102340999992009090208204+53133+009350FM-15+0061ETGQ V0202201N001510600019N0112651N1+01901+01201999999ADDGA1021+006601999GA2071+060001999GF107991999999999999999999MA1101591999999REMMET063METAR ETGQ 020820Z 22003KT 9999 FEW022 BKN200 19/12 Q1016 BLU/;
0148102340999992009090209204+53133+009350FM-15+0061ETGQ V0202201N002112200019N0112651N1+01901+01201999999ADDGA1021+008101999GA2041+060001999GF104991999999999999999999MA1101691999999REMMET063METAR ETGQ 020920Z 22004KT 9999 FEW027 SCT200 19/12 Q1017 BLU/;
0148102340999992009090210204+53133+009350FM-15+0061ETGQ V0201901N002112200019N0112651N1+02101+01101999999ADDGA1041+009001999GA2041+060001999GF104991999999999999999999MA1101591999999REMMET063METAR ETGQ 021020Z 19004KT 9999 SCT030 SCT200 21/11 Q1016 BLU/;
0147102340999992009090211204+53133+009350FM-15+0061ETGQ V0202201N002610540019N0112651N1+02101+01001999999ADDGA1041+012001999GA2071+054001999GF107991999999999999999999MA1101491999999REMMET062METAR ETGQ 021120Z 22005KT 9999 SCT040 BKN180 21/10 Q1015 BLU;
0147102340999992009090212204+53133+009350FM-15+0061ETGQ V0201901N002610480019N0112651N1+02101+00801999999ADDGA1041+018001999GA2071+048001999GF107991999999999999999999MA1101491999999REMMET062METAR ETGQ 021220Z 19005KT 9999 SCT060 BKN160 21/08 Q1015 BLU;
0147102340999992009090213204+53133+009350FM-15+0061ETGQ V0202001N002610510019N0112651N1+02101+00901999999ADDGA1041+018001999GA2071+051001999GF107991999999999999999999MA1101391999999REMMET062METAR ETGQ 021320Z 20005KT 9999 SCT060 BKN170 21/09 Q1014 BLU;
0147102340999992009090214204+53133+009350FM-15+0061ETGQ V0200601N002610450019N0112651N1+02101+00801999999ADDGA1041+015001999GA2071+045001999GF107991999999999999999999MA1101291999999REMMET062METAR ETGQ 021420Z 06005KT 9999 SCT050 BKN150 21/08 Q1013 BLU;
0147102340999992009090215204+53133+009350FM-15+0061ETGQ V0202301N002110390019N0112651N1+02101+00801999999ADDGA1041+018001999GA2071+039001999GF107991999999999999999999MA1101291999999REMMET062METAR ETGQ 021520Z 23004KT 9999 SCT060 BKN130 21/08 Q1013 BLU;
0147102340999992009090216204+53133+009350FM-15+0061ETGQ V0202001N002610360019N0112651N1+02101+00801999999ADDGA1041+018001999GA2071+036001999GF107991999999999999999999MA1101191999999REMMET062METAR ETGQ 021620Z 20005KT 9999 SCT060 BKN120 21/08 Q1012 BLU;
0125102340999992009090217204+53133+009350FM-15+0061ETGQ V0202301N002112200019N0112651N1+02001+00701999999ADDGA1041+015001999GF104991999999999999999999MA1101191999999REMMET056METAR ETGQ 021720Z 23004KT 9999 SCT050 20/07 Q1012 BLU/;
0125102340999992009090218204+53133+009350FM-15+0061ETGQ V0202201N000512200019N0112651N1+01801+00801999999ADDGA1041+045001999GF104991999999999999999999MA1101191999999REMMET056METAR ETGQ 021820Z 22001KT 9999 SCT150 18/08 Q1012 BLU/;
0147102340999992009090304204+53133+009350FM-15+0061ETGQ V0201401N002110120019N0112651N1+01601+01301999999ADDGA1021+006001999GA2071+012001999GF107991999999999999999999MA1100311999999REMMET062METAR ETGQ 030420Z 14004KT 9999 FEW020 BKN040 16/13 Q1003 BLU;
0147102340999992009090305204+53133+009350FM-15+0061ETGQ V0201601N002110075019N0112651N1+01501+01301999999ADDGA1021+003601999GA2071+007501999GF107991999999999999999999MA1100201999999REMMET062METAR ETGQ 030520Z 16004KT 9999 FEW012 BKN025 15/13 Q1002 BLU;
0148102340999992009090306204+53133+009350FM-15+0061ETGQ V0201501N001512200019N0112651N1+01601+01401999999ADDGA1021+004501999GA2041+007501999GF104991999999999999999999MA1100201999999REMMET063METAR ETGQ 030620Z 15003KT 9999 FEW015 SCT025 16/14 Q1002 BLU/;
0125102340999992009090307204+53133+009350FM-15+0061ETGQ V0202001N002612200019N0112651N1+01701+01401999999ADDGA1041+006001999GF104991999999999999999999MA1100201999999REMMET056METAR ETGQ 030720Z 20005KT 9999 SCT020 17/14 Q1002 BLU/;
0148102340999992009090308204+53133+009350FM-15+0061ETGQ V0202201N003612200019N0112651N1+01901+01301999999ADDGA1041+006601999GA2041+009901999GF104991999999999999999999MA1100201999999REMMET063METAR ETGQ 030820Z 22007KT 9999 SCT022 SCT033 19/13 Q1002 BLU/;
0147102340999992009090309204+53133+009350FM-15+0061ETGQ V0202001N004610120019N0112651N1+01801+01201999999ADDGA1041+007501999GA2071+012001999GF107991999999999999999999MA1100311999999REMMET062METAR ETGQ 030920Z 20009KT 9999 SCT025 BKN040 18/12 Q1003 BLU;
0124102340999992009090310204+53133+009350FM-15+0061ETGQ V0202201N005710096019N0112651N1+01901+01001999999ADDGA1071+009601999GF107991999999999999999999MA1100311999999REMMET055METAR ETGQ 031020Z 22011KT 9999 BKN032 19/10 Q1003 BLU;
0124102340999992009090311204+53133+009350FM-15+0061ETGQ V0202201N003610150019N0112651N1+02101+00801999999ADDGA1071+015001999GF107991999999999999999999MA1100411999999REMMET055METAR ETGQ 031120Z 22007KT 9999 BKN050 21/08 Q1004 BLU;
0135102340999992009090312204+53133+009350FM-15+0061ETGQ V0202301N004110150019N0112651N1+02101+00801999999ADDGA1071+015001999GF107991999999999999999999MA1100411999999OC100931REMMET058METAR ETGQ 031220Z 23008G18KT 9999 BKN050 21/08 Q1004 BLU;
0158102340999992009090313204+53133+009350FM-15+0061ETGQ V0202301N004610240019N0112651N1+02101+00601999999ADDGA1041+015001999GA2071+024001999GF107991999999999999999999MA1100411999999OC101181REMMET065METAR ETGQ 031320Z 23009G23KT 9999 SCT050 BKN080 21/06 Q1004 BLU;
0158102340999992009090314204+53133+009350FM-15+0061ETGQ V0202301N005110240019N0112651N1+02001+00601999999ADDGA1041+015001999GA2071+024001999GF107991999999999999999999MA1100511999999OC101031REMMET065METAR ETGQ 031420Z 23010G20KT 9999 SCT050 BKN080 20/06 Q1005 BLU;
0147102340999992009090315204+53133+009350FM-15+0061ETGQ V0202801N003610270019N0112651N1+01901+00701999999ADDGA1041+018001999GA2071+027001999GF107991999999999999999999MA1100511999999REMMET062METAR ETGQ 031520Z 28007KT 9999 SCT060 BKN090 19/07 Q1005 BLU;
0124102340999992009090316204+53133+009350FM-15+0061ETGQ V0202601N002110150019N0112651N1+01501+01101999999ADDGA1071+015001999GF107991999999999999999999MA1100611999999REMMET055METAR ETGQ 031620Z 26004KT 9999 BKN050 15/11 Q1006 BLU;
0148102340999992009090317204+53133+009350FM-15+0061ETGQ V0203201N001512200019N0112651N1+01601+01001999999ADDGA1021+015001999GA2041+024001999GF104991999999999999999999MA1100611999999REMMET063METAR ETGQ 031720Z 32003KT 9999 FEW050 SCT080 16/10 Q1006 BLU/;
0148102340999992009090318204+53133+009350FM-15+0061ETGQ V0201601N001512200019N0112651N1+01601+01001999999ADDGA1021+015001999GA2041+027001999GF104991999999999999999999MA1100711999999REMMET063METAR ETGQ 031820Z 16003KT 9999 FEW050 SCT090 16/10 Q1007 BLU/;
0148102340999992009090404204+53133+009350FM-15+0061ETGQ V0202001N002112200019N0112651N1+01401+00901999999ADDGA1021+012001999GA2041+030001999GF104991999999999999999999MA1100711999999REMMET063METAR ETGQ 040420Z 20004KT 9999 FEW040 SCT100 14/09 Q1007 BLU/;
0136102340999992009090405204+53133+009350FM-15+0061ETGQ V0202101N002612200019N0112651N1+01401+00901999999ADDGA1041+010501999GF104991999999999999999999MA1100711999999OC100821REMMET059METAR ETGQ 040520Z 21005G16KT 9999 SCT035 14/09 Q1007 BLU/;
0125102340999992009090406204+53133+009350FM-15+0061ETGQ V0200301N002112200019N0112651N1+01401+00801999999ADDGA1021+010501999GF102991999999999999999999MA1100711999999REMMET056METAR ETGQ 040620Z 03004KT 9999 FEW035 14/08 Q1007 BLU/;
0125102340999992009090407204+53133+009350FM-15+0061ETGQ V0202101N003612200019N0112651N1+01501+00801999999ADDGA1021+010501999GF102991999999999999999999MA1100711999999REMMET056METAR ETGQ 040720Z 21007KT 9999 FEW035 15/08 Q1007 BLU/;
0125102340999992009090408204+53133+009350FM-15+0061ETGQ V0202201N003112200019N0112651N1+01601+00801999999ADDGA1041+009601999GF104991999999999999999999MA1100711999999REMMET056METAR ETGQ 040820Z 22006KT 9999 SCT032 16/08 Q1007 BLU/;
0147102340999992009090409204+53133+009350FM-15+0061ETGQ V0202101N003110120019N0112651N1+01701+00801999999ADDGA1021+009001999GA2071+012001999GF107991999999999999999999MA1100611999999REMMET062METAR ETGQ 040920Z 21006KT 9999 FEW030 BKN040 17/08 Q1006 BLU;
0147102340999992009090410204+53133+009350FM-15+0061ETGQ V0202001N002610240019N0112651N1+01701+00801999999ADDGA1041+010501999GA2071+024001999GF107991999999999999999999MA1100611999999REMMET062METAR ETGQ 041020Z 20005KT 9999 SCT035 BKN080 17/08 Q1006 BLU;
0134102340999992009090411204+53133+009350FM-15+0061ETGQ V0201801N001510108019N0112651N1+01501+01001999999ADDGA1081+010801999GF108991999999999999999999MA1100611999999MW1611REMMET059METAR ETGQ 041120Z 18003KT 9999 -RA OVC036 15/10 Q1006 BLU;
0142102340999992009090412204+53133+009350FM-15+0061ETGQ V0202801N001010054019N0050001N1+01301+01101999999ADDGA1081+005401999GF108991999999999999999999MA1100611999999MW1101MW2631REMMET061METAR ETGQ 041220Z 28002KT 5000 RA BR OVC018 13/11 Q1006 WHT;
0147102340999992009090414204+53133+009350FM-15+0061ETGQ V0202901N001510390019N0112651N1+01401+01201999999ADDGA1021+003601999GA2071+039001999GF107991999999999999999999MA1100611999999REMMET062METAR ETGQ 041420Z 29003KT 9999 FEW012 BKN130 14/12 Q1006 BLU;
0124102340999992009090415204+53133+009350FM-15+0061ETGQ V0202201N001510093019N0112651N1+01501+01201999999ADDGA1071+009301999GF107991999999999999999999MA1100611999999REMMET055METAR ETGQ 041520Z 22003KT 9999 BKN031 15/12 Q1006 BLU;
0152102340999992009090416204+53133+009350FM-15+0061ETGQ V0203401N002610210019N0112651N1+01401+01101999999ADDGA1041+009301999GA2071+021001999GF107991999999999999999999MA1100811999999REMMET067METAR ETGQ 041620Z 34005KT 9999 SCT031 BKN070 14/11 Q1008 RERA BLU;
0148102340999992009090417204+53133+009350FM-15+0061ETGQ V0202701N001512200019N0112651N1+01401+01101999999ADDGA1021+010201999GA2041+018001999GF104991999999999999999999MA1100911999999REMMET063METAR ETGQ 041720Z 27003KT 9999 FEW034 SCT060 14/11 Q1009 BLU/;
0125102340999992009090418204+53133+009350FM-15+0061ETGQ V0202201N002112200019N0112651N1+01301+00801999999ADDGA1021+021001999GF102991999999999999999999MA1101081999999REMMET056METAR ETGQ 041820Z 22004KT 9999 FEW070 13/08 Q1011 BLU/;
0147102340999992009090704204+53133+009350FM-15+0061ETGQ V0201601N001510600019N0060001N1+00901+00801999999ADDGA1021+001201999GA2071+060001999GF107991999999999999999999MA1102301999999REMMET062METAR ETGQ 070420Z 16003KT 6000 FEW004 BKN200 09/08 Q1023 WHT;
0133102340999992009090705204+53133+009350FM-15+0061ETGQ V0201901N001510009019N0040001N1+00901+00801999999ADDGA1071+000901999GF107991999999999999999999MA1102301999999MW1101REMMET058METAR ETGQ 070520Z 19003KT 4000 BR BKN003 09/08 Q1023 YLO;
0133102340999992009090706204+53133+009350FM-15+0061ETGQ V0201501N001510009019N0030001N1+01001+00901999999ADDGA1081+000901999GF108991999999999999999999MA1102301999999MW1101REMMET058METAR ETGQ 070620Z 15003KT 3000 BR OVC003 10/09 Q1023 YLO;
0147102340999992009090707204+53133+009350FM-15+0061ETGQ V0201601N001012200019N0060001N1+01101+00901999999ADDGA1041+001501999GA2041+075001999GF104991999999999999999999MA1102401999999REMMET062METAR ETGQ 070720Z 16002KT 6000 SCT005 SCT250 11/09 Q1024 WHT;
0125102340999992009090708204+53133+009350FM-15+0061ETGQ V0209999V001010750019N0080001N1+01301+01001999999ADDGA1071+075001999GF107991999999999999999999MA1102401999999REMMET056METAR ETGQ 070820Z VRB02KT 8000 BKN250 13/10 Q1024 BLU/;
0148102340999992009090709204+53133+009350FM-15+0061ETGQ V0209999V000510750019N0112651N1+01701+00901999999ADDGA1021+054001999GA2071+075001999GF107991999999999999999999MA1102301999999REMMET063METAR ETGQ 070920Z VRB01KT 9999 FEW180 BKN250 17/09 Q1023 BLU/;
0148102340999992009090710204+53133+009350FM-15+0061ETGQ V0209999V001010750019N0112651N1+01901+01001999999ADDGA1021+054001999GA2071+075001999GF107991999999999999999999MA1102301999999REMMET063METAR ETGQ 071020Z VRB02KT 9999 FEW180 BKN250 19/10 Q1023 BLU/;
0148102340999992009090711204+53133+009350FM-15+0061ETGQ V0209999V001012200019N0112651N1+02101+01001999999ADDGA1021+054001999GA2041+090001999GF104991999999999999999999MA1102301999999REMMET063METAR ETGQ 071120Z VRB02KT 9999 FEW180 SCT300 21/10 Q1023 BLU/;
0148102340999992009090712204+53133+009350FM-15+0061ETGQ V0201601N001512200019N0112651N1+02201+01001999999ADDGA1021+042001999GA2041+090001999GF104991999999999999999999MA1102201999999REMMET063METAR ETGQ 071220Z 16003KT 9999 FEW140 SCT300 22/10 Q1022 BLU/;
0148102340999992009090713204+53133+009350FM-15+0061ETGQ V0201101N001512200019N0112651N1+02401+01001999999ADDGA1021+042001999GA2041+090001999GF104991999999999999999999MA1102201999999REMMET063METAR ETGQ 071320Z 11003KT 9999 FEW140 SCT300 24/10 Q1022 BLU/;
0148102340999992009090714204+53133+009350FM-15+0061ETGQ V0201401N002110900019N0112651N1+02501+00901999999ADDGA1021+042001999GA2071+090001999GF107991999999999999999999MA1102201999999REMMET063METAR ETGQ 071420Z 14004KT 9999 FEW140 BKN300 25/09 Q1022 BLU/;
0148102340999992009090715204+53133+009350FM-15+0061ETGQ V0201701N001512200019N0112651N1+02501+00901999999ADDGA1021+042001999GA2041+060001999GF104991999999999999999999MA1102101999999REMMET063METAR ETGQ 071520Z 17003KT 9999 FEW140 SCT200 25/09 Q1021 BLU/;
0148102340999992009090716204+53133+009350FM-15+0061ETGQ V0201401N002112200019N0112651N1+02401+01001999999ADDGA1021+015001999GA2041+060001999GF104991999999999999999999MA1102101999999REMMET063METAR ETGQ 071620Z 14004KT 9999 FEW050 SCT200 24/10 Q1021 BLU/;
0148102340999992009090717204+53133+009350FM-15+0061ETGQ V0201501N002112200019N0112651N1+02301+01101999999ADDGA1021+042001999GA2041+060001999GF104991999999999999999999MA1102101999999REMMET063METAR ETGQ 071720Z 15004KT 9999 FEW140 SCT200 23/11 Q1021 BLU/;
0125102340999992009090718204+53133+009350FM-15+0061ETGQ V0201401N001512200019N0112651N1+02101+01201999999ADDGA1021+042001999GF102991999999999999999999MA1102201999999REMMET056METAR ETGQ 071820Z 14003KT 9999 FEW140 21/12 Q1022 BLU/;
0076102340999992009090804204+53133+009350FM-15+0061ETGQ V0201701N000512200019N0112651N1+01101+01001999999ADDMA1102401999999REMMET049METAR ETGQ 080420Z 17001KT 9999 11/10 Q1024 BLU/;
0125102340999992009090805204+53133+009350FM-15+0061ETGQ V0201601N001012200019N0112651N1+01101+01001999999ADDGA1021+090001999GF102991999999999999999999MA1102401999999REMMET056METAR ETGQ 080520Z 16002KT 9999 FEW300 11/10 Q1024 BLU/;
0125102340999992009090806204+53133+009350FM-15+0061ETGQ V0201801N001512200019N0112651N1+01201+01101999999ADDGA1021+090001999GF102991999999999999999999MA1102401999999REMMET056METAR ETGQ 080620Z 18003KT 9999 FEW300 12/11 Q1024 BLU/;
0125102340999992009090807204+53133+009350FM-15+0061ETGQ V0209999V001012200019N0112651N1+01301+01101999999ADDGA1021+090001999GF102991999999999999999999MA1102401999999REMMET056METAR ETGQ 080720Z VRB02KT 9999 FEW300 13/11 Q1024 BLU/;
0076102340999992009090808204+53133+009350FM-15+0061ETGQ V0209999V001012200019N0112651N1+01601+01101999999ADDMA1102401999999REMMET049METAR ETGQ 080820Z VRB02KT 9999 16/11 Q1024 BLU/;
0125102340999992009090809204+53133+009350FM-15+0061ETGQ V0209999V000512200019N0112651N1+01901+01101999999ADDGA1021+075001999GF102991999999999999999999MA1102401999999REMMET056METAR ETGQ 080920Z VRB01KT 9999 FEW250 19/11 Q1024 BLU/;
0125102340999992009090810204+53133+009350FM-15+0061ETGQ V0209999V001012200019N0112651N1+02201+01101999999ADDGA1041+075001999GF104991999999999999999999MA1102301999999REMMET056METAR ETGQ 081020Z VRB02KT 9999 SCT250 22/11 Q1023 BLU/;
0125102340999992009090811204+53133+009350FM-15+0061ETGQ V0201601N002110750019N0112651N1+02601+01001999999ADDGA1071+075001999GF107991999999999999999999MA1102301999999REMMET056METAR ETGQ 081120Z 16004KT 9999 BKN250 26/10 Q1023 BLU/;
0125102340999992009090812204+53133+009350FM-15+0061ETGQ V0201501N002110780019N0112651N1+02701+00901999999ADDGA1071+078001999GF107991999999999999999999MA1102301999999REMMET056METAR ETGQ 081220Z 15004KT 9999 BKN260 27/09 Q1023 BLU/;
0125102340999992009090813204+53133+009350FM-15+0061ETGQ V0201401N002112200019N0112651N1+02801+00701999999ADDGA1041+078001999GF104991999999999999999999MA1102201999999REMMET056METAR ETGQ 081320Z 14004KT 9999 SCT260 28/07 Q1022 BLU/;
0125102340999992009090814204+53133+009350FM-15+0061ETGQ V0201701N001512200019N0112651N1+02901+00801999999ADDGA1021+048001999GF102991999999999999999999MA1102201999999REMMET056METAR ETGQ 081420Z 17003KT 9999 FEW160 29/08 Q1022 BLU/;
0125102340999992009090815204+53133+009350FM-15+0061ETGQ V0201801N001512200019N0112651N1+02801+00801999999ADDGA1021+078001999GF102991999999999999999999MA1102101999999REMMET056METAR ETGQ 081520Z 18003KT 9999 FEW260 28/08 Q1021 BLU/;
0076102340999992009090816204+53133+009350FM-15+0061ETGQ V0201201N001512200019N0112651N1+02701+00901999999ADDMA1102101999999REMMET049METAR ETGQ 081620Z 12003KT 9999 27/09 Q1021 BLU/;
0076102340999992009090817204+53133+009350FM-15+0061ETGQ V0201301N002112200019N0112651N1+02601+00901999999ADDMA1102101999999REMMET049METAR ETGQ 081720Z 13004KT 9999 26/09 Q1021 BLU/;
0125102340999992009090818204+53133+009350FM-15+0061ETGQ V0209999C000012200019N0112651N1+02201+01001999999ADDGA1021+078001999GF102991999999999999999999MA1102201999999REMMET056METAR ETGQ 081820Z 00000KT 9999 FEW260 22/10 Q1022 BLU/;
0125102340999992009090904204+53133+009350FM-15+0061ETGQ V0201701N001012200019N0112651N1+01201+01001999999ADDGA1021+090001999GF102991999999999999999999MA1102301999999REMMET056METAR ETGQ 090420Z 17002KT 9999 FEW300 12/10 Q1023 BLU/;
0125102340999992009090905204+53133+009350FM-15+0061ETGQ V0202201N000512200019N0112651N1+01101+01001999999ADDGA1041+090001999GF104991999999999999999999MA1102301999999REMMET056METAR ETGQ 090520Z 22001KT 9999 SCT300 11/10 Q1023 BLU/;
0125102340999992009090906204+53133+009350FM-15+0061ETGQ V0209999V001011050019N0112651N1+01201+01101999999ADDGA1071+105001999GF107991999999999999999999MA1102401999999REMMET056METAR ETGQ 090620Z VRB02KT 9999 BKN350 12/11 Q1024 BLU/;
0125102340999992009090907204+53133+009350FM-15+0061ETGQ V0202101N001011050019N0112651N1+01301+01101999999ADDGA1071+105001999GF107991999999999999999999MA1102401999999REMMET056METAR ETGQ 090720Z 21002KT 9999 BKN350 13/11 Q1024 BLU/;
0125102340999992009090908204+53133+009350FM-15+0061ETGQ V0209999V001011050019N0112651N1+01601+01101999999ADDGA1071+105001999GF107991999999999999999999MA1102401999999REMMET056METAR ETGQ 090820Z VRB02KT 9999 BKN350 16/11 Q1024 BLU/;
0125102340999992009090909204+53133+009350FM-15+0061ETGQ V0209999V001010780019N0112651N1+01801+01101999999ADDGA1071+078001999GF107991999999999999999999MA1102511999999REMMET056METAR ETGQ 090920Z VRB02KT 9999 BKN260 18/11 Q1025 BLU/;
0125102340999992009090910204+53133+009350FM-15+0061ETGQ V0209999V001010810019N0112651N1+02101+01201999999ADDGA1071+081001999GF107991999999999999999999MA1102401999999REMMET056METAR ETGQ 091020Z VRB02KT 9999 BKN270 21/12 Q1024 BLU/;
0125102340999992009090911204+53133+009350FM-15+0061ETGQ V0203401N001510900019N0112651N1+02401+01101999999ADDGA1071+090001999GF107991999999999999999999MA1102401999999REMMET056METAR ETGQ 091120Z 34003KT 9999 BKN300 24/11 Q1024 BLU/;
0125102340999992009090912204+53133+009350FM-15+0061ETGQ V0209999C000010840019N0112651N1+02501+00901999999ADDGA1071+084001999GF107991999999999999999999MA1102401999999REMMET056METAR ETGQ 091220Z 00000KT 9999 BKN280 25/09 Q1024 BLU/;
0125102340999992009090913204+53133+009350FM-15+0061ETGQ V0200601N000510810019N0112651N1+02601+00901999999ADDGA1071+081001999GF107991999999999999999999MA1102301999999REMMET056METAR ETGQ 091320Z 06001KT 9999 BKN270 26/09 Q1023 BLU/;
0125102340999992009090914204+53133+009350FM-15+0061ETGQ V0209999V001010810019N0112651N1+02601+01001999999ADDGA1071+081001999GF107991999999999999999999MA1102301999999REMMET056METAR ETGQ 091420Z VRB02KT 9999 BKN270 26/10 Q1023 BLU/;
0125102340999992009090915204+53133+009350FM-15+0061ETGQ V0202901N001010810019N0112651N1+02601+01001999999ADDGA1071+081001999GF107991999999999999999999MA1102301999999REMMET056METAR ETGQ 091520Z 29002KT 9999 BKN270 26/10 Q1023 BLU/;
0125102340999992009090916204+53133+009350FM-15+0061ETGQ V0203201N002110780019N0112651N1+02601+01001999999ADDGA1071+078001999GF107991999999999999999999MA1102301999999REMMET056METAR ETGQ 091620Z 32004KT 9999 BKN260 26/10 Q1023 BLU/;
0125102340999992009090917204+53133+009350FM-15+0061ETGQ V0203401N001510750019N0112651N1+02601+01001999999ADDGA1071+075001999GF107991999999999999999999MA1102301999999REMMET056METAR ETGQ 091720Z 34003KT 9999 BKN250 26/10 Q1023 BLU/;
0125102340999992009090918204+53133+009350FM-15+0061ETGQ V0203401N000510750019N0112651N1+02401+01201999999ADDGA1071+075001999GF107991999999999999999999MA1102401999999REMMET056METAR ETGQ 091820Z 34001KT 9999 BKN250 24/12 Q1024 BLU/;
0124102340999992009091004204+53133+009350FM-15+0061ETGQ V0203201N003110051019N0080001N1+01801+01401999999ADDGA1071+005101999GF107991999999999999999999MA1102711999999REMMET055METAR ETGQ 100420Z 32006KT 8000 BKN017 18/14 Q1027 WHT;
0124102340999992009091005204+53133+009350FM-15+0061ETGQ V0203201N002610048019N0080001N1+01801+01401999999ADDGA1081+004801999GF108991999999999999999999MA1102711999999REMMET055METAR ETGQ 100520Z 32005KT 8000 OVC016 18/14 Q1027 WHT;
0124102340999992009091006204+53133+009350FM-15+0061ETGQ V0203501N002610048019N0112651N1+01801+01301999999ADDGA1081+004801999GF108991999999999999999999MA1102811999999REMMET055METAR ETGQ 100620Z 35005KT 9999 OVC016 18/13 Q1028 WHT;
0124102340999992009091007204+53133+009350FM-15+0061ETGQ V0203401N002610051019N0112651N1+01801+01301999999ADDGA1081+005101999GF108991999999999999999999MA1102811999999REMMET055METAR ETGQ 100720Z 34005KT 9999 OVC017 18/13 Q1028 WHT;
0124102340999992009091008204+53133+009350FM-15+0061ETGQ V0203001N003110057019N0112651N1+01701+01301999999ADDGA1081+005701999GF108991999999999999999999MA1102811999999REMMET055METAR ETGQ 100820Z 30006KT 9999 OVC019 17/13 Q1028 WHT;
0124102340999992009091009204+53133+009350FM-15+0061ETGQ V0203101N003110048019N0112651N1+01701+01301999999ADDGA1081+004801999GF108991999999999999999999MA1102911999999REMMET055METAR ETGQ 100920Z 31006KT 9999 OVC016 17/13 Q1029 WHT;
0124102340999992009091010204+53133+009350FM-15+0061ETGQ V0203101N003110051019N0112651N1+01801+01301999999ADDGA1081+005101999GF108991999999999999999999MA1102911999999REMMET055METAR ETGQ 101020Z 31006KT 9999 OVC017 18/13 Q1029 WHT;
0124102340999992009091011204+53133+009350FM-15+0061ETGQ V0203201N003610054019N0112651N1+01801+01401999999ADDGA1081+005401999GF108991999999999999999999MA1102911999999REMMET055METAR ETGQ 101120Z 32007KT 9999 OVC018 18/14 Q1029 WHT;
0124102340999992009091012204+53133+009350FM-15+0061ETGQ V0203201N004110051019N0112651N1+01801+01401999999ADDGA1071+005101999GF107991999999999999999999MA1102911999999REMMET055METAR ETGQ 101220Z 32008KT 9999 BKN017 18/14 Q1029 WHT;
0124102340999992009091013204+53133+009350FM-15+0061ETGQ V0203201N003610054019N0112651N1+01801+01401999999ADDGA1071+005401999GF107991999999999999999999MA1102911999999REMMET055METAR ETGQ 101320Z 32007KT 9999 BKN018 18/14 Q1029 WHT;
0124102340999992009091014204+53133+009350FM-15+0061ETGQ V0203401N002610060019N0112651N1+01901+01301999999ADDGA1071+006001999GF107991999999999999999999MA1102911999999REMMET055METAR ETGQ 101420Z 34005KT 9999 BKN020 19/13 Q1029 WHT;
0124102340999992009091015204+53133+009350FM-15+0061ETGQ V0203401N003610066019N0112651N1+01901+01301999999ADDGA1071+006601999GF107991999999999999999999MA1102911999999REMMET055METAR ETGQ 101520Z 34007KT 9999 BKN022 19/13 Q1029 WHT;
0124102340999992009091016204+53133+009350FM-15+0061ETGQ V0203401N003610060019N0112651N1+01801+01301999999ADDGA1071+006001999GF107991999999999999999999MA1102911999999REMMET055METAR ETGQ 101620Z 34007KT 9999 BKN020 18/13 Q1029 WHT;
0147102340999992009091017204+53133+009350FM-15+0061ETGQ V0203401N003110081019N0112651N1+01701+01301999999ADDGA1021+006001999GA2071+008101999GF107991999999999999999999MA1103011999999REMMET062METAR ETGQ 101720Z 34006KT 9999 FEW020 BKN027 17/13 Q1030 BLU;
0124102340999992009091018204+53133+009350FM-15+0061ETGQ V0203401N003610066019N0112651N1+01701+01101999999ADDGA1071+006601999GF107991999999999999999999MA1103011999999REMMET055METAR ETGQ 101820Z 34007KT 9999 BKN022 17/11 Q1030 WHT;
0125102340999992009091104204+53133+009350FM-15+0061ETGQ V0203301N002612200019N0112651N1+01401+00901999999ADDGA1041+013801999GF104991999999999999999999MA1103121999999REMMET056METAR ETGQ 110420Z 33005KT 9999 SCT046 14/09 Q1031 BLU/;
0125102340999992009091105204+53133+009350FM-15+0061ETGQ V0203401N002112200019N0112651N1+01301+00901999999ADDGA1021+015001999GF102991999999999999999999MA1103121999999REMMET056METAR ETGQ 110520Z 34004KT 9999 FEW050 13/09 Q1031 BLU/;
0125102340999992009091106204+53133+009350FM-15+0061ETGQ V0203001N002612200019N0112651N1+01301+00901999999ADDGA1021+005401999GF102991999999999999999999MA1103181999999REMMET056METAR ETGQ 110620Z 30005KT 9999 FEW018 13/09 Q1032 BLU/;
0124102340999992009091107204+53133+009350FM-15+0061ETGQ V0203101N002610063019N0112651N1+01401+01001999999ADDGA1071+006301999GF107991999999999999999999MA1103181999999REMMET055METAR ETGQ 110720Z 31005KT 9999 BKN021 14/10 Q1032 WHT;
0125102340999992009091108204+53133+009350FM-15+0061ETGQ V0203601N002112200019N0112651N1+01601+00901999999ADDGA1041+008401999GF104991999999999999999999MA1103181999999REMMET056METAR ETGQ 110820Z 36004KT 9999 SCT028 16/09 Q1032 BLU/;
0124102340999992009091109204+53133+009350FM-15+0061ETGQ V0203501N003110096019N0112651N1+01701+00901999999ADDGA1071+009601999GF107991999999999999999999MA1103181999999REMMET055METAR ETGQ 110920Z 35006KT 9999 BKN032 17/09 Q1032 BLU;
0124102340999992009091110204+53133+009350FM-15+0061ETGQ V0203401N004110096019N0112651N1+01801+00801999999ADDGA1071+009601999GF107991999999999999999999MA1103121999999REMMET055METAR ETGQ 111020Z 34008KT 9999 BKN032 18/08 Q1031 BLU;
0124102340999992009091111204+53133+009350FM-15+0061ETGQ V0203201N003610120019N0112651N1+01901+00801999999ADDGA1071+012001999GF107991999999999999999999MA1103121999999REMMET055METAR ETGQ 111120Z 32007KT 9999 BKN040 19/08 Q1031 BLU;
0148102340999992009091112204+53133+009350FM-15+0061ETGQ V0203301N003612200019N0112651N1+02001+00701999999ADDGA1041+014101999GA2041+090001999GF104991999999999999999999MA1103011999999REMMET063METAR ETGQ 111220Z 33007KT 9999 SCT047 SCT300 20/07 Q1030 BLU/;
0148102340999992009091113204+53133+009350FM-15+0061ETGQ V0203401N003610900019N0112651N1+02001+00701999999ADDGA1021+014101999GA2071+090001999GF107991999999999999999999MA1102911999999REMMET063METAR ETGQ 111320Z 34007KT 9999 FEW047 BKN300 20/07 Q1029 BLU/;
0148102340999992009091114204+53133+009350FM-15+0061ETGQ V0203501N004110900019N0112651N1+02001+00701999999ADDGA1021+014101999GA2071+090001999GF107991999999999999999999MA1102911999999REMMET063METAR ETGQ 111420Z 35008KT 9999 FEW047 BKN300 20/07 Q1029 BLU/;
0148102340999992009091115204+53133+009350FM-15+0061ETGQ V0203201N004610900019N0112651N1+02001+00701999999ADDGA1021+015001999GA2071+090001999GF107991999999999999999999MA1102911999999REMMET063METAR ETGQ 111520Z 32009KT 9999 FEW050 BKN300 20/07 Q1029 BLU/;
0148102340999992009091116204+53133+009350FM-15+0061ETGQ V0203301N004110870019N0112651N1+02001+00701999999ADDGA1021+015001999GA2071+087001999GF107991999999999999999999MA1102811999999REMMET063METAR ETGQ 111620Z 33008KT 9999 FEW050 BKN290 20/07 Q1028 BLU/;
0148102340999992009091117204+53133+009350FM-15+0061ETGQ V0203501N003112200019N0112651N1+01801+00601999999ADDGA1021+018001999GA2041+087001999GF104991999999999999999999MA1102811999999REMMET063METAR ETGQ 111720Z 35006KT 9999 FEW060 SCT290 18/06 Q1028 BLU/;
0148102340999992009091118204+53133+009350FM-15+0061ETGQ V0203001N001512200019N0112651N1+01701+00701999999ADDGA1021+018001999GA2041+087001999GF104991999999999999999999MA1102911999999REMMET063METAR ETGQ 111820Z 30003KT 9999 FEW060 SCT290 17/07 Q1029 BLU/;
0147102340999992009091404204+53133+009350FM-15+0061ETGQ V0209999V000510240019N0080001N1+01101+01001999999ADDGA1021+005401999GA2071+024001999GF107991999999999999999999MA1101801999999REMMET062METAR ETGQ 140420Z VRB01KT 8000 FEW018 BKN080 11/10 Q1018 BLU;
0147102340999992009091405204+53133+009350FM-15+0061ETGQ V0203301N001010180019N0080001N1+01101+01001999999ADDGA1021+004501999GA2071+018001999GF107991999999999999999999MA1101801999999REMMET062METAR ETGQ 140520Z 33002KT 8000 FEW015 BKN060 11/10 Q1018 BLU;
0170102340999992009091406204+53133+009350FM-15+0061ETGQ V0209999V00051015001CN0080001N1+01101+01001999999ADDGA1021+003601999GA2041+015001999GA3071+024001999GF107991999999999999999999MA1101901999999REMMET069METAR ETGQ 140620Z VRB01KT 8000 FEW012 SCT050 BKN080 11/10 Q1019 BLU;
0159102340999992009091407204+53133+009350FM-15+0061ETGQ V0203101N001010120019N0080001N1+01201+01001999999ADDGA1041+004501999GA2071+012001999GF107991999999999999999999MA1101901999999MW1801REMMET068METAR ETGQ 140720Z 31002KT 8000 -SHRA SCT015 BKN040 12/10 Q1019 BLU;
0159102340999992009091408204+53133+009350FM-15+0061ETGQ V0203001N001510036019N0060001N1+01201+01001999999ADDGA1021+002101999GA2071+003601999GF107991999999999999999999MA1101901999999MW1801REMMET068METAR ETGQ 140820Z 30003KT 6000 -SHRA FEW007 BKN012 12/10 Q1019 GRN;
0147102340999992009091409204+53133+009350FM-15+0061ETGQ V0203401N001010060019N0080001N1+01301+01101999999ADDGA1041+004501999GA2071+006001999GF107991999999999999999999MA1101801999999REMMET062METAR ETGQ 140920Z 34002KT 8000 SCT015 BKN020 13/11 Q1018 WHT;
0170102340999992009091410204+53133+009350FM-15+0061ETGQ V0203201N00101006001CN0112651N1+01301+01201999999ADDGA1021+002401999GA2041+006001999GA3071+010501999GF107991999999999999999999MA1101801999999REMMET069METAR ETGQ 141020Z 32002KT 9999 FEW008 SCT020 BKN035 13/12 Q1018 BLU;
0147102340999992009091411204+53133+009350FM-15+0061ETGQ V0201601N001010081019N0112651N1+01301+01201999999ADDGA1041+006001999GA2071+008101999GF107991999999999999999999MA1101691999999REMMET062METAR ETGQ 141120Z 16002KT 9999 SCT020 BKN027 13/12 Q1017 BLU;
0160102340999992009091412204+53133+009350FM-15+0061ETGQ V0200101N001510099019N0112651N1+01301+01101999999ADDGA1021+003601021GA2071+009901999GF107991999999999999999999MA1101691999999MW1611REMMET069METAR ETGQ 141220Z 01003KT 9999 -RA FEW012TCU BKN033 13/11 Q1017 BLU;
0157102340999992009091414204+53133+009350FM-15+0061ETGQ V0200301N001510210019N0112651N1+01401+01101999999ADDGA1021+006301999GA2071+021001999GF107991999999999999999999MA1101591999999MW1611REMMET066METAR ETGQ 141420Z 03003KT 9999 -RA FEW021 BKN070 14/11 Q1016 BLU;
0157102340999992009091416204+53133+009350FM-15+0061ETGQ V0200301N001510135019N0112651N1+01301+01101999999ADDGA1041+005701999GA2071+013501999GF107991999999999999999999MA1101691999999MW1611REMMET066METAR ETGQ 141620Z 03003KT 9999 -RA SCT019 BKN045 13/11 Q1017 BLU;
0157102340999992009091417204+53133+009350FM-15+0061ETGQ V0200101N001010180019N0112651N1+01201+01001999999ADDGA1041+007501999GA2071+018001999GF107991999999999999999999MA1101691999999MW1611REMMET066METAR ETGQ 141720Z 01002KT 9999 -RA SCT025 BKN060 12/10 Q1017 BLU;
0147102340999992009091418204+53133+009350FM-15+0061ETGQ V0203401N000510240019N0080001N1+01201+01101999999ADDGA1041+006301999GA2071+024001999GF107991999999999999999999MA1101691999999REMMET062METAR ETGQ 141820Z 34001KT 8000 SCT021 BKN080 12/11 Q1017 BLU;
0147102340999992009091504204+53133+009350FM-15+0061ETGQ V0209999C000010030019N0080001N1+01101+01001999999ADDGA1071+003001999GA2071+009601999GF107991999999999999999999MA1101591999999REMMET062METAR ETGQ 150420Z 00000KT 8000 BKN010 BKN032 11/10 Q1016 GRN;
0148102340999992009091505204+53133+009350FM-15+0061ETGQ V0209999C000012200019N0080001N1+01101+01001999999ADDGA1041+003001999GA2041+008401999GF104991999999999999999999MA1101591999999REMMET063METAR ETGQ 150520Z 00000KT 8000 SCT010 SCT028 11/10 Q1016 BLU/;
0147102340999992009091506204+53133+009350FM-15+0061ETGQ V0209999C000010084019N0080001N1+01201+01101999999ADDGA1021+001501999GA2071+008401999GF107991999999999999999999MA1101591999999REMMET062METAR ETGQ 150620Z 00000KT 8000 FEW005 BKN028 12/11 Q1016 BLU;
0147102340999992009091507204+53133+009350FM-15+0061ETGQ V0209999C000010096019N0080001N1+01201+01101999999ADDGA1021+001501999GA2071+009601999GF107991999999999999999999MA1101691999999REMMET062METAR ETGQ 150720Z 00000KT 8000 FEW005 BKN032 12/11 Q1017 BLU;
0147102340999992009091508204+53133+009350FM-15+0061ETGQ V0209999C000010075019N0080001N1+01301+01101999999ADDGA1021+002401999GA2071+007501999GF107991999999999999999999MA1101691999999REMMET062METAR ETGQ 150820Z 00000KT 8000 FEW008 BKN025 13/11 Q1017 BLU;
0124102340999992009091509204+53133+009350FM-15+0061ETGQ V0203401N000510039019N0112651N1+01401+01101999999ADDGA1071+003901999GF107991999999999999999999MA1101691999999REMMET055METAR ETGQ 150920Z 34001KT 9999 BKN013 14/11 Q1017 GRN;
0124102340999992009091510204+53133+009350FM-15+0061ETGQ V0203301N000510039019N0112651N1+01501+01101999999ADDGA1071+003901999GF107991999999999999999999MA1101691999999REMMET055METAR ETGQ 151020Z 33001KT 9999 BKN013 15/11 Q1017 GRN;
0124102340999992009091511204+53133+009350FM-15+0061ETGQ V0209999C000010039019N0112651N1+01501+01201999999ADDGA1071+003901999GF107991999999999999999999MA1101691999999REMMET055METAR ETGQ 151120Z 00000KT 9999 BKN013 15/12 Q1017 GRN;
0124102340999992009091512204+53133+009350FM-15+0061ETGQ V0209999C000010039019N0112651N1+01601+01301999999ADDGA1071+003901999GF107991999999999999999999MA1101591999999REMMET055METAR ETGQ 151220Z 00000KT 9999 BKN013 16/13 Q1016 GRN;
0157102340999992009091513204+53133+009350FM-15+0061ETGQ V0209999C000010039019N0080001N1+01501+01301999999ADDGA1021+003001999GA2071+003901999GF107991999999999999999999MA1101591999999MW1511REMMET066METAR ETGQ 151320Z 00000KT 8000 -DZ FEW010 BKN013 15/13 Q1016 GRN;
0197102340999992009091514204+53133+009350FM-15+0061ETGQ V0202201N00051002101CN0045001N1+01501+01401999999ADDGA1021+000301999GA2041+002101999GA3071+004501999GF107991999999999999999999MA1101591999999MW1101MW2511MW3611REMMET078METAR ETGQ 151420Z 22001KT 4500 -DZRA BR FEW001 SCT007 BKN015 15/14 Q1016 GRN;
0147102340999992009091515204+53133+009350FM-15+0061ETGQ V0201901N000510054019N0060001N1+01501+01401999999ADDGA1021+001501999GA2071+005401999GF107991999999999999999999MA1101591999999REMMET062METAR ETGQ 151520Z 19001KT 6000 FEW005 BKN018 15/14 Q1016 WHT;
0147102340999992009091516204+53133+009350FM-15+0061ETGQ V0209999C000010057019N0060001N1+01601+01401999999ADDGA1021+001501999GA2071+005701999GF107991999999999999999999MA1101591999999REMMET062METAR ETGQ 151620Z 00000KT 6000 FEW005 BKN019 16/14 Q1016 WHT;
0147102340999992009091517204+53133+009350FM-15+0061ETGQ V0209999C000010048019N0070001N1+01601+01401999999ADDGA1041+002101999GA2071+004801999GF107991999999999999999999MA1101591999999REMMET062METAR ETGQ 151720Z 00000KT 7000 SCT007 BKN016 16/14 Q1016 WHT;
0147102340999992009091518204+53133+009350FM-15+0061ETGQ V0200201N000510045019N0090001N1+01601+01401999999ADDGA1041+002101999GA2071+004501999GF107991999999999999999999MA1101591999999REMMET062METAR ETGQ 151820Z 02001KT 9000 SCT007 BKN015 16/14 Q1016 WHT;
0147102340999992009091604204+53133+009350FM-15+0061ETGQ V0203301N000510084019N0080001N1+01501+01201999999ADDGA1041+005401999GA2071+008401999GF107991999999999999999999MA1101491999999REMMET062METAR ETGQ 160420Z 33001KT 8000 SCT018 BKN028 15/12 Q1015 BLU;
0124102340999992009091605204+53133+009350FM-15+0061ETGQ V0203001N000510054019N0070001N1+01501+01301999999ADDGA1071+005401999GF107991999999999999999999MA1101491999999REMMET055METAR ETGQ 160520Z 30001KT 7000 BKN018 15/13 Q1015 WHT;
0147102340999992009091606204+53133+009350FM-15+0061ETGQ V0202901N000510060019N0060001N1+01501+01301999999ADDGA1041+003301999GA2071+006001999GF107991999999999999999999MA1101491999999REMMET062METAR ETGQ 160620Z 29001KT 6000 SCT011 BKN020 15/13 Q1015 WHT;
0147102340999992009091607204+53133+009350FM-15+0061ETGQ V0203201N000510054019N0060001N1+01501+01301999999ADDGA1021+003301999GA2081+005401999GF108991999999999999999999MA1101491999999REMMET062METAR ETGQ 160720Z 32001KT 6000 FEW011 OVC018 15/13 Q1015 WHT;
0124102340999992009091608204+53133+009350FM-15+0061ETGQ V0203201N000510057019N0070001N1+01601+01301999999ADDGA1081+005701999GF108991999999999999999999MA1101491999999REMMET055METAR ETGQ 160820Z 32001KT 7000 OVC019 16/13 Q1015 WHT;
0124102340999992009091609204+53133+009350FM-15+0061ETGQ V0202901N000510063019N0080001N1+01701+01401999999ADDGA1081+006301999GF108991999999999999999999MA1101491999999REMMET055METAR ETGQ 160920Z 29001KT 8000 OVC021 17/14 Q1015 WHT;
0124102340999992009091610204+53133+009350FM-15+0061ETGQ V0203301N000510069019N0090001N1+01801+01401999999ADDGA1081+006901999GF108991999999999999999999MA1101491999999REMMET055METAR ETGQ 161020Z 33001KT 9000 OVC023 18/14 Q1015 WHT;
0147102340999992009091611204+53133+009350FM-15+0061ETGQ V0200301N002110084019N0112651N1+01901+01401999999ADDGA1041+006901999GA2071+008401999GF107991999999999999999999MA1101491999999REMMET062METAR ETGQ 161120Z 03004KT 9999 SCT023 BKN028 19/14 Q1015 BLU;
0124102340999992009091612204+53133+009350FM-15+0061ETGQ V0200201N002610084019N0112651N1+01901+01301999999ADDGA1071+008401999GF107991999999999999999999MA1101391999999REMMET055METAR ETGQ 161220Z 02005KT 9999 BKN028 19/13 Q1014 BLU;
0147102340999992009091613204+53133+009350FM-15+0061ETGQ V0200201N002110102019N0112651N1+02001+01301999999ADDGA1041+008701999GA2071+010201999GF107991999999999999999999MA1101391999999REMMET062METAR ETGQ 161320Z 02004KT 9999 SCT029 BKN034 20/13 Q1014 BLU;
0147102340999992009091614204+53133+009350FM-15+0061ETGQ V0200401N002110102019N0112651N1+02001+01301999999ADDGA1041+008701999GA2071+010201999GF107991999999999999999999MA1101391999999REMMET062METAR ETGQ 161420Z 04004KT 9999 SCT029 BKN034 20/13 Q1014 BLU;
0124102340999992009091615204+53133+009350FM-15+0061ETGQ V0200301N002110111019N0112651N1+02001+01301999999ADDGA1071+011101999GF107991999999999999999999MA1101391999999REMMET055METAR ETGQ 161520Z 03004KT 9999 BKN037 20/13 Q1014 BLU;
0124102340999992009091616204+53133+009350FM-15+0061ETGQ V0203401N001510114019N0112651N1+02001+01401999999ADDGA1071+011401999GF107991999999999999999999MA1101291999999REMMET055METAR ETGQ 161620Z 34003KT 9999 BKN038 20/14 Q1013 BLU;
0148102340999992009091617204+53133+009350FM-15+0061ETGQ V0203301N001510870019N0112651N1+01901+01401999999ADDGA1041+012001999GA2071+087001999GF107991999999999999999999MA1101391999999REMMET063METAR ETGQ 161720Z 33003KT 9999 SCT040 BKN290 19/14 Q1014 BLU/;
0170102340999992009091618204+53133+009350FM-15+0061ETGQ V0203301N00151010501CN0070001N1+01801+01401999999ADDGA1021+006001999GA2041+010501999GA3071+084001999GF107991999999999999999999MA1101391999999REMMET069METAR ETGQ 161820Z 33003KT 7000 FEW020 SCT035 BKN280 18/14 Q1014 WHT;
0124102340999992009091704204+53133+009350FM-15+0061ETGQ V0203301N000510105019N0080001N1+01501+01201999999ADDGA1081+010501999GF108991999999999999999999MA1101491999999REMMET055METAR ETGQ 170420Z 33001KT 8000 OVC035 15/12 Q1015 BLU;
0147102340999992009091705204+53133+009350FM-15+0061ETGQ V0203301N002610120019N0112651N1+01501+01101999999ADDGA1041+009601999GA2071+012001999GF107991999999999999999999MA1101591999999REMMET062METAR ETGQ 170520Z 33005KT 9999 SCT032 BKN040 15/11 Q1016 BLU;
0124102340999992009091706204+53133+009350FM-15+0061ETGQ V0203201N002610102019N0112651N1+01401+01101999999ADDGA1071+010201999GF107991999999999999999999MA1101591999999REMMET055METAR ETGQ 170620Z 32005KT 9999 BKN034 14/11 Q1016 BLU;
0124102340999992009091707204+53133+009350FM-15+0061ETGQ V0203201N002610096019N0112651N1+01501+01101999999ADDGA1071+009601999GF107991999999999999999999MA1101591999999REMMET055METAR ETGQ 170720Z 32005KT 9999 BKN032 15/11 Q1016 BLU;
0125102340999992009091708204+53133+009350FM-15+0061ETGQ V0203001N003112200019N0112651N1+01601+01101999999ADDGA1041+009601999GF104991999999999999999999MA1101691999999REMMET056METAR ETGQ 170820Z 30006KT 9999 SCT032 16/11 Q1017 BLU/;
0125102340999992009091709204+53133+009350FM-15+0061ETGQ V0203401N002612200019N0112651N1+01801+01101999999ADDGA1021+007501999GF102991999999999999999999MA1101691999999REMMET056METAR ETGQ 170920Z 34005KT 9999 FEW025 18/11 Q1017 BLU/;
0125102340999992009091710204+53133+009350FM-15+0061ETGQ V0203301N002612200019N0112651N1+01901+01101999999ADDGA1021+009001999GF102991999999999999999999MA1101691999999REMMET056METAR ETGQ 171020Z 33005KT 9999 FEW030 19/11 Q1017 BLU/;
0125102340999992009091711204+53133+009350FM-15+0061ETGQ V0203401N002112200019N0112651N1+02001+01201999999ADDGA1021+010501999GF102991999999999999999999MA1101691999999REMMET056METAR ETGQ 171120Z 34004KT 9999 FEW035 20/12 Q1017 BLU/;
0125102340999992009091712204+53133+009350FM-15+0061ETGQ V0203501N002112200019N0112651N1+02101+01101999999ADDGA1041+011401999GF104991999999999999999999MA1101691999999REMMET056METAR ETGQ 171220Z 35004KT 9999 SCT038 21/11 Q1017 BLU/;
0125102340999992009091713204+53133+009350FM-15+0061ETGQ V0201501N002112200019N0112651N1+02101+01201999999ADDGA1041+011401999GF104991999999999999999999MA1101691999999REMMET056METAR ETGQ 171320Z 15004KT 9999 SCT038 21/12 Q1017 BLU/;
0125102340999992009091714204+53133+009350FM-15+0061ETGQ V0201601N001012200019N0112651N1+02101+01201999999ADDGA1021+012001999GF102991999999999999999999MA1101591999999REMMET056METAR ETGQ 171420Z 16002KT 9999 FEW040 21/12 Q1016 BLU/;
0125102340999992009091715204+53133+009350FM-15+0061ETGQ V0202301N000512200019N0112651N1+02101+01201999999ADDGA1021+012601999GF102991999999999999999999MA1101591999999REMMET056METAR ETGQ 171520Z 23001KT 9999 FEW042 21/12 Q1016 BLU/;
0125102340999992009091716204+53133+009350FM-15+0061ETGQ V0209999C000012200019N0112651N1+02101+01301999999ADDGA1021+012001999GF102991999999999999999999MA1101691999999REMMET056METAR ETGQ 171620Z 00000KT 9999 FEW040 21/13 Q1017 BLU/;
0125102340999992009091718204+53133+009350FM-15+0061ETGQ V0209999C000012200019N0112651N1+01801+01201999999ADDGA1021+015001999GF102991999999999999999999MA1101801999999REMMET056METAR ETGQ 171820Z 00000KT 9999 FEW050 18/12 Q1018 BLU/;
0124102340999992009091804204+53133+009350FM-15+0061ETGQ V0203201N000510114019N0090001N1+01201+01001999999ADDGA1071+011401999GF107991999999999999999999MA1101901999999REMMET055METAR ETGQ 180420Z 32001KT 9000 BKN038 12/10 Q1019 BLU;
0124102340999992009091805204+53133+009350FM-15+0061ETGQ V0203001N001010114019N0112651N1+01201+01001999999ADDGA1071+011401999GF107991999999999999999999MA1101901999999REMMET055METAR ETGQ 180520Z 30002KT 9999 BKN038 12/10 Q1019 BLU;
0124102340999992009091806204+53133+009350FM-15+0061ETGQ V0202901N001010108019N0112651N1+01201+01001999999ADDGA1071+010801999GF107991999999999999999999MA1101901999999REMMET055METAR ETGQ 180620Z 29002KT 9999 BKN036 12/10 Q1019 BLU;
0148102340999992009091807204+53133+009350FM-15+0061ETGQ V0203001N001012200019N0112651N1+01301+01001999999ADDGA1021+011101999GA2041+036001999GF104991999999999999999999MA1101901999999REMMET063METAR ETGQ 180720Z 30002KT 9999 FEW037 SCT120 13/10 Q1019 BLU/;
0125102340999992009091808204+53133+009350FM-15+0061ETGQ V0203101N001012200019N0112651N1+01501+01101999999ADDGA1021+036001999GF102991999999999999999999MA1101901999999REMMET056METAR ETGQ 180820Z 31002KT 9999 FEW120 15/11 Q1019 BLU/;
0125102340999992009091809204+53133+009350FM-15+0061ETGQ V0209999V000512200019N0112651N1+01701+01001999999ADDGA1021+036001999GF102991999999999999999999MA1101801999999REMMET056METAR ETGQ 180920Z VRB01KT 9999 FEW120 17/10 Q1018 BLU/;
0125102340999992009091810204+53133+009350FM-15+0061ETGQ V0209999V000512200019N0112651N1+02001+01101999999ADDGA1021+008701999GF102991999999999999999999MA1101801999999REMMET056METAR ETGQ 181020Z VRB01KT 9999 FEW029 20/11 Q1018 BLU/;
0125102340999992009091811204+53133+009350FM-15+0061ETGQ V0209999V001012200019N0112651N1+02101+01201999999ADDGA1021+010501999GF102991999999999999999999MA1101691999999REMMET056METAR ETGQ 181120Z VRB02KT 9999 FEW035 21/12 Q1017 BLU/;
0125102340999992009091812204+53133+009350FM-15+0061ETGQ V0202901N001512200019N0112651N1+02201+01201999999ADDGA1021+012001999GF102991999999999999999999MA1101691999999REMMET056METAR ETGQ 181220Z 29003KT 9999 FEW040 22/12 Q1017 BLU/;
0125102340999992009091813204+53133+009350FM-15+0061ETGQ V0209999V001012200019N0112651N1+02301+01301999999ADDGA1021+012001999GF102991999999999999999999MA1101691999999REMMET056METAR ETGQ 181320Z VRB02KT 9999 FEW040 23/13 Q1017 BLU/;
0125102340999992009091814204+53133+009350FM-15+0061ETGQ V0200601N002112200019N0112651N1+02301+01301999999ADDGA1041+011401999GF104991999999999999999999MA1101591999999REMMET056METAR ETGQ 181420Z 06004KT 9999 SCT038 23/13 Q1016 BLU/;
0124102340999992009091815204+53133+009350FM-15+0061ETGQ V0200801N002110135019N0112651N1+02301+01301999999ADDGA1071+013501999GF107991999999999999999999MA1101591999999REMMET055METAR ETGQ 181520Z 08004KT 9999 BKN045 23/13 Q1016 BLU;
0125102340999992009091816204+53133+009350FM-15+0061ETGQ V0200601N002112200019N0112651N1+02301+01401999999ADDGA1041+018001999GF104991999999999999999999MA1101591999999REMMET056METAR ETGQ 181620Z 06004KT 9999 SCT060 23/14 Q1016 BLU/;
0124102340999992009091817204+53133+009350FM-15+0061ETGQ V0200601N000510180019N0112651N1+02101+01401999999ADDGA1071+018001999GF107991999999999999999999MA1101491999999REMMET055METAR ETGQ 181720Z 06001KT 9999 BKN060 21/14 Q1015 BLU;
0148102340999992009091818204+53133+009350FM-15+0061ETGQ V0209999V000512200019N0112651N1+02001+01401999999ADDGA1041+018001999GA2041+081001999GF104991999999999999999999MA1101491999999REMMET063METAR ETGQ 181820Z VRB01KT 9999 SCT060 SCT270 20/14 Q1015 BLU/;
0124102340999992009092104204+53133+009350FM-15+0061ETGQ V0203601N000510033019N0080001N1+01601+01401999999ADDGA1081+003301999GF108991999999999999999999MA1102401999999REMMET055METAR ETGQ 210420Z 36001KT 8000 OVC011 16/14 Q1024 GRN;
0124102340999992009092105204+53133+009350FM-15+0061ETGQ V0203301N000510033019N0060001N1+01601+01401999999ADDGA1081+003301999GF108991999999999999999999MA1102401999999REMMET055METAR ETGQ 210520Z 33001KT 6000 OVC011 16/14 Q1024 GRN;
0124102340999992009092106204+53133+009350FM-15+0061ETGQ V0202901N000510048019N0060001N1+01601+01401999999ADDGA1081+004801999GF108991999999999999999999MA1102401999999REMMET055METAR ETGQ 210620Z 29001KT 6000 OVC016 16/14 Q1024 WHT;
0147102340999992009092107204+53133+009350FM-15+0061ETGQ V0202901N000510045019N0060001N1+01601+01401999999ADDGA1041+003001999GA2081+004501999GF108991999999999999999999MA1102511999999REMMET062METAR ETGQ 210720Z 29001KT 6000 SCT010 OVC015 16/14 Q1025 WHT;
0124102340999992009092108204+53133+009350FM-15+0061ETGQ V0202801N000510045019N0060001N1+01701+01401999999ADDGA1071+004501999GF107991999999999999999999MA1102511999999REMMET055METAR ETGQ 210820Z 28001KT 6000 BKN015 17/14 Q1025 WHT;
0147102340999992009092109204+53133+009350FM-15+0061ETGQ V0203001N000510054019N0070001N1+01801+01401999999ADDGA1021+004501999GA2071+005401999GF107991999999999999999999MA1102511999999REMMET062METAR ETGQ 210920Z 30001KT 7000 FEW015 BKN018 18/14 Q1025 WHT;
0124102340999992009092110204+53133+009350FM-15+0061ETGQ V0202701N001512200019N0070001N1+01901+01401999999ADDGA1021+005401999GF102991999999999999999999MA1102511999999REMMET055METAR ETGQ 211020Z 27003KT 7000 FEW018 19/14 Q1025 WHT;
0124102340999992009092111204+53133+009350FM-15+0061ETGQ V0202901N003612200019N0070001N1+01901+01301999999ADDGA1021+006601999GF102991999999999999999999MA1102511999999REMMET055METAR ETGQ 211120Z 29007KT 7000 FEW022 19/13 Q1025 WHT;
0148102340999992009092112204+53133+009350FM-15+0061ETGQ V0203001N004112200019N0080001N1+01901+01301999999ADDGA1021+006901999GA2041+009601999GF104991999999999999999999MA1102511999999REMMET063METAR ETGQ 211220Z 30008KT 8000 FEW023 SCT032 19/13 Q1025 BLU/;
0125102340999992009092113204+53133+009350FM-15+0061ETGQ V0203201N002112200019N0112651N1+02001+01301999999ADDGA1021+009001999GF102991999999999999999999MA1102511999999REMMET056METAR ETGQ 211320Z 32004KT 9999 FEW030 20/13 Q1025 BLU/;
0148102340999992009092114204+53133+009350FM-15+0061ETGQ V0202901N002612200019N0112651N1+02101+01301999999ADDGA1021+009601999GA2041+105001999GF104991999999999999999999MA1102401999999REMMET063METAR ETGQ 211420Z 29005KT 9999 FEW032 SCT350 21/13 Q1024 BLU/;
0148102340999992009092115204+53133+009350FM-15+0061ETGQ V0203301N003611050019N0112651N1+02101+01201999999ADDGA1021+010801999GA2071+105001999GF107991999999999999999999MA1102511999999REMMET063METAR ETGQ 211520Z 33007KT 9999 FEW036 BKN350 21/12 Q1025 BLU/;
0148102340999992009092116204+53133+009350FM-15+0061ETGQ V0203201N003111050019N0112651N1+02001+01201999999ADDGA1021+045001999GA2071+105001999GF107991999999999999999999MA1102401999999REMMET063METAR ETGQ 211620Z 32006KT 9999 FEW150 BKN350 20/12 Q1024 BLU/;
0125102340999992009092117204+53133+009350FM-15+0061ETGQ V0203001N001511050019N0112651N1+01901+01101999999ADDGA1071+105001999GF107991999999999999999999MA1102511999999REMMET056METAR ETGQ 211720Z 30003KT 9999 BKN350 19/11 Q1025 BLU/;
0125102340999992009092118204+53133+009350FM-15+0061ETGQ V0209999C000012200019N0112651N1+01701+01101999999ADDGA1041+090001999GF104991999999999999999999MA1102511999999REMMET056METAR ETGQ 211820Z 00000KT 9999 SCT340 17/11 Q1025 BLU/;
0133102340999992009092204204+53133+009350FM-15+0061ETGQ V0202001N000510006019N0030001N1+01101+01001999999ADDGA1081+000601999GF108991999999999999999999MA1102611999999MW1101REMMET058METAR ETGQ 220420Z 20001KT 3000 BR OVC002 11/10 Q1026 AMB;
0133102340999992009092205204+53133+009350FM-15+0061ETGQ V0202201N001010006019N0020001N1+01101+01001999999ADDGA1081+000601999GF108991999999999999999999MA1102611999999MW1101REMMET058METAR ETGQ 220520Z 22002KT 2000 BR OVC002 11/10 Q1026 AMB;
0133102340999992009092206204+53133+009350FM-15+0061ETGQ V0209999V001010006019N0013001N1+01101+01001999999ADDGA1081+000601999GF108991999999999999999999MA1102611999999MW1101REMMET058METAR ETGQ 220620Z VRB02KT 1300 BR OVC002 11/10 Q1026 AMB;
0133102340999992009092207204+53133+009350FM-15+0061ETGQ V0209999V001010006019N0007001N1+01101+01101999999ADDGA1081+000601999GF108991999999999999999999MA1102711999999MW1441REMMET058METAR ETGQ 220720Z VRB02KT 0700 FG OVC002 11/11 Q1027 RED;
0133102340999992009092208204+53133+009350FM-15+0061ETGQ V0209999C000010018019N0030001N1+01201+01101999999ADDGA1071+001801999GF107991999999999999999999MA1102611999999MW1101REMMET058METAR ETGQ 220820Z 00000KT 3000 BR BKN006 12/11 Q1026 YLO;
0125102340999992009092209204+53133+009350FM-15+0061ETGQ V0209999V001012200019N0080001N1+01501+01101999999ADDGA1021+030001999GF102991999999999999999999MA1102611999999REMMET056METAR ETGQ 220920Z VRB02KT 8000 FEW100 15/11 Q1026 BLU/;
0125102340999992009092210204+53133+009350FM-15+0061ETGQ V0209999C000012200019N0112651N1+01801+01001999999ADDGA1021+090001999GF102991999999999999999999MA1102711999999REMMET056METAR ETGQ 221020Z 00000KT 9999 FEW300 18/10 Q1027 BLU/;
0125102340999992009092211204+53133+009350FM-15+0061ETGQ V0203301N000512200019N0112651N1+02001+01001999999ADDGA1021+045001999GF102991999999999999999999MA1102611999999REMMET056METAR ETGQ 221120Z 33001KT 9999 FEW150 20/10 Q1026 BLU/;
0125102340999992009092212204+53133+009350FM-15+0061ETGQ V0209999V001012200019N0112651N1+02201+01001999999ADDGA1021+045001999GF102991999999999999999999MA1102511999999REMMET056METAR ETGQ 221220Z VRB02KT 9999 FEW150 22/10 Q1025 BLU/;
0125102340999992009092213204+53133+009350FM-15+0061ETGQ V0203101N001512200019N0112651N1+02201+01001999999ADDGA1021+039001999GF102991999999999999999999MA1102511999999REMMET056METAR ETGQ 221320Z 31003KT 9999 FEW130 22/10 Q1025 BLU/;
0148102340999992009092214204+53133+009350FM-15+0061ETGQ V0203401N001512200019N0112651N1+02301+01001999999ADDGA1021+036001999GA2041+078001999GF104991999999999999999999MA1102401999999REMMET063METAR ETGQ 221420Z 34003KT 9999 FEW120 SCT260 23/10 Q1024 BLU/;
0125102340999992009092215204+53133+009350FM-15+0061ETGQ V0209999C000012200019N0112651N1+02301+01001999999ADDGA1021+033001999GF102991999999999999999999MA1102401999999REMMET056METAR ETGQ 221520Z 00000KT 9999 FEW110 23/10 Q1024 BLU/;
0125102340999992009092216204+53133+009350FM-15+0061ETGQ V0209999V000512200019N0112651N1+02301+01101999999ADDGA1021+036001999GF102991999999999999999999MA1102401999999REMMET056METAR ETGQ 221620Z VRB01KT 9999 FEW120 23/11 Q1024 BLU/;
0148102340999992009092217204+53133+009350FM-15+0061ETGQ V0202301N000512200019N0112651N1+02101+01201999999ADDGA1021+048001999GA2041+078001999GF104991999999999999999999MA1102401999999REMMET063METAR ETGQ 221720Z 23001KT 9999 FEW160 SCT260 21/12 Q1024 BLU/;
0148102340999992009092218204+53133+009350FM-15+0061ETGQ V0209999C000012200019N0112651N1+01801+01201999999ADDGA1021+048001999GA2041+078001999GF104991999999999999999999MA1102401999999REMMET063METAR ETGQ 221820Z 00000KT 9999 FEW160 SCT260 18/12 Q1024 BLU/;
0076102340999992009092304204+53133+009350FM-15+0061ETGQ V0209999C000012200019N0080001N1+01101+01001999999ADDMA1102611999999REMMET049METAR ETGQ 230420Z 00000KT 8000 11/10 Q1026 BLU/;
0136102340999992009092305204+53133+009350FM-15+0061ETGQ V0209999V000512200019N0080001N1+01101+01001999999ADDGA1021+000601999GF102991999999999999999999MA1102611999999MW1401REMMET061METAR ETGQ 230520Z VRB01KT 8000 VCFG FEW002 11/10 Q1026 BLU/;
0135102340999992009092306204+53133+009350FM-15+0061ETGQ V0209999C000012200019N0060001N1+01001+00901999999ADDGA1041+001201999GF104991999999999999999999MA1102611999999MW1401REMMET060METAR ETGQ 230620Z 00000KT 6000 VCFG SCT004 10/09 Q1026 WHT;
0124102340999992009092307204+53133+009350FM-15+0061ETGQ V0209999C000012200019N0060001N1+01201+01101999999ADDGA1041+001201999GF104991999999999999999999MA1102711999999REMMET055METAR ETGQ 230720Z 00000KT 6000 SCT004 12/11 Q1027 WHT;
0124102340999992009092308204+53133+009350FM-15+0061ETGQ V0209999C000010081019N0070001N1+01401+01101999999ADDGA1071+008101999GF107991999999999999999999MA1102711999999REMMET055METAR ETGQ 230820Z 00000KT 7000 BKN027 14/11 Q1027 WHT;
0124102340999992009092309204+53133+009350FM-15+0061ETGQ V0209999C000010084019N0080001N1+01601+01101999999ADDGA1071+008401999GF107991999999999999999999MA1102711999999REMMET055METAR ETGQ 230920Z 00000KT 8000 BKN028 16/11 Q1027 BLU;
0124102340999992009092310204+53133+009350FM-15+0061ETGQ V0209999C000010081019N0112651N1+01701+01101999999ADDGA1071+008101999GF107991999999999999999999MA1102711999999REMMET055METAR ETGQ 231020Z 00000KT 9999 BKN027 17/11 Q1027 BLU;
0148102340999992009092311204+53133+009350FM-15+0061ETGQ V0209999V000512200019N0112651N1+01901+01101999999ADDGA1041+008401999GA2041+090001999GF104991999999999999999999MA1102711999999REMMET063METAR ETGQ 231120Z VRB01KT 9999 SCT028 SCT300 19/11 Q1027 BLU/;
0148102340999992009092312204+53133+009350FM-15+0061ETGQ V0209999V000512200019N0112651N1+02001+01101999999ADDGA1041+009001999GA2041+090001999GF104991999999999999999999MA1102611999999REMMET063METAR ETGQ 231220Z VRB01KT 9999 SCT030 SCT300 20/11 Q1026 BLU/;
0148102340999992009092313204+53133+009350FM-15+0061ETGQ V0209999V000512200019N0112651N1+02101+01201999999ADDGA1041+010501999GA2041+105001999GF104991999999999999999999MA1102611999999REMMET063METAR ETGQ 231320Z VRB01KT 9999 SCT035 SCT350 21/12 Q1026 BLU/;
0148102340999992009092314204+53133+009350FM-15+0061ETGQ V0200301N001511050019N0112651N1+02101+01201999999ADDGA1041+010501999GA2071+105001999GF107991999999999999999999MA1102511999999REMMET063METAR ETGQ 231420Z 03003KT 9999 SCT035 BKN350 21/12 Q1025 BLU/;
0148102340999992009092315204+53133+009350FM-15+0061ETGQ V0209999C000012200019N0112651N1+02201+01301999999ADDGA1021+012001999GA2041+027001999GF104991999999999999999999MA1102401999999REMMET063METAR ETGQ 231520Z 00000KT 9999 FEW040 SCT090 22/13 Q1024 BLU/;
0124102340999992009092316204+53133+009350FM-15+0061ETGQ V0203101N000510270019N0112651N1+02101+01301999999ADDGA1071+027001999GF107991999999999999999999MA1102401999999REMMET055METAR ETGQ 231620Z 31001KT 9999 BKN090 21/13 Q1024 BLU;
0125102340999992009092317204+53133+009350FM-15+0061ETGQ V0203201N003112200019N0112651N1+02001+01301999999ADDGA1041+012001999GF104991999999999999999999MA1102401999999REMMET056METAR ETGQ 231720Z 32006KT 9999 SCT040 20/13 Q1024 BLU/;
0148102340999992009092318204+53133+009350FM-15+0061ETGQ V0203301N001512200019N0112651N1+01901+01301999999ADDGA1021+010501999GA2041+018001999GF104991999999999999999999MA1102511999999REMMET063METAR ETGQ 231820Z 33003KT 9999 FEW035 SCT060 19/13 Q1025 BLU/;
0124102340999992009092404204+53133+009350FM-15+0061ETGQ V0209999C000010033019N0112651N1+01601+01301999999ADDGA1081+003301999GF108991999999999999999999MA1102301999999REMMET055METAR ETGQ 240420Z 00000KT 9999 OVC011 16/13 Q1023 GRN;
0124102340999992009092405204+53133+009350FM-15+0061ETGQ V0209999C000010030019N0080001N1+01601+01401999999ADDGA1081+003001999GF108991999999999999999999MA1102301999999REMMET055METAR ETGQ 240520Z 00000KT 8000 OVC010 16/14 Q1023 GRN;
0124102340999992009092406204+53133+009350FM-15+0061ETGQ V0202401N000510030019N0060001N1+01601+01401999999ADDGA1081+003001999GF108991999999999999999999MA1102301999999REMMET055METAR ETGQ 240620Z 24001KT 6000 OVC010 16/14 Q1023 GRN;
0124102340999992009092407204+53133+009350FM-15+0061ETGQ V0209999C000010024019N0070001N1+01601+01401999999ADDGA1081+002401999GF108991999999999999999999MA1102401999999REMMET055METAR ETGQ 240720Z 00000KT 7000 OVC008 16/14 Q1024 GRN;
0147102340999992009092408204+53133+009350FM-15+0061ETGQ V0209999C000010036019N0070001N1+01701+01401999999ADDGA1041+002401999GA2081+003601999GF108991999999999999999999MA1102401999999REMMET062METAR ETGQ 240820Z 00000KT 7000 SCT008 OVC012 17/14 Q1024 GRN;
0147102340999992009092409204+53133+009350FM-15+0061ETGQ V0209999C000010042019N0070001N1+01801+01401999999ADDGA1021+003001999GA2071+004201999GF107991999999999999999999MA1102401999999REMMET062METAR ETGQ 240920Z 00000KT 7000 FEW010 BKN014 18/14 Q1024 GRN;
0170102340999992009092410204+53133+009350FM-15+0061ETGQ V0209999C00001004501CN0080001N1+01801+01401999999ADDGA1021+003001999GA2041+004501999GA3071+012601999GF107991999999999999999999MA1102401999999REMMET069METAR ETGQ 241020Z 00000KT 8000 FEW010 SCT015 BKN042 18/14 Q1024 BLU;
0147102340999992009092411204+53133+009350FM-15+0061ETGQ V0203101N002110105019N0112651N1+01801+01401999999ADDGA1041+004501999GA2071+010501999GF107991999999999999999999MA1102301999999REMMET062METAR ETGQ 241120Z 31004KT 9999 SCT015 BKN035 18/14 Q1023 BLU;
0170102340999992009092412204+53133+009350FM-15+0061ETGQ V0203201N002610093019N0112651N1+01801+01301999999ADDGA1021+007801999GA2071+009301999GA3071+018001999GF107991999999999999999999MA1102301999999REMMET069METAR ETGQ 241220Z 32005KT 9999 FEW026 BKN031 BKN060 18/13 Q1023 BLU;
0170102340999992009092413204+53133+009350FM-15+0061ETGQ V0203401N003610105019N0112651N1+01801+01301999999ADDGA1021+006901999GA2071+010501999GA3071+018001999GF107991999999999999999999MA1102301999999REMMET069METAR ETGQ 241320Z 34007KT 9999 FEW023 BKN035 BKN060 18/13 Q1023 BLU;
0170102340999992009092414204+53133+009350FM-15+0061ETGQ V0203601N00261014101CN0112651N1+01801+01201999999ADDGA1021+006301999GA2041+014101999GA3071+018001999GF107991999999999999999999MA1102301999999REMMET069METAR ETGQ 241420Z 36005KT 9999 FEW021 SCT047 BKN060 18/12 Q1023 BLU;
0148102340999992009092415204+53133+009350FM-15+0061ETGQ V0203401N002612200019N0112651N1+01801+01201999999ADDGA1021+006601999GA2041+009901999GF104991999999999999999999MA1102301999999REMMET063METAR ETGQ 241520Z 34005KT 9999 FEW022 SCT033 18/12 Q1023 BLU/;
0147102340999992009092416204+53133+009350FM-15+0061ETGQ V0203101N001510150019N0112651N1+01801+01201999999ADDGA1021+009001999GA2071+015001999GF107991999999999999999999MA1102301999999REMMET062METAR ETGQ 241620Z 31003KT 9999 FEW030 BKN050 18/12 Q1023 BLU;
0148102340999992009092417204+53133+009350FM-15+0061ETGQ V0202901N001512200019N0112651N1+01701+01201999999ADDGA1041+018001999GA2041+024001999GF104991999999999999999999MA1102301999999REMMET063METAR ETGQ 241720Z 29003KT 9999 SCT060 SCT080 17/12 Q1023 BLU/;
0124102340999992009092418204+53133+009350FM-15+0061ETGQ V0203001N002110144019N0112651N1+01601+01301999999ADDGA1071+014401999GF107991999999999999999999MA1102401999999REMMET055METAR ETGQ 241820Z 30004KT 9999 BKN048 16/13 Q1024 BLU;
0133102340999992009092504204+53133+009350FM-15+0061ETGQ V0203101N001010012019N0020001N1+01101+01001999999ADDGA1071+001201999GF107991999999999999999999MA1102611999999MW1101REMMET058METAR ETGQ 250420Z 31002KT 2000 BR BKN004 11/10 Q1026 YLO;
0133102340999992009092505204+53133+009350FM-15+0061ETGQ V0202901N001510012019N0020001N1+01101+01001999999ADDGA1081+001201999GF108991999999999999999999MA1102611999999MW1101REMMET058METAR ETGQ 250520Z 29003KT 2000 BR OVC004 11/10 Q1026 YLO;
0156102340999992009092506204+53133+009350FM-15+0061ETGQ V0203101N001010144019N0030001N1+01101+01001999999ADDGA1021+001201999GA2071+014401999GF107991999999999999999999MA1102611999999MW1101REMMET065METAR ETGQ 250620Z 31002KT 3000 BR FEW004 BKN048 11/10 Q1026 YLO;
0133102340999992009092507204+53133+009350FM-15+0061ETGQ V0203001N001010150019N0040001N1+01201+01001999999ADDGA1071+015001999GF107991999999999999999999MA1102711999999MW1101REMMET058METAR ETGQ 250720Z 30002KT 4000 BR BKN050 12/10 Q1027 GRN;
0147102340999992009092508204+53133+009350FM-15+0061ETGQ V0203101N001510150019N0070001N1+01201+01001999999ADDGA1041+003601999GA2071+015001999GF107991999999999999999999MA1102711999999REMMET062METAR ETGQ 250820Z 31003KT 7000 SCT012 BKN050 12/10 Q1027 WHT;
0148102340999992009092509204+53133+009350FM-15+0061ETGQ V0203401N001012200019N0080001N1+01301+01001999999ADDGA1021+004501999GA2041+015001999GF104991999999999999999999MA1102711999999REMMET063METAR ETGQ 250920Z 34002KT 8000 FEW015 SCT050 13/10 Q1027 BLU/;
0125102340999992009092510204+53133+009350FM-15+0061ETGQ V0209999V001012200019N0112651N1+01501+00901999999ADDGA1021+006901999GF102991999999999999999999MA1102711999999REMMET056METAR ETGQ 251020Z VRB02KT 9999 FEW023 15/09 Q1027 BLU/;
0147102340999992009092511204+53133+009350FM-15+0061ETGQ V0209999V001010144019N0112651N1+01701+00901999999ADDGA1021+009001999GA2071+014401999GF107991999999999999999999MA1102611999999REMMET062METAR ETGQ 251120Z VRB02KT 9999 FEW030 BKN048 17/09 Q1026 BLU;
0125102340999992009092512204+53133+009350FM-15+0061ETGQ V0203401N003112200019N0112651N1+01801+00801999999ADDGA1021+012001999GF102991999999999999999999MA1102611999999REMMET056METAR ETGQ 251220Z 34006KT 9999 FEW040 18/08 Q1026 BLU/;
0125102340999992009092513204+53133+009350FM-15+0061ETGQ V0200401N001512200019N0112651N1+01801+00601999999ADDGA1021+012001999GF102991999999999999999999MA1102511999999REMMET056METAR ETGQ 251320Z 04003KT 9999 FEW040 18/06 Q1025 BLU/;
0124102340999992009092514204+53133+009350FM-15+0061ETGQ V0203601N001510135019N0112651N1+01901+00601999999ADDGA1071+013501999GF107991999999999999999999MA1102511999999REMMET055METAR ETGQ 251420Z 36003KT 9999 BKN045 19/06 Q1025 BLU;
0124102340999992009092515204+53133+009350FM-15+0061ETGQ V0203401N002610150019N0112651N1+01801+00801999999ADDGA1071+015001999GF107991999999999999999999MA1102511999999REMMET055METAR ETGQ 251520Z 34005KT 9999 BKN050 18/08 Q1025 BLU;
0124102340999992009092516204+53133+009350FM-15+0061ETGQ V0203201N001510150019N0112651N1+01801+00801999999ADDGA1071+015001999GF107991999999999999999999MA1102511999999REMMET055METAR ETGQ 251620Z 32003KT 9999 BKN050 18/08 Q1025 BLU;
0124102340999992009092517204+53133+009350FM-15+0061ETGQ V0209999C000010150019N0112651N1+01701+00901999999ADDGA1071+015001999GF107991999999999999999999MA1102511999999REMMET055METAR ETGQ 251720Z 00000KT 9999 BKN050 17/09 Q1025 BLU;
0124102340999992009092518204+53133+009350FM-15+0061ETGQ V0209999C000010150019N0112651N1+01401+00901999999ADDGA1071+015001999GF107991999999999999999999MA1102611999999REMMET055METAR ETGQ 251820Z 00000KT 9999 BKN050 14/09 Q1026 BLU;
0124102340999992009092804204+53133+009350FM-15+0061ETGQ V0202001N000510030019N0060001N1+00901+00701999999ADDGA1071+003001999GF107991999999999999999999MA1102611999999REMMET055METAR ETGQ 280420Z 20001KT 6000 BKN010 09/07 Q1026 GRN;
0133102340999992009092805204+53133+009350FM-15+0061ETGQ V0201701N000510024019N0030001N1+00801+00701999999ADDGA1071+002401999GF107991999999999999999999MA1102611999999MW1101REMMET058METAR ETGQ 280520Z 17001KT 3000 BR BKN008 08/07 Q1026 YLO;
0133102340999992009092806204+53133+009350FM-15+0061ETGQ V0202401N000512200019N0030001N1+00801+00701999999ADDGA1041+002401999GF104991999999999999999999MA1102611999999MW1101REMMET058METAR ETGQ 280620Z 24001KT 3000 BR SCT008 08/07 Q1026 YLO;
0133102340999992009092807204+53133+009350FM-15+0061ETGQ V0209999V000512200019N0030001N1+00901+00801999999ADDGA1041+002401999GF104991999999999999999999MA1102611999999MW1101REMMET058METAR ETGQ 280720Z VRB01KT 3000 BR SCT008 09/08 Q1026 YLO;
0133102340999992009092808204+53133+009350FM-15+0061ETGQ V0209999C000012200019N0040001N1+01101+00801999999ADDGA1041+003001999GF104991999999999999999999MA1102611999999MW1101REMMET058METAR ETGQ 280820Z 00000KT 4000 BR SCT010 11/08 Q1026 GRN;
0156102340999992009092809204+53133+009350FM-15+0061ETGQ V0203601N001012200019N0040001N1+01201+00901999999ADDGA1021+003001999GA2041+105001999GF104991999999999999999999MA1102611999999MW1051REMMET065METAR ETGQ 280920Z 36002KT 4000 HZ FEW010 SCT350 12/09 Q1026 GRN;
0133102340999992009092810204+53133+009350FM-15+0061ETGQ V0203301N000511050019N0040001N1+01401+00901999999ADDGA1071+105001999GF107991999999999999999999MA1102611999999MW1051REMMET058METAR ETGQ 281020Z 33001KT 4000 HZ BKN350 14/09 Q1026 GRN;
0133102340999992009092811204+53133+009350FM-15+0061ETGQ V0209999V000511050019N0050001N1+01701+01001999999ADDGA1071+105001999GF107991999999999999999999MA1102511999999MW1051REMMET058METAR ETGQ 281120Z VRB01KT 5000 HZ BKN350 17/10 Q1025 WHT;
0133102340999992009092812204+53133+009350FM-15+0061ETGQ V0203501N001011050019N0050001N1+01801+01001999999ADDGA1071+105001999GF107991999999999999999999MA1102401999999MW1051REMMET058METAR ETGQ 281220Z 35002KT 5000 HZ BKN350 18/10 Q1024 WHT;
0124102340999992009092813204+53133+009350FM-15+0061ETGQ V0203401N002111050019N0070001N1+01801+01001999999ADDGA1071+105001999GF107991999999999999999999MA1102401999999REMMET055METAR ETGQ 281320Z 34004KT 7000 BKN350 18/10 Q1024 WHT;
0124102340999992009092814204+53133+009350FM-15+0061ETGQ V0203401N001011050019N0070001N1+01901+01001999999ADDGA1071+105001999GF107991999999999999999999MA1102301999999REMMET055METAR ETGQ 281420Z 34002KT 7000 BKN350 19/10 Q1023 WHT;
0125102340999992009092815204+53133+009350FM-15+0061ETGQ V0202801N001011050019N0080001N1+01901+01101999999ADDGA1071+105001999GF107991999999999999999999MA1102201999999REMMET056METAR ETGQ 281520Z 28002KT 8000 BKN350 19/11 Q1022 BLU/;
0148102340999992009092816204+53133+009350FM-15+0061ETGQ V0203001N003111050019N0080001N1+01801+01101999999ADDGA1041+045001999GA2071+105001999GF107991999999999999999999MA1102201999999REMMET063METAR ETGQ 281620Z 30006KT 8000 SCT150 BKN350 18/11 Q1022 BLU/;
0148102340999992009092817204+53133+009350FM-15+0061ETGQ V0203301N002611050019N0080001N1+01701+01101999999ADDGA1041+045001999GA2071+105001999GF107991999999999999999999MA1102201999999REMMET063METAR ETGQ 281720Z 33005KT 8000 SCT150 BKN350 17/11 Q1022 BLU/;
0125102340999992009092818204+53133+009350FM-15+0061ETGQ V0203401N001011050019N0080001N1+01601+01101999999ADDGA1071+105001999GF107991999999999999999999MA1102201999999REMMET056METAR ETGQ 281820Z 34002KT 8000 BKN350 16/11 Q1022 BLU/;
0124102340999992009092904204+53133+009350FM-15+0061ETGQ V0203001N001010300019N0112651N1+01201+00901999999ADDGA1071+030001999GF107991999999999999999999MA1102101999999REMMET055METAR ETGQ 290420Z 30002KT 9999 BKN100 12/09 Q1021 BLU;
0124102340999992009092905204+53133+009350FM-15+0061ETGQ V0202201N000510300019N0112651N1+01301+00901999999ADDGA1071+030001999GF107991999999999999999999MA1102101999999REMMET055METAR ETGQ 290520Z 22001KT 9999 BKN100 13/09 Q1021 BLU;
0147102340999992009092906204+53133+009350FM-15+0061ETGQ V0202001N001010300019N0112651N1+01301+00901999999ADDGA1041+009001999GA2071+030001999GF107991999999999999999999MA1102101999999REMMET062METAR ETGQ 290620Z 20002KT 9999 SCT030 BKN100 13/09 Q1021 BLU;
0124102340999992009092907204+53133+009350FM-15+0061ETGQ V0202101N001510090019N0112651N1+01401+00901999999ADDGA1071+009001999GF107991999999999999999999MA1102101999999REMMET055METAR ETGQ 290720Z 21003KT 9999 BKN030 14/09 Q1021 BLU;
0124102340999992009092908204+53133+009350FM-15+0061ETGQ V0202101N001010075019N0112651N1+01501+00901999999ADDGA1071+007501999GF107991999999999999999999MA1102101999999REMMET055METAR ETGQ 290820Z 21002KT 9999 BKN025 15/09 Q1021 BLU;
0124102340999992009092909204+53133+009350FM-15+0061ETGQ V0202001N001010075019N0112651N1+01501+01001999999ADDGA1071+007501999GF107991999999999999999999MA1102201999999REMMET055METAR ETGQ 290920Z 20002KT 9999 BKN025 15/10 Q1022 BLU;
0124102340999992009092910204+53133+009350FM-15+0061ETGQ V0201901N001510075019N0112651N1+01501+01001999999ADDGA1071+007501999GF107991999999999999999999MA1102101999999REMMET055METAR ETGQ 291020Z 19003KT 9999 BKN025 15/10 Q1021 BLU;
0148102340999992009092911204+53133+009350FM-15+0061ETGQ V0201701N002110900019N0112651N1+01701+01001999999ADDGA1041+007501999GA2071+090001999GF107991999999999999999999MA1102101999999REMMET063METAR ETGQ 291120Z 17004KT 9999 SCT025 BKN300 17/10 Q1021 BLU/;
0124102340999992009092912204+53133+009350FM-15+0061ETGQ V0202201N001510090019N0112651N1+01801+01101999999ADDGA1071+009001999GF107991999999999999999999MA1102001999999REMMET055METAR ETGQ 291220Z 22003KT 9999 BKN030 18/11 Q1020 BLU;
0147102340999992009092913204+53133+009350FM-15+0061ETGQ V0202101N001010105019N0112651N1+01801+01101999999ADDGA1071+010501999GA2071+015001999GF107991999999999999999999MA1102001999999REMMET062METAR ETGQ 291320Z 21002KT 9999 BKN035 BKN050 18/11 Q1020 BLU;
0147102340999992009092914204+53133+009350FM-15+0061ETGQ V0202101N001010150019N0112651N1+01801+01201999999ADDGA1021+010501999GA2071+015001999GF107991999999999999999999MA1101901999999REMMET062METAR ETGQ 291420Z 21002KT 9999 FEW035 BKN050 18/12 Q1019 BLU;
0147102340999992009092915204+53133+009350FM-15+0061ETGQ V0209999C000010150019N0112651N1+01801+01201999999ADDGA1041+012001999GA2071+015001999GF107991999999999999999999MA1101901999999REMMET062METAR ETGQ 291520Z 00000KT 9999 SCT040 BKN050 18/12 Q1019 BLU;
0147102340999992009092916204+53133+009350FM-15+0061ETGQ V0209999C000010150019N0112651N1+01701+01201999999ADDGA1041+012001999GA2071+015001999GF107991999999999999999999MA1101901999999REMMET062METAR ETGQ 291620Z 00000KT 9999 SCT040 BKN050 17/12 Q1019 BLU;
0147102340999992009092917204+53133+009350FM-15+0061ETGQ V0209999C000010150019N0112651N1+01701+01101999999ADDGA1041+012001999GA2071+015001999GF107991999999999999999999MA1101901999999REMMET062METAR ETGQ 291720Z 00000KT 9999 SCT040 BKN050 17/11 Q1019 BLU;
0124102340999992009092918204+53133+009350FM-15+0061ETGQ V0203101N003110150019N0112651N1+01701+01201999999ADDGA1071+015001999GF107991999999999999999999MA1102001999999REMMET055METAR ETGQ 291820Z 31006KT 9999 BKN050 17/12 Q1020 BLU;
0124102340999992009093004204+53133+009350FM-15+0061ETGQ V0203001N001510060019N0080001N1+01501+01201999999ADDGA1071+006001999GF107991999999999999999999MA1101901999999REMMET055METAR ETGQ 300420Z 30003KT 8000 BKN020 15/12 Q1019 WHT;
0124102340999992009093005204+53133+009350FM-15+0061ETGQ V0209999C000010060019N0080001N1+01501+01201999999ADDGA1071+006001999GF107991999999999999999999MA1101901999999REMMET055METAR ETGQ 300520Z 00000KT 8000 BKN020 15/12 Q1019 WHT;
0124102340999992009093006204+53133+009350FM-15+0061ETGQ V0202801N001010060019N0080001N1+01501+01201999999ADDGA1071+006001999GF107991999999999999999999MA1101901999999REMMET055METAR ETGQ 300620Z 28002KT 8000 BKN020 15/12 Q1019 WHT;
0124102340999992009093007204+53133+009350FM-15+0061ETGQ V0203101N001510075019N0080001N1+01501+01201999999ADDGA1071+007501999GF107991999999999999999999MA1101901999999REMMET055METAR ETGQ 300720Z 31003KT 8000 BKN025 15/12 Q1019 BLU;
0124102340999992009093008204+53133+009350FM-15+0061ETGQ V0203001N001510060019N0080001N1+01501+01201999999ADDGA1071+006001999GF107991999999999999999999MA1101901999999REMMET055METAR ETGQ 300820Z 30003KT 8000 BKN020 15/12 Q1019 WHT;
0143102340999992009093009204+53133+009350FM-15+0061ETGQ V0203101N000510060019N0050001N1+01501+01301999999ADDGA1081+006001999GF108991999999999999999999MA1101901999999MW1101MW2611REMMET062METAR ETGQ 300920Z 31001KT 5000 -RA BR OVC020 15/13 Q1019 WHT;
0147102340999992009093010204+53133+009350FM-15+0061ETGQ V0209999V000510075019N0080001N1+01601+01301999999ADDGA1021+004501999GA2071+007501999GF107991999999999999999999MA1101901999999REMMET062METAR ETGQ 301020Z VRB01KT 8000 FEW015 BKN025 16/13 Q1019 BLU;
0147102340999992009093011204+53133+009350FM-15+0061ETGQ V0203601N001510075019N0080001N1+01701+01301999999ADDGA1021+004501999GA2071+007501999GF107991999999999999999999MA1101801999999REMMET062METAR ETGQ 301120Z 36003KT 8000 FEW015 BKN025 17/13 Q1018 BLU;
0147102340999992009093012204+53133+009350FM-15+0061ETGQ V0209999V001010120019N0112651N1+01701+01301999999ADDGA1021+009001999GA2071+012001999GF107991999999999999999999MA1101801999999REMMET062METAR ETGQ 301220Z VRB02KT 9999 FEW030 BKN040 17/13 Q1018 BLU;
0147102340999992009093013204+53133+009350FM-15+0061ETGQ V0200401N001010150019N0112651N1+01701+01201999999ADDGA1021+006001999GA2071+015001999GF107991999999999999999999MA1101691999999REMMET062METAR ETGQ 301320Z 04002KT 9999 FEW020 BKN050 17/12 Q1017 BLU;
0124102340999992009093014204+53133+009350FM-15+0061ETGQ V0201601N000510150019N0112651N1+01801+01201999999ADDGA1071+015001999GF107991999999999999999999MA1101691999999REMMET055METAR ETGQ 301420Z 16001KT 9999 BKN050 18/12 Q1017 BLU;
0124102340999992009093015204+53133+009350FM-15+0061ETGQ V0209999C000010150019N0112651N1+01801+01301999999ADDGA1071+015001999GF107991999999999999999999MA1101591999999REMMET055METAR ETGQ 301520Z 00000KT 9999 BKN050 18/13 Q1016 BLU;
0124102340999992009093016204+53133+009350FM-15+0061ETGQ V0209999C000010150019N0112651N1+01701+01201999999ADDGA1071+015001999GF107991999999999999999999MA1101591999999REMMET055METAR ETGQ 301620Z 00000KT 9999 BKN050 17/12 Q1016 BLU;
0125102340999992009093017204+53133+009350FM-15+0061ETGQ V0201601N001012200019N0112651N1+01601+01201999999ADDGA1041+015001999GF104991999999999999999999MA1101591999999REMMET056METAR ETGQ 301720Z 16002KT 9999 SCT050 16/12 Q1016 BLU/;
0125102340999992009093018204+53133+009350FM-15+0061ETGQ V0209999V000512200019N0112651N1+01501+01201999999ADDGA1041+018001999GF104991999999999999999999MA1101591999999REMMET056METAR ETGQ 301820Z VRB01KT 9999 SCT060 15/12 Q1016 BLU/;
0124102340999992009100104204+53133+009350FM-15+0061ETGQ V0209999C000010150019N0070001N1+01301+01101999999ADDGA1071+015001999GF107991999999999999999999MA1101291999999REMMET055METAR ETGQ 010420Z 00000KT 7000 BKN050 13/11 Q1013 WHT;
0124102340999992009100105204+53133+009350FM-15+0061ETGQ V0209999C000010120019N0070001N1+01301+01101999999ADDGA1071+012001999GF107991999999999999999999MA1101291999999REMMET055METAR ETGQ 010520Z 00000KT 7000 BKN040 13/11 Q1013 WHT;
0124102340999992009100106204+53133+009350FM-15+0061ETGQ V0209999C000010135019N0070001N1+01201+01101999999ADDGA1071+013501999GF107991999999999999999999MA1101391999999REMMET055METAR ETGQ 010620Z 00000KT 7000 BKN045 12/11 Q1014 WHT;
0124102340999992009100107204+53133+009350FM-15+0061ETGQ V0201901N001010150019N0080001N1+01401+01101999999ADDGA1071+015001999GF107991999999999999999999MA1101391999999REMMET055METAR ETGQ 010720Z 19002KT 8000 BKN050 14/11 Q1014 BLU;
0124102340999992009100108204+53133+009350FM-15+0061ETGQ V0202101N001010135019N0090001N1+01501+01101999999ADDGA1071+013501999GF107991999999999999999999MA1101391999999REMMET055METAR ETGQ 010820Z 21002KT 9000 BKN045 15/11 Q1014 BLU;
0147102340999992009100109204+53133+009350FM-15+0061ETGQ V0209999V000510150019N0112651N1+01701+01101999999ADDGA1021+009001999GA2071+015001999GF107991999999999999999999MA1101391999999REMMET062METAR ETGQ 010920Z VRB01KT 9999 FEW030 BKN050 17/11 Q1014 BLU;
0147102340999992009100110204+53133+009350FM-15+0061ETGQ V0203101N002610150019N0112651N1+01701+01101999999ADDGA1041+009001999GA2071+015001999GF107991999999999999999999MA1101391999999REMMET062METAR ETGQ 011020Z 31005KT 9999 SCT030 BKN050 17/11 Q1014 BLU;
0147102340999992009100111204+53133+009350FM-15+0061ETGQ V0203201N002610150019N0112651N1+01701+01101999999ADDGA1041+009001999GA2071+015001999GF107991999999999999999999MA1101391999999REMMET062METAR ETGQ 011120Z 32005KT 9999 SCT030 BKN050 17/11 Q1014 BLU;
0148102340999992009100112204+53133+009350FM-15+0061ETGQ V0203001N003612200019N0112651N1+01701+01101999999ADDGA1021+009001999GA2041+015001999GF104991999999999999999999MA1101391999999REMMET063METAR ETGQ 011220Z 30007KT 9999 FEW030 SCT050 17/11 Q1014 BLU/;
0147102340999992009100113204+53133+009350FM-15+0061ETGQ V0203001N003610180019N0112651N1+01801+00801999999ADDGA1021+009001999GA2071+018001999GF107991999999999999999999MA1101391999999REMMET062METAR ETGQ 011320Z 30007KT 9999 FEW030 BKN060 18/08 Q1014 BLU;
0147102340999992009100114204+53133+009350FM-15+0061ETGQ V0203301N004110180019N0112651N1+01501+00901999999ADDGA1021+009001999GA2071+018001999GF107991999999999999999999MA1101391999999REMMET062METAR ETGQ 011420Z 33008KT 9999 FEW030 BKN060 15/09 Q1014 BLU;
0147102340999992009100115204+53133+009350FM-15+0061ETGQ V0203001N003110150019N0112651N1+01401+01001999999ADDGA1021+006001999GA2071+015001999GF107991999999999999999999MA1101491999999REMMET062METAR ETGQ 011520Z 30006KT 9999 FEW020 BKN050 14/10 Q1015 BLU;
0147102340999992009100116204+53133+009350FM-15+0061ETGQ V0202901N002610150019N0112651N1+01401+01001999999ADDGA1021+006001999GA2071+015001999GF107991999999999999999999MA1101491999999REMMET062METAR ETGQ 011620Z 29005KT 9999 FEW020 BKN050 14/10 Q1015 BLU;
0170102340999992009100117204+53133+009350FM-15+0061ETGQ V0203101N00211007501CN0112651N1+01401+01001999999ADDGA1021+004501999GA2041+007501999GA3071+015001999GF107991999999999999999999MA1101591999999REMMET069METAR ETGQ 011720Z 31004KT 9999 FEW015 SCT025 BKN050 14/10 Q1016 BLU;
0147102340999992009100118204+53133+009350FM-15+0061ETGQ V0203301N002110150019N0112651N1+01301+00901999999ADDGA1021+006001999GA2071+015001999GF107991999999999999999999MA1101691999999REMMET062METAR ETGQ 011820Z 33004KT 9999 FEW020 BKN050 13/09 Q1017 BLU;
0124102340999992009100204204+53133+009350FM-15+0061ETGQ V0201901N001010150019N0112651N1+00801+00601999999ADDGA1071+015001999GF107991999999999999999999MA1101801999999REMMET055METAR ETGQ 020420Z 19002KT 9999 BKN050 08/06 Q1018 BLU;
0124102340999992009100205204+53133+009350FM-15+0061ETGQ V0201901N001510150019N0112651N1+00801+00601999999ADDGA1071+015001999GF107991999999999999999999MA1101801999999REMMET055METAR ETGQ 020520Z 19003KT 9999 BKN050 08/06 Q1018 BLU;
0124102340999992009100206204+53133+009350FM-15+0061ETGQ V0201601N001010180019N0112651N1+00801+00601999999ADDGA1071+018001999GF107991999999999999999999MA1101801999999REMMET055METAR ETGQ 020620Z 16002KT 9999 BKN060 08/06 Q1018 BLU;
0148102340999992009100207204+53133+009350FM-15+0061ETGQ V0201801N000510900019N0112651N1+00901+00601999999ADDGA1021+018001999GA2071+090001999GF107991999999999999999999MA1101801999999REMMET063METAR ETGQ 020720Z 18001KT 9999 FEW060 BKN300 09/06 Q1018 BLU/;
0148102340999992009100208204+53133+009350FM-15+0061ETGQ V0209999V001010900019N0112651N1+01001+00601999999ADDGA1021+009001999GA2071+090001999GF107991999999999999999999MA1101801999999REMMET063METAR ETGQ 020820Z VRB02KT 9999 FEW030 BKN300 10/06 Q1018 BLU/;
0147102340999992009100209204+53133+009350FM-15+0061ETGQ V0209999V000510360019N0112651N1+01101+00601999999ADDGA1021+009001999GA2071+036001999GF107991999999999999999999MA1101801999999REMMET062METAR ETGQ 020920Z VRB01KT 9999 FEW030 BKN120 11/06 Q1018 BLU;
0147102340999992009100210204+53133+009350FM-15+0061ETGQ V0209999V001010360019N0112651N1+01301+00501999999ADDGA1041+009001999GA2071+036001999GF107991999999999999999999MA1101801999999REMMET062METAR ETGQ 021020Z VRB02KT 9999 SCT030 BKN120 13/05 Q1018 BLU;
0147102340999992009100211204+53133+009350FM-15+0061ETGQ V0202901N002110150019N0112651N1+01401+00301999999ADDGA1021+012001999GA2071+015001999GF107991999999999999999999MA1101801999999REMMET062METAR ETGQ 021120Z 29004KT 9999 FEW040 BKN050 14/03 Q1018 BLU;
0124102340999992009100212204+53133+009350FM-15+0061ETGQ V0202901N002110150019N0112651N1+01401+00401999999ADDGA1071+015001999GF107991999999999999999999MA1101801999999REMMET055METAR ETGQ 021220Z 29004KT 9999 BKN050 14/04 Q1018 BLU;
0147102340999992009100213204+53133+009350FM-15+0061ETGQ V0202601N002110150019N0112651N1+01401+00501999999ADDGA1021+009001999GA2071+015001999GF107991999999999999999999MA1101691999999REMMET062METAR ETGQ 021320Z 26004KT 9999 FEW030 BKN050 14/05 Q1017 BLU;
0147102340999992009100214204+53133+009350FM-15+0061ETGQ V0202501N002610150019N0112651N1+01501+00501999999ADDGA1021+009001999GA2071+015001999GF107991999999999999999999MA1101691999999REMMET062METAR ETGQ 021420Z 25005KT 9999 FEW030 BKN050 15/05 Q1017 BLU;
0147102340999992009100215204+53133+009350FM-15+0061ETGQ V0202701N002610150019N0112651N1+01501+00501999999ADDGA1021+009001999GA2071+015001999GF107991999999999999999999MA1101691999999REMMET062METAR ETGQ 021520Z 27005KT 9999 FEW030 BKN050 15/05 Q1017 BLU;
0147102340999992009100216204+53133+009350FM-15+0061ETGQ V0202801N002610150019N0112651N1+01401+00501999999ADDGA1021+009001999GA2071+015001999GF107991999999999999999999MA1101691999999REMMET062METAR ETGQ 021620Z 28005KT 9999 FEW030 BKN050 14/05 Q1017 BLU;
0147102340999992009100217204+53133+009350FM-15+0061ETGQ V0202701N001510150019N0112651N1+01401+00601999999ADDGA1041+009001999GA2071+015001999GF107991999999999999999999MA1101691999999REMMET062METAR ETGQ 021720Z 27003KT 9999 SCT030 BKN050 14/06 Q1017 BLU;
0124102340999992009100218204+53133+009350FM-15+0061ETGQ V0209999C000010150019N0112651N1+01301+00601999999ADDGA1071+015001999GF107991999999999999999999MA1101801999999REMMET055METAR ETGQ 021820Z 00000KT 9999 BKN050 13/06 Q1018 BLU;
0124102340999992009100504204+53133+009350FM-15+0061ETGQ V0209999V001010150019N0080001N1+01201+01001999999ADDGA1071+015001999GF107991999999999999999999MA1101691999999REMMET055METAR ETGQ 050420Z VRB02KT 8000 BKN050 12/10 Q1017 BLU;
0147102340999992009100505204+53133+009350FM-15+0061ETGQ V0201301N001510150019N0112651N1+01201+01001999999ADDGA1041+012001999GA2071+015001999GF107991999999999999999999MA1101591999999REMMET062METAR ETGQ 050520Z 13003KT 9999 SCT040 BKN050 12/10 Q1016 BLU;
0147102340999992009100506204+53133+009350FM-15+0061ETGQ V0201301N001510150019N0112651N1+01201+01001999999ADDGA1041+012001999GA2071+015001999GF107991999999999999999999MA1101591999999REMMET062METAR ETGQ 050620Z 13003KT 9999 SCT040 BKN050 12/10 Q1016 BLU;
0124102340999992009100507204+53133+009350FM-15+0061ETGQ V0201401N001010150019N0112651N1+01201+01001999999ADDGA1071+015001999GF107991999999999999999999MA1101591999999REMMET055METAR ETGQ 050720Z 14002KT 9999 BKN050 12/10 Q1016 BLU;
0124102340999992009100508204+53133+009350FM-15+0061ETGQ V0201501N001010150019N0112651N1+01301+01001999999ADDGA1071+015001999GF107991999999999999999999MA1101691999999REMMET055METAR ETGQ 050820Z 15002KT 9999 BKN050 13/10 Q1017 BLU;
0124102340999992009100509204+53133+009350FM-15+0061ETGQ V0201301N002110180019N0112651N1+01301+01001999999ADDGA1071+018001999GF107991999999999999999999MA1101591999999REMMET055METAR ETGQ 050920Z 13004KT 9999 BKN060 13/10 Q1016 BLU;
0124102340999992009100510204+53133+009350FM-15+0061ETGQ V0201201N001510180019N0112651N1+01401+01001999999ADDGA1071+018001999GF107991999999999999999999MA1101591999999REMMET055METAR ETGQ 051020Z 12003KT 9999 BKN060 14/10 Q1016 BLU;
0124102340999992009100511204+53133+009350FM-15+0061ETGQ V0201101N001510180019N0112651N1+01401+01101999999ADDGA1071+018001999GF107991999999999999999999MA1101491999999REMMET055METAR ETGQ 051120Z 11003KT 9999 BKN060 14/11 Q1015 BLU;
0134102340999992009100512204+53133+009350FM-15+0061ETGQ V0201101N001510180019N0112651N1+01401+01201999999ADDGA1081+018001999GF108991999999999999999999MA1101491999999MW1611REMMET059METAR ETGQ 051220Z 11003KT 9999 -RA OVC060 14/12 Q1015 BLU;
0179102340999992009100513204+53133+009350FM-15+0061ETGQ V0209999V001010075019N0080001N1+01401+01101999999ADDGA1041+003601999GA2071+007501999GA3081+015001999GF108991999999999999999999MA1101391999999MW1631REMMET072METAR ETGQ 051320Z VRB02KT 8000 RA SCT012 BKN025 OVC050 14/11 Q1014 BLU;
0179102340999992009100514204+53133+009350FM-15+0061ETGQ V0201201N00151003601CN0060001N1+01301+01101999999ADDGA1021+002101999GA2041+003601999GA3081+007501999GF108991999999999999999999MA1101391999999MW1631REMMET072METAR ETGQ 051420Z 12003KT 6000 RA FEW007 SCT012 OVC025 13/11 Q1014 WHT;
0179102340999992009100515204+53133+009350FM-15+0061ETGQ V0201201N002610060019N0060001N1+01301+01101999999ADDGA1021+001501999GA2071+006001999GA3081+010501999GF108991999999999999999999MA1101291999999MW1631REMMET072METAR ETGQ 051520Z 12005KT 6000 RA FEW005 BKN020 OVC035 13/11 Q1013 WHT;
0185102340999992009100516204+53133+009350FM-15+0061ETGQ V0201301N002110054019N0080001N1+01201+01001999999ADDGA1021+001501999GA2071+005401999GA3081+009001999GF108991999999999999999999MA1101291999999MW1611REMMET078METAR ETGQ 051620Z 13004KT 8000 -RA FEW005 BKN018 OVC030 12/10 Q1013 RERA WHT;
0185102340999992009100517204+53133+009350FM-15+0061ETGQ V0201101N001010045019N0080001N1+01201+01101999999ADDGA1021+001501999GA2071+004501999GA3081+009001999GF108991999999999999999999MA1101191999999MW1611REMMET078METAR ETGQ 051720Z 11002KT 8000 -RA FEW005 BKN015 OVC030 12/11 Q1012 RERA WHT;
0164102340999992009100518204+53133+009350FM-15+0061ETGQ V0201201N001510045019N0080001N1+01201+01101999999ADDGA1041+001501999GA2071+004501999GF107991999999999999999999MA1101191999999MW1531MW2631REMMET067METAR ETGQ 051820Z 12003KT 8000 RADZ SCT005 BKN015 12/11 Q1012 WHT;
0124102340999992009100604204+53133+009350FM-15+0061ETGQ V0202001N002110075019N0112651N1+01701+01401999999ADDGA1071+007501999GF107991999999999999999999MA1101191999999REMMET055METAR ETGQ 060420Z 20004KT 9999 BKN025 17/14 Q1012 BLU;
0157102340999992009100605204+53133+009350FM-15+0061ETGQ V0203101N002610060019N0112651N1+01601+01401999999ADDGA1041+002701999GA2071+006001999GF107991999999999999999999MA1101191999999MW1511REMMET066METAR ETGQ 060520Z 31005KT 9999 -DZ SCT009 BKN020 16/14 Q1012 WHT;
0147102340999992009100606204+53133+009350FM-15+0061ETGQ V0202901N001010060019N0112651N1+01501+01401999999ADDGA1041+003601999GA2071+006001999GF107991999999999999999999MA1101291999999REMMET062METAR ETGQ 060620Z 29002KT 9999 SCT012 BKN020 15/14 Q1013 WHT;
0147102340999992009100607204+53133+009350FM-15+0061ETGQ V0203401N001010075019N0112651N1+01501+01301999999ADDGA1021+004501999GA2071+007501999GF107991999999999999999999MA1101291999999REMMET062METAR ETGQ 060720Z 34002KT 9999 FEW015 BKN025 15/13 Q1013 BLU;
0147102340999992009100608204+53133+009350FM-15+0061ETGQ V0209999V000510090019N0112651N1+01601+01301999999ADDGA1041+004501999GA2071+009001999GF107991999999999999999999MA1101391999999REMMET062METAR ETGQ 060820Z VRB01KT 9999 SCT015 BKN030 16/13 Q1014 BLU;
0170102340999992009100609204+53133+009350FM-15+0061ETGQ V0209999V00051006001CN0112651N1+01701+01301999999ADDGA1021+004501999GA2041+006001999GA3071+012001999GF107991999999999999999999MA1101391999999REMMET069METAR ETGQ 060920Z VRB01KT 9999 FEW015 SCT020 BKN040 17/13 Q1014 BLU;
0147102340999992009100610204+53133+009350FM-15+0061ETGQ V0202001N001510180019N0112651N1+01801+01301999999ADDGA1021+006001999GA2071+018001999GF107991999999999999999999MA1101391999999REMMET062METAR ETGQ 061020Z 20003KT 9999 FEW020 BKN060 18/13 Q1014 BLU;
0147102340999992009100611204+53133+009350FM-15+0061ETGQ V0202101N001510180019N0112651N1+01801+01301999999ADDGA1041+012001999GA2071+018001999GF107991999999999999999999MA1101391999999REMMET062METAR ETGQ 061120Z 21003KT 9999 SCT040 BKN060 18/13 Q1014 BLU;
0147102340999992009100612204+53133+009350FM-15+0061ETGQ V0202001N001010360019N0112651N1+01701+01401999999ADDGA1041+012001999GA2081+036001999GF108991999999999999999999MA1101291999999REMMET062METAR ETGQ 061220Z 20002KT 9999 SCT040 OVC120 17/14 Q1013 BLU;
0147102340999992009100613204+53133+009350FM-15+0061ETGQ V0200901N001010150019N0112651N1+01701+01401999999ADDGA1041+006001999GA2071+015001999GF107991999999999999999999MA1101191999999REMMET062METAR ETGQ 061320Z 09002KT 9999 SCT020 BKN050 17/14 Q1012 BLU;
0124102340999992009100614204+53133+009350FM-15+0061ETGQ V0202001N001010150019N0112651N1+01701+01501999999ADDGA1071+015001999GF107991999999999999999999MA1101191999999REMMET055METAR ETGQ 061420Z 20002KT 9999 BKN050 17/15 Q1012 BLU;
0134102340999992009100615204+53133+009350FM-15+0061ETGQ V0201101N001010090019N0080001N1+01701+01501999999ADDGA1081+009001999GF108991999999999999999999MA1101191999999MW1611REMMET059METAR ETGQ 061520Z 11002KT 8000 -RA OVC030 17/15 Q1012 BLU;
0124102340999992009100616204+53133+009350FM-15+0061ETGQ V0201201N001510090019N0080001N1+01701+01601999999ADDGA1071+009001999GF107991999999999999999999MA1101081999999REMMET055METAR ETGQ 061620Z 12003KT 8000 BKN030 17/16 Q1011 BLU;
0147102340999992009100617204+53133+009350FM-15+0061ETGQ V0209999V001010180019N0112651N1+01701+01601999999ADDGA1021+009001999GA2071+018001999GF107991999999999999999999MA1101081999999REMMET062METAR ETGQ 061720Z VRB02KT 9999 FEW030 BKN060 17/16 Q1011 BLU;
0124102340999992009100618204+53133+009350FM-15+0061ETGQ V0202001N001510075019N0112651N1+01801+01601999999ADDGA1071+007501999GF107991999999999999999999MA1101191999999REMMET055METAR ETGQ 061820Z 20003KT 9999 BKN025 18/16 Q1012 BLU;
0125102340999992009100704204+53133+009350FM-15+0061ETGQ V0201201N001012200019N0112651N1+01601+01501999999ADDGA1041+015001999GF104991999999999999999999MA1101291999999REMMET056METAR ETGQ 070420Z 12002KT 9999 SCT050 16/15 Q1013 BLU/;
0147102340999992009100705204+53133+009350FM-15+0061ETGQ V0201501N001010150019N0112651N1+01601+01501999999ADDGA1021+009001999GA2071+015001999GF107991999999999999999999MA1101291999999REMMET062METAR ETGQ 070520Z 15002KT 9999 FEW030 BKN050 16/15 Q1013 BLU;
0124102340999992009100706204+53133+009350FM-15+0061ETGQ V0201501N001010090019N0112651N1+01801+01601999999ADDGA1071+009001999GF107991999999999999999999MA1101391999999REMMET055METAR ETGQ 070620Z 15002KT 9999 BKN030 18/16 Q1014 BLU;
0148102340999992009100707204+53133+009350FM-15+0061ETGQ V0201401N001012200019N0112651N1+01801+01601999999ADDGA1041+012001999GA2041+105001999GF104991999999999999999999MA1101391999999REMMET063METAR ETGQ 070720Z 14002KT 9999 SCT040 SCT350 18/16 Q1014 BLU/;
0122102340999992009100708204+53133+009350FM-15+0061ETGQ V02099999999990105019N0112651N1+01801+01601999999ADDGA1071+010501999GF107991999999999999999999MA1101391999999REMMET053METAR ETGQ 070820Z 13002 9999 BKN035 18/16 Q1014 BLU;
0145102340999992009100709204+53133+009350FM-15+0061ETGQ V02099999999990180019N0112651N1+01801+01601999999ADDGA1041+009001999GA2071+018001999GF107991999999999999999999MA1101391999999REMMET060METAR ETGQ 070920Z 13002 9999 SCT030 BKN060 18/16 Q1014 BLU;
0148102340999992009100710204+53133+009350FM-15+0061ETGQ V0202401N001012200019N0112651N1+02101+01601999999ADDGA1041+018001999GA2041+036001999GF104991999999999999999999MA1101391999999REMMET063METAR ETGQ 071020Z 24002KT 9999 SCT060 SCT120 21/16 Q1014 BLU/;
0171102340999992009100713204+53133+009350FM-15+0061ETGQ V0201801N00151018001CN0112651N1+02101+01601999999ADDGA1021+012001999GA2041+018001999GA3071+090001999GF107991999999999999999999MA1101391999999REMMET070METAR ETGQ 071320Z 18003KT 9999 FEW040 SCT060 BKN300 21/16 Q1014 BLU/;
0147102340999992009100714204+53133+009350FM-15+0061ETGQ V0202201N001010420019N0112651N1+02301+01601999999ADDGA1021+007501999GA2071+042001999GF107991999999999999999999MA1101191999999REMMET062METAR ETGQ 071420Z 22002KT 9999 FEW025 BKN140 23/16 Q1012 BLU;
0124102340999992009100715204+53133+009350FM-15+0061ETGQ V0209999V001010390019N0112651N1+02301+01501999999ADDGA1071+039001999GF107991999999999999999999MA1101081999999REMMET055METAR ETGQ 071520Z VRB02KT 9999 BKN130 23/15 Q1011 BLU;
0124102340999992009100716204+53133+009350FM-15+0061ETGQ V0201401N001510390019N0112651N1+02201+01601999999ADDGA1071+039001999GF107991999999999999999999MA1101021999999REMMET055METAR ETGQ 071620Z 14003KT 9999 BKN130 22/16 Q1010 BLU;
0148102340999992009100717204+53133+009350FM-15+0061ETGQ V0201101N002110660019N0112651N1+02101+01601999999ADDGA1041+042001999GA2071+066001999GF107991999999999999999999MA1100911999999REMMET063METAR ETGQ 071720Z 11004KT 9999 SCT140 BKN220 21/16 Q1009 BLU/;
0124102340999992009100718204+53133+009350FM-15+0061ETGQ V0209999V001010300019N0112651N1+02001+01601999999ADDGA1071+030001999GF107991999999999999999999MA1100811999999REMMET055METAR ETGQ 071820Z VRB02KT 9999 BKN100 20/16 Q1008 BLU;
0124102340999992009100804204+53133+009350FM-15+0061ETGQ V0202201N002610150019N0112651N1+01901+01501999999ADDGA1071+015001999GF107991999999999999999999MA1100811999999REMMET055METAR ETGQ 080420Z 22005KT 9999 BKN050 19/15 Q1008 BLU;
0124102340999992009100805204+53133+009350FM-15+0061ETGQ V0202201N002610105019N0112651N1+01901+01501999999ADDGA1071+010501999GF107991999999999999999999MA1100911999999REMMET055METAR ETGQ 080520Z 22005KT 9999 BKN035 19/15 Q1009 BLU;
0147102340999992009100806204+53133+009350FM-15+0061ETGQ V0202301N002110105019N0112651N1+01801+01401999999ADDGA1021+009001999GA2071+010501999GF107991999999999999999999MA1101021999999REMMET062METAR ETGQ 080620Z 23004KT 9999 FEW030 BKN035 18/14 Q1010 BLU;
0170102340999992009100807204+53133+009350FM-15+0061ETGQ V0203001N00361009901CN0112651N1+01801+01301999999ADDGA1021+006001999GA2041+009901999GA3071+012001999GF107991999999999999999999MA1101081999999REMMET069METAR ETGQ 080720Z 30007KT 9999 FEW020 SCT033 BKN040 18/13 Q1011 BLU;
0147102340999992009100808204+53133+009350FM-15+0061ETGQ V0203001N004110120019N0112651N1+01501+01201999999ADDGA1041+004501999GA2071+012001999GF107991999999999999999999MA1101291999999REMMET062METAR ETGQ 080820Z 30008KT 9999 SCT015 BKN040 15/12 Q1013 BLU;
0147102340999992009100809204+53133+009350FM-15+0061ETGQ V0203101N003610060019N0112651N1+01401+01001999999ADDGA1071+006001999GA2071+012901999GF107991999999999999999999MA1101491999999REMMET062METAR ETGQ 080920Z 31007KT 9999 BKN020 BKN043 14/10 Q1015 WHT;
0148102340999992009100810204+53133+009350FM-15+0061ETGQ V0203101N002612200019N0112651N1+01401+01001999999ADDGA1041+004801999GA2041+012001999GF104991999999999999999999MA1101491999999REMMET063METAR ETGQ 081020Z 31005KT 9999 SCT016 SCT040 14/10 Q1015 BLU/;
0148102340999992009100811204+53133+009350FM-15+0061ETGQ V0203101N001512200019N0112651N1+01501+01001999999ADDGA1041+006001999GA2041+021001999GF104991999999999999999999MA1101491999999REMMET063METAR ETGQ 081120Z 31003KT 9999 SCT020 SCT070 15/10 Q1015 BLU/;
0124102340999992009100812204+53133+009350FM-15+0061ETGQ V0203201N003610054019N0112651N1+01501+01001999999ADDGA1071+005401999GF107991999999999999999999MA1101491999999REMMET055METAR ETGQ 081220Z 32007KT 9999 BKN018 15/10 Q1015 WHT;
0124102340999992009100813204+53133+009350FM-15+0061ETGQ V0203201N002610054019N0112651N1+01501+01001999999ADDGA1071+005401999GF107991999999999999999999MA1101591999999REMMET055METAR ETGQ 081320Z 32005KT 9999 BKN018 15/10 Q1016 WHT;
0124102340999992009100814204+53133+009350FM-15+0061ETGQ V0203401N003110051019N0112651N1+01501+01001999999ADDGA1071+005101999GF107991999999999999999999MA1101591999999REMMET055METAR ETGQ 081420Z 34006KT 9999 BKN017 15/10 Q1016 WHT;
0124102340999992009100815204+53133+009350FM-15+0061ETGQ V0203301N002110060019N0112651N1+01501+01001999999ADDGA1071+006001999GF107991999999999999999999MA1101691999999REMMET055METAR ETGQ 081520Z 33004KT 9999 BKN020 15/10 Q1017 WHT;
0124102340999992009100816204+53133+009350FM-15+0061ETGQ V0203201N003110060019N0112651N1+01401+01001999999ADDGA1071+006001999GF107991999999999999999999MA1101691999999REMMET055METAR ETGQ 081620Z 32006KT 9999 BKN020 14/10 Q1017 WHT;
0124102340999992009100817204+53133+009350FM-15+0061ETGQ V0203101N002110090019N0112651N1+01401+01001999999ADDGA1071+009001999GF107991999999999999999999MA1101801999999REMMET055METAR ETGQ 081720Z 31004KT 9999 BKN030 14/10 Q1018 BLU;
0148102340999992009100818204+53133+009350FM-15+0061ETGQ V0203301N002611050019N0112651N1+01301+00901999999ADDGA1041+009001999GA2071+105001999GF107991999999999999999999MA1101801999999REMMET063METAR ETGQ 081820Z 33005KT 9999 SCT030 BKN350 13/09 Q1018 BLU/;
0124102340999992009100904204+53133+009350FM-15+0061ETGQ V0203401N001012200019N0060001N1+00601+00501999999ADDGA1041+105001999GF104991999999999999999999MA1102201999999REMMET055METAR ETGQ 090420Z 34002KT 6000 SCT350 06/05 Q1022 WHT;
0133102340999992009100905204+53133+009350FM-15+0061ETGQ V0203201N001012200019N0040001N1+00601+00501999999ADDGA1021+000601999GF102991999999999999999999MA1102201999999MW1101REMMET058METAR ETGQ 090520Z 32002KT 4000 BR FEW002 06/05 Q1022 GRN;
0133102340999992009100906204+53133+009350FM-15+0061ETGQ V0209999V001012200019N0040001N1+00601+00501999999ADDGA1021+000601999GF102991999999999999999999MA1102201999999MW1101REMMET058METAR ETGQ 090620Z VRB02KT 4000 BR FEW002 06/05 Q1022 GRN;
0135102340999992009100907204+53133+009350FM-15+0061ETGQ V0203201N001012200019N0005001N1+00701+00601999999ADDGA1041+000301999GF104991999999999999999999MA1102301999999MW1411REMMET060METAR ETGQ 090720Z 32002KT 0500 BCFG SCT001 07/06 Q1023 RED;
0076102340999992009100908204+53133+009350FM-15+0061ETGQ V0209999V001012200019N0112651N1+00901+00801999999ADDMA1102301999999REMMET049METAR ETGQ 090820Z VRB02KT 9999 09/08 Q1023 BLU/;
0076102340999992009100909204+53133+009350FM-15+0061ETGQ V0200801N002612200019N0112651N1+01301+00501999999ADDMA1102201999999REMMET049METAR ETGQ 090920Z 08005KT 9999 13/05 Q1022 BLU/;
0125102340999992009100910204+53133+009350FM-15+0061ETGQ V0200801N002612200019N0112651N1+01401+00501999999ADDGA1021+105001999GF102991999999999999999999MA1102101999999REMMET056METAR ETGQ 091020Z 08005KT 9999 FEW350 14/05 Q1021 BLU/;
0125102340999992009100911204+53133+009350FM-15+0061ETGQ V0201501N001512200019N0112651N1+01501+00501999999ADDGA1021+120001999GF102991999999999999999999MA1102101999999REMMET056METAR ETGQ 091120Z 15003KT 9999 FEW400 15/05 Q1021 BLU/;
0124102340999992009100912204+53133+009350FM-15+0061ETGQ V0201001N001510240019N0112651N1+01601+00501999999ADDGA1071+024001999GF107991999999999999999999MA1102001999999REMMET055METAR ETGQ 091220Z 10003KT 9999 BKN080 16/05 Q1020 BLU;
0125102340999992009100913204+53133+009350FM-15+0061ETGQ V0200601N001512200019N0112651N1+01601+00601999999ADDGA1041+027001999GF104991999999999999999999MA1102001999999REMMET056METAR ETGQ 091320Z 06003KT 9999 SCT090 16/06 Q1020 BLU/;
0124102340999992009100914204+53133+009350FM-15+0061ETGQ V0200701N001510270019N0112651N1+01601+00701999999ADDGA1071+027001999GF107991999999999999999999MA1101901999999REMMET055METAR ETGQ 091420Z 07003KT 9999 BKN090 16/07 Q1019 BLU;
0124102340999992009100915204+53133+009350FM-15+0061ETGQ V0200801N002110240019N0112651N1+01501+00601999999ADDGA1071+024001999GF107991999999999999999999MA1101801999999REMMET055METAR ETGQ 091520Z 08004KT 9999 BKN080 15/06 Q1018 BLU;
0125102340999992009100916204+53133+009350FM-15+0061ETGQ V0200901N002112200019N0112651N1+01501+00601999999ADDGA1021+105001999GF102991999999999999999999MA1101801999999REMMET056METAR ETGQ 091620Z 09004KT 9999 FEW350 15/06 Q1018 BLU/;
0124102340999992009100917204+53133+009350FM-15+0061ETGQ V0200501N001010240019N0112651N1+01401+00701999999ADDGA1071+024001999GF107991999999999999999999MA1101801999999REMMET055METAR ETGQ 091720Z 05002KT 9999 BKN080 14/07 Q1018 BLU;
0124102340999992009100918204+53133+009350FM-15+0061ETGQ V0209999V000510270019N0112651N1+01301+00701999999ADDGA1071+027001999GF107991999999999999999999MA1101801999999REMMET055METAR ETGQ 091820Z VRB01KT 9999 BKN090 13/07 Q1018 BLU;
0124102340999992009101204204+53133+009350FM-15+0061ETGQ V0203001N005110060019N0112651N1+01101+00701999999ADDGA1071+006001999GF107991999999999999999999MA1101021999999REMMET055METAR ETGQ 120420Z 30010KT 9999 BKN020 11/07 Q1010 WHT;
0135102340999992009101205204+53133+009350FM-15+0061ETGQ V0203001N004610072019N0112651N1+01001+00701999999ADDGA1071+007201999GF107991999999999999999999MA1101081999999OC100981REMMET058METAR ETGQ 120520Z 30009G19KT 9999 BKN024 10/07 Q1011 WHT;
0147102340999992009101206204+53133+009350FM-15+0061ETGQ V0203001N004610075019N0112651N1+01101+00701999999ADDGA1041+006901999GA2071+007501999GF107991999999999999999999MA1101191999999REMMET062METAR ETGQ 120620Z 30009KT 9999 SCT023 BKN025 11/07 Q1012 BLU;
0124102340999992009101207204+53133+009350FM-15+0061ETGQ V0203101N004110060019N0112651N1+01001+00701999999ADDGA1071+006001999GF107991999999999999999999MA1101391999999REMMET055METAR ETGQ 120720Z 31008KT 9999 BKN020 10/07 Q1014 WHT;
0159102340999992009101208204+53133+009350FM-15+0061ETGQ V0203201N005110069019N0112651N1+01001+00701999999ADDGA1021+005101999GA2071+006901999GF107991999999999999999999MA1101591999999MW1801REMMET068METAR ETGQ 120820Z 32010KT 9999 -SHRA FEW017 BKN023 10/07 Q1016 WHT;
0170102340999992009101209204+53133+009350FM-15+0061ETGQ V0203301N00571007201CN0112651N1+01001+00601999999ADDGA1021+005101999GA2041+007201999GA3071+012001999GF107991999999999999999999MA1101801999999REMMET069METAR ETGQ 120920Z 33011KT 9999 FEW017 SCT024 BKN040 10/06 Q1018 BLU;
0147102340999992009101210204+53133+009350FM-15+0061ETGQ V0203401N005110135019N0112651N1+01101+00401999999ADDGA1021+006001999GA2071+013501999GF107991999999999999999999MA1102001999999REMMET062METAR ETGQ 121020Z 34010KT 9999 FEW020 BKN045 11/04 Q1020 BLU;
0147102340999992009101211204+53133+009350FM-15+0061ETGQ V0203301N005710150019N0112651N1+01101+00501999999ADDGA1041+009001999GA2071+015001999GF107991999999999999999999MA1102001999999REMMET062METAR ETGQ 121120Z 33011KT 9999 SCT030 BKN050 11/05 Q1020 BLU;
0147102340999992009101212204+53133+009350FM-15+0061ETGQ V0203301N006710150019N0112651N1+01201+00201999999ADDGA1041+009001999GA2071+015001999GF107991999999999999999999MA1102001999999REMMET062METAR ETGQ 121220Z 33013KT 9999 SCT030 BKN050 12/02 Q1020 BLU;
0124102340999992009101213204+53133+009350FM-15+0061ETGQ V0203301N005110120019N0112651N1+01301+00301999999ADDGA1071+012001999GF107991999999999999999999MA1102101999999REMMET055METAR ETGQ 121320Z 33010KT 9999 BKN040 13/03 Q1021 BLU;
0127102340999992009101214204+53133+009350FM-15+0061ETGQ V0203301N005110105019N0112651N1+01201+00301999999ADDGA1071+010501021GF107991999999999999999999MA1102201999999REMMET058METAR ETGQ 121420Z 33010KT 9999 BKN035TCU 12/03 Q1022 BLU;
0128102340999992009101215204+53133+009350FM-15+0061ETGQ V0203201N004112200019N0112651N1+01201+00201999999ADDGA1041+010501021GF104991999999999999999999MA1102201999999REMMET059METAR ETGQ 121520Z 32008KT 9999 SCT035TCU 12/02 Q1022 BLU/;
0128102340999992009101216204+53133+009350FM-15+0061ETGQ V0203201N003112200019N0112651N1+01201+00301999999ADDGA1041+010801021GF104991999999999999999999MA1102301999999REMMET059METAR ETGQ 121620Z 32006KT 9999 SCT036TCU 12/03 Q1023 BLU/;
0151102340999992009101217204+53133+009350FM-15+0061ETGQ V0203201N002112200019N0112651N1+01101+00301999999ADDGA1041+010801021GA2041+015001999GF104991999999999999999999MA1102401999999REMMET066METAR ETGQ 121720Z 32004KT 9999 SCT036TCU SCT050 11/03 Q1024 BLU/;
0151102340999992009101218204+53133+009350FM-15+0061ETGQ V0203001N001012200019N0112651N1+01001+00401999999ADDGA1021+010801021GA2041+015001999GF104991999999999999999999MA1102401999999REMMET066METAR ETGQ 121820Z 30002KT 9999 FEW036TCU SCT050 10/04 Q1024 BLU/;
0124102340999992009101304204+53133+009350FM-15+0061ETGQ V0202801N001010054019N0112651N1+00701+00601999999ADDGA1071+005401999GF107991999999999999999999MA1102611999999REMMET055METAR ETGQ 130420Z 28002KT 9999 BKN018 07/06 Q1026 WHT;
0148102340999992009101305204+53133+009350FM-15+0061ETGQ V0202801N001512200019N0080001N1+00701+00501999999ADDGA1021+012001999GA2041+054001999GF104991999999999999999999MA1102611999999REMMET063METAR ETGQ 130520Z 28003KT 8000 FEW040 SCT180 07/05 Q1026 BLU/;
0125102340999992009101306204+53133+009350FM-15+0061ETGQ V0202901N001012200019N0080001N1+00601+00501999999ADDGA1041+015001999GF104991999999999999999999MA1102711999999REMMET056METAR ETGQ 130620Z 29002KT 8000 SCT050 06/05 Q1027 BLU/;
0148102340999992009101307204+53133+009350FM-15+0061ETGQ V0203101N001012200019N0112651N1+00701+00601999999ADDGA1021+005401999GA2041+018001999GF104991999999999999999999MA1102711999999REMMET063METAR ETGQ 130720Z 31002KT 9999 FEW018 SCT060 07/06 Q1027 BLU/;
0125102340999992009101308204+53133+009350FM-15+0061ETGQ V0203501N001512200019N0112651N1+00901+00601999999ADDGA1041+004801999GF104991999999999999999999MA1102711999999REMMET056METAR ETGQ 130820Z 35003KT 9999 SCT016 09/06 Q1027 BLU/;
0124102340999992009101309204+53133+009350FM-15+0061ETGQ V0203001N002610081019N0112651N1+01001+00601999999ADDGA1071+008101999GF107991999999999999999999MA1102711999999REMMET055METAR ETGQ 130920Z 30005KT 9999 BKN027 10/06 Q1027 BLU;
0125102340999992009101310204+53133+009350FM-15+0061ETGQ V0203201N003612200019N0112651N1+01001+00401999999ADDGA1041+009001999GF104991999999999999999999MA1102711999999REMMET056METAR ETGQ 131020Z 32007KT 9999 SCT030 10/04 Q1027 BLU/;
0125102340999992009101311204+53133+009350FM-15+0061ETGQ V0203101N003112200019N0112651N1+01201+00401999999ADDGA1041+010801999GF104991999999999999999999MA1102711999999REMMET056METAR ETGQ 131120Z 31006KT 9999 SCT036 12/04 Q1027 BLU/;
0147102340999992009101312204+53133+009350FM-15+0061ETGQ V0203201N004610210019N0112651N1+01201+00201999999ADDGA1041+009001999GA2071+021001999GF107991999999999999999999MA1102611999999REMMET062METAR ETGQ 131220Z 32009KT 9999 SCT030 BKN070 12/02 Q1026 BLU;
0147102340999992009101313204+53133+009350FM-15+0061ETGQ V0203201N004610180019N0112651N1+01201+00201999999ADDGA1021+009001999GA2071+018001999GF107991999999999999999999MA1102611999999REMMET062METAR ETGQ 131320Z 32009KT 9999 FEW030 BKN060 12/02 Q1026 BLU;
0150102340999992009101314204+53133+009350FM-15+0061ETGQ V0203201N004110180019N0112651N1+01201+00201999999ADDGA1021+007501021GA2071+018001999GF107991999999999999999999MA1102611999999REMMET065METAR ETGQ 131420Z 32008KT 9999 FEW025TCU BKN060 12/02 Q1026 BLU;
0150102340999992009101315204+53133+009350FM-15+0061ETGQ V0203301N004110180019N0112651N1+01201+00201999999ADDGA1021+007501021GA2071+018001999GF107991999999999999999999MA1102611999999REMMET065METAR ETGQ 131520Z 33008KT 9999 FEW025TCU BKN060 12/02 Q1026 BLU;
0170102340999992009101316204+53133+009350FM-15+0061ETGQ V0203201N00311015001CN0112651N1+01101+00301999999ADDGA1021+007501999GA2041+015001999GA3071+024001999GF107991999999999999999999MA1102611999999REMMET069METAR ETGQ 131620Z 32006KT 9999 FEW025 SCT050 BKN080 11/03 Q1026 BLU;
0170102340999992009101317204+53133+009350FM-15+0061ETGQ V0203501N00361015001CN0112651N1+01101+00301999999ADDGA1021+007501999GA2041+015001999GA3071+024001999GF107991999999999999999999MA1102611999999REMMET069METAR ETGQ 131720Z 35007KT 9999 FEW025 SCT050 BKN080 11/03 Q1026 BLU;
0170102340999992009101318204+53133+009350FM-15+0061ETGQ V0203501N00361015001CN0112651N1+01001+00301999999ADDGA1021+007501999GA2041+015001999GA3071+024001999GF107991999999999999999999MA1102711999999REMMET069METAR ETGQ 131820Z 35007KT 9999 FEW025 SCT050 BKN080 10/03 Q1027 BLU;
0125102340999992009101404204+53133+009350FM-15+0061ETGQ V0209999C000012200019N0060001N1+00001-00101999999ADDGA1041+105001999GF104991999999999999999999MA1103011999999REMMET056METAR ETGQ 140420Z 00000KT 6000 SCT350 00/M01 Q1030 WHT;
0149102340999992009101405204+53133+009350FM-15+0061ETGQ V0209999C000012200019N0112651N1+00001-00101999999ADDGA1021+001201999GA2041+105001999GF104991999999999999999999MA1103011999999REMMET064METAR ETGQ 140520Z 00000KT 9999 FEW004 SCT350 00/M01 Q1030 BLU/;
0133102340999992009101406204+53133+009350FM-15+0061ETGQ V0202901N001010012019N0001001N1+00101+00001999999ADDGA1091+001201999GF109991999999000251999999MA1103011999999MW1451REMMET058METAR ETGQ 140620Z 29002KT 0100 FG VV004 01/M00 Q1030 RED;
0133102340999992009101407204+53133+009350FM-15+0061ETGQ V0202801N001010006019N0010001N1+00101+00001999999ADDGA1071+000601999GF107991999999999999999999MA1103011999999MW1101REMMET058METAR ETGQ 140720Z 28002KT 1000 BR BKN002 01/00 Q1030 AMB;
0133102340999992009101408204+53133+009350FM-15+0061ETGQ V0203101N001010015019N0040001N1+00301+00201999999ADDGA1071+001501999GF107991999999999999999999MA1103121999999MW1101REMMET058METAR ETGQ 140820Z 31002KT 4000 BR BKN005 03/02 Q1031 YLO;
0125102340999992009101409204+53133+009350FM-15+0061ETGQ V0202801N001512200019N0112651N1+00401+00101999999ADDGA1041+003601999GF104991999999999999999999MA1103121999999REMMET056METAR ETGQ 140920Z 28003KT 9999 SCT012 04/01 Q1031 BLU/;
0126102340999992009101410204+53133+009350FM-15+0061ETGQ V0200101N003612200019N0112651N1+00601-00301999999ADDGA1041+012001999GF104991999999999999999999MA1103121999999REMMET057METAR ETGQ 141020Z 01007KT 9999 SCT040 06/M03 Q1031 BLU/;
0125102340999992009101411204+53133+009350FM-15+0061ETGQ V0203501N003610120019N0112651N1+00601-00301999999ADDGA1071+012001999GF107991999999999999999999MA1103121999999REMMET056METAR ETGQ 141120Z 35007KT 9999 BKN040 06/M03 Q1031 BLU;
0125102340999992009101412204+53133+009350FM-15+0061ETGQ V0203501N003110108019N0112651N1+00601-00301999999ADDGA1071+010801999GF107991999999999999999999MA1103011999999REMMET056METAR ETGQ 141220Z 35006KT 9999 BKN036 06/M03 Q1030 BLU;
0125102340999992009101413204+53133+009350FM-15+0061ETGQ V0203501N002610120019N0112651N1+00601-00301999999ADDGA1071+012001999GF107991999999999999999999MA1103011999999REMMET056METAR ETGQ 141320Z 35005KT 9999 BKN040 06/M03 Q1030 BLU;
0125102340999992009101414204+53133+009350FM-15+0061ETGQ V0203301N002610150019N0112651N1+00701-00401999999ADDGA1071+015001999GF107991999999999999999999MA1103011999999REMMET056METAR ETGQ 141420Z 33005KT 9999 BKN050 07/M04 Q1030 BLU;
0126102340999992009101415204+53133+009350FM-15+0061ETGQ V0203401N003612200019N0112651N1+00701-00401999999ADDGA1041+015001999GF104991999999999999999999MA1102911999999REMMET057METAR ETGQ 141520Z 34007KT 9999 SCT050 07/M04 Q1029 BLU/;
0126102340999992009101416204+53133+009350FM-15+0061ETGQ V0203201N002112200019N0112651N1+00601-00201999999ADDGA1041+015001999GF104991999999999999999999MA1102911999999REMMET057METAR ETGQ 141620Z 32004KT 9999 SCT050 06/M02 Q1029 BLU/;
0126102340999992009101417204+53133+009350FM-15+0061ETGQ V0203401N001512200019N0112651N1+00501-00201999999ADDGA1021+015001999GF102991999999999999999999MA1103011999999REMMET057METAR ETGQ 141720Z 34003KT 9999 FEW050 05/M02 Q1030 BLU/;
0126102340999992009101418204+53133+009350FM-15+0061ETGQ V0209999V001012200019N0112651N1+00301-00201999999ADDGA1021+015001999GF102991999999999999999999MA1103011999999REMMET057METAR ETGQ 141820Z VRB02KT 9999 FEW050 03/M02 Q1030 BLU/;
0126102340999992009101504204+53133+009350FM-15+0061ETGQ V0203601N000510006019N0112651N1-00201-00201999999ADDGA1071+000601999GF107991999999999999999999MA1102911999999REMMET057METAR ETGQ 150420Z 36001KT 9999 BKN002 M02/M02 Q1029 AMB;
0136102340999992009101505204+53133+009350FM-15+0061ETGQ V0202901N001010006019N0002001N1-00101-00201999999ADDGA1091+000601999GF109991999999000251999999MA1102911999999MW1491REMMET061METAR ETGQ 150520Z 29002KT 0200 FZFG VV002 M01/M02 Q1029 RED;
0137102340999992009101506204+53133+009350FM-15+0061ETGQ V0202501N000510018019N0003001N1-00101-00201999999ADDGA1081+001801999GF108991999999999999999999MA1103011999999MW1481REMMET062METAR ETGQ 150620Z 25001KT 0300 FZFG OVC006 M01/M02 Q1030 RED;
0126102340999992009101507204+53133+009350FM-15+0061ETGQ V0203601N000512200019N0060001N1-00101-00201999999ADDGA1041+003601999GF104991999999999999999999MA1102911999999REMMET057METAR ETGQ 150720Z 36001KT 6000 SCT012 M01/M02 Q1029 WHT;
0126102340999992009101508204+53133+009350FM-15+0061ETGQ V0200301N000512200019N0080001N1+00101+00001999999ADDGA1041+002701999GF104991999999999999999999MA1102911999999REMMET057METAR ETGQ 150820Z 03001KT 8000 SCT009 01/M00 Q1029 BLU/;
0124102340999992009101509204+53133+009350FM-15+0061ETGQ V0209999V001010114019N0112651N1+00201+00001999999ADDGA1071+011401999GF107991999999999999999999MA1102911999999REMMET055METAR ETGQ 150920Z VRB02KT 9999 BKN038 02/00 Q1029 BLU;
0125102340999992009101510204+53133+009350FM-15+0061ETGQ V0209999V001010084019N0112651N1+00401+00001999999ADDGA1071+008401999GF107991999999999999999999MA1102811999999REMMET056METAR ETGQ 151020Z VRB02KT 9999 BKN028 04/M00 Q1028 BLU;
0125102340999992009101511204+53133+009350FM-15+0061ETGQ V0203201N003610090019N0112651N1+00601-00201999999ADDGA1071+009001999GF107991999999999999999999MA1102811999999REMMET056METAR ETGQ 151120Z 32007KT 9999 BKN030 06/M02 Q1028 BLU;
0126102340999992009101512204+53133+009350FM-15+0061ETGQ V0203201N003612200019N0112651N1+00701-00201999999ADDGA1021+012001999GF102991999999999999999999MA1102711999999REMMET057METAR ETGQ 151220Z 32007KT 9999 FEW040 07/M02 Q1027 BLU/;
0126102340999992009101513204+53133+009350FM-15+0061ETGQ V0203401N004612200019N0112651N1+00801-00201999999ADDGA1021+012001999GF102991999999999999999999MA1102711999999REMMET057METAR ETGQ 151320Z 34009KT 9999 FEW040 08/M02 Q1027 BLU/;
0126102340999992009101514204+53133+009350FM-15+0061ETGQ V0203101N004612200019N0112651N1+00801-00201999999ADDGA1021+015001999GF102991999999999999999999MA1102611999999REMMET057METAR ETGQ 151420Z 31009KT 9999 FEW050 08/M02 Q1026 BLU/;
0126102340999992009101515204+53133+009350FM-15+0061ETGQ V0203101N003112200019N0112651N1+00801-00201999999ADDGA1021+105001999GF102991999999999999999999MA1102611999999REMMET057METAR ETGQ 151520Z 31006KT 9999 FEW350 08/M02 Q1026 BLU/;
0077102340999992009101516204+53133+009350FM-15+0061ETGQ V0203201N003612200019N0112651N1+00801-00301999999ADDMA1102611999999REMMET050METAR ETGQ 151620Z 32007KT 9999 08/M03 Q1026 BLU/;
0126102340999992009101517204+53133+009350FM-15+0061ETGQ V0203001N001512200019N0112651N1+00601-00301999999ADDGA1021+105001999GF102991999999999999999999MA1102711999999REMMET057METAR ETGQ 151720Z 30003KT 9999 FEW350 06/M03 Q1027 BLU/;
0126102340999992009101518204+53133+009350FM-15+0061ETGQ V0202401N001012200019N0112651N1+00401-00201999999ADDGA1021+045001999GF102991999999999999999999MA1102611999999REMMET057METAR ETGQ 151820Z 24002KT 9999 FEW150 04/M02 Q1026 BLU/;
0124102340999992009101604204+53133+009350FM-15+0061ETGQ V0201901N001510060019N0080001N1+00401+00101999999ADDGA1071+006001999GF107991999999999999999999MA1102401999999REMMET055METAR ETGQ 160420Z 19003KT 8000 BKN020 04/01 Q1024 WHT;
0124102340999992009101605204+53133+009350FM-15+0061ETGQ V0201901N001510084019N0080001N1+00401+00101999999ADDGA1081+008401999GF108991999999999999999999MA1102401999999REMMET055METAR ETGQ 160520Z 19003KT 8000 OVC028 04/01 Q1024 BLU;
0124102340999992009101606204+53133+009350FM-15+0061ETGQ V0202001N002110060019N0112651N1+00401+00201999999ADDGA1081+006001999GF108991999999999999999999MA1102301999999REMMET055METAR ETGQ 160620Z 20004KT 9999 OVC020 04/02 Q1023 WHT;
0124102340999992009101607204+53133+009350FM-15+0061ETGQ V0201901N001510033019N0080001N1+00501+00301999999ADDGA1081+003301999GF108991999999999999999999MA1102301999999REMMET055METAR ETGQ 160720Z 19003KT 8000 OVC011 05/03 Q1023 GRN;
0151102340999992009101608204+53133+009350FM-15+0061ETGQ V0202101N002110036019N0040001N1+00501+00301999999ADDGA1081+003601999GF108991999999999999999999MA1102201999999MW1101MW2511MW3611REMMET064METAR ETGQ 160820Z 21004KT 4000 -DZRA BR OVC012 05/03 Q1022 GRN;
0151102340999992009101609204+53133+009350FM-15+0061ETGQ V0201901N001010027019N0035001N1+00601+00401999999ADDGA1081+002701999GF108991999999999999999999MA1102101999999MW1101MW2511MW3611REMMET064METAR ETGQ 160920Z 19002KT 3500 -DZRA BR OVC009 06/04 Q1021 YLO;
0143102340999992009101610204+53133+009350FM-15+0061ETGQ V0202001N001510027019N0035001N1+00701+00601999999ADDGA1081+002701999GF108991999999999999999999MA1102001999999MW1101MW2511REMMET062METAR ETGQ 161020Z 20003KT 3500 -DZ BR OVC009 07/06 Q1020 YLO;
0147102340999992009101611204+53133+009350FM-15+0061ETGQ V0203101N005110135019N0080001N1+01001+00801999999ADDGA1041+006001999GA2071+013501999GF107991999999999999999999MA1102001999999REMMET062METAR ETGQ 161120Z 31010KT 8000 SCT020 BKN045 10/08 Q1020 BLU;
0147102340999992009101612204+53133+009350FM-15+0061ETGQ V0203101N006210150019N0112651N1+01101+00501999999ADDGA1041+009001999GA2071+015001999GF107991999999999999999999MA1102001999999REMMET062METAR ETGQ 161220Z 31012KT 9999 SCT030 BKN050 11/05 Q1020 BLU;
0148102340999992009101613204+53133+009350FM-15+0061ETGQ V0202901N003612200019N0112651N1+01101+00501999999ADDGA1021+009001999GA2041+015001999GF104991999999999999999999MA1101901999999REMMET063METAR ETGQ 161320Z 29007KT 9999 FEW030 SCT050 11/05 Q1019 BLU/;
0148102340999992009101614204+53133+009350FM-15+0061ETGQ V0203101N004112200019N0112651N1+01101+00401999999ADDGA1021+007501999GA2041+012001999GF104991999999999999999999MA1101901999999REMMET063METAR ETGQ 161420Z 31008KT 9999 FEW025 SCT040 11/04 Q1019 BLU/;
0170102340999992009101615204+53133+009350FM-15+0061ETGQ V0203101N005110105019N0112651N1+01101+00401999999ADDGA1041+006001999GA2071+010501999GF107991999999999999999999MA1101901999999MW1801OC101081REMMET071METAR ETGQ 161520Z 31010G21KT 9999 -SHRA SCT020 BKN035 11/04 Q1019 BLU;
0148102340999992009101616204+53133+009350FM-15+0061ETGQ V0203001N004112200019N0112651N1+00901+00501999999ADDGA1021+009001999GF102991999999999999999999MA1101901999999MW1801OC100931REMMET065METAR ETGQ 161620Z 30008G18KT 9999 -SHRA FEW030 09/05 Q1019 BLU/;
0147102340999992009101617204+53133+009350FM-15+0061ETGQ V0203101N005110150019N0112651N1+00901+00401999999ADDGA1041+009001999GA2071+015001999GF107991999999999999999999MA1102001999999REMMET062METAR ETGQ 161720Z 31010KT 9999 SCT030 BKN050 09/04 Q1020 BLU;
0147102340999992009101618204+53133+009350FM-15+0061ETGQ V0203101N004110150019N0112651N1+00901+00401999999ADDGA1041+009001999GA2071+015001999GF107991999999999999999999MA1102001999999REMMET062METAR ETGQ 161820Z 31008KT 9999 SCT030 BKN050 09/04 Q1020 BLU;
0133102340999992009101904204+53133+009350FM-15+0061ETGQ V0209999V000510003019N0040001N1+00101+00001999999ADDGA1081+000301999GF108991999999999999999999MA1102201999999MW1101REMMET058METAR ETGQ 190420Z VRB01KT 4000 BR OVC001 01/00 Q1022 RED;
0134102340999992009101905204+53133+009350FM-15+0061ETGQ V0209999V000510006019N0030001N1+00101+00001999999ADDGA1081+000601999GF108991999999999999999999MA1102201999999MW1101REMMET059METAR ETGQ 190520Z VRB01KT 3000 BR OVC002 01/M00 Q1022 AMB;
0134102340999992009101906204+53133+009350FM-15+0061ETGQ V0209999V000510006019N0020001N1+00101+00001999999ADDGA1081+000601999GF108991999999999999999999MA1102201999999MW1101REMMET059METAR ETGQ 190620Z VRB01KT 2000 BR OVC002 01/M00 Q1022 AMB;
0134102340999992009101907204+53133+009350FM-15+0061ETGQ V0209999V000510006019N0015001N1+00101+00001999999ADDGA1081+000601999GF108991999999999999999999MA1102201999999MW1101REMMET059METAR ETGQ 190720Z VRB01KT 1500 BR OVC002 01/M00 Q1022 AMB;
0133102340999992009101908204+53133+009350FM-15+0061ETGQ V0209999V000510009019N0020001N1+00101+00001999999ADDGA1081+000901999GF108991999999999999999999MA1102201999999MW1101REMMET058METAR ETGQ 190820Z VRB01KT 2000 BR OVC003 01/00 Q1022 YLO;
0133102340999992009101909204+53133+009350FM-15+0061ETGQ V0209999V001010018019N0040001N1+00201+00101999999ADDGA1071+001801999GF107991999999999999999999MA1102101999999MW1101REMMET058METAR ETGQ 190920Z VRB02KT 4000 BR BKN006 02/01 Q1021 YLO;
0156102340999992009101910204+53133+009350FM-15+0061ETGQ V0203001N001512200019N0050001N1+00301+00101999999ADDGA1021+003001999GA2041+105001999GF104991999999999999999999MA1102101999999MW1101REMMET065METAR ETGQ 191020Z 30003KT 5000 BR FEW010 SCT350 03/01 Q1021 WHT;
0148102340999992009101911204+53133+009350FM-15+0061ETGQ V0203501N001012200019N0112651N1+00601+00201999999ADDGA1021+004501999GA2041+105001999GF104991999999999999999999MA1102001999999REMMET063METAR ETGQ 191120Z 35002KT 9999 FEW015 SCT350 06/02 Q1020 BLU/;
0125102340999992009101912204+53133+009350FM-15+0061ETGQ V0209999V001012200019N0112651N1+00901+00201999999ADDGA1041+008401999GF104991999999999999999999MA1101901999999REMMET056METAR ETGQ 191220Z VRB02KT 9999 SCT028 09/02 Q1019 BLU/;
0149102340999992009101913204+53133+009350FM-15+0061ETGQ V0201501N002112200019N0112651N1+01101-00101999999ADDGA1021+012001999GA2041+105001999GF104991999999999999999999MA1101801999999REMMET064METAR ETGQ 191320Z 15004KT 9999 FEW040 SCT350 11/M01 Q1018 BLU/;
0149102340999992009101914204+53133+009350FM-15+0061ETGQ V0201401N002111050019N0112651N1+01101-00201999999ADDGA1021+015001999GA2071+105001999GF107991999999999999999999MA1101691999999REMMET064METAR ETGQ 191420Z 14004KT 9999 FEW050 BKN350 11/M02 Q1017 BLU/;
0149102340999992009101915204+53133+009350FM-15+0061ETGQ V0201201N003111050019N0112651N1+01001-00301999999ADDGA1021+015001999GA2071+105001999GF107991999999999999999999MA1101691999999REMMET064METAR ETGQ 191520Z 12006KT 9999 FEW050 BKN350 10/M03 Q1017 BLU/;
0126102340999992009101916204+53133+009350FM-15+0061ETGQ V0201301N002111050019N0112651N1+00901-00201999999ADDGA1071+105001999GF107991999999999999999999MA1101691999999REMMET057METAR ETGQ 191620Z 13004KT 9999 BKN350 09/M02 Q1017 BLU/;
0126102340999992009101917204+53133+009350FM-15+0061ETGQ V0201401N001512200019N0112651N1+00701-00101999999ADDGA1041+105001999GF104991999999999999999999MA1101691999999REMMET057METAR ETGQ 191720Z 14003KT 9999 SCT350 07/M01 Q1017 BLU/;
0126102340999992009101918204+53133+009350FM-15+0061ETGQ V0201301N001512200019N0112651N1+00601+00001999999ADDGA1041+105001999GF104991999999999999999999MA1101591999999REMMET057METAR ETGQ 191820Z 13003KT 9999 SCT350 06/M00 Q1016 BLU/;
0133102340999992009102004204+53133+009350FM-15+0061ETGQ V0201701N000512200019N0040001N1+00101+00001999999ADDGA1041+105001999GF104991999999999999999999MA1101191999999MW1101REMMET058METAR ETGQ 200420Z 17001KT 4000 BR SCT350 01/00 Q1012 GRN;
0126102340999992009102005204+53133+009350FM-15+0061ETGQ V0201201N003112200019N0080001N1+00301+00001999999ADDGA1021+105001999GF102991999999999999999999MA1101081999999REMMET057METAR ETGQ 200520Z 12006KT 8000 FEW350 03/M00 Q1011 BLU/;
0126102340999992009102006204+53133+009350FM-15+0061ETGQ V0201101N002612200019N0112651N1+00301-00101999999ADDGA1021+105001999GF102991999999999999999999MA1101081999999REMMET057METAR ETGQ 200620Z 11005KT 9999 FEW350 03/M01 Q1011 BLU/;
0126102340999992009102007204+53133+009350FM-15+0061ETGQ V0201101N003112200019N0112651N1+00401-00101999999ADDGA1021+105001999GF102991999999999999999999MA1101081999999REMMET057METAR ETGQ 200720Z 11006KT 9999 FEW350 04/M01 Q1011 BLU/;
0126102340999992009102008204+53133+009350FM-15+0061ETGQ V0201101N003112200019N0112651N1+00501-00101999999ADDGA1021+105001999GF102991999999999999999999MA1101081999999REMMET057METAR ETGQ 200820Z 11006KT 9999 FEW350 05/M01 Q1011 BLU/;
0126102340999992009102009204+53133+009350FM-15+0061ETGQ V0201001N003612200019N0112651N1+00601+00001999999ADDGA1021+105001999GF102991999999999999999999MA1101021999999REMMET057METAR ETGQ 200920Z 10007KT 9999 FEW350 06/M00 Q1010 BLU/;
0125102340999992009102010204+53133+009350FM-15+0061ETGQ V0201101N003112200019N0112651N1+00801+00001999999ADDGA1021+105001999GF102991999999999999999999MA1101021999999REMMET056METAR ETGQ 201020Z 11006KT 9999 FEW350 08/00 Q1010 BLU/;
0136102340999992009102013204+53133+009350FM-15+0061ETGQ V0201201N004112200019N0112651N1+01201+00101999999ADDGA1041+105001999GF104991999999999999999999MA1100811999999OC100931REMMET059METAR ETGQ 201320Z 12008G18KT 9999 SCT350 12/01 Q1008 BLU/;
0125102340999992009102014204+53133+009350FM-15+0061ETGQ V0201201N003612200019N0112651N1+01201+00101999999ADDGA1041+120001999GF104991999999999999999999MA1100811999999REMMET056METAR ETGQ 201420Z 12007KT 9999 SCT400 12/01 Q1008 BLU/;
0125102340999992009102015204+53133+009350FM-15+0061ETGQ V0201301N003612200019N0112651N1+01101+00101999999ADDGA1041+105001999GF104991999999999999999999MA1100711999999REMMET056METAR ETGQ 201520Z 13007KT 9999 SCT350 11/01 Q1007 BLU/;
0148102340999992009102016204+53133+009350FM-15+0061ETGQ V0201201N002611050019N0112651N1+01001+00201999999ADDGA1021+036001999GA2071+105001999GF107991999999999999999999MA1100811999999REMMET063METAR ETGQ 201620Z 12005KT 9999 FEW120 BKN350 10/02 Q1008 BLU/;
0125102340999992009102017204+53133+009350FM-15+0061ETGQ V0201401N002612200019N0112651N1+00901+00201999999ADDGA1041+090001999GF104991999999999999999999MA1100811999999REMMET056METAR ETGQ 201720Z 14005KT 9999 SCT300 09/02 Q1008 BLU/;
0076102340999992009102018204+53133+009350FM-15+0061ETGQ V0201101N002112200019N0112651N1+00901+00201999999ADDMA1100811999999REMMET049METAR ETGQ 201820Z 11004KT 9999 09/02 Q1008 BLU/;
0124102340999992009102104204+53133+009350FM-15+0061ETGQ V0201201N001510540019N0080001N1+00601+00001999999ADDGA1081+054001999GF108991999999999999999999MA1100711999999REMMET055METAR ETGQ 210420Z 12003KT 8000 OVC180 06/00 Q1007 BLU;
0124102340999992009102105204+53133+009350FM-15+0061ETGQ V0209999V001010420019N0080001N1+00601+00001999999ADDGA1071+042001999GF107991999999999999999999MA1100711999999REMMET055METAR ETGQ 210520Z VRB02KT 8000 BKN140 06/00 Q1007 BLU;
0124102340999992009102106204+53133+009350FM-15+0061ETGQ V0201401N002110180019N0112651N1+00601+00001999999ADDGA1071+018001999GF107991999999999999999999MA1100711999999REMMET055METAR ETGQ 210620Z 14004KT 9999 BKN060 06/00 Q1007 BLU;
0124102340999992009102107204+53133+009350FM-15+0061ETGQ V0209999V000510210019N0112651N1+00601+00101999999ADDGA1071+021001999GF107991999999999999999999MA1100711999999REMMET055METAR ETGQ 210720Z VRB01KT 9999 BKN070 06/01 Q1007 BLU;
0147102340999992009102108204+53133+009350FM-15+0061ETGQ V0203001N000510360019N0112651N1+00701+00001999999ADDGA1041+021001999GA2071+036001999GF107991999999999999999999MA1100711999999REMMET062METAR ETGQ 210820Z 30001KT 9999 SCT070 BKN120 07/00 Q1007 BLU;
0147102340999992009102109204+53133+009350FM-15+0061ETGQ V0200101N001510540019N0112651N1+00801+00101999999ADDGA1021+045001999GA2071+054001999GF107991999999999999999999MA1100711999999REMMET062METAR ETGQ 210920Z 01003KT 9999 FEW150 BKN180 08/01 Q1007 BLU;
0147102340999992009102110204+53133+009350FM-15+0061ETGQ V0201301N002110540019N0112651N1+00901+00101999999ADDGA1021+045001999GA2071+054001999GF107991999999999999999999MA1100711999999REMMET062METAR ETGQ 211020Z 13004KT 9999 FEW150 BKN180 09/01 Q1007 BLU;
0125102340999992009102111204+53133+009350FM-15+0061ETGQ V0201401N002111050019N0112651N1+01101+00201999999ADDGA1071+105001999GF107991999999999999999999MA1100611999999REMMET056METAR ETGQ 211120Z 14004KT 9999 BKN350 11/02 Q1006 BLU/;
0148102340999992009102112204+53133+009350FM-15+0061ETGQ V0201301N002611200019N0112651N1+01301+00201999999ADDGA1021+054001999GA2071+120001999GF107991999999999999999999MA1100511999999REMMET063METAR ETGQ 211220Z 13005KT 9999 FEW180 BKN400 13/02 Q1005 BLU/;
0124102340999992009102113204+53133+009350FM-15+0061ETGQ V0201401N002110330019N0112651N1+01201+00301999999ADDGA1071+033001999GF107991999999999999999999MA1100511999999REMMET055METAR ETGQ 211320Z 14004KT 9999 BKN110 12/03 Q1005 BLU;
0148102340999992009102114204+53133+009350FM-15+0061ETGQ V0200701N002611050019N0112651N1+01301+00201999999ADDGA1041+039001999GA2071+105001999GF107991999999999999999999MA1100411999999REMMET063METAR ETGQ 211420Z 07005KT 9999 SCT130 BKN350 13/02 Q1004 BLU/;
0148102340999992009102115204+53133+009350FM-15+0061ETGQ V0200601N002111050019N0112651N1+01301+00201999999ADDGA1021+039001999GA2071+105001999GF107991999999999999999999MA1100411999999REMMET063METAR ETGQ 211520Z 06004KT 9999 FEW130 BKN350 13/02 Q1004 BLU/;
0125102340999992009102116204+53133+009350FM-15+0061ETGQ V0202001N002611050019N0112651N1+01201+00101999999ADDGA1071+105001999GF107991999999999999999999MA1100311999999REMMET056METAR ETGQ 211620Z 20005KT 9999 BKN350 12/01 Q1003 BLU/;
0125102340999992009102117204+53133+009350FM-15+0061ETGQ V0200701N002611050019N0112651N1+01001+00201999999ADDGA1071+105001999GF107991999999999999999999MA1100311999999REMMET056METAR ETGQ 211720Z 07005KT 9999 BKN350 10/02 Q1003 BLU/;
0148102340999992009102118204+53133+009350FM-15+0061ETGQ V0203601N001511050019N0112651N1+01001+00101999999ADDGA1021+045001999GA2071+105001999GF107991999999999999999999MA1100311999999REMMET063METAR ETGQ 211820Z 36003KT 9999 FEW150 BKN350 10/01 Q1003 BLU/;
0147102340999992009102204204+53133+009350FM-15+0061ETGQ V0200901N002110300019N0080001N1+00801+00201999999ADDGA1041+015001999GA2081+030001999GF108991999999999999999999MA1100101999999REMMET062METAR ETGQ 220420Z 09004KT 8000 SCT050 OVC100 08/02 Q1001 BLU;
0124102340999992009102205204+53133+009350FM-15+0061ETGQ V0201101N001510300019N0080001N1+00801+00201999999ADDGA1081+030001999GF108991999999999999999999MA1100201999999REMMET055METAR ETGQ 220520Z 11003KT 8000 OVC100 08/02 Q1002 BLU;
0147102340999992009102206204+53133+009350FM-15+0061ETGQ V0202601N001010300019N0112651N1+00801+00201999999ADDGA1041+015001999GA2071+030001999GF107991999999999999999999MA1100201999999REMMET062METAR ETGQ 220620Z 26002KT 9999 SCT050 BKN100 08/02 Q1002 BLU;
0124102340999992009102207204+53133+009350FM-15+0061ETGQ V0209999V001010084019N0112651N1+00801+00201999999ADDGA1071+008401999GF107991999999999999999999MA1100201999999REMMET055METAR ETGQ 220720Z VRB02KT 9999 BKN028 08/02 Q1002 BLU;
0124102340999992009102208204+53133+009350FM-15+0061ETGQ V0209999V001010072019N0112651N1+00901+00301999999ADDGA1071+007201999GF107991999999999999999999MA1100201999999REMMET055METAR ETGQ 220820Z VRB02KT 9999 BKN024 09/03 Q1002 WHT;
0124102340999992009102209204+53133+009350FM-15+0061ETGQ V0201401N001510078019N0112651N1+00901+00301999999ADDGA1071+007801999GF107991999999999999999999MA1100311999999REMMET055METAR ETGQ 220920Z 14003KT 9999 BKN026 09/03 Q1003 BLU;
0124102340999992009102210204+53133+009350FM-15+0061ETGQ V0209999V001010078019N0112651N1+01001+00401999999ADDGA1071+007801999GF107991999999999999999999MA1100311999999REMMET055METAR ETGQ 221020Z VRB02KT 9999 BKN026 10/04 Q1003 BLU;
0124102340999992009102211204+53133+009350FM-15+0061ETGQ V0209999V001010078019N0112651N1+01001+00401999999ADDGA1071+007801999GF107991999999999999999999MA1100411999999REMMET055METAR ETGQ 221120Z VRB02KT 9999 BKN026 10/04 Q1004 BLU;
0124102340999992009102212204+53133+009350FM-15+0061ETGQ V0200801N001010081019N0112651N1+01101+00501999999ADDGA1071+008101999GF107991999999999999999999MA1100311999999REMMET055METAR ETGQ 221220Z 08002KT 9999 BKN027 11/05 Q1003 BLU;
0124102340999992009102213204+53133+009350FM-15+0061ETGQ V0209999V000510099019N0112651N1+01101+00501999999ADDGA1071+009901999GF107991999999999999999999MA1100411999999REMMET055METAR ETGQ 221320Z VRB01KT 9999 BKN033 11/05 Q1004 BLU;
0124102340999992009102214204+53133+009350FM-15+0061ETGQ V0200901N001510093019N0112651N1+01101+00601999999ADDGA1071+009301999GF107991999999999999999999MA1100411999999REMMET055METAR ETGQ 221420Z 09003KT 9999 BKN031 11/06 Q1004 BLU;
0124102340999992009102215204+53133+009350FM-15+0061ETGQ V0201001N001510090019N0112651N1+01101+00601999999ADDGA1071+009001999GF107991999999999999999999MA1100411999999REMMET055METAR ETGQ 221520Z 10003KT 9999 BKN030 11/06 Q1004 BLU;
0124102340999992009102216204+53133+009350FM-15+0061ETGQ V0201101N001510093019N0112651N1+01101+00601999999ADDGA1071+009301999GF107991999999999999999999MA1100411999999REMMET055METAR ETGQ 221620Z 11003KT 9999 BKN031 11/06 Q1004 BLU;
0124102340999992009102217204+53133+009350FM-15+0061ETGQ V0201001N001510090019N0112651N1+01101+00601999999ADDGA1071+009001999GF107991999999999999999999MA1100511999999REMMET055METAR ETGQ 221720Z 10003KT 9999 BKN030 11/06 Q1005 BLU;
0124102340999992009102218204+53133+009350FM-15+0061ETGQ V0200801N001010090019N0112651N1+01101+00601999999ADDGA1081+009001999GF108991999999999999999999MA1100511999999REMMET055METAR ETGQ 221820Z 08002KT 9999 OVC030 11/06 Q1005 BLU;
0132102340999992009102304204+53133+009350FM-15+0061ETGQ V0202401N001010006019N0002001N1+00401+00401999999ADDGA1091+000601999GF109991999999000251999999MA1101021999999MW1451REMMET057METAR ETGQ 230420Z 24002KT 0200 FG VV002 04/04 Q1010 RED;
0133102340999992009102305204+53133+009350FM-15+0061ETGQ V0209999V000510012019N0012001N1+00401+00301999999ADDGA1081+001201999GF108991999999999999999999MA1101021999999MW1101REMMET058METAR ETGQ 230520Z VRB01KT 1200 BR OVC004 04/03 Q1010 AMB;
0133102340999992009102306204+53133+009350FM-15+0061ETGQ V0202101N000510012019N0015001N1+00501+00401999999ADDGA1081+001201999GF108991999999999999999999MA1101021999999MW1101REMMET058METAR ETGQ 230620Z 21001KT 1500 BR OVC004 05/04 Q1010 AMB;
0133102340999992009102307204+53133+009350FM-15+0061ETGQ V0209999V000510015019N0035001N1+00501+00401999999ADDGA1081+001501999GF108991999999999999999999MA1101081999999MW1101REMMET058METAR ETGQ 230720Z VRB01KT 3500 BR OVC005 05/04 Q1011 YLO;
0133102340999992009102308204+53133+009350FM-15+0061ETGQ V0201701N001010015019N0035001N1+00601+00501999999ADDGA1081+001501999GF108991999999999999999999MA1101191999999MW1101REMMET058METAR ETGQ 230820Z 17002KT 3500 BR OVC005 06/05 Q1012 YLO;
0133102340999992009102309204+53133+009350FM-15+0061ETGQ V0201801N001010018019N0050001N1+00601+00501999999ADDGA1081+001801999GF108991999999999999999999MA1101291999999MW1101REMMET058METAR ETGQ 230920Z 18002KT 5000 BR OVC006 06/05 Q1013 YLO;
0147102340999992009102310204+53133+009350FM-15+0061ETGQ V0201201N001010420019N0070001N1+00701+00501999999ADDGA1041+002401999GA2071+042001999GF107991999999999999999999MA1101291999999REMMET062METAR ETGQ 231020Z 12002KT 7000 SCT008 BKN140 07/05 Q1013 WHT;
0124102340999992009102311204+53133+009350FM-15+0061ETGQ V0202001N001010450019N0070001N1+00901+00601999999ADDGA1071+045001999GF107991999999999999999999MA1101291999999REMMET055METAR ETGQ 231120Z 20002KT 7000 BKN150 09/06 Q1013 WHT;
0124102340999992009102312204+53133+009350FM-15+0061ETGQ V0209999V000510450019N0080001N1+01001+00601999999ADDGA1071+045001999GF107991999999999999999999MA1101291999999REMMET055METAR ETGQ 231220Z VRB01KT 8000 BKN150 10/06 Q1013 BLU;
0147102340999992009102313204+53133+009350FM-15+0061ETGQ V0200201N001010750019N0070001N1+01101+00601999999ADDGA1021+045001999GA2071+075001999GF107991999999999999999999MA1101191999999REMMET062METAR ETGQ 231320Z 02002KT 7000 FEW150 BKN250 11/06 Q1012 WHT;
0147102340999992009102314204+53133+009350FM-15+0061ETGQ V0209999V001010105019N0070001N1+01201+00701999999ADDGA1071+010501999GA2071+075001999GF107991999999999999999999MA1101291999999REMMET062METAR ETGQ 231420Z VRB02KT 7000 BKN035 BKN250 12/07 Q1013 WHT;
0157102340999992009102315204+53133+009350FM-15+0061ETGQ V0209999V000510096019N0060001N1+01201+00801999999ADDGA1021+006601999GA2071+009601999GF107991999999999999999999MA1101391999999MW1611REMMET066METAR ETGQ 231520Z VRB01KT 6000 -RA FEW022 BKN032 12/08 Q1014 WHT;
0194102340999992009102316204+53133+009350FM-15+0061ETGQ V0201901N00051009001CN0050001N1+01101+00901999999ADDGA1021+005701999GA2041+009001999GA3071+015001999GF107991999999999999999999MA1101391999999MW1101MW2611REMMET081METAR ETGQ 231620Z 19001KT 5000 -RA BR FEW019 SCT030 BKN050 11/09 Q1014 RERA WHT;
0166102340999992009102317204+53133+009350FM-15+0061ETGQ V0209999V000510180019N0040001N1+01001+00901999999ADDGA1021+003901999GA2071+018001999GF107991999999999999999999MA1101491999999MW1101MW2511REMMET069METAR ETGQ 231720Z VRB01KT 4000 -DZ BR FEW013 BKN060 10/09 Q1015 GRN;
0124102340999992009102318204+53133+009350FM-15+0061ETGQ V0201601N000510210019N0060001N1+01001+00901999999ADDGA1071+021001999GF107991999999999999999999MA1101491999999REMMET055METAR ETGQ 231820Z 16001KT 6000 BKN070 10/09 Q1015 WHT;
0125102340999992009102605204+53133+009350FM-15+0061ETGQ V0202201N003112200019N0112651N1+01101+00701999999ADDGA1041+018001999GF104991999999999999999999MA1101691999999REMMET056METAR ETGQ 260520Z 22006KT 9999 SCT060 11/07 Q1017 BLU/;
0124102340999992009102606204+53133+009350FM-15+0061ETGQ V0200101N002110180019N0112651N1+01001+00701999999ADDGA1071+018001999GF107991999999999999999999MA1101691999999REMMET055METAR ETGQ 260620Z 01004KT 9999 BKN060 10/07 Q1017 BLU;
0147102340999992009102607204+53133+009350FM-15+0061ETGQ V0201401N001510180019N0112651N1+01101+00701999999ADDGA1041+005101999GA2071+018001999GF107991999999999999999999MA1101691999999REMMET062METAR ETGQ 260720Z 14003KT 9999 SCT017 BKN060 11/07 Q1017 BLU;
0147102340999992009102608204+53133+009350FM-15+0061ETGQ V0202001N002610210019N0112651N1+01101+00801999999ADDGA1041+004501999GA2071+021001999GF107991999999999999999999MA1101801999999REMMET062METAR ETGQ 260820Z 20005KT 9999 SCT015 BKN070 11/08 Q1018 BLU;
0147102340999992009102610204+53133+009350FM-15+0061ETGQ V0202201N003610180019N0112651N1+01301+00801999999ADDGA1021+006001999GA2071+018001999GF107991999999999999999999MA1101801999999REMMET062METAR ETGQ 261020Z 22007KT 9999 FEW020 BKN060 13/08 Q1018 BLU;
0124102340999992009102611204+53133+009350FM-15+0061ETGQ V0202101N004110144019N0112651N1+01401+00801999999ADDGA1071+014401999GF107991999999999999999999MA1101691999999REMMET055METAR ETGQ 261120Z 21008KT 9999 BKN048 14/08 Q1017 BLU;
0147102340999992009102612204+53133+009350FM-15+0061ETGQ V0202101N003610108019N0112651N1+01301+00801999999ADDGA1021+006601999GA2071+010801999GF107991999999999999999999MA1101691999999REMMET062METAR ETGQ 261220Z 21007KT 9999 FEW022 BKN036 13/08 Q1017 BLU;
0147102340999992009102613204+53133+009350FM-15+0061ETGQ V0202301N003610150019N0112651N1+01401+00801999999ADDGA1041+012001999GA2071+015001999GF107991999999999999999999MA1101801999999REMMET062METAR ETGQ 261320Z 23007KT 9999 SCT040 BKN050 14/08 Q1018 BLU;
0124102340999992009102705204+53133+009350FM-15+0061ETGQ V0201801N000510069019N0112651N1+01101+00901999999ADDGA1071+006901999GF107991999999999999999999MA1102201999999REMMET055METAR ETGQ 270520Z 18001KT 9999 BKN023 11/09 Q1022 WHT;
0124102340999992009102707204+53133+009350FM-15+0061ETGQ V0202201N001010120019N0112651N1+01101+00901999999ADDGA1071+012001999GF107991999999999999999999MA1102301999999REMMET055METAR ETGQ 270720Z 22002KT 9999 BKN040 11/09 Q1023 BLU;
0124102340999992009102708204+53133+009350FM-15+0061ETGQ V0201601N001010126019N0112651N1+01101+00901999999ADDGA1071+012601999GF107991999999999999999999MA1102301999999REMMET055METAR ETGQ 270820Z 16002KT 9999 BKN042 11/09 Q1023 BLU;
0147102340999992009102709204+53133+009350FM-15+0061ETGQ V0202201N001010126019N0112651N1+01201+00901999999ADDGA1021+006001999GA2071+012601999GF107991999999999999999999MA1102401999999REMMET062METAR ETGQ 270920Z 22002KT 9999 FEW020 BKN042 12/09 Q1024 BLU;
0147102340999992009102710204+53133+009350FM-15+0061ETGQ V0201601N000510129019N0112651N1+01301+00901999999ADDGA1041+006601999GA2071+012901999GF107991999999999999999999MA1102401999999REMMET062METAR ETGQ 271020Z 16001KT 9999 SCT022 BKN043 13/09 Q1024 BLU;
0147102340999992009102711204+53133+009350FM-15+0061ETGQ V0209999V001010126019N0112651N1+01301+00901999999ADDGA1041+006001999GA2071+012601999GF107991999999999999999999MA1102401999999REMMET062METAR ETGQ 271120Z VRB02KT 9999 SCT020 BKN042 13/09 Q1024 BLU;
0147102340999992009102712204+53133+009350FM-15+0061ETGQ V0209999V001010126019N0112651N1+01301+00801999999ADDGA1041+006001999GA2071+012601999GF107991999999999999999999MA1102301999999REMMET062METAR ETGQ 271220Z VRB02KT 9999 SCT020 BKN042 13/08 Q1023 BLU;
0147102340999992009102713204+53133+009350FM-15+0061ETGQ V0209999V001010126019N0112651N1+01401+00801999999ADDGA1041+006001999GA2071+012601999GF107991999999999999999999MA1102301999999REMMET062METAR ETGQ 271320Z VRB02KT 9999 SCT020 BKN042 14/08 Q1023 BLU;
0133102340999992009102805204+53133+009350FM-15+0061ETGQ V0209999C000010009019N0012001N1+00601+00501999999ADDGA1071+000901999GF107991999999999999999999MA1102101999999MW1101REMMET058METAR ETGQ 280520Z 00000KT 1200 BR BKN003 06/05 Q1021 AMB;
0133102340999992009102806204+53133+009350FM-15+0061ETGQ V0209999V000510012019N0012001N1+00601+00501999999ADDGA1071+001201999GF107991999999999999999999MA1102101999999MW1101REMMET058METAR ETGQ 280620Z VRB01KT 1200 BR BKN004 06/05 Q1021 AMB;
0133102340999992009102807204+53133+009350FM-15+0061ETGQ V0202501N000510009019N0012001N1+00601+00501999999ADDGA1081+000901999GF108991999999999999999999MA1102201999999MW1101REMMET058METAR ETGQ 280720Z 25001KT 1200 BR OVC003 06/05 Q1022 AMB;
0133102340999992009102808204+53133+009350FM-15+0061ETGQ V0202701N001010015019N0035001N1+00601+00601999999ADDGA1071+001501999GF107991999999999999999999MA1102201999999MW1101REMMET058METAR ETGQ 280820Z 27002KT 3500 BR BKN005 06/06 Q1022 YLO;
0148102340999992009102809204+53133+009350FM-15+0061ETGQ V0209999V001010750019N0080001N1+00801+00601999999ADDGA1041+048001999GA2071+075001999GF107991999999999999999999MA1102101999999REMMET063METAR ETGQ 280920Z VRB02KT 8000 SCT160 BKN250 08/06 Q1021 BLU/;
0148102340999992009102810204+53133+009350FM-15+0061ETGQ V0209999V001010900019N0112651N1+00901+00701999999ADDGA1041+048001999GA2071+090001999GF107991999999999999999999MA1102101999999REMMET063METAR ETGQ 281020Z VRB02KT 9999 SCT160 BKN300 09/07 Q1021 BLU/;
0148102340999992009102811204+53133+009350FM-15+0061ETGQ V0209999V000510900019N0112651N1+01101+00701999999ADDGA1041+051001999GA2071+090001999GF107991999999999999999999MA1102001999999REMMET063METAR ETGQ 281120Z VRB01KT 9999 SCT170 BKN300 11/07 Q1020 BLU/;
0125102340999992009102812204+53133+009350FM-15+0061ETGQ V0203101N001011050019N0112651N1+01201+00701999999ADDGA1071+105001999GF107991999999999999999999MA1102001999999REMMET056METAR ETGQ 281220Z 31002KT 9999 BKN350 12/07 Q1020 BLU/;
0125102340999992009102813204+53133+009350FM-15+0061ETGQ V0203401N001011050019N0112651N1+01301+00701999999ADDGA1071+105001999GF107991999999999999999999MA1101901999999REMMET056METAR ETGQ 281320Z 34002KT 9999 BKN350 13/07 Q1019 BLU/;
0133102340999992009102905204+53133+009350FM-15+0061ETGQ V0202201N001010015019N0050001N1+00601+00501999999ADDGA1081+001501999GF108991999999999999999999MA1102101999999MW1101REMMET058METAR ETGQ 290520Z 22002KT 5000 BR OVC005 06/05 Q1021 YLO;
0133102340999992009102906204+53133+009350FM-15+0061ETGQ V0202201N000510015019N0050001N1+00601+00501999999ADDGA1081+001501999GF108991999999999999999999MA1102201999999MW1101REMMET058METAR ETGQ 290620Z 22001KT 5000 BR OVC005 06/05 Q1022 YLO;
0133102340999992009102907204+53133+009350FM-15+0061ETGQ V0202401N001010018019N0050001N1+00601+00601999999ADDGA1081+001801999GF108991999999999999999999MA1102201999999MW1101REMMET058METAR ETGQ 290720Z 24002KT 5000 BR OVC006 06/06 Q1022 YLO;
0124102340999992009102908204+53133+009350FM-15+0061ETGQ V0209999C000010027019N0060001N1+00701+00601999999ADDGA1081+002701999GF108991999999999999999999MA1102301999999REMMET055METAR ETGQ 290820Z 00000KT 6000 OVC009 07/06 Q1023 GRN;
0124102340999992009102909204+53133+009350FM-15+0061ETGQ V0209999V000510024019N0060001N1+00801+00701999999ADDGA1081+002401999GF108991999999999999999999MA1102301999999REMMET055METAR ETGQ 290920Z VRB01KT 6000 OVC008 08/07 Q1023 GRN;
0124102340999992009102910204+53133+009350FM-15+0061ETGQ V0209999C000010027019N0070001N1+00901+00701999999ADDGA1081+002701999GF108991999999999999999999MA1102301999999REMMET055METAR ETGQ 291020Z 00000KT 7000 OVC009 09/07 Q1023 GRN;
0124102340999992009102911204+53133+009350FM-15+0061ETGQ V0203601N001010030019N0070001N1+01001+00701999999ADDGA1081+003001999GF108991999999999999999999MA1102301999999REMMET055METAR ETGQ 291120Z 36002KT 7000 OVC010 10/07 Q1023 GRN;
0133102340999992009102912204+53133+009350FM-15+0061ETGQ V0203201N000510030019N0050001N1+01001+00801999999ADDGA1081+003001999GF108991999999999999999999MA1102301999999MW1101REMMET058METAR ETGQ 291220Z 32001KT 5000 BR OVC010 10/08 Q1023 GRN;
0156102340999992009102913204+53133+009350FM-15+0061ETGQ V0203301N001010033019N0050001N1+01001+00801999999ADDGA1021+002701999GA2071+003301999GF107991999999999999999999MA1102301999999MW1101REMMET065METAR ETGQ 291320Z 33002KT 5000 BR FEW009 BKN011 10/08 Q1023 GRN;
0133102340999992009102914204+53133+009350FM-15+0061ETGQ V0203001N001010033019N0050001N1+01101+00801999999ADDGA1081+003301999GF108991999999999999999999MA1102301999999MW1101REMMET058METAR ETGQ 291420Z 30002KT 5000 BR OVC011 11/08 Q1023 GRN;
0179102340999992009102915204+53133+009350FM-15+0061ETGQ V0209999V00051008401CN0050001N1+01101+00801999999ADDGA1021+003301999GA2041+008401999GA3071+013801999GF107991999999999999999999MA1102401999999MW1101REMMET072METAR ETGQ 291520Z VRB01KT 5000 BR FEW011 SCT028 BKN046 11/08 Q1024 WHT;
0156102340999992009102916204+53133+009350FM-15+0061ETGQ V0203401N001010141019N0050001N1+01101+00801999999ADDGA1021+002101999GA2071+014101999GF107991999999999999999999MA1102401999999MW1101REMMET065METAR ETGQ 291620Z 34002KT 5000 BR FEW007 BKN047 11/08 Q1024 WHT;
0156102340999992009102917204+53133+009350FM-15+0061ETGQ V0209999C000010144019N0045001N1+01001+00801999999ADDGA1021+002101999GA2071+014401999GF107991999999999999999999MA1102401999999MW1101REMMET065METAR ETGQ 291720Z 00000KT 4500 BR FEW007 BKN048 10/08 Q1024 GRN;
0179102340999992009102918204+53133+009350FM-15+0061ETGQ V0203201N00051009601CN0045001N1+01001+00801999999ADDGA1021+002101999GA2041+009601999GA3071+015001999GF107991999999999999999999MA1102511999999MW1101REMMET072METAR ETGQ 291820Z 32001KT 4500 BR FEW007 SCT032 BKN050 10/08 Q1025 GRN;
0179102340999992009102919204+53133+009350FM-15+0061ETGQ V0201801N000510078019N0040001N1+01001+00901999999ADDGA1021+003001999GA2071+007801999GA3071+015001999GF107991999999999999999999MA1102511999999MW1101REMMET072METAR ETGQ 291920Z 18001KT 4000 BR FEW010 BKN026 BKN050 10/09 Q1025 GRN;
0124102340999992009103005204+53133+009350FM-15+0061ETGQ V0209999C000010126019N0060001N1+00901+00801999999ADDGA1071+012601999GF107991999999999999999999MA1102611999999REMMET055METAR ETGQ 300520Z 00000KT 6000 BKN042 09/08 Q1026 WHT;
0124102340999992009103006204+53133+009350FM-15+0061ETGQ V0200701N001512200019N0060001N1+00901+00801999999ADDGA1041+012001999GF104991999999999999999999MA1102711999999REMMET055METAR ETGQ 300620Z 07003KT 6000 SCT040 09/08 Q1027 WHT;
0075102340999992009103007204+53133+009350FM-15+0061ETGQ V0200801N001012200019N0060001N1+00901+00801999999ADDMA1102711999999REMMET048METAR ETGQ 300720Z 08002KT 6000 09/08 Q1027 WHT;
0124102340999992009103008204+53133+009350FM-15+0061ETGQ V0200501N001512200019N0060001N1+01001+00701999999ADDGA1021+003901999GF102991999999999999999999MA1102811999999REMMET055METAR ETGQ 300820Z 05003KT 6000 FEW013 10/07 Q1028 WHT;
0125102340999992009103009204+53133+009350FM-15+0061ETGQ V0201401N001512200019N0080001N1+01201+00701999999ADDGA1021+005401999GF102991999999999999999999MA1102711999999REMMET056METAR ETGQ 300920Z 14003KT 8000 FEW018 12/07 Q1027 BLU/;
0125102340999992009103010204+53133+009350FM-15+0061ETGQ V0201301N001512200019N0080001N1+01201+00701999999ADDGA1021+006301999GF102991999999999999999999MA1102711999999REMMET056METAR ETGQ 301020Z 13003KT 8000 FEW021 12/07 Q1027 BLU/;
0125102340999992009103011204+53133+009350FM-15+0061ETGQ V0201201N001512200019N0090001N1+01401+00701999999ADDGA1021+007201999GF102991999999999999999999MA1102711999999REMMET056METAR ETGQ 301120Z 12003KT 9000 FEW024 14/07 Q1027 BLU/;
0148102340999992009103012204+53133+009350FM-15+0061ETGQ V0201401N002112200019N0112651N1+01401+00701999999ADDGA1021+008401999GA2041+105001999GF104991999999999999999999MA1102711999999REMMET063METAR ETGQ 301220Z 14004KT 9999 FEW028 SCT360 14/07 Q1027 BLU/;
0148102340999992009103013204+53133+009350FM-15+0061ETGQ V0201001N002612200019N0112651N1+01501+00601999999ADDGA1021+011101999GA2041+090001999GF104991999999999999999999MA1102611999999REMMET063METAR ETGQ 301320Z 10005KT 9999 FEW037 SCT330 15/06 Q1026 BLU/;
0125102340999992009103014204+53133+009350FM-15+0061ETGQ V0201201N003612200019N0112651N1+01501+00501999999ADDGA1021+011101999GF102991999999999999999999MA1102611999999REMMET056METAR ETGQ 301420Z 12007KT 9999 FEW037 15/05 Q1026 BLU/;
0125102340999992009103015204+53133+009350FM-15+0061ETGQ V0201201N002612200019N0112651N1+01401+00601999999ADDGA1021+011101999GF102991999999999999999999MA1102611999999REMMET056METAR ETGQ 301520Z 12005KT 9999 FEW037 14/06 Q1026 BLU/;
0125102340999992009103016204+53133+009350FM-15+0061ETGQ V0201301N000512200019N0112651N1+01201+00601999999ADDGA1021+105001999GF102991999999999999999999MA1102611999999REMMET056METAR ETGQ 301620Z 13001KT 9999 FEW360 12/06 Q1026 BLU/;
0125102340999992009103017204+53133+009350FM-15+0061ETGQ V0200901N001012200019N0112651N1+01001+00701999999ADDGA1041+090001999GF104991999999999999999999MA1102711999999REMMET056METAR ETGQ 301720Z 09002KT 9999 SCT340 10/07 Q1027 BLU/;
0125102340999992009103018204+53133+009350FM-15+0061ETGQ V0201701N000512200019N0112651N1+00901+00601999999ADDGA1041+090001999GF104991999999999999999999MA1102711999999REMMET056METAR ETGQ 301820Z 17001KT 9999 SCT340 09/06 Q1027 BLU/;
0125102340999992009103019204+53133+009350FM-15+0061ETGQ V0201301N001012200019N0112651N1+00901+00601999999ADDGA1021+105001999GF102991999999999999999999MA1102711999999REMMET056METAR ETGQ 301920Z 13002KT 9999 FEW350 09/06 Q1027 BLU/;
0157102340999992009110205204+53133+009350FM-15+0061ETGQ V0200601N000510099019N0080001N1+01001+00901999999ADDGA1041+005401999GA2081+009901999GF108991999999999999999999MA1100201999999MW1611REMMET066METAR ETGQ 020520Z 06001KT 8000 -RA SCT018 OVC033 10/09 Q1002 BLU;
0170102340999992009110206204+53133+009350FM-15+0061ETGQ V0201201N001010120019N0112651N1+01001+00901999999ADDGA1021+005401999GA2071+012001999GA3081+024001999GF108991999999999999999999MA1100201999999REMMET069METAR ETGQ 020620Z 12002KT 9999 FEW018 BKN040 OVC080 10/09 Q1002 BLU;
0170102340999992009110207204+53133+009350FM-15+0061ETGQ V0201301N001010120019N0112651N1+01001+00901999999ADDGA1021+006001999GA2071+012001999GA3081+024001999GF108991999999999999999999MA1100201999999REMMET069METAR ETGQ 020720Z 13002KT 9999 FEW020 BKN040 OVC080 10/09 Q1002 BLU;
0170102340999992009110208204+53133+009350FM-15+0061ETGQ V0209999V000510120019N0112651N1+01101+01001999999ADDGA1021+005401999GA2071+012001999GA3081+024001999GF108991999999999999999999MA1100201999999REMMET069METAR ETGQ 020820Z VRB01KT 9999 FEW018 BKN040 OVC080 11/10 Q1002 BLU;
0170102340999992009110209204+53133+009350FM-15+0061ETGQ V0209999V000510120019N0112651N1+01101+01001999999ADDGA1021+005101999GA2071+012001999GA3071+018001999GF107991999999999999999999MA1100201999999REMMET069METAR ETGQ 020920Z VRB01KT 9999 FEW017 BKN040 BKN060 11/10 Q1002 BLU;
0147102340999992009110210204+53133+009350FM-15+0061ETGQ V0202901N001010180019N0112651N1+01201+00901999999ADDGA1021+005101999GA2071+018001999GF107991999999999999999999MA1100201999999REMMET062METAR ETGQ 021020Z 29002KT 9999 FEW017 BKN060 12/09 Q1002 BLU;
0170102340999992009110211204+53133+009350FM-15+0061ETGQ V0202301N001510135019N0112651N1+01301+00901999999ADDGA1041+005701999GA2071+013501999GA3071+090001999GF107991999999999999999999MA1100201999999REMMET069METAR ETGQ 021120Z 23003KT 9999 SCT019 BKN045 BKN340 13/09 Q1002 BLU;
0170102340999992009110212204+53133+009350FM-15+0061ETGQ V0202101N001510150019N0112651N1+01301+00801999999ADDGA1041+005701999GA2071+015001999GA3071+057001999GF107991999999999999999999MA1100101999999REMMET069METAR ETGQ 021220Z 21003KT 9999 SCT019 BKN050 BKN190 13/08 Q1001 BLU;
0148102340999992009110213204+53133+009350FM-15+0061ETGQ V0202101N001510600019N0112651N1+01301+00701999999ADDGA1041+021001999GA2071+060001999GF107991999999999999999999MA1100101999999REMMET063METAR ETGQ 021320Z 21003KT 9999 SCT070 BKN200 13/07 Q1001 BLU/;
0147102340999992009110214204+53133+009350FM-15+0061ETGQ V0202001N001010210019N0112651N1+01301+00701999999ADDGA1041+009001999GA2071+021001999GF107991999999999999999999MA1100101999999REMMET062METAR ETGQ 021420Z 20002KT 9999 SCT030 BKN070 13/07 Q1001 BLU;
0156102340999992009110215204+53133+009350FM-15+0061ETGQ V0202401N002610120019N0080001N1+00901+00701999999ADDGA1041+006001999GA2081+012001999GF108991999999999999999999MA1100201999999MW1631REMMET065METAR ETGQ 021520Z 24005KT 8000 RA SCT020 OVC040 09/07 Q1002 BLU;
0157102340999992009110216204+53133+009350FM-15+0061ETGQ V0203301N001010120019N0080001N1+00901+00801999999ADDGA1041+003601999GA2071+012001999GF107991999999999999999999MA1100311999999MW1611REMMET066METAR ETGQ 021620Z 33002KT 8000 -RA SCT012 BKN040 09/08 Q1003 BLU;
0147102340999992009110218204+53133+009350FM-15+0061ETGQ V0209999V001010270019N0112651N1+00901+00701999999ADDGA1041+014401999GA2071+027001999GF107991999999999999999999MA1100311999999REMMET062METAR ETGQ 021820Z VRB02KT 9999 SCT048 BKN090 09/07 Q1003 BLU;
0124102340999992009110219204+53133+009350FM-15+0061ETGQ V0202101N001510114019N0112651N1+00901+00701999999ADDGA1071+011401999GF107991999999999999999999MA1100311999999REMMET055METAR ETGQ 021920Z 21003KT 9999 BKN038 09/07 Q1003 BLU;
0125102340999992009110305204+53133+009350FM-15+0061ETGQ V0201501N001512200019N0080001N1+00601+00301999999ADDGA1041+010501999GF104991999999999999999999MA1100101999999REMMET056METAR ETGQ 030520Z 15003KT 8000 SCT035 06/03 Q1001 BLU/;
0147102340999992009110306204+53133+009350FM-15+0061ETGQ V0201201N001010117019N0080001N1+00601+00301999999ADDGA1021+005401999GA2071+011701999GF107991999999999999999999MA1100101999999REMMET062METAR ETGQ 030620Z 12002KT 8000 FEW018 BKN039 06/03 Q1001 BLU;
0125102340999992009110307204+53133+009350FM-15+0061ETGQ V0209999C000012200019N0112651N1+00501+00301999999ADDGA1021+006001999GF102991999999999999999999MA1100101999999REMMET056METAR ETGQ 030720Z 00000KT 9999 FEW020 05/03 Q1001 BLU/;
0124102340999992009110308204+53133+009350FM-15+0061ETGQ V0201601N001010060019N0112651N1+00801+00401999999ADDGA1071+006001999GF107991999999999999999999MA1100101999999REMMET055METAR ETGQ 030820Z 16002KT 9999 BKN020 08/04 Q1001 WHT;
0124102340999992009110309204+53133+009350FM-15+0061ETGQ V0209999V001010054019N0112651N1+00801+00401999999ADDGA1081+005401999GF108991999999999999999999MA1100101999999REMMET055METAR ETGQ 030920Z VRB02KT 9999 OVC018 08/04 Q1001 WHT;
0124102340999992009110310204+53133+009350FM-15+0061ETGQ V0201901N002110066019N0112651N1+00901+00401999999ADDGA1071+006601999GF107991999999999999999999MA1100001999999REMMET055METAR ETGQ 031020Z 19004KT 9999 BKN022 09/04 Q1000 WHT;
0124102340999992009110311204+53133+009350FM-15+0061ETGQ V0202001N002110108019N0112651N1+01001+00401999999ADDGA1071+010801999GF107991999999999999999999MA1099901999999REMMET055METAR ETGQ 031120Z 20004KT 9999 BKN036 10/04 Q0999 BLU;
0124102340999992009110312204+53133+009350FM-15+0061ETGQ V0201601N001510126019N0112651N1+01101+00301999999ADDGA1071+012601999GF107991999999999999999999MA1099801999999REMMET055METAR ETGQ 031220Z 16003KT 9999 BKN042 11/03 Q0998 BLU;
0135102340999992009110313204+53133+009350FM-15+0061ETGQ V0201701N002610117019N0112651N1+01101+00301999999ADDGA1071+011701999GF107991999999999999999999MA1099701999999OC100771REMMET058METAR ETGQ 031320Z 17005G15KT 9999 BKN039 11/03 Q0997 BLU;
0124102340999992009110314204+53133+009350FM-15+0061ETGQ V0201501N002610111019N0112651N1+01001+00301999999ADDGA1071+011101999GF107991999999999999999999MA1099591999999REMMET055METAR ETGQ 031420Z 15005KT 9999 BKN037 10/03 Q0996 BLU;
0124102340999992009110315204+53133+009350FM-15+0061ETGQ V0201401N003110102019N0112651N1+01001+00301999999ADDGA1071+010201999GF107991999999999999999999MA1099591999999REMMET055METAR ETGQ 031520Z 14006KT 9999 BKN034 10/03 Q0996 BLU;
0124102340999992009110316204+53133+009350FM-15+0061ETGQ V0201501N002610087019N0112651N1+01001+00401999999ADDGA1071+008701999GF107991999999999999999999MA1099491999999REMMET055METAR ETGQ 031620Z 15005KT 9999 BKN029 10/04 Q0995 BLU;
0134102340999992009110317204+53133+009350FM-15+0061ETGQ V0201601N002610075019N0112651N1+01001+00401999999ADDGA1071+007501999GF107991999999999999999999MA1099391999999MW1611REMMET059METAR ETGQ 031720Z 16005KT 9999 -RA BKN025 10/04 Q0994 BLU;
0124102340999992009110318204+53133+009350FM-15+0061ETGQ V0201401N002110060019N0112651N1+00901+00501999999ADDGA1071+006001999GF107991999999999999999999MA1099291999999REMMET055METAR ETGQ 031820Z 14004KT 9999 BKN020 09/05 Q0993 WHT;
0124102340999992009110319204+53133+009350FM-15+0061ETGQ V0201501N002110063019N0112651N1+00901+00501999999ADDGA1071+006301999GF107991999999999999999999MA1099191999999REMMET055METAR ETGQ 031920Z 15004KT 9999 BKN021 09/05 Q0992 WHT;
0157102340999992009110405204+53133+009350FM-15+0061ETGQ V0203201N001510210019N0090001N1+01001+00801999999ADDGA1041+006001999GA2081+021001999GF108991999999999999999999MA1098511999999MW1611REMMET066METAR ETGQ 040520Z 32003KT 9000 -RA SCT020 OVC070 10/08 Q0985 BLU;
0173102340999992009110406204+53133+009350FM-15+0061ETGQ V0202301N00211015001CN0112651N1+00801+00501999999ADDGA1021+006001021GA2041+015001999GA3071+024001999GF107991999999999999999999MA1098611999999REMMET072METAR ETGQ 040620Z 23004KT 9999 FEW020TCU SCT050 BKN080 08/05 Q0986 BLU;
0170102340999992009110407204+53133+009350FM-15+0061ETGQ V0202801N00101018001CN0112651N1+00801+00501999999ADDGA1021+006001999GA2041+018001999GA3071+027001999GF107991999999999999999999MA1098711999999REMMET069METAR ETGQ 040720Z 28002KT 9999 FEW020 SCT060 BKN090 08/05 Q0987 BLU;
0160102340999992009110408204+53133+009350FM-15+0061ETGQ V0202301N002110120019N0112651N1+00801+00601999999ADDGA1041+005401021GA2081+012001999GF108991999999999999999999MA1098821999999MW1611REMMET069METAR ETGQ 040820Z 23004KT 9999 -RA SCT018TCU OVC040 08/06 Q0988 BLU;
0150102340999992009110409204+53133+009350FM-15+0061ETGQ V0202501N002110150019N0112651N1+00801+00501999999ADDGA1021+006001021GA2071+015001999GF107991999999999999999999MA1098921999999REMMET065METAR ETGQ 040920Z 25004KT 9999 FEW020TCU BKN050 08/05 Q0989 BLU;
0157102340999992009110410204+53133+009350FM-15+0061ETGQ V0202601N002110075019N0112651N1+00801+00501999999ADDGA1021+004501999GA2081+007501999GF108991999999999999999999MA1098921999999MW1611REMMET066METAR ETGQ 041020Z 26004KT 9999 -RA FEW015 OVC025 08/05 Q0989 BLU;
0147102340999992009110411204+53133+009350FM-15+0061ETGQ V0202601N001510090019N0112651N1+00901+00601999999ADDGA1021+004501999GA2081+009001999GF108991999999999999999999MA1098981999999REMMET062METAR ETGQ 041120Z 26003KT 9999 FEW015 OVC030 09/06 Q0990 BLU;
0151102340999992009110412204+53133+009350FM-15+0061ETGQ V0202501N003112200019N0112651N1+01001+00501999999ADDGA1041+006001021GA2041+012001999GF104991999999999999999999MA1098981999999REMMET066METAR ETGQ 041220Z 25006KT 9999 SCT020TCU SCT040 10/05 Q0990 BLU/;
0125102340999992009110413204+53133+009350FM-15+0061ETGQ V0202301N003112200019N0112651N1+01001+00501999999ADDGA1041+010201999GF104991999999999999999999MA1098981999999REMMET056METAR ETGQ 041320Z 23006KT 9999 SCT034 10/05 Q0990 BLU/;
0147102340999992009110414204+53133+009350FM-15+0061ETGQ V0202201N002110150019N0112651N1+01001+00401999999ADDGA1021+006001999GA2071+015001999GF107991999999999999999999MA1099091999999REMMET062METAR ETGQ 041420Z 22004KT 9999 FEW020 BKN050 10/04 Q0991 BLU;
0139102340999992009110415204+53133+009350FM-15+0061ETGQ V0202101N002110045019N0112651N1+01001+00501999999ADDGA1071+004501021GF107991999999999999999999MA1099091999999MW1801REMMET064METAR ETGQ 041520Z 21004KT 9999 -SHRA BKN015TCU 10/05 Q0991 WHT;
0147102340999992009110416204+53133+009350FM-15+0061ETGQ V0202001N002110135019N0112651N1+00901+00501999999ADDGA1021+008101999GA2071+013501999GF107991999999999999999999MA1099091999999REMMET062METAR ETGQ 041620Z 20004KT 9999 FEW027 BKN045 09/05 Q0991 BLU;
0147102340999992009110417204+53133+009350FM-15+0061ETGQ V0202001N001010150019N0112651N1+00801+00601999999ADDGA1021+007501999GA2071+015001999GF107991999999999999999999MA1099191999999REMMET062METAR ETGQ 041720Z 20002KT 9999 FEW025 BKN050 08/06 Q0992 BLU;
0147102340999992009110418204+53133+009350FM-15+0061ETGQ V0202001N002110117019N0112651N1+00801+00601999999ADDGA1021+007501999GA2071+011701999GF107991999999999999999999MA1099191999999REMMET062METAR ETGQ 041820Z 20004KT 9999 FEW025 BKN039 08/06 Q0992 BLU;
0124102340999992009110419204+53133+009350FM-15+0061ETGQ V0202001N002610126019N0112651N1+00901+00501999999ADDGA1071+012601999GF107991999999999999999999MA1099191999999REMMET055METAR ETGQ 041920Z 20005KT 9999 BKN042 09/05 Q0992 BLU;
0147102340999992009110505204+53133+009350FM-15+0061ETGQ V0201601N002110054019N0080001N1+00801+00501999999ADDGA1071+005401999GA2081+024001999GF108991999999999999999999MA1099391999999REMMET062METAR ETGQ 050520Z 16004KT 8000 BKN018 OVC080 08/05 Q0994 WHT;
0124102340999992009110506204+53133+009350FM-15+0061ETGQ V0201401N002110045019N0112651N1+00801+00501999999ADDGA1081+004501999GF108991999999999999999999MA1099491999999REMMET055METAR ETGQ 050620Z 14004KT 9999 OVC015 08/05 Q0995 WHT;
0124102340999992009110507204+53133+009350FM-15+0061ETGQ V0201601N002110051019N0112651N1+00801+00501999999ADDGA1071+005101999GF107991999999999999999999MA1099491999999REMMET055METAR ETGQ 050720Z 16004KT 9999 BKN017 08/05 Q0995 WHT;
0124102340999992009110508204+53133+009350FM-15+0061ETGQ V0201501N001510051019N0112651N1+00901+00501999999ADDGA1071+005101999GF107991999999999999999999MA1099591999999REMMET055METAR ETGQ 050820Z 15003KT 9999 BKN017 09/05 Q0996 WHT;
0124102340999992009110509204+53133+009350FM-15+0061ETGQ V0201701N002110054019N0112651N1+00901+00501999999ADDGA1071+005401999GF107991999999999999999999MA1099591999999REMMET055METAR ETGQ 050920Z 17004KT 9999 BKN018 09/05 Q0996 WHT;
0124102340999992009110510204+53133+009350FM-15+0061ETGQ V0201901N003610060019N0112651N1+01001+00501999999ADDGA1071+006001999GF107991999999999999999999MA1099591999999REMMET055METAR ETGQ 051020Z 19007KT 9999 BKN020 10/05 Q0996 WHT;
0147102340999992009110511204+53133+009350FM-15+0061ETGQ V0202001N003110066019N0112651N1+01101+00501999999ADDGA1071+006601999GA2071+015001999GF107991999999999999999999MA1099701999999REMMET062METAR ETGQ 051120Z 20006KT 9999 BKN022 BKN050 11/05 Q0997 WHT;
0140102340999992009110512204+53133+009350FM-15+0061ETGQ V0202301N00311007501CN0112651N1+01101+00501999999ADDGA1071+007501999GA2041+039001999MA1099701999999REMMET062METAR ETGQ 051220Z 23006KT 9999 BKN025 SCT130 11/05 Q0997 BLU;EQDQ01+000042SCOTCV
0147102340999992009110513204+53133+009350FM-15+0061ETGQ V0202001N003610084019N0112651N1+01101+00401999999ADDGA1071+008401999GA2071+012001999GF107991999999999999999999MA1099701999999REMMET062METAR ETGQ 051320Z 20007KT 9999 BKN028 BKN040 11/04 Q0997 BLU;
0147102340999992009110514204+53133+009350FM-15+0061ETGQ V0202201N002610084019N0112651N1+01101+00401999999ADDGA1071+008401999GA2071+013501999GF107991999999999999999999MA1099701999999REMMET062METAR ETGQ 051420Z 22005KT 9999 BKN028 BKN045 11/04 Q0997 BLU;
0147102340999992009110515204+53133+009350FM-15+0061ETGQ V0202001N003110114019N0112651N1+01001+00401999999ADDGA1021+008401999GA2071+011401999GF107991999999999999999999MA1099701999999REMMET062METAR ETGQ 051520Z 20006KT 9999 FEW028 BKN038 10/04 Q0997 BLU;
0170102340999992009110516204+53133+009350FM-15+0061ETGQ V0201701N002610129019N0112651N1+01001+00401999999ADDGA1041+008701999GA2071+012901999GA3071+027001999GF107991999999999999999999MA1099801999999REMMET069METAR ETGQ 051620Z 17005KT 9999 SCT029 BKN043 BKN090 10/04 Q0998 BLU;
0124102340999992009110517204+53133+009350FM-15+0061ETGQ V0201901N001510078019N0112651N1+01001+00501999999ADDGA1071+007801999GF107991999999999999999999MA1099901999999REMMET055METAR ETGQ 051720Z 19003KT 9999 BKN026 10/05 Q0999 BLU;
0147102340999992009110518204+53133+009350FM-15+0061ETGQ V0202101N002610090019N0112651N1+01001+00501999999ADDGA1041+007201999GA2071+009001999GF107991999999999999999999MA1100001999999REMMET062METAR ETGQ 051820Z 21005KT 9999 SCT024 BKN030 10/05 Q1000 BLU;
0170102340999992009110519204+53133+009350FM-15+0061ETGQ V0202101N00261010501CN0112651N1+01001+00501999999ADDGA1021+006901999GA2041+010501999GA3071+015001999GF107991999999999999999999MA1100001999999REMMET069METAR ETGQ 051920Z 21005KT 9999 FEW023 SCT035 BKN050 10/05 Q1000 BLU;
0124102340999992009110605204+53133+009350FM-15+0061ETGQ V0201401N001010045019N0112651N1+00901+00601999999ADDGA1081+004501999GF108991999999999999999999MA1100511999999REMMET055METAR ETGQ 060520Z 14002KT 9999 OVC015 09/06 Q1005 WHT;
0147102340999992009110606204+53133+009350FM-15+0061ETGQ V0201801N001010048019N0112651N1+00901+00601999999ADDGA1071+004801999GA2071+013201999GF107991999999999999999999MA1100511999999REMMET062METAR ETGQ 060620Z 18002KT 9999 BKN016 BKN044 09/06 Q1005 WHT;
0147102340999992009110607204+53133+009350FM-15+0061ETGQ V0201701N001510048019N0112651N1+00901+00601999999ADDGA1071+004801999GA2071+011701999GF107991999999999999999999MA1100611999999REMMET062METAR ETGQ 060720Z 17003KT 9999 BKN016 BKN039 09/06 Q1006 WHT;
0147102340999992009110608204+53133+009350FM-15+0061ETGQ V0201601N001510051019N0112651N1+01001+00601999999ADDGA1071+005101999GA2071+012001999GF107991999999999999999999MA1100711999999REMMET062METAR ETGQ 060820Z 16003KT 9999 BKN017 BKN040 10/06 Q1007 WHT;
0150102340999992009110609204+53133+009350FM-15+0061ETGQ V0202001N002110111019N0112651N1+01001+00601999999ADDGA1041+005401021GA2071+011101999GF107991999999999999999999MA1100711999999REMMET065METAR ETGQ 060920Z 20004KT 9999 SCT018TCU BKN037 10/06 Q1007 BLU;
0147102340999992009110610204+53133+009350FM-15+0061ETGQ V0202201N002110120019N0112651N1+01101+00401999999ADDGA1041+005701999GA2071+012001999GF107991999999999999999999MA1100811999999REMMET062METAR ETGQ 061020Z 22004KT 9999 SCT019 BKN040 11/04 Q1008 BLU;
0151102340999992009110611204+53133+009350FM-15+0061ETGQ V0201901N002112200019N0112651N1+01001+00501999999ADDGA1041+005701021GA2041+011701999GF104991999999999999999999MA1100811999999REMMET066METAR ETGQ 061120Z 19004KT 9999 SCT019TCU SCT039 10/05 Q1008 BLU/;
0147102340999992009110612204+53133+009350FM-15+0061ETGQ V0202001N002610099019N0112651N1+01001+00401999999ADDGA1041+007201999GA2071+009901999GF107991999999999999999999MA1100811999999REMMET062METAR ETGQ 061220Z 20005KT 9999 SCT024 BKN033 10/04 Q1008 BLU;
0147102340999992009110613204+53133+009350FM-15+0061ETGQ V0202201N002110093019N0112651N1+01001+00501999999ADDGA1041+007501999GA2071+009301999GF107991999999999999999999MA1100811999999REMMET062METAR ETGQ 061320Z 22004KT 9999 SCT025 BKN031 10/05 Q1008 BLU;
0147102340999992009110614204+53133+009350FM-15+0061ETGQ V0202001N002610105019N0112651N1+01001+00401999999ADDGA1021+007501999GA2071+010501999GF107991999999999999999999MA1100811999999REMMET062METAR ETGQ 061420Z 20005KT 9999 FEW025 BKN035 10/04 Q1008 BLU;
0147102340999992009110615204+53133+009350FM-15+0061ETGQ V0202201N001510117019N0112651N1+01001+00401999999ADDGA1021+008101999GA2071+011701999GF107991999999999999999999MA1100811999999REMMET062METAR ETGQ 061520Z 22003KT 9999 FEW027 BKN039 10/04 Q1008 BLU;
0124102340999992009110616204+53133+009350FM-15+0061ETGQ V0201501N002610144019N0112651N1+01001+00401999999ADDGA1071+014401999GF107991999999999999999999MA1100811999999REMMET055METAR ETGQ 061620Z 15005KT 9999 BKN048 10/04 Q1008 BLU;
0147102340999992009110617204+53133+009350FM-15+0061ETGQ V0201601N002110150019N0112651N1+01001+00501999999ADDGA1021+013201999GA2071+015001999GF107991999999999999999999MA1100811999999REMMET062METAR ETGQ 061720Z 16004KT 9999 FEW044 BKN050 10/05 Q1008 BLU;
0147102340999992009110618204+53133+009350FM-15+0061ETGQ V0201501N002610150019N0112651N1+01001+00501999999ADDGA1021+007801999GA2071+015001999GF107991999999999999999999MA1100811999999REMMET062METAR ETGQ 061820Z 15005KT 9999 FEW026 BKN050 10/05 Q1008 BLU;
0147102340999992009110619204+53133+009350FM-15+0061ETGQ V0201401N002110150019N0112651N1+00901+00501999999ADDGA1021+007501999GA2071+015001999GF107991999999999999999999MA1100711999999REMMET062METAR ETGQ 061920Z 14004KT 9999 FEW025 BKN050 09/05 Q1007 BLU;
0124102340999992009110905204+53133+009350FM-15+0061ETGQ V0203301N003610054019N0080001N1+00701+00301999999ADDGA1071+005401999GF107991999999999999999999MA1100911999999REMMET055METAR ETGQ 090520Z 33007KT 8000 BKN018 07/03 Q1009 WHT;
0147102340999992009110906204+53133+009350FM-15+0061ETGQ V0203301N003110051019N0070001N1+00701+00301999999ADDGA1021+003001999GA2081+005101999GF108991999999999999999999MA1100911999999REMMET062METAR ETGQ 090620Z 33006KT 7000 FEW010 OVC017 07/03 Q1009 WHT;
0147102340999992009110907204+53133+009350FM-15+0061ETGQ V0203301N002610054019N0080001N1+00701+00301999999ADDGA1021+003001999GA2081+005401999GF108991999999999999999999MA1101021999999REMMET062METAR ETGQ 090720Z 33005KT 8000 FEW010 OVC018 07/03 Q1010 WHT;
0147102340999992009110908204+53133+009350FM-15+0061ETGQ V0203301N003110057019N0080001N1+00701+00301999999ADDGA1021+004201999GA2081+005701999GF108991999999999999999999MA1101021999999REMMET062METAR ETGQ 090820Z 33006KT 8000 FEW014 OVC019 07/03 Q1010 WHT;
0147102340999992009110909204+53133+009350FM-15+0061ETGQ V0203301N003110057019N0090001N1+00701+00301999999ADDGA1021+004201999GA2081+005701999GF108991999999999999999999MA1101021999999REMMET062METAR ETGQ 090920Z 33006KT 9000 FEW014 OVC019 07/03 Q1010 WHT;
0157102340999992009110910204+53133+009350FM-15+0061ETGQ V0203401N002610048019N0080001N1+00701+00401999999ADDGA1021+003001999GA2081+004801999GF108991999999999999999999MA1101021999999MW1611REMMET066METAR ETGQ 091020Z 34005KT 8000 -RA FEW010 OVC016 07/04 Q1010 WHT;
0147102340999992009110911204+53133+009350FM-15+0061ETGQ V0203401N002610054019N0080001N1+00701+00401999999ADDGA1021+004201999GA2081+005401999GF108991999999999999999999MA1101021999999REMMET062METAR ETGQ 091120Z 34005KT 8000 FEW014 OVC018 07/04 Q1010 WHT;
0124102340999992009110912204+53133+009350FM-15+0061ETGQ V0203201N002610054019N0080001N1+00701+00401999999ADDGA1081+005401999GF108991999999999999999999MA1101021999999REMMET055METAR ETGQ 091220Z 32005KT 8000 OVC018 07/04 Q1010 WHT;
0134102340999992009110913204+53133+009350FM-15+0061ETGQ V0203301N002110054019N0080001N1+00701+00401999999ADDGA1081+005401999GF108991999999999999999999MA1101021999999MW1611REMMET059METAR ETGQ 091320Z 33004KT 8000 -RA OVC018 07/04 Q1010 WHT;
0157102340999992009110914204+53133+009350FM-15+0061ETGQ V0203301N003110054019N0060001N1+00601+00401999999ADDGA1041+004201999GA2081+005401999GF108991999999999999999999MA1101021999999MW1611REMMET066METAR ETGQ 091420Z 33006KT 6000 -RA SCT014 OVC018 06/04 Q1010 WHT;
0157102340999992009110915204+53133+009350FM-15+0061ETGQ V0203401N002610042019N0060001N1+00601+00401999999ADDGA1071+004201999GA2081+005401999GF108991999999999999999999MA1101081999999MW1611REMMET066METAR ETGQ 091520Z 34005KT 6000 -RA BKN014 OVC018 06/04 Q1011 GRN;
0142102340999992009110916204+53133+009350FM-15+0061ETGQ V0203301N001010054019N0050001N1+00601+00401999999ADDGA1081+005401999GF108991999999999999999999MA1101081999999MW1101MW2631REMMET061METAR ETGQ 091620Z 33002KT 5000 RA BR OVC018 06/04 Q1011 WHT;
0142102340999992009110917204+53133+009350FM-15+0061ETGQ V0203101N001010057019N0040001N1+00601+00401999999ADDGA1081+005701999GF108991999999999999999999MA1101081999999MW1101MW2631REMMET061METAR ETGQ 091720Z 31002KT 4000 RA BR OVC019 06/04 Q1011 GRN;
0148102340999992009110918204+53133+009350FM-15+0061ETGQ V0203101N001510054019N0040001N1+00501+00401999999ADDGA1081+005401999GF108991999999999999999999MA1101081999999MW1101MW2611REMMET067METAR ETGQ 091820Z 31003KT 4000 -RA BR OVC018 05/04 Q1011 RERA GRN;
0134102340999992009110919204+53133+009350FM-15+0061ETGQ V0203201N001010060019N0060001N1+00601+00401999999ADDGA1081+006001999GF108991999999999999999999MA1101081999999MW1611REMMET059METAR ETGQ 091920Z 32002KT 6000 -RA OVC020 06/04 Q1011 WHT;
0157102340999992009111005204+53133+009350FM-15+0061ETGQ V0202201N000510018019N0060001N1+00601+00501999999ADDGA1041+000901999GA2081+001801999GF108991999999999999999999MA1101081999999MW1611REMMET066METAR ETGQ 100520Z 22001KT 6000 -RA SCT003 OVC006 06/05 Q1011 YLO;
0166102340999992009111006204+53133+009350FM-15+0061ETGQ V0202901N001010015019N0050001N1+00601+00501999999ADDGA1071+001501999GA2081+003001999GF108991999999999999999999MA1101081999999MW1101MW2611REMMET069METAR ETGQ 100620Z 29002KT 5000 -RA BR BKN005 OVC010 06/05 Q1011 YLO;
0166102340999992009111007204+53133+009350FM-15+0061ETGQ V0202601N001010045019N0050001N1+00601+00501999999ADDGA1041+003001999GA2081+004501999GF108991999999999999999999MA1101081999999MW1101MW2611REMMET069METAR ETGQ 100720Z 26002KT 5000 -RA BR SCT010 OVC015 06/05 Q1011 WHT;
0166102340999992009111008204+53133+009350FM-15+0061ETGQ V0202601N001010060019N0050001N1+00601+00401999999ADDGA1041+004201999GA2081+006001999GF108991999999999999999999MA1101081999999MW1101MW2611REMMET069METAR ETGQ 100820Z 26002KT 5000 -RA BR SCT014 OVC020 06/04 Q1011 WHT;
0165102340999992009111009204+53133+009350FM-15+0061ETGQ V0202601N001510060019N0070001N1+00601+00401999999ADDGA1041+003601999GA2081+006001999GF108991999999999999999999MA1101081999999MW1511MW2611REMMET068METAR ETGQ 100920Z 26003KT 7000 -RADZ SCT012 OVC020 06/04 Q1011 WHT;
0157102340999992009111010204+53133+009350FM-15+0061ETGQ V0202601N002110066019N0060001N1+00601+00401999999ADDGA1041+004501999GA2081+006601999GF108991999999999999999999MA1101081999999MW1611REMMET066METAR ETGQ 101020Z 26004KT 6000 -RA SCT015 OVC022 06/04 Q1011 WHT;
0165102340999992009111011204+53133+009350FM-15+0061ETGQ V0202901N001510030019N0040001N1+00601+00401999999ADDGA1041+001801999GA2081+003001999GF108991999999999999999999MA1101081999999MW1101MW2631REMMET068METAR ETGQ 101120Z 29003KT 4000 RA BR SCT006 OVC010 06/04 Q1011 GRN;
0152102340999992009111012204+53133+009350FM-15+0061ETGQ V0203001N000510105019N0080001N1+00701+00501999999ADDGA1021+003001999GA2081+010501999GF108991999999999999999999MA1101021999999REMMET067METAR ETGQ 101220Z 30001KT 8000 FEW010 OVC035 07/05 Q1010 RERA BLU;
0152102340999992009111013204+53133+009350FM-15+0061ETGQ V0209999V001010099019N0112651N1+00701+00401999999ADDGA1041+006001999GA2081+009901999GF108991999999999999999999MA1101021999999REMMET067METAR ETGQ 101320Z VRB02KT 9999 SCT020 OVC033 07/04 Q1010 RERA BLU;
0152102340999992009111014204+53133+009350FM-15+0061ETGQ V0202001N001010069019N0112651N1+00701+00501999999ADDGA1041+005401999GA2081+006901999GF108991999999999999999999MA1101021999999REMMET067METAR ETGQ 101420Z 20002KT 9999 SCT018 OVC023 07/05 Q1010 RERA WHT;
0129102340999992009111015204+53133+009350FM-15+0061ETGQ V0201801N001010078019N0080001N1+00701+00501999999ADDGA1081+007801999GF108991999999999999999999MA1101021999999REMMET060METAR ETGQ 101520Z 18002KT 8000 OVC026 07/05 Q1010 RERA BLU;
0134102340999992009111016204+53133+009350FM-15+0061ETGQ V0201401N001010078019N0080001N1+00701+00501999999ADDGA1081+007801999GF108991999999999999999999MA1101021999999MW1611REMMET059METAR ETGQ 101620Z 14002KT 8000 -RA OVC026 07/05 Q1010 BLU;
0124102340999992009111017204+53133+009350FM-15+0061ETGQ V0202201N002110114019N0080001N1+00701+00501999999ADDGA1081+011401999GF108991999999999999999999MA1101021999999REMMET055METAR ETGQ 101720Z 22004KT 8000 OVC038 07/05 Q1010 BLU;
0124102340999992009111018204+53133+009350FM-15+0061ETGQ V0202301N001510102019N0080001N1+00701+00501999999ADDGA1081+010201999GF108991999999999999999999MA1100911999999REMMET055METAR ETGQ 101820Z 23003KT 8000 OVC034 07/05 Q1009 BLU;
0124102340999992009111019204+53133+009350FM-15+0061ETGQ V0209999V001010120019N0080001N1+00701+00501999999ADDGA1081+012001999GF108991999999999999999999MA1101021999999REMMET055METAR ETGQ 101920Z VRB02KT 8000 OVC040 07/05 Q1010 BLU;
0147102340999992009111105204+53133+009350FM-15+0061ETGQ V0202201N001510081019N0060001N1+00601+00301999999ADDGA1071+008101999GA2071+021001999GF107991999999999999999999MA1101021999999REMMET062METAR ETGQ 110520Z 22003KT 6000 BKN027 BKN070 06/03 Q1010 WHT;
0147102340999992009111106204+53133+009350FM-15+0061ETGQ V0202001N002610147019N0060001N1+00601+00301999999ADDGA1041+009001999GA2071+014701999GF107991999999999999999999MA1101021999999REMMET062METAR ETGQ 110620Z 20005KT 6000 SCT030 BKN049 06/03 Q1010 WHT;
0124102340999992009111107204+53133+009350FM-15+0061ETGQ V0202101N002110111019N0080001N1+00601+00301999999ADDGA1071+011101999GF107991999999999999999999MA1101021999999REMMET055METAR ETGQ 110720Z 21004KT 8000 BKN037 06/03 Q1010 BLU;
0147102340999992009111108204+53133+009350FM-15+0061ETGQ V0202001N001510150019N0080001N1+00601+00301999999ADDGA1021+011701999GA2071+015001999GF107991999999999999999999MA1101021999999REMMET062METAR ETGQ 110820Z 20003KT 8000 FEW039 BKN050 06/03 Q1010 BLU;
0147102340999992009111109204+53133+009350FM-15+0061ETGQ V0202001N002110180019N0080001N1+00601+00301999999ADDGA1021+012301999GA2071+018001999GF107991999999999999999999MA1101021999999REMMET062METAR ETGQ 110920Z 20004KT 8000 FEW041 BKN060 06/03 Q1010 BLU;
0147102340999992009111110204+53133+009350FM-15+0061ETGQ V0202001N001510150019N0070001N1+00701+00401999999ADDGA1041+011401999GA2071+015001999GF107991999999999999999999MA1101021999999REMMET062METAR ETGQ 111020Z 20003KT 7000 SCT038 BKN050 07/04 Q1010 WHT;
0157102340999992009111111204+53133+009350FM-15+0061ETGQ V0202201N002110096019N0060001N1+00701+00401999999ADDGA1041+005701999GA2071+009601999GF107991999999999999999999MA1101021999999MW1511REMMET066METAR ETGQ 111120Z 22004KT 6000 -DZ SCT019 BKN032 07/04 Q1010 WHT;
0147102340999992009111112204+53133+009350FM-15+0061ETGQ V0202101N001510090019N0080001N1+00701+00401999999ADDGA1041+006001999GA2071+009001999GF107991999999999999999999MA1101021999999REMMET062METAR ETGQ 111220Z 21003KT 8000 SCT020 BKN030 07/04 Q1010 BLU;
0124102340999992009111113204+53133+009350FM-15+0061ETGQ V0202001N002110060019N0112651N1+00701+00401999999ADDGA1071+006001999GF107991999999999999999999MA1101021999999REMMET055METAR ETGQ 111320Z 20004KT 9999 BKN020 07/04 Q1010 WHT;
0147102340999992009111114204+53133+009350FM-15+0061ETGQ V0202001N001510180019N0112651N1+00701+00401999999ADDGA1041+010501999GA2071+018001999GF107991999999999999999999MA1101021999999REMMET062METAR ETGQ 111420Z 20003KT 9999 SCT035 BKN060 07/04 Q1010 BLU;
0148102340999992009111115204+53133+009350FM-15+0061ETGQ V0201901N001512200019N0112651N1+00701+00401999999ADDGA1041+018001999GA2041+027001999GF104991999999999999999999MA1101021999999REMMET063METAR ETGQ 111520Z 19003KT 9999 SCT060 SCT090 07/04 Q1010 BLU/;
0124102340999992009111116204+53133+009350FM-15+0061ETGQ V0202001N002110045019N0112651N1+00701+00401999999ADDGA1071+004501999GF107991999999999999999999MA1101021999999REMMET055METAR ETGQ 111620Z 20004KT 9999 BKN015 07/04 Q1010 WHT;
0124102340999992009111117204+53133+009350FM-15+0061ETGQ V0201801N001510057019N0080001N1+00701+00401999999ADDGA1071+005701999GF107991999999999999999999MA1101081999999REMMET055METAR ETGQ 111720Z 18003KT 8000 BKN019 07/04 Q1011 WHT;
0124102340999992009111118204+53133+009350FM-15+0061ETGQ V0201901N001510039019N0080001N1+00701+00401999999ADDGA1071+003901999GF107991999999999999999999MA1101081999999REMMET055METAR ETGQ 111820Z 19003KT 8000 BKN013 07/04 Q1011 GRN;
0124102340999992009111119204+53133+009350FM-15+0061ETGQ V0202001N002110039019N0080001N1+00701+00301999999ADDGA1071+003901999GF107991999999999999999999MA1101081999999REMMET055METAR ETGQ 111920Z 20004KT 8000 BKN013 07/03 Q1011 GRN;
0124102340999992009111205204+53133+009350FM-15+0061ETGQ V0202701N000510360019N0060001N1+00201+00101999999ADDGA1071+036001999GF107991999999999999999999MA1100911999999REMMET055METAR ETGQ 120520Z 27001KT 6000 BKN120 02/01 Q1009 WHT;
0124102340999992009111206204+53133+009350FM-15+0061ETGQ V0209999V001010150019N0080001N1+00301+00201999999ADDGA1071+015001999GF107991999999999999999999MA1100911999999REMMET055METAR ETGQ 120620Z VRB02KT 8000 BKN050 03/02 Q1009 BLU;
0134102340999992009111207204+53133+009350FM-15+0061ETGQ V0209999V000510144019N0080001N1+00401+00201999999ADDGA1071+014401999GF107991999999999999999999MA1100811999999MW1611REMMET059METAR ETGQ 120720Z VRB01KT 8000 -RA BKN048 04/02 Q1008 BLU;
0147102340999992009111208204+53133+009350FM-15+0061ETGQ V0201601N001510060019N0090001N1+00501+00301999999ADDGA1071+006001999GA2071+011701999GF107991999999999999999999MA1100911999999REMMET062METAR ETGQ 120820Z 16003KT 9000 BKN020 BKN039 05/03 Q1009 WHT;
0151102340999992009111209204+53133+009350FM-15+0061ETGQ V0201501N002110045019N0030001N1+00501+00301999999ADDGA1081+004501999GF108991999999999999999999MA1100911999999MW1101MW2511MW3611REMMET064METAR ETGQ 120920Z 15004KT 3000 -RADZ BR OVC015 05/03 Q1009 YLO;
0134102340999992009111210204+53133+009350FM-15+0061ETGQ V0209999V001010033019N0080001N1+00501+00301999999ADDGA1081+003301999GF108991999999999999999999MA1100911999999MW1611REMMET059METAR ETGQ 121020Z VRB02KT 8000 -RA OVC011 05/03 Q1009 GRN;
0124102340999992009111211204+53133+009350FM-15+0061ETGQ V0202001N003110033019N0080001N1+00601+00401999999ADDGA1071+003301999GF107991999999999999999999MA1100911999999REMMET055METAR ETGQ 121120Z 20006KT 8000 BKN011 06/04 Q1009 GRN;
0147102340999992009111212204+53133+009350FM-15+0061ETGQ V0202001N002610060019N0090001N1+00601+00401999999ADDGA1041+003001999GA2071+006001999GF107991999999999999999999MA1100911999999REMMET062METAR ETGQ 121220Z 20005KT 9000 SCT010 BKN020 06/04 Q1009 WHT;
0124102340999992009111213204+53133+009350FM-15+0061ETGQ V0201901N003610066019N0112651N1+00701+00501999999ADDGA1071+006601999GF107991999999999999999999MA1100911999999REMMET055METAR ETGQ 121320Z 19007KT 9999 BKN022 07/05 Q1009 WHT;
0124102340999992009111214204+53133+009350FM-15+0061ETGQ V0201901N001510042019N0112651N1+00801+00501999999ADDGA1071+004201999GF107991999999999999999999MA1101021999999REMMET055METAR ETGQ 121420Z 19003KT 9999 BKN014 08/05 Q1010 GRN;
0124102340999992009111215204+53133+009350FM-15+0061ETGQ V0202101N002110036019N0112651N1+00801+00501999999ADDGA1071+003601999GF107991999999999999999999MA1101021999999REMMET055METAR ETGQ 121520Z 21004KT 9999 BKN012 08/05 Q1010 GRN;
0124102340999992009111216204+53133+009350FM-15+0061ETGQ V0202101N002110030019N0112651N1+00801+00601999999ADDGA1071+003001999GF107991999999999999999999MA1101081999999REMMET055METAR ETGQ 121620Z 21004KT 9999 BKN010 08/06 Q1011 GRN;
0124102340999992009111217204+53133+009350FM-15+0061ETGQ V0201401N001010042019N0112651N1+00801+00601999999ADDGA1071+004201999GF107991999999999999999999MA1101081999999REMMET055METAR ETGQ 121720Z 14002KT 9999 BKN014 08/06 Q1011 GRN;
0124102340999992009111218204+53133+009350FM-15+0061ETGQ V0209999V000510036019N0080001N1+00901+00601999999ADDGA1071+003601999GF107991999999999999999999MA1101191999999REMMET055METAR ETGQ 121820Z VRB01KT 8000 BKN012 09/06 Q1012 GRN;
0124102340999992009111219204+53133+009350FM-15+0061ETGQ V0201601N001010042019N0080001N1+00901+00601999999ADDGA1081+004201999GF108991999999999999999999MA1101191999999REMMET055METAR ETGQ 121920Z 16002KT 8000 OVC014 09/06 Q1012 GRN;
0147102340999992009111305204+53133+009350FM-15+0061ETGQ V0201301N001510042019N0090001N1+01001+00801999999ADDGA1021+002701999GA2081+004201999GF108991999999999999999999MA1101081999999REMMET062METAR ETGQ 130520Z 13003KT 9000 FEW009 OVC014 10/08 Q1011 GRN;
0170102340999992009111306204+53133+009350FM-15+0061ETGQ V0201201N002110051019N0090001N1+01001+00801999999ADDGA1021+003901999GA2071+005101999GA3081+024001999GF108991999999999999999999MA1101081999999REMMET069METAR ETGQ 130620Z 12004KT 9000 FEW013 BKN017 OVC080 10/08 Q1011 WHT;
0170102340999992009111307204+53133+009350FM-15+0061ETGQ V0201501N00211005401CN0112651N1+01001+00801999999ADDGA1021+004501999GA2041+005401999GA3071+033001999GF107991999999999999999999MA1101081999999REMMET069METAR ETGQ 130720Z 15004KT 9999 FEW015 SCT018 BKN110 10/08 Q1011 BLU;
0147102340999992009111308204+53133+009350FM-15+0061ETGQ V0201301N001510066019N0112651N1+01101+00801999999ADDGA1071+006601999GA2071+030001999GF107991999999999999999999MA1101191999999REMMET062METAR ETGQ 130820Z 13003KT 9999 BKN022 BKN100 11/08 Q1012 WHT;
0147102340999992009111309204+53133+009350FM-15+0061ETGQ V0200901N001510060019N0112651N1+01201+00901999999ADDGA1071+006001999GA2071+030001999GF107991999999999999999999MA1101191999999REMMET062METAR ETGQ 130920Z 09003KT 9999 BKN020 BKN100 12/09 Q1012 WHT;
0170102340999992009111310204+53133+009350FM-15+0061ETGQ V0201001N00151030001CN0112651N1+01301+00901999999ADDGA1041+006001999GA2041+030001999GA3071+048001999GF107991999999999999999999MA1101081999999REMMET069METAR ETGQ 131020Z 10003KT 9999 SCT020 SCT100 BKN160 13/09 Q1011 BLU;
0170102340999992009111311204+53133+009350FM-15+0061ETGQ V0201201N00101033001CN0112651N1+01301+01001999999ADDGA1021+006001999GA2041+033001999GA3071+042001999GF107991999999999999999999MA1101081999999REMMET069METAR ETGQ 131120Z 12002KT 9999 FEW020 SCT110 BKN140 13/10 Q1011 BLU;
0124102340999992009111312204+53133+009350FM-15+0061ETGQ V0201301N002110420019N0112651N1+01401+00901999999ADDGA1071+042001999GF107991999999999999999999MA1101081999999REMMET055METAR ETGQ 131220Z 13004KT 9999 BKN140 14/09 Q1011 BLU;
0147102340999992009111313204+53133+009350FM-15+0061ETGQ V0201601N001510360019N0112651N1+01601+00901999999ADDGA1021+012001999GA2071+036001999GF107991999999999999999999MA1101081999999REMMET062METAR ETGQ 131320Z 16003KT 9999 FEW040 BKN120 16/09 Q1011 BLU;
0148102340999992009111314204+53133+009350FM-15+0061ETGQ V0209999V001012200019N0112651N1+01601+00801999999ADDGA1021+012001999GA2041+030001999GF104991999999999999999999MA1101081999999REMMET063METAR ETGQ 131420Z VRB02KT 9999 FEW040 SCT100 16/08 Q1011 BLU/;
0148102340999992009111315204+53133+009350FM-15+0061ETGQ V0201301N002612200019N0112651N1+01501+00901999999ADDGA1041+045001999GA2041+105001999GF104991999999999999999999MA1101081999999REMMET063METAR ETGQ 131520Z 13005KT 9999 SCT150 SCT350 15/09 Q1011 BLU/;
0148102340999992009111316204+53133+009350FM-15+0061ETGQ V0201401N002112200019N0112651N1+01401+00901999999ADDGA1021+045001999GA2041+105001999GF104991999999999999999999MA1101081999999REMMET063METAR ETGQ 131620Z 14004KT 9999 FEW150 SCT350 14/09 Q1011 BLU/;
0148102340999992009111317204+53133+009350FM-15+0061ETGQ V0201401N002112200019N0112651N1+01301+00901999999ADDGA1041+033001999GA2041+105001999GF104991999999999999999999MA1101191999999REMMET063METAR ETGQ 131720Z 14004KT 9999 SCT110 SCT350 13/09 Q1012 BLU/;
0148102340999992009111318204+53133+009350FM-15+0061ETGQ V0209999V001010900019N0112651N1+01201+00901999999ADDGA1021+033001999GA2071+090001999GF107991999999999999999999MA1101191999999REMMET063METAR ETGQ 131820Z VRB02KT 9999 FEW110 BKN300 12/09 Q1012 BLU/;
0125102340999992009111319204+53133+009350FM-15+0061ETGQ V0201701N001012200019N0112651N1+01201+00901999999ADDGA1041+090001999GF104991999999999999999999MA1101191999999REMMET056METAR ETGQ 131920Z 17002KT 9999 SCT300 12/09 Q1012 BLU/;
0147102340999992009111605204+53133+009350FM-15+0061ETGQ V0209999V000510240019N0080001N1+00801+00601999999ADDGA1041+018001999GA2071+024001999GF107991999999999999999999MA1101021999999REMMET062METAR ETGQ 160520Z VRB01KT 8000 SCT060 BKN080 08/06 Q1010 BLU;
0147102340999992009111606204+53133+009350FM-15+0061ETGQ V0201501N001510180019N0112651N1+00901+00701999999ADDGA1021+006901999GA2071+018001999GF107991999999999999999999MA1101021999999REMMET062METAR ETGQ 160620Z 15003KT 9999 FEW023 BKN060 09/07 Q1010 BLU;
0147102340999992009111607204+53133+009350FM-15+0061ETGQ V0201501N001510150019N0112651N1+00901+00701999999ADDGA1041+004201999GA2081+015001999GF108991999999999999999999MA1101021999999REMMET062METAR ETGQ 160720Z 15003KT 9999 SCT014 OVC050 09/07 Q1010 BLU;
0157102340999992009111608204+53133+009350FM-15+0061ETGQ V0209999V001010090019N0112651N1+00901+00801999999ADDGA1021+004201999GA2081+009001999GF108991999999999999999999MA1100911999999MW1611REMMET066METAR ETGQ 160820Z VRB02KT 9999 -RA FEW014 OVC030 09/08 Q1009 BLU;
0157102340999992009111609204+53133+009350FM-15+0061ETGQ V0201601N002110081019N0112651N1+01101+00901999999ADDGA1041+004201999GA2081+008101999GF108991999999999999999999MA1100911999999MW1611REMMET066METAR ETGQ 160920Z 16004KT 9999 -RA SCT014 OVC027 11/09 Q1009 BLU;
0156102340999992009111610204+53133+009350FM-15+0061ETGQ V0201501N002110150019N0080001N1+01101+00901999999ADDGA1041+004201999GA2081+015001999GF108991999999999999999999MA1100911999999MW1631REMMET065METAR ETGQ 161020Z 15004KT 8000 RA SCT014 OVC050 11/09 Q1009 BLU;
0162102340999992009111611204+53133+009350FM-15+0061ETGQ V0201401N002610210019N0080001N1+01101+00901999999ADDGA1041+006301999GA2081+021001999GF108991999999999999999999MA1100811999999MW1611REMMET071METAR ETGQ 161120Z 14005KT 8000 -RA SCT021 OVC070 11/09 Q1008 RERA BLU;
0129102340999992009111612204+53133+009350FM-15+0061ETGQ V0201401N003110057019N0112651N1+01201+01001999999ADDGA1071+005701999GF107991999999999999999999MA1100711999999REMMET060METAR ETGQ 161220Z 14006KT 9999 BKN019 12/10 Q1007 RERA WHT;
0147102340999992009111613204+53133+009350FM-15+0061ETGQ V0201401N002110063019N0112651N1+01301+01101999999ADDGA1021+003001999GA2071+006301999GF107991999999999999999999MA1100811999999REMMET062METAR ETGQ 161320Z 14004KT 9999 FEW010 BKN021 13/11 Q1008 WHT;
0147102340999992009111614204+53133+009350FM-15+0061ETGQ V0202301N003110330019N0112651N1+01501+01101999999ADDGA1041+013501999GA2071+033001999GF107991999999999999999999MA1100811999999REMMET062METAR ETGQ 161420Z 23006KT 9999 SCT045 BKN110 15/11 Q1008 BLU;
0147102340999992009111615204+53133+009350FM-15+0061ETGQ V0201801N001010300019N0112651N1+01501+01101999999ADDGA1041+010501999GA2071+030001999GF107991999999999999999999MA1100811999999REMMET062METAR ETGQ 161520Z 18002KT 9999 SCT035 BKN100 15/11 Q1008 BLU;
0147102340999992009111616204+53133+009350FM-15+0061ETGQ V0202001N002610300019N0112651N1+01501+01101999999ADDGA1041+009001999GA2071+030001999GF107991999999999999999999MA1100811999999REMMET062METAR ETGQ 161620Z 20005KT 9999 SCT030 BKN100 15/11 Q1008 BLU;
0147102340999992009111617204+53133+009350FM-15+0061ETGQ V0201901N002110330019N0112651N1+01401+01101999999ADDGA1041+015001999GA2071+033001999GF107991999999999999999999MA1100911999999REMMET062METAR ETGQ 161720Z 19004KT 9999 SCT050 BKN110 14/11 Q1009 BLU;
0124102340999992009111618204+53133+009350FM-15+0061ETGQ V0202201N002610270019N0112651N1+01501+01101999999ADDGA1071+027001999GF107991999999999999999999MA1100911999999REMMET055METAR ETGQ 161820Z 22005KT 9999 BKN090 15/11 Q1009 BLU;
0124102340999992009111619204+53133+009350FM-15+0061ETGQ V0202001N002610330019N0112651N1+01501+01101999999ADDGA1071+033001999GF107991999999999999999999MA1101021999999REMMET055METAR ETGQ 161920Z 20005KT 9999 BKN110 15/11 Q1010 BLU;
0124102340999992009111705204+53133+009350FM-15+0061ETGQ V0201201N001510150019N0112651N1+01201+01001999999ADDGA1081+015001999GF108991999999999999999999MA1101021999999REMMET055METAR ETGQ 170520Z 12003KT 9999 OVC050 12/10 Q1010 BLU;
0157102340999992009111706204+53133+009350FM-15+0061ETGQ V0201201N001010150019N0080001N1+01201+01001999999ADDGA1021+010501999GA2081+015001999GF108991999999999999999999MA1101081999999MW1611REMMET066METAR ETGQ 170620Z 12002KT 8000 -RA FEW035 OVC050 12/10 Q1011 BLU;
0156102340999992009111707204+53133+009350FM-15+0061ETGQ V0201601N001010150019N0060001N1+01201+01001999999ADDGA1041+010501999GA2081+015001999GF108991999999999999999999MA1101081999999MW1631REMMET065METAR ETGQ 170720Z 16002KT 6000 RA SCT035 OVC050 12/10 Q1011 WHT;
0185102340999992009111708204+53133+009350FM-15+0061ETGQ V0203101N00311006301CN0080001N1+01001+00801999999ADDGA1021+005101999GA2041+006301999GA3081+012001999GF108991999999999999999999MA1101081999999MW1611REMMET078METAR ETGQ 170820Z 31006KT 8000 -RA FEW017 SCT021 OVC040 10/08 Q1011 RERA BLU;
0142102340999992009111709204+53133+009350FM-15+0061ETGQ V0202801N001510090019N0040001N1+00901+00801999999ADDGA1081+009001999GF108991999999999999999999MA1101191999999MW1101MW2631REMMET061METAR ETGQ 170920Z 28003KT 4000 RA BR OVC030 09/08 Q1012 GRN;
0165102340999992009111710204+53133+009350FM-15+0061ETGQ V0209999C000010120019N0040001N1+01001+00801999999ADDGA1021+001801999GA2081+012001999GF108991999999999999999999MA1101191999999MW1101MW2631REMMET068METAR ETGQ 171020Z 00000KT 4000 RA BR FEW006 OVC040 10/08 Q1012 GRN;
0156102340999992009111711204+53133+009350FM-15+0061ETGQ V0202801N001010042019N0060001N1+01001+00801999999ADDGA1071+004201999GA2081+012901999GF108991999999999999999999MA1101191999999MW1631REMMET065METAR ETGQ 171120Z 28002KT 6000 RA BKN014 OVC043 10/08 Q1012 GRN;
0147102340999992009111713204+53133+009350FM-15+0061ETGQ V0209999V001010042019N0080001N1+01001+00801999999ADDGA1071+004201999GA2071+015001999GF107991999999999999999999MA1101191999999REMMET062METAR ETGQ 171320Z VRB02KT 8000 BKN014 BKN050 10/08 Q1012 GRN;
0147102340999992009111714204+53133+009350FM-15+0061ETGQ V0201501N001510180019N0112651N1+01001+00801999999ADDGA1041+009001999GA2071+018001999GF107991999999999999999999MA1101081999999REMMET062METAR ETGQ 171420Z 15003KT 9999 SCT030 BKN060 10/08 Q1011 BLU;
0147102340999992009111715204+53133+009350FM-15+0061ETGQ V0209999V000510180019N0112651N1+01001+00801999999ADDGA1021+006001999GA2081+018001999GF108991999999999999999999MA1101291999999REMMET062METAR ETGQ 171520Z VRB01KT 9999 FEW020 OVC060 10/08 Q1013 BLU;
0147102340999992009111716204+53133+009350FM-15+0061ETGQ V0201801N001510270019N0112651N1+01001+00801999999ADDGA1041+004501999GA2081+027001999GF108991999999999999999999MA1101291999999REMMET062METAR ETGQ 171620Z 18003KT 9999 SCT015 OVC090 10/08 Q1013 BLU;
0147102340999992009111717204+53133+009350FM-15+0061ETGQ V0202201N002610300019N0112651N1+01001+00701999999ADDGA1041+004501999GA2071+030001999GF107991999999999999999999MA1101391999999REMMET062METAR ETGQ 171720Z 22005KT 9999 SCT015 BKN100 10/07 Q1014 BLU;
0124102340999992009111718204+53133+009350FM-15+0061ETGQ V0209999V001010120019N0112651N1+01001+00701999999ADDGA1071+012001999GF107991999999999999999999MA1101491999999REMMET055METAR ETGQ 171820Z VRB02KT 9999 BKN040 10/07 Q1015 BLU;
0147102340999992009111719204+53133+009350FM-15+0061ETGQ V0202001N001510210019N0112651N1+01001+00701999999ADDGA1041+006001999GA2071+021001999GF107991999999999999999999MA1101591999999REMMET062METAR ETGQ 171920Z 20003KT 9999 SCT020 BKN070 10/07 Q1016 BLU;
0124102340999992009111805204+53133+009350FM-15+0061ETGQ V0209999V000510081019N0112651N1+00801+00601999999ADDGA1071+008101999GF107991999999999999999999MA1102001999999REMMET055METAR ETGQ 180520Z VRB01KT 9999 BKN027 08/06 Q1020 BLU;
0125102340999992009111806204+53133+009350FM-15+0061ETGQ V0202001N002112200019N0112651N1+00901+00601999999ADDGA1041+009001999GF104991999999999999999999MA1102001999999REMMET056METAR ETGQ 180620Z 20004KT 9999 SCT030 09/06 Q1020 BLU/;
0125102340999992009111807204+53133+009350FM-15+0061ETGQ V0201401N001512200019N0112651N1+00901+00601999999ADDGA1041+012601999GF104991999999999999999999MA1102001999999REMMET056METAR ETGQ 180720Z 14003KT 9999 SCT042 09/06 Q1020 BLU/;
0125102340999992009111808204+53133+009350FM-15+0061ETGQ V0200601N002112200019N0112651N1+01001+00501999999ADDGA1041+009001999GF104991999999999999999999MA1102101999999REMMET056METAR ETGQ 180820Z 06004KT 9999 SCT030 10/05 Q1021 BLU/;
0125102340999992009111809204+53133+009350FM-15+0061ETGQ V0202001N003112200019N0112651N1+01101+00501999999ADDGA1041+010201999GF104991999999999999999999MA1102001999999REMMET056METAR ETGQ 180920Z 20006KT 9999 SCT034 11/05 Q1020 BLU/;
0125102340999992009111810204+53133+009350FM-15+0061ETGQ V0202301N003612200019N0112651N1+01101+00401999999ADDGA1041+009601999GF104991999999999999999999MA1102001999999REMMET056METAR ETGQ 181020Z 23007KT 9999 SCT032 11/04 Q1020 BLU/;
0135102340999992009111811204+53133+009350FM-15+0061ETGQ V0202001N005110102019N0112651N1+01201+00401999999ADDGA1071+010201999GF107991999999999999999999MA1102001999999OC101131REMMET058METAR ETGQ 181120Z 20010G22KT 9999 BKN034 12/04 Q1020 BLU;
0148102340999992009111812204+53133+009350FM-15+0061ETGQ V0202101N004610720019N0112651N1+01201+00401999999ADDGA1041+010201999GA2071+072001999GF107991999999999999999999MA1101901999999REMMET063METAR ETGQ 181220Z 21009KT 9999 SCT034 BKN240 12/04 Q1019 BLU/;
0148102340999992009111813204+53133+009350FM-15+0061ETGQ V0202201N004111050019N0112651N1+01201+00401999999ADDGA1041+009001999GA2071+105001999GF107991999999999999999999MA1101901999999REMMET063METAR ETGQ 181320Z 22008KT 9999 SCT030 BKN350 12/04 Q1019 BLU/;
0148102340999992009111814204+53133+009350FM-15+0061ETGQ V0202301N003110600019N0112651N1+01201+00401999999ADDGA1021+009001999GA2071+060001999GF107991999999999999999999MA1101901999999REMMET063METAR ETGQ 181420Z 23006KT 9999 FEW030 BKN200 12/04 Q1019 BLU/;
0124102340999992009111815204+53133+009350FM-15+0061ETGQ V0202301N003110420019N0112651N1+01101+00401999999ADDGA1071+042001999GF107991999999999999999999MA1102001999999REMMET055METAR ETGQ 181520Z 23006KT 9999 BKN140 11/04 Q1020 BLU;
0124102340999992009111816204+53133+009350FM-15+0061ETGQ V0202201N002610270019N0112651N1+01101+00401999999ADDGA1071+027001999GF107991999999999999999999MA1102001999999REMMET055METAR ETGQ 181620Z 22005KT 9999 BKN090 11/04 Q1020 BLU;
0147102340999992009111817204+53133+009350FM-15+0061ETGQ V0202201N003110270019N0112651N1+01101+00501999999ADDGA1041+009001999GA2071+027001999GF107991999999999999999999MA1102001999999REMMET062METAR ETGQ 181720Z 22006KT 9999 SCT030 BKN090 11/05 Q1020 BLU;
0124102340999992009111818204+53133+009350FM-15+0061ETGQ V0201501N002110099019N0112651N1+01101+00501999999ADDGA1071+009901999GF107991999999999999999999MA1102101999999REMMET055METAR ETGQ 181820Z 15004KT 9999 BKN033 11/05 Q1021 BLU;
0124102340999992009111819204+53133+009350FM-15+0061ETGQ V0202101N001510093019N0112651N1+01101+00501999999ADDGA1071+009301999GF107991999999999999999999MA1102101999999REMMET055METAR ETGQ 181920Z 21003KT 9999 BKN031 11/05 Q1021 BLU;
0124102340999992009111905204+53133+009350FM-15+0061ETGQ V0209999V001010051019N0112651N1+01001+00601999999ADDGA1071+005101999GF107991999999999999999999MA1102301999999REMMET055METAR ETGQ 190520Z VRB02KT 9999 BKN017 10/06 Q1023 WHT;
0124102340999992009111906204+53133+009350FM-15+0061ETGQ V0201801N002110057019N0112651N1+01001+00601999999ADDGA1071+005701999GF107991999999999999999999MA1102301999999REMMET055METAR ETGQ 190620Z 18004KT 9999 BKN019 10/06 Q1023 WHT;
0124102340999992009111907204+53133+009350FM-15+0061ETGQ V0202001N002110054019N0112651N1+01001+00601999999ADDGA1071+005401999GF107991999999999999999999MA1102401999999REMMET055METAR ETGQ 190720Z 20004KT 9999 BKN018 10/06 Q1024 WHT;
0124102340999992009111908204+53133+009350FM-15+0061ETGQ V0201801N002610057019N0112651N1+01001+00601999999ADDGA1071+005701999GF107991999999999999999999MA1102401999999REMMET055METAR ETGQ 190820Z 18005KT 9999 BKN019 10/06 Q1024 WHT;
0148102340999992009111909204+53133+009350FM-15+0061ETGQ V0201901N002611050019N0112651N1+01101+00601999999ADDGA1041+005701999GA2071+105001999GF107991999999999999999999MA1102401999999REMMET063METAR ETGQ 190920Z 19005KT 9999 SCT019 BKN350 11/06 Q1024 BLU/;
0148102340999992009111910204+53133+009350FM-15+0061ETGQ V0202101N003111050019N0112651N1+01201+00501999999ADDGA1021+006001999GA2071+105001999GF107991999999999999999999MA1102301999999REMMET063METAR ETGQ 191020Z 21006KT 9999 FEW020 BKN350 12/05 Q1023 BLU/;
0148102340999992009111911204+53133+009350FM-15+0061ETGQ V0202001N001511050019N0112651N1+01301+00501999999ADDGA1021+009001999GA2071+105001999GF107991999999999999999999MA1102301999999REMMET063METAR ETGQ 191120Z 20003KT 9999 FEW030 BKN360 13/05 Q1023 BLU/;
0125102340999992009111912204+53133+009350FM-15+0061ETGQ V0201701N002111050019N0112651N1+01401+00401999999ADDGA1071+105001999GF107991999999999999999999MA1102201999999REMMET056METAR ETGQ 191220Z 17004KT 9999 BKN360 14/04 Q1022 BLU/;
0125102340999992009111913204+53133+009350FM-15+0061ETGQ V0201401N002111050019N0112651N1+01401+00501999999ADDGA1071+105001999GF107991999999999999999999MA1102201999999REMMET056METAR ETGQ 191320Z 14004KT 9999 BKN350 14/05 Q1022 BLU/;
0125102340999992009111914204+53133+009350FM-15+0061ETGQ V0201501N002111050019N0112651N1+01301+00601999999ADDGA1071+105001999GF107991999999999999999999MA1102201999999REMMET056METAR ETGQ 191420Z 15004KT 9999 BKN350 13/06 Q1022 BLU/;
0125102340999992009111915204+53133+009350FM-15+0061ETGQ V0201401N002111050019N0112651N1+01201+00601999999ADDGA1071+105001999GF107991999999999999999999MA1102101999999REMMET056METAR ETGQ 191520Z 14004KT 9999 BKN350 12/06 Q1021 BLU/;
0125102340999992009111916204+53133+009350FM-15+0061ETGQ V0201501N002112200019N0112651N1+01101+00601999999ADDGA1041+105001999GF104991999999999999999999MA1102201999999REMMET056METAR ETGQ 191620Z 15004KT 9999 SCT350 11/06 Q1022 BLU/;
0125102340999992009111917204+53133+009350FM-15+0061ETGQ V0201401N001012200019N0112651N1+01001+00501999999ADDGA1041+105001999GF104991999999999999999999MA1102201999999REMMET056METAR ETGQ 191720Z 14002KT 9999 SCT350 10/05 Q1022 BLU/;
0125102340999992009111918204+53133+009350FM-15+0061ETGQ V0201401N001012200019N0112651N1+00901+00601999999ADDGA1041+105001999GF104991999999999999999999MA1102201999999REMMET056METAR ETGQ 191820Z 14002KT 9999 SCT350 09/06 Q1022 BLU/;
0125102340999992009111919204+53133+009350FM-15+0061ETGQ V0201301N002112200019N0112651N1+00901+00601999999ADDGA1041+105001999GF104991999999999999999999MA1102201999999REMMET056METAR ETGQ 191920Z 13004KT 9999 SCT350 09/06 Q1022 BLU/;
0125102340999992009112005204+53133+009350FM-15+0061ETGQ V0201901N001012200019N0112651N1+00401+00301999999ADDGA1041+105001999GF104991999999999999999999MA1102001999999REMMET056METAR ETGQ 200520Z 19002KT 9999 SCT350 04/03 Q1020 BLU/;
0125102340999992009112006204+53133+009350FM-15+0061ETGQ V0201501N001012200019N0112651N1+00401+00301999999ADDGA1041+105001999GF104991999999999999999999MA1102001999999REMMET056METAR ETGQ 200620Z 15002KT 9999 SCT350 04/03 Q1020 BLU/;
0125102340999992009112007204+53133+009350FM-15+0061ETGQ V0202301N000512200019N0112651N1+00401+00301999999ADDGA1021+105001999GF102991999999999999999999MA1102101999999REMMET056METAR ETGQ 200720Z 23001KT 9999 FEW350 04/03 Q1021 BLU/;
0125102340999992009112008204+53133+009350FM-15+0061ETGQ V0202001N001012200019N0112651N1+00501+00401999999ADDGA1021+105001999GF102991999999999999999999MA1102101999999REMMET056METAR ETGQ 200820Z 20002KT 9999 FEW370 05/04 Q1021 BLU/;
0125102340999992009112009204+53133+009350FM-15+0061ETGQ V0202101N001512200019N0112651N1+00701+00501999999ADDGA1021+105001999GF102991999999999999999999MA1102101999999REMMET056METAR ETGQ 200920Z 21003KT 9999 FEW370 07/05 Q1021 BLU/;
0076102340999992009112010204+53133+009350FM-15+0061ETGQ V0203601N001012200019N0112651N1+01001+00601999999ADDMA1102101999999REMMET049METAR ETGQ 201020Z 36002KT 9999 10/06 Q1021 BLU/;
0125102340999992009112011204+53133+009350FM-15+0061ETGQ V0209999C000012200019N0112651N1+01401+00601999999ADDGA1021+105001999GF102991999999999999999999MA1102101999999REMMET056METAR ETGQ 201120Z 00000KT 9999 FEW360 14/06 Q1021 BLU/;
0125102340999992009112012204+53133+009350FM-15+0061ETGQ V0201801N001512200019N0112651N1+01601+00701999999ADDGA1021+105001999GF102991999999999999999999MA1102101999999REMMET056METAR ETGQ 201220Z 18003KT 9999 FEW360 16/07 Q1021 BLU/;
0125102340999992009112013204+53133+009350FM-15+0061ETGQ V0202201N001512200019N0112651N1+01601+00701999999ADDGA1041+090001999GF104991999999999999999999MA1102101999999REMMET056METAR ETGQ 201320Z 22003KT 9999 SCT340 16/07 Q1021 BLU/;
0125102340999992009112014204+53133+009350FM-15+0061ETGQ V0209999V001012200019N0112651N1+01501+00701999999ADDGA1041+090001999GF104991999999999999999999MA1102101999999REMMET056METAR ETGQ 201420Z VRB02KT 9999 SCT340 15/07 Q1021 BLU/;
0125102340999992009112015204+53133+009350FM-15+0061ETGQ V0209999V000510900019N0112651N1+01401+00701999999ADDGA1071+090001999GF107991999999999999999999MA1102201999999REMMET056METAR ETGQ 201520Z VRB01KT 9999 BKN340 14/07 Q1022 BLU/;
0125102340999992009112016204+53133+009350FM-15+0061ETGQ V0201001N001010810019N0112651N1+01201+00701999999ADDGA1071+081001999GF107991999999999999999999MA1102201999999REMMET056METAR ETGQ 201620Z 10002KT 9999 BKN270 12/07 Q1022 BLU/;
0125102340999992009112017204+53133+009350FM-15+0061ETGQ V0201201N001010690019N0112651N1+01201+00801999999ADDGA1071+069001999GF107991999999999999999999MA1102301999999REMMET056METAR ETGQ 201720Z 12002KT 9999 BKN230 12/08 Q1023 BLU/;
0124102340999992009112018204+53133+009350FM-15+0061ETGQ V0201401N001010570019N0112651N1+01201+00801999999ADDGA1081+057001999GF108991999999999999999999MA1102301999999REMMET055METAR ETGQ 201820Z 14002KT 9999 OVC190 12/08 Q1023 BLU;
0124102340999992009112019204+53133+009350FM-15+0061ETGQ V0209999V000510570019N0112651N1+01201+00701999999ADDGA1081+057001999GF108991999999999999999999MA1102301999999REMMET055METAR ETGQ 201920Z VRB01KT 9999 OVC190 12/07 Q1023 BLU;
0157102340999992009112305204+53133+009350FM-15+0061ETGQ V0202101N004110066019N0112651N1+00901+00401999999ADDGA1071+006601999GA2081+039001999GF108991999999999999999999MA1100911999999MW1611REMMET066METAR ETGQ 230520Z 21008KT 9999 -RA BKN022 OVC130 09/04 Q1009 WHT;
0124102340999992009112306204+53133+009350FM-15+0061ETGQ V0202201N003610066019N0112651N1+00901+00501999999ADDGA1071+006601999GF107991999999999999999999MA1100911999999REMMET055METAR ETGQ 230620Z 22007KT 9999 BKN022 09/05 Q1009 WHT;
0170102340999992009112307204+53133+009350FM-15+0061ETGQ V0202101N004610120019N0112651N1+01001+00501999999ADDGA1041+006601999GA2071+012001999GA3071+027001999GF107991999999999999999999MA1100911999999REMMET069METAR ETGQ 230720Z 21009KT 9999 SCT022 BKN040 BKN090 10/05 Q1009 BLU;
0170102340999992009112308204+53133+009350FM-15+0061ETGQ V0202301N004610090019N0112651N1+01001+00501999999ADDGA1021+006001999GA2071+009001999GA3071+024001999GF107991999999999999999999MA1100911999999REMMET069METAR ETGQ 230820Z 23009KT 9999 FEW020 BKN030 BKN080 10/05 Q1009 BLU;
0181102340999992009112309204+53133+009350FM-15+0061ETGQ V0202101N005710081019N0112651N1+01101+00501999999ADDGA1021+005401999GA2071+008101999GA3071+024001999GF107991999999999999999999MA1100811999999OC101081REMMET072METAR ETGQ 230920Z 21011G21KT 9999 FEW018 BKN027 BKN080 11/05 Q1008 BLU;
0147102340999992009112310204+53133+009350FM-15+0061ETGQ V0202101N005110075019N0112651N1+01101+00601999999ADDGA1041+005401999GA2071+007501999GF107991999999999999999999MA1100811999999REMMET062METAR ETGQ 231020Z 21010KT 9999 SCT018 BKN025 11/06 Q1008 BLU;
0135102340999992009112311204+53133+009350FM-15+0061ETGQ V0202001N005710066019N0112651N1+01101+00601999999ADDGA1071+006601999GF107991999999999999999999MA1100711999999OC101131REMMET058METAR ETGQ 231120Z 20011G22KT 9999 BKN022 11/06 Q1007 WHT;
0168102340999992009112312204+53133+009350FM-15+0061ETGQ V0202301N005110072019N0112651N1+01101+00701999999ADDGA1041+003301999GA2071+007201999GF107991999999999999999999MA1100511999999MW1611OC101291REMMET069METAR ETGQ 231220Z 23010G25KT 9999 -RA SCT011 BKN024 11/07 Q1005 WHT;
0168102340999992009112314204+53133+009350FM-15+0061ETGQ V0202201N005710270019N0112651N1+01201+00801999999ADDGA1041+006901999GA2071+027001999GF107991999999999999999999MA1100511999999MW1611OC101081REMMET069METAR ETGQ 231420Z 22011G21KT 9999 -RA SCT023 BKN090 12/08 Q1005 BLU;
0168102340999992009112315204+53133+009350FM-15+0061ETGQ V0202101N004610150019N0112651N1+01201+00801999999ADDGA1041+007201999GA2071+015001999GF107991999999999999999999MA1100511999999MW1611OC100981REMMET069METAR ETGQ 231520Z 21009G19KT 9999 -RA SCT024 BKN050 12/08 Q1005 BLU;
0168102340999992009112316204+53133+009350FM-15+0061ETGQ V0202301N004610099019N0112651N1+01201+00801999999ADDGA1041+004501999GA2071+009901999GF107991999999999999999999MA1100411999999MW1611OC101031REMMET069METAR ETGQ 231620Z 23009G20KT 9999 -RA SCT015 BKN033 12/08 Q1004 BLU;
0158102340999992009112317204+53133+009350FM-15+0061ETGQ V0201401N004610420019N0112651N1+01201+00801999999ADDGA1041+012001999GA2071+042001999GF107991999999999999999999MA1100411999999OC101131REMMET065METAR ETGQ 231720Z 14009G22KT 9999 SCT040 BKN140 12/08 Q1004 BLU;
0158102340999992009112319204+53133+009350FM-15+0061ETGQ V0202001N005710150019N0112651N1+01201+00801999999ADDGA1021+009001999GA2071+015001999GF107991999999999999999999MA1100311999999OC101131REMMET065METAR ETGQ 231920Z 20011G22KT 9999 FEW030 BKN050 12/08 Q1003 BLU;
0124102340999992009112406204+53133+009350FM-15+0061ETGQ V0202301N003110135019N0112651N1+01101+00601999999ADDGA1071+013501999GF107991999999999999999999MA1101081999999REMMET055METAR ETGQ 240620Z 23006KT 9999 BKN045 11/06 Q1011 BLU;
0124102340999992009112408204+53133+009350FM-15+0061ETGQ V0202201N002610117019N0112651N1+01001+00501999999ADDGA1071+011701999GF107991999999999999999999MA1101191999999REMMET055METAR ETGQ 240820Z 22005KT 9999 BKN039 10/05 Q1012 BLU;
0124102340999992009112409204+53133+009350FM-15+0061ETGQ V0202101N002110120019N0112651N1+01001+00601999999ADDGA1071+012001999GF107991999999999999999999MA1101291999999REMMET055METAR ETGQ 240920Z 21004KT 9999 BKN040 10/06 Q1013 BLU;
0147102340999992009112410204+53133+009350FM-15+0061ETGQ V0202401N002110150019N0112651N1+01101+00801999999ADDGA1021+007501999GA2071+015001999GF107991999999999999999999MA1101191999999REMMET062METAR ETGQ 241020Z 24004KT 9999 FEW025 BKN050 11/08 Q1012 BLU;
0147102340999992009112411204+53133+009350FM-15+0061ETGQ V0202301N002110180019N0112651N1+01201+00901999999ADDGA1021+006001999GA2071+018001999GF107991999999999999999999MA1101191999999REMMET062METAR ETGQ 241120Z 23004KT 9999 FEW020 BKN060 12/09 Q1012 BLU;
0157102340999992009112412204+53133+009350FM-15+0061ETGQ V0202301N003110123019N0112651N1+01301+01001999999ADDGA1021+004501999GA2071+012301999GF107991999999999999999999MA1101191999999MW1611REMMET066METAR ETGQ 241220Z 23006KT 9999 -RA FEW015 BKN041 13/10 Q1012 BLU;
0147102340999992009112413204+53133+009350FM-15+0061ETGQ V0202501N002610075019N0090001N1+01401+01101999999ADDGA1021+003001999GA2071+007501999GF107991999999999999999999MA1101291999999REMMET062METAR ETGQ 241320Z 25005KT 9000 FEW010 BKN025 14/11 Q1013 BLU;
0147102340999992009112414204+53133+009350FM-15+0061ETGQ V0202601N002610090019N0112651N1+01401+00901999999ADDGA1021+003001999GA2071+009001999GF107991999999999999999999MA1101291999999REMMET062METAR ETGQ 241420Z 26005KT 9999 FEW010 BKN030 14/09 Q1013 BLU;
0147102340999992009112415204+53133+009350FM-15+0061ETGQ V0202301N002610090019N0112651N1+01301+00901999999ADDGA1021+003001999GA2071+009001999GF107991999999999999999999MA1101391999999REMMET062METAR ETGQ 241520Z 23005KT 9999 FEW010 BKN030 13/09 Q1014 BLU;
0147102340999992009112416204+53133+009350FM-15+0061ETGQ V0202201N003110180019N0112651N1+01301+00901999999ADDGA1041+009001999GA2071+018001999GF107991999999999999999999MA1101391999999REMMET062METAR ETGQ 241620Z 22006KT 9999 SCT030 BKN060 13/09 Q1014 BLU;
0147102340999992009112417204+53133+009350FM-15+0061ETGQ V0202101N002610180019N0112651N1+01301+00901999999ADDGA1041+009001999GA2071+018001999GF107991999999999999999999MA1101391999999REMMET062METAR ETGQ 241720Z 21005KT 9999 SCT030 BKN060 13/09 Q1014 BLU;
0147102340999992009112418204+53133+009350FM-15+0061ETGQ V0202301N001510150019N0112651N1+01301+00901999999ADDGA1041+007501999GA2071+015001999GF107991999999999999999999MA1101491999999REMMET062METAR ETGQ 241820Z 23003KT 9999 SCT025 BKN050 13/09 Q1015 BLU;
0124102340999992009112419204+53133+009350FM-15+0061ETGQ V0202101N002610111019N0112651N1+01301+00901999999ADDGA1071+011101999GF107991999999999999999999MA1101491999999REMMET055METAR ETGQ 241920Z 21005KT 9999 BKN037 13/09 Q1015 BLU;
0147102340999992009112505204+53133+009350FM-15+0061ETGQ V0202001N001510120019N0112651N1+01201+00601999999ADDGA1021+006001999GA2071+012001999GF107991999999999999999999MA1101081999999REMMET062METAR ETGQ 250520Z 20003KT 9999 FEW020 BKN040 12/06 Q1011 BLU;
0125102340999992009112506204+53133+009350FM-15+0061ETGQ V0209999V001012200019N0112651N1+01101+00601999999ADDGA1041+009001999GF104991999999999999999999MA1101081999999REMMET056METAR ETGQ 250620Z VRB02KT 9999 SCT030 11/06 Q1011 BLU/;
0125102340999992009112507204+53133+009350FM-15+0061ETGQ V0201401N001512200019N0112651N1+01001+00601999999ADDGA1021+012001999GF102991999999999999999999MA1101081999999REMMET056METAR ETGQ 250720Z 14003KT 9999 FEW040 10/06 Q1011 BLU/;
0125102340999992009112508204+53133+009350FM-15+0061ETGQ V0201401N002112200019N0112651N1+01101+00601999999ADDGA1021+009001999GF102991999999999999999999MA1101081999999REMMET056METAR ETGQ 250820Z 14004KT 9999 FEW030 11/06 Q1011 BLU/;
0148102340999992009112509204+53133+009350FM-15+0061ETGQ V0201501N002112200019N0112651N1+01301+00501999999ADDGA1021+012001999GA2041+105001999GF104991999999999999999999MA1101021999999REMMET063METAR ETGQ 250920Z 15004KT 9999 FEW040 SCT350 13/05 Q1010 BLU/;
0148102340999992009112510204+53133+009350FM-15+0061ETGQ V0201501N002612200019N0112651N1+01301+00601999999ADDGA1021+009001999GA2041+105001999GF104991999999999999999999MA1101021999999REMMET063METAR ETGQ 251020Z 15005KT 9999 FEW030 SCT350 13/06 Q1010 BLU/;
0148102340999992009112511204+53133+009350FM-15+0061ETGQ V0203401N002110780019N0112651N1+01401+00501999999ADDGA1021+009001999GA2071+078001999GF107991999999999999999999MA1100911999999REMMET063METAR ETGQ 251120Z 34004KT 9999 FEW030 BKN260 14/05 Q1009 BLU/;
0171102340999992009112512204+53133+009350FM-15+0061ETGQ V0201701N00151042001CN0112651N1+01501+00401999999ADDGA1021+012001999GA2041+042001999GA3071+063001999GF107991999999999999999999MA1100811999999REMMET070METAR ETGQ 251220Z 17003KT 9999 FEW040 SCT140 BKN210 15/04 Q1008 BLU/;
0124102340999992009112513204+53133+009350FM-15+0061ETGQ V0202101N002110150019N0112651N1+01501+00301999999ADDGA1071+015001999GF107991999999999999999999MA1100711999999REMMET055METAR ETGQ 251320Z 21004KT 9999 BKN050 15/03 Q1007 BLU;
0124102340999992009112514204+53133+009350FM-15+0061ETGQ V0202201N002110138019N0112651N1+01501+00301999999ADDGA1071+013801999GF107991999999999999999999MA1100711999999REMMET055METAR ETGQ 251420Z 22004KT 9999 BKN046 15/03 Q1007 BLU;
0124102340999992009112515204+53133+009350FM-15+0061ETGQ V0202301N002610120019N0112651N1+01401+00401999999ADDGA1071+012001999GF107991999999999999999999MA1100711999999REMMET055METAR ETGQ 251520Z 23005KT 9999 BKN040 14/04 Q1007 BLU;
0124102340999992009112516204+53133+009350FM-15+0061ETGQ V0202301N003110180019N0112651N1+01401+00401999999ADDGA1071+018001999GF107991999999999999999999MA1100611999999REMMET055METAR ETGQ 251620Z 23006KT 9999 BKN060 14/04 Q1006 BLU;
0157102340999992009112517204+53133+009350FM-15+0061ETGQ V0202101N004610180019N0112651N1+01201+00601999999ADDGA1041+009001999GA2071+018001999GF107991999999999999999999MA1100711999999MW1611REMMET066METAR ETGQ 251720Z 21009KT 9999 -RA SCT030 BKN060 12/06 Q1007 BLU;
0147102340999992009112518204+53133+009350FM-15+0061ETGQ V0202001N004110180019N0112651N1+01101+00801999999ADDGA1041+007501999GA2071+018001999GF107991999999999999999999MA1100711999999REMMET062METAR ETGQ 251820Z 20008KT 9999 SCT025 BKN060 11/08 Q1007 BLU;
0147102340999992009112519204+53133+009350FM-15+0061ETGQ V0202101N003110330019N0112651N1+01101+00701999999ADDGA1041+018001999GA2071+033001999GF107991999999999999999999MA1100711999999REMMET062METAR ETGQ 251920Z 21006KT 9999 SCT060 BKN110 11/07 Q1007 BLU;
0124102340999992009112605204+53133+009350FM-15+0061ETGQ V0202101N002610138019N0112651N1+01001+00401999999ADDGA1071+013801999GF107991999999999999999999MA1101081999999REMMET055METAR ETGQ 260520Z 21005KT 9999 BKN046 10/04 Q1011 BLU;
0124102340999992009112606204+53133+009350FM-15+0061ETGQ V0201901N002610126019N0112651N1+01001+00401999999ADDGA1071+012601999GF107991999999999999999999MA1101081999999REMMET055METAR ETGQ 260620Z 19005KT 9999 BKN042 10/04 Q1011 BLU;
0124102340999992009112607204+53133+009350FM-15+0061ETGQ V0202001N003110114019N0112651N1+01001+00401999999ADDGA1071+011401999GF107991999999999999999999MA1101081999999REMMET055METAR ETGQ 260720Z 20006KT 9999 BKN038 10/04 Q1011 BLU;
0124102340999992009112608204+53133+009350FM-15+0061ETGQ V0202001N003610084019N0112651N1+01001+00401999999ADDGA1071+008401999GF107991999999999999999999MA1101081999999REMMET055METAR ETGQ 260820Z 20007KT 9999 BKN028 10/04 Q1011 BLU;
0147102340999992009112609204+53133+009350FM-15+0061ETGQ V0202201N003610138019N0112651N1+01001+00401999999ADDGA1021+006001999GA2071+013801999GF107991999999999999999999MA1101191999999REMMET062METAR ETGQ 260920Z 22007KT 9999 FEW020 BKN046 10/04 Q1012 BLU;
0147102340999992009112610204+53133+009350FM-15+0061ETGQ V0202001N003110180019N0112651N1+01001+00301999999ADDGA1041+010801999GA2071+018001999GF107991999999999999999999MA1101081999999REMMET062METAR ETGQ 261020Z 20006KT 9999 SCT036 BKN060 10/03 Q1011 BLU;
0124102340999992009112611204+53133+009350FM-15+0061ETGQ V0202201N003110114019N0112651N1+01101+00401999999ADDGA1071+011401999GF107991999999999999999999MA1101081999999REMMET055METAR ETGQ 261120Z 22006KT 9999 BKN038 11/04 Q1011 BLU;
0124102340999992009112612204+53133+009350FM-15+0061ETGQ V0202401N004610096019N0112651N1+01101+00401999999ADDGA1071+009601999GF107991999999999999999999MA1101021999999REMMET055METAR ETGQ 261220Z 24009KT 9999 BKN032 11/04 Q1010 BLU;
0151102340999992009112613204+53133+009350FM-15+0061ETGQ V0202201N004112200019N0112651N1+01101+00501999999ADDGA1021+003001999GA2041+009901021GF104991999999999999999999MA1101021999999REMMET066METAR ETGQ 261320Z 22008KT 9999 FEW010 SCT033TCU 11/05 Q1010 BLU/;
0150102340999992009112614204+53133+009350FM-15+0061ETGQ V0202201N003110090019N0112651N1+01101+00501999999ADDGA1021+006001999GA2071+009001021GF107991999999999999999999MA1101021999999REMMET065METAR ETGQ 261420Z 22006KT 9999 FEW020 BKN030TCU 11/05 Q1010 BLU;
0151102340999992009112615204+53133+009350FM-15+0061ETGQ V0202301N003612200019N0112651N1+01001+00401999999ADDGA1021+003001999GA2041+009901021GF104991999999999999999999MA1100911999999REMMET066METAR ETGQ 261520Z 23007KT 9999 FEW010 SCT033TCU 10/04 Q1009 BLU/;
0128102340999992009112616204+53133+009350FM-15+0061ETGQ V0202101N003112200019N0112651N1+01001+00401999999ADDGA1041+009001021GF104991999999999999999999MA1101021999999REMMET059METAR ETGQ 261620Z 21006KT 9999 SCT030TCU 10/04 Q1010 BLU/;
0125102340999992009112617204+53133+009350FM-15+0061ETGQ V0202201N004112200019N0112651N1+01001+00401999999ADDGA1021+009001999GF102991999999999999999999MA1101021999999REMMET056METAR ETGQ 261720Z 22008KT 9999 FEW030 10/04 Q1010 BLU/;
0125102340999992009112618204+53133+009350FM-15+0061ETGQ V0202301N002612200019N0112651N1+01001+00401999999ADDGA1021+009001999GF102991999999999999999999MA1100911999999REMMET056METAR ETGQ 261820Z 23005KT 9999 FEW030 10/04 Q1009 BLU/;
0159102340999992009112619204+53133+009350FM-15+0061ETGQ V0202201N001510150019N0112651N1+00901+00601999999ADDGA1041+012001999GA2071+015001999GF107991999999999999999999MA1100911999999MW1801REMMET068METAR ETGQ 261920Z 22003KT 9999 -SHRA SCT040 BKN050 09/06 Q1009 BLU;
0134102340999992009112705204+53133+009350FM-15+0061ETGQ V0202801N002610078019N0112651N1+00901+00501999999ADDGA1071+007801999GF107991999999999999999999MA1100311999999MW1611REMMET059METAR ETGQ 270520Z 28005KT 9999 -RA BKN026 09/05 Q1003 BLU;
0134102340999992009112706204+53133+009350FM-15+0061ETGQ V0201901N002110078019N0080001N1+00901+00501999999ADDGA1071+007801999GF107991999999999999999999MA1100201999999MW1611REMMET059METAR ETGQ 270620Z 19004KT 8000 -RA BKN026 09/05 Q1002 BLU;
0136102340999992009112707204+53133+009350FM-15+0061ETGQ V0202001N004112200019N0112651N1+00901+00501999999ADDGA1041+009601999GF104991999999999999999999MA1100201999999OC100981REMMET059METAR ETGQ 270720Z 20008G19KT 9999 SCT032 09/05 Q1002 BLU/;
0135102340999992009112708204+53133+009350FM-15+0061ETGQ V0202401N004110078019N0112651N1+00901+00401999999ADDGA1071+007801999GF107991999999999999999999MA1100311999999OC100981REMMET058METAR ETGQ 270820Z 24008G19KT 9999 BKN026 09/04 Q1003 BLU;
0135102340999992009112709204+53133+009350FM-15+0061ETGQ V0202101N004610078019N0112651N1+00901+00401999999ADDGA1071+007801999GF107991999999999999999999MA1100411999999OC101031REMMET058METAR ETGQ 270920Z 21009G20KT 9999 BKN026 09/04 Q1004 BLU;
0135102340999992009112710204+53133+009350FM-15+0061ETGQ V0202401N004610108019N0112651N1+01001+00401999999ADDGA1071+010801999GF107991999999999999999999MA1100511999999OC101031REMMET058METAR ETGQ 271020Z 24009G20KT 9999 BKN036 10/04 Q1005 BLU;
0124102340999992009112711204+53133+009350FM-15+0061ETGQ V0202401N003110114019N0112651N1+01001+00301999999ADDGA1071+011401999GF107991999999999999999999MA1100611999999REMMET055METAR ETGQ 271120Z 24006KT 9999 BKN038 10/03 Q1006 BLU;
0124102340999992009112712204+53133+009350FM-15+0061ETGQ V0202001N003110090019N0112651N1+01001+00301999999ADDGA1071+009001999GF107991999999999999999999MA1100611999999REMMET055METAR ETGQ 271220Z 20006KT 9999 BKN030 10/03 Q1006 BLU;
0147102340999992009112713204+53133+009350FM-15+0061ETGQ V0202301N004110081019N0112651N1+01001+00301999999ADDGA1021+006601999GA2071+008101999GF107991999999999999999999MA1100711999999REMMET062METAR ETGQ 271320Z 23008KT 9999 FEW022 BKN027 10/03 Q1007 BLU;
0140102340999992009112714204+53133+009350FM-15+0061ETGQ V0202401N00361008401CN0112651N1+00901+00301999999ADDGA1071+008401999GA2041+021001999MA1100711999999REMMET062METAR ETGQ 271420Z 24007KT 9999 BKN028 SCT070 09/03 Q1007 BLU;EQDQ01+000042SCOTCV
0124102340999992009112715204+53133+009350FM-15+0061ETGQ V0201901N003110084019N0112651N1+00901+00301999999ADDGA1071+008401999GF107991999999999999999999MA1100711999999REMMET055METAR ETGQ 271520Z 19006KT 9999 BKN028 09/03 Q1007 BLU;
0125102340999992009112716204+53133+009350FM-15+0061ETGQ V0202201N002612200019N0112651N1+00801+00301999999ADDGA1021+008401999GF102991999999999999999999MA1100711999999REMMET056METAR ETGQ 271620Z 22005KT 9999 FEW028 08/03 Q1007 BLU/;
0125102340999992009112717204+53133+009350FM-15+0061ETGQ V0202101N002612200019N0112651N1+00901+00201999999ADDGA1021+007501999GF102991999999999999999999MA1100711999999REMMET056METAR ETGQ 271720Z 21005KT 9999 FEW025 09/02 Q1007 BLU/;
0170102340999992009112718204+53133+009350FM-15+0061ETGQ V0202101N00261009001CN0112651N1+00901+00301999999ADDGA1021+003001999GA2041+009001999GA3071+015001999GF107991999999999999999999MA1100711999999REMMET069METAR ETGQ 271820Z 21005KT 9999 FEW010 SCT030 BKN050 09/03 Q1007 BLU;
0125102340999992009112719204+53133+009350FM-15+0061ETGQ V0202001N003612200019N0112651N1+00901+00301999999ADDGA1041+015001999GF104991999999999999999999MA1100711999999REMMET056METAR ETGQ 271920Z 20007KT 9999 SCT050 09/03 Q1007 BLU/;
0147102340999992009113005204+53133+009350FM-15+0061ETGQ V0209999V001010060019N0112651N1+00701+00401999999ADDGA1041+004501999GA2081+006001999GF108991999999999999999999MA1099591999999REMMET062METAR ETGQ 300520Z VRB02KT 9999 SCT015 OVC020 07/04 Q0996 WHT;
0147102340999992009113006204+53133+009350FM-15+0061ETGQ V0201501N001010084019N0112651N1+00701+00401999999ADDGA1071+008401999GA2071+021001999GF107991999999999999999999MA1099591999999REMMET062METAR ETGQ 300620Z 15002KT 9999 BKN028 BKN070 07/04 Q0996 BLU;
0148102340999992009113007204+53133+009350FM-15+0061ETGQ V0201601N001012200019N0112651N1+00601+00401999999ADDGA1041+010501999GA2041+036001999GF104991999999999999999999MA1099701999999REMMET063METAR ETGQ 300720Z 16002KT 9999 SCT035 SCT120 06/04 Q0997 BLU/;
0147102340999992009113008204+53133+009350FM-15+0061ETGQ V0209999V001010240019N0112651N1+00701+00401999999ADDGA1021+011401999GA2071+024001999GF107991999999999999999999MA1099701999999REMMET062METAR ETGQ 300820Z VRB02KT 9999 FEW038 BKN080 07/04 Q0997 BLU;
0147102340999992009113009204+53133+009350FM-15+0061ETGQ V0201901N001510270019N0112651N1+00701+00401999999ADDGA1021+012001999GA2071+027001999GF107991999999999999999999MA1099801999999REMMET062METAR ETGQ 300920Z 19003KT 9999 FEW040 BKN090 07/04 Q0998 BLU;
0147102340999992009113010204+53133+009350FM-15+0061ETGQ V0209999C000010120019N0112651N1+00701+00401999999ADDGA1021+005401999GA2071+012001999GF107991999999999999999999MA1099801999999REMMET062METAR ETGQ 301020Z 00000KT 9999 FEW018 BKN040 07/04 Q0998 BLU;
0147102340999992009113011204+53133+009350FM-15+0061ETGQ V0202201N001510111019N0112651N1+00801+00401999999ADDGA1021+004801999GA2071+011101999GF107991999999999999999999MA1099801999999REMMET062METAR ETGQ 301120Z 22003KT 9999 FEW016 BKN037 08/04 Q0998 BLU;
0147102340999992009113012204+53133+009350FM-15+0061ETGQ V0202001N002110090019N0112651N1+00801+00401999999ADDGA1021+004501999GA2071+009001999GF107991999999999999999999MA1099801999999REMMET062METAR ETGQ 301220Z 20004KT 9999 FEW015 BKN030 08/04 Q0998 BLU;
0147102340999992009113013204+53133+009350FM-15+0061ETGQ V0202001N001510300019N0112651N1+00801+00401999999ADDGA1041+008701999GA2071+030001999GF107991999999999999999999MA1099801999999REMMET062METAR ETGQ 301320Z 20003KT 9999 SCT029 BKN100 08/04 Q0998 BLU;
0147102340999992009113014204+53133+009350FM-15+0061ETGQ V0201801N001510480019N0112651N1+00801+00301999999ADDGA1041+009001999GA2071+048001999GF107991999999999999999999MA1099901999999REMMET062METAR ETGQ 301420Z 18003KT 9999 SCT030 BKN160 08/03 Q0999 BLU;
0147102340999992009113015204+53133+009350FM-15+0061ETGQ V0201601N000510510019N0112651N1+00701+00301999999ADDGA1041+010501999GA2071+051001999GF107991999999999999999999MA1099901999999REMMET062METAR ETGQ 301520Z 16001KT 9999 SCT035 BKN170 07/03 Q0999 BLU;
0124102340999992009113016204+53133+009350FM-15+0061ETGQ V0209999C000010330019N0112651N1+00701+00301999999ADDGA1071+033001999GF107991999999999999999999MA1099901999999REMMET055METAR ETGQ 301620Z 00000KT 9999 BKN110 07/03 Q0999 BLU;
0124102340999992009113017204+53133+009350FM-15+0061ETGQ V0209999C000010330019N0112651N1+00601+00301999999ADDGA1071+033001999GF107991999999999999999999MA1099901999999REMMET055METAR ETGQ 301720Z 00000KT 9999 BKN110 06/03 Q0999 BLU;
0124102340999992009113018204+53133+009350FM-15+0061ETGQ V0209999C000010360019N0112651N1+00601+00401999999ADDGA1071+036001999GF107991999999999999999999MA1100001999999REMMET055METAR ETGQ 301820Z 00000KT 9999 BKN120 06/04 Q1000 BLU;
0124102340999992009113019204+53133+009350FM-15+0061ETGQ V0202601N001010390019N0112651N1+00601+00401999999ADDGA1071+039001999GF107991999999999999999999MA1100101999999REMMET055METAR ETGQ 301920Z 26002KT 9999 BKN130 06/04 Q1001 BLU;
0124102340999992009120106204+53133+009350FM-15+0061ETGQ V0209999V000510141019N0080001N1+00501+00301999999ADDGA1081+014101999GF108991999999999999999999MA1100611999999REMMET055METAR ETGQ 010620Z VRB01KT 8000 OVC047 05/03 Q1006 BLU;
0124102340999992009120107204+53133+009350FM-15+0061ETGQ V0209999C000010138019N0080001N1+00501+00301999999ADDGA1071+013801999GF107991999999999999999999MA1100811999999REMMET055METAR ETGQ 010720Z 00000KT 8000 BKN046 05/03 Q1008 BLU;
0124102340999992009120108204+53133+009350FM-15+0061ETGQ V0202401N000510144019N0080001N1+00501+00301999999ADDGA1071+014401999GF107991999999999999999999MA1100811999999REMMET055METAR ETGQ 010820Z 24001KT 8000 BKN048 05/03 Q1008 BLU;
0124102340999992009120109204+53133+009350FM-15+0061ETGQ V0203001N001010150019N0080001N1+00601+00301999999ADDGA1071+015001999GF107991999999999999999999MA1100911999999REMMET055METAR ETGQ 010920Z 30002KT 8000 BKN050 06/03 Q1009 BLU;
0147102340999992009120110204+53133+009350FM-15+0061ETGQ V0202801N001010081019N0080001N1+00601+00301999999ADDGA1071+008101999GA2071+015001999GF107991999999999999999999MA1101021999999REMMET062METAR ETGQ 011020Z 28002KT 8000 BKN027 BKN050 06/03 Q1010 BLU;
0147102340999992009120111204+53133+009350FM-15+0061ETGQ V0202601N001010150019N0080001N1+00701+00301999999ADDGA1021+008101999GA2071+015001999GF107991999999999999999999MA1101021999999REMMET062METAR ETGQ 011120Z 26002KT 8000 FEW027 BKN050 07/03 Q1010 BLU;
0147102340999992009120112204+53133+009350FM-15+0061ETGQ V0202701N001010150019N0112651N1+00701+00301999999ADDGA1021+008701999GA2071+015001999GF107991999999999999999999MA1101021999999REMMET062METAR ETGQ 011220Z 27002KT 9999 FEW029 BKN050 07/03 Q1010 BLU;
0147102340999992009120113204+53133+009350FM-15+0061ETGQ V0202801N001010141019N0112651N1+00701+00301999999ADDGA1021+009001999GA2071+014101999GF107991999999999999999999MA1101021999999REMMET062METAR ETGQ 011320Z 28002KT 9999 FEW030 BKN047 07/03 Q1010 BLU;
0124102340999992009120114204+53133+009350FM-15+0061ETGQ V0202601N001010144019N0112651N1+00701+00301999999ADDGA1071+014401999GF107991999999999999999999MA1101081999999REMMET055METAR ETGQ 011420Z 26002KT 9999 BKN048 07/03 Q1011 BLU;
0124102340999992009120115204+53133+009350FM-15+0061ETGQ V0202401N001010141019N0112651N1+00701+00301999999ADDGA1071+014101999GF107991999999999999999999MA1101081999999REMMET055METAR ETGQ 011520Z 24002KT 9999 BKN047 07/03 Q1011 BLU;
0124102340999992009120116204+53133+009350FM-15+0061ETGQ V0209999C000010144019N0112651N1+00601+00301999999ADDGA1071+014401999GF107991999999999999999999MA1101191999999REMMET055METAR ETGQ 011620Z 00000KT 9999 BKN048 06/03 Q1012 BLU;
0124102340999992009120117204+53133+009350FM-15+0061ETGQ V0202201N001010150019N0112651N1+00601+00301999999ADDGA1071+015001999GF107991999999999999999999MA1101191999999REMMET055METAR ETGQ 011720Z 22002KT 9999 BKN050 06/03 Q1012 BLU;
0147102340999992009120118204+53133+009350FM-15+0061ETGQ V0209999C000010150019N0112651N1+00601+00401999999ADDGA1041+009001999GA2071+015001999GF107991999999999999999999MA1101191999999REMMET062METAR ETGQ 011820Z 00000KT 9999 SCT030 BKN050 06/04 Q1012 BLU;
0147102340999992009120119204+53133+009350FM-15+0061ETGQ V0209999V000510060019N0112651N1+00601+00401999999ADDGA1071+006001999GA2071+014401999GF107991999999999999999999MA1101291999999REMMET062METAR ETGQ 011920Z VRB01KT 9999 BKN020 BKN048 06/04 Q1013 WHT;
0147102340999992009120205204+53133+009350FM-15+0061ETGQ V0201401N001510180019N0112651N1+00601+00301999999ADDGA1041+009901999GA2071+018001999GF107991999999999999999999MA1101191999999REMMET062METAR ETGQ 020520Z 14003KT 9999 SCT033 BKN060 06/03 Q1012 BLU;
0147102340999992009120206204+53133+009350FM-15+0061ETGQ V0201401N001510150019N0112651N1+00601+00301999999ADDGA1041+008101999GA2071+015001999GF107991999999999999999999MA1101191999999REMMET062METAR ETGQ 020620Z 14003KT 9999 SCT027 BKN050 06/03 Q1012 BLU;
0148102340999992009120207204+53133+009350FM-15+0061ETGQ V0201401N001512200019N0112651N1+00601+00301999999ADDGA1041+007501999GA2041+015001999GF104991999999999999999999MA1101191999999REMMET063METAR ETGQ 020720Z 14003KT 9999 SCT025 SCT050 06/03 Q1012 BLU/;
0148102340999992009120208204+53133+009350FM-15+0061ETGQ V0201501N002111050019N0112651N1+00601+00301999999ADDGA1041+012001999GA2071+105001999GF107991999999999999999999MA1101191999999REMMET063METAR ETGQ 020820Z 15004KT 9999 SCT040 BKN350 06/03 Q1012 BLU/;
0147102340999992009120209204+53133+009350FM-15+0061ETGQ V0201501N002110360019N0112651N1+00701+00201999999ADDGA1021+006001999GA2071+036001999GF107991999999999999999999MA1101191999999REMMET062METAR ETGQ 020920Z 15004KT 9999 FEW020 BKN120 07/02 Q1012 BLU;
0148102340999992009120210204+53133+009350FM-15+0061ETGQ V0201601N002111050019N0112651N1+00701+00101999999ADDGA1021+007501999GA2071+105001999GF107991999999999999999999MA1101191999999REMMET063METAR ETGQ 021020Z 16004KT 9999 FEW025 BKN350 07/01 Q1012 BLU/;
0147102340999992009120211204+53133+009350FM-15+0061ETGQ V0201501N003110300019N0112651N1+00801+00001999999ADDGA1021+007501999GA2071+030001999GF107991999999999999999999MA1101081999999REMMET062METAR ETGQ 021120Z 15006KT 9999 FEW025 BKN100 08/00 Q1011 BLU;
0147102340999992009120212204+53133+009350FM-15+0061ETGQ V0201401N002110300019N0112651N1+00801+00101999999ADDGA1021+007501999GA2071+030001999GF107991999999999999999999MA1101021999999REMMET062METAR ETGQ 021220Z 14004KT 9999 FEW025 BKN100 08/01 Q1010 BLU;
0124102340999992009120213204+53133+009350FM-15+0061ETGQ V0201401N003110300019N0112651N1+00801+00001999999ADDGA1071+030001999GF107991999999999999999999MA1100911999999REMMET055METAR ETGQ 021320Z 14006KT 9999 BKN100 08/00 Q1009 BLU;
0147102340999992009120214204+53133+009350FM-15+0061ETGQ V0201401N003110330019N0112651N1+00801+00101999999ADDGA1041+012001999GA2071+033001999GF107991999999999999999999MA1100911999999REMMET062METAR ETGQ 021420Z 14006KT 9999 SCT040 BKN110 08/01 Q1009 BLU;
0124102340999992009120215204+53133+009350FM-15+0061ETGQ V0201401N003110240019N0112651N1+00801+00101999999ADDGA1071+024001999GF107991999999999999999999MA1100811999999REMMET055METAR ETGQ 021520Z 14006KT 9999 BKN080 08/01 Q1008 BLU;
0124102340999992009120216204+53133+009350FM-15+0061ETGQ V0201401N003110270019N0112651N1+00701+00101999999ADDGA1071+027001999GF107991999999999999999999MA1100811999999REMMET055METAR ETGQ 021620Z 14006KT 9999 BKN090 07/01 Q1008 BLU;
0124102340999992009120217204+53133+009350FM-15+0061ETGQ V0201401N002610090019N0112651N1+00701+00101999999ADDGA1071+009001999GF107991999999999999999999MA1100811999999REMMET055METAR ETGQ 021720Z 14005KT 9999 BKN030 07/01 Q1008 BLU;
0124102340999992009120218204+53133+009350FM-15+0061ETGQ V0201301N001510081019N0112651N1+00701+00101999999ADDGA1071+008101999GF107991999999999999999999MA1100811999999REMMET055METAR ETGQ 021820Z 13003KT 9999 BKN027 07/01 Q1008 BLU;
0124102340999992009120219204+53133+009350FM-15+0061ETGQ V0201401N002610090019N0112651N1+00701+00201999999ADDGA1071+009001999GF107991999999999999999999MA1100811999999REMMET055METAR ETGQ 021920Z 14005KT 9999 BKN030 07/02 Q1008 BLU;
0124102340999992009120305204+53133+009350FM-15+0061ETGQ V0203601N001510075019N0112651N1+00801+00401999999ADDGA1081+007501999GF108991999999999999999999MA1100411999999REMMET055METAR ETGQ 030520Z 36003KT 9999 OVC025 08/04 Q1004 BLU;
0147102340999992009120306204+53133+009350FM-15+0061ETGQ V0201401N002110300019N0112651N1+00801+00401999999ADDGA1041+007501999GA2081+030001999GF108991999999999999999999MA1100411999999REMMET062METAR ETGQ 030620Z 14004KT 9999 SCT025 OVC100 08/04 Q1004 BLU;
0147102340999992009120307204+53133+009350FM-15+0061ETGQ V0201501N003110330019N0112651N1+00901+00401999999ADDGA1041+013501999GA2081+033001999GF108991999999999999999999MA1100411999999REMMET062METAR ETGQ 030720Z 15006KT 9999 SCT045 OVC110 09/04 Q1004 BLU;
0147102340999992009120308204+53133+009350FM-15+0061ETGQ V0201601N002110072019N0112651N1+00901+00501999999ADDGA1071+007201999GA2071+030001999GF107991999999999999999999MA1100411999999REMMET062METAR ETGQ 030820Z 16004KT 9999 BKN024 BKN100 09/05 Q1004 WHT;
0147102340999992009120310204+53133+009350FM-15+0061ETGQ V0201401N003110150019N0112651N1+01001+00501999999ADDGA1041+007501999GA2071+015001999GF107991999999999999999999MA1100411999999REMMET062METAR ETGQ 031020Z 14006KT 9999 SCT025 BKN050 10/05 Q1004 BLU;
0148102340999992009120311204+53133+009350FM-15+0061ETGQ V0201801N003111050019N0112651N1+01101+00501999999ADDGA1041+009001999GA2071+105001999GF107991999999999999999999MA1100311999999REMMET063METAR ETGQ 031120Z 18006KT 9999 SCT030 BKN350 11/05 Q1003 BLU/;
0148102340999992009120312204+53133+009350FM-15+0061ETGQ V0201601N002611050019N0112651N1+01101+00501999999ADDGA1041+013501999GA2071+105001999GF107991999999999999999999MA1100311999999REMMET063METAR ETGQ 031220Z 16005KT 9999 SCT045 BKN350 11/05 Q1003 BLU/;
0148102340999992009120313204+53133+009350FM-15+0061ETGQ V0201601N002111050019N0112651N1+01101+00501999999ADDGA1041+015001999GA2071+105001999GF107991999999999999999999MA1100201999999REMMET063METAR ETGQ 031320Z 16004KT 9999 SCT050 BKN350 11/05 Q1002 BLU/;
0148102340999992009120314204+53133+009350FM-15+0061ETGQ V0201601N003111050019N0112651N1+01001+00501999999ADDGA1041+013801999GA2071+105001999GF107991999999999999999999MA1100201999999REMMET063METAR ETGQ 031420Z 16006KT 9999 SCT046 BKN350 10/05 Q1002 BLU/;
0124102340999992009120315204+53133+009350FM-15+0061ETGQ V0201801N002610150019N0112651N1+01001+00501999999ADDGA1071+015001999GF107991999999999999999999MA1100201999999REMMET055METAR ETGQ 031520Z 18005KT 9999 BKN050 10/05 Q1002 BLU;
0124102340999992009120316204+53133+009350FM-15+0061ETGQ V0201601N002610120019N0112651N1+01001+00501999999ADDGA1071+012001999GF107991999999999999999999MA1100201999999REMMET055METAR ETGQ 031620Z 16005KT 9999 BKN040 10/05 Q1002 BLU;
0148102340999992009120318204+53133+009350FM-15+0061ETGQ V0201701N002610600019N0112651N1+01001+00501999999ADDGA1041+012001999GA2071+060001999GF107991999999999999999999MA1100101999999REMMET063METAR ETGQ 031820Z 17005KT 9999 SCT040 BKN200 10/05 Q1001 BLU/;
0124102340999992009120319204+53133+009350FM-15+0061ETGQ V0201601N002110087019N0112651N1+01001+00501999999ADDGA1071+008701999GF107991999999999999999999MA1100201999999REMMET055METAR ETGQ 031920Z 16004KT 9999 BKN029 10/05 Q1002 BLU;
0125102340999992009120405204+53133+009350FM-15+0061ETGQ V0202101N001512200019N0112651N1+00401+00001999999ADDGA1041+105001999GF104991999999999999999999MA1100711999999REMMET056METAR ETGQ 040520Z 21003KT 9999 SCT350 04/00 Q1007 BLU/;
0124102340999992009120406204+53133+009350FM-15+0061ETGQ V0209999V000510072019N0112651N1+00401+00101999999ADDGA1071+007201999GF107991999999999999999999MA1100711999999REMMET055METAR ETGQ 040620Z VRB01KT 9999 BKN024 04/01 Q1007 WHT;
0125102340999992009120407204+53133+009350FM-15+0061ETGQ V0202001N001512200019N0112651N1+00401+00001999999ADDGA1021+007501999GF102991999999999999999999MA1100811999999REMMET056METAR ETGQ 040720Z 20003KT 9999 FEW025 04/00 Q1008 BLU/;
0124102340999992009120408204+53133+009350FM-15+0061ETGQ V0202301N001510075019N0112651N1+00401+00001999999ADDGA1071+007501999GF107991999999999999999999MA1100911999999REMMET055METAR ETGQ 040820Z 23003KT 9999 BKN025 04/00 Q1009 BLU;
0126102340999992009120409204+53133+009350FM-15+0061ETGQ V0209999V001012200019N0112651N1+00501-00101999999ADDGA1021+007501999GF102991999999999999999999MA1101021999999REMMET057METAR ETGQ 040920Z VRB02KT 9999 FEW025 05/M01 Q1010 BLU/;
0126102340999992009120410204+53133+009350FM-15+0061ETGQ V0202001N002612200019N0112651N1+00601-00101999999ADDGA1041+007501999GF104991999999999999999999MA1101021999999REMMET057METAR ETGQ 041020Z 20005KT 9999 SCT025 06/M01 Q1010 BLU/;
0125102340999992009120411204+53133+009350FM-15+0061ETGQ V0202201N002110075019N0112651N1+00601+00001999999ADDGA1071+007501999GF107991999999999999999999MA1101021999999REMMET056METAR ETGQ 041120Z 22004KT 9999 BKN025 06/M00 Q1010 BLU;
0126102340999992009120412204+53133+009350FM-15+0061ETGQ V0202101N002112200019N0112651N1+00601-00101999999ADDGA1041+007501999GF104991999999999999999999MA1101021999999REMMET057METAR ETGQ 041220Z 21004KT 9999 SCT025 06/M01 Q1010 BLU/;
0126102340999992009120413204+53133+009350FM-15+0061ETGQ V0202101N003112200019N0112651N1+00601-00101999999ADDGA1041+009001999GF104991999999999999999999MA1101081999999REMMET057METAR ETGQ 041320Z 21006KT 9999 SCT030 06/M01 Q1011 BLU/;
0126102340999992009120414204+53133+009350FM-15+0061ETGQ V0202101N003112200019N0112651N1+00601-00201999999ADDGA1041+009001999GF104991999999999999999999MA1101081999999REMMET057METAR ETGQ 041420Z 21006KT 9999 SCT030 06/M02 Q1011 BLU/;
0125102340999992009120415204+53133+009350FM-15+0061ETGQ V0201601N001510108019N0112651N1+00501-00201999999ADDGA1071+010801999GF107991999999999999999999MA1101191999999REMMET056METAR ETGQ 041520Z 16003KT 9999 BKN036 05/M02 Q1012 BLU;
0125102340999992009120416204+53133+009350FM-15+0061ETGQ V0201601N002110108019N0112651N1+00501-00101999999ADDGA1071+010801999GF107991999999999999999999MA1101191999999REMMET056METAR ETGQ 041620Z 16004KT 9999 BKN036 05/M01 Q1012 BLU;
0125102340999992009120417204+53133+009350FM-15+0061ETGQ V0201701N001510084019N0112651N1+00501-00101999999ADDGA1071+008401999GF107991999999999999999999MA1101291999999REMMET056METAR ETGQ 041720Z 17003KT 9999 BKN028 05/M01 Q1013 BLU;
0125102340999992009120418204+53133+009350FM-15+0061ETGQ V0201701N001510078019N0112651N1+00501-00101999999ADDGA1071+007801999GF107991999999999999999999MA1101291999999REMMET056METAR ETGQ 041820Z 17003KT 9999 BKN026 05/M01 Q1013 BLU;
0148102340999992009120419204+53133+009350FM-15+0061ETGQ V0201601N002110075019N0112651N1+00501+00001999999ADDGA1071+007501999GA2071+009601999GF107991999999999999999999MA1101291999999REMMET063METAR ETGQ 041920Z 16004KT 9999 BKN025 BKN032 05/M00 Q1013 BLU;
0124102340999992009120705204+53133+009350FM-15+0061ETGQ V0201401N001010036019N0112651N1+00401+00301999999ADDGA1071+003601999GF107991999999999999999999MA1101291999999REMMET055METAR ETGQ 070520Z 14002KT 9999 BKN012 04/03 Q1013 GRN;
0124102340999992009120706204+53133+009350FM-15+0061ETGQ V0201001N001010033019N0080001N1+00401+00301999999ADDGA1071+003301999GF107991999999999999999999MA1101291999999REMMET055METAR ETGQ 070620Z 10002KT 8000 BKN011 04/03 Q1013 GRN;
0133102340999992009120707204+53133+009350FM-15+0061ETGQ V0201501N001012200019N0008001N1+00301+00301999999ADDGA1041+075001999GF104991999999999999999999MA1101391999999MW1441REMMET058METAR ETGQ 070720Z 15002KT 0800 FG SCT250 03/03 Q1014 AMB;
0133102340999992009120708204+53133+009350FM-15+0061ETGQ V0209999V001012200019N0030001N1+00301+00301999999ADDGA1041+075001999GF104991999999999999999999MA1101391999999MW1101REMMET058METAR ETGQ 070820Z VRB02KT 3000 BR SCT250 03/03 Q1014 YLO;
0124102340999992009120709204+53133+009350FM-15+0061ETGQ V0201201N002110045019N0080001N1+00501+00401999999ADDGA1071+004501999GF107991999999999999999999MA1101391999999REMMET055METAR ETGQ 070920Z 12004KT 8000 BKN015 05/04 Q1014 WHT;
0124102340999992009120710204+53133+009350FM-15+0061ETGQ V0201301N001510048019N0112651N1+00601+00501999999ADDGA1071+004801999GF107991999999999999999999MA1101391999999REMMET055METAR ETGQ 071020Z 13003KT 9999 BKN016 06/05 Q1014 WHT;
0124102340999992009120711204+53133+009350FM-15+0061ETGQ V0201501N001510063019N0112651N1+00801+00401999999ADDGA1071+006301999GF107991999999999999999999MA1101291999999REMMET055METAR ETGQ 071120Z 15003KT 9999 BKN021 08/04 Q1013 WHT;
0148102340999992009120712204+53133+009350FM-15+0061ETGQ V0201601N002112200019N0112651N1+00901+00401999999ADDGA1041+007501999GA2041+120001999GF104991999999999999999999MA1101291999999REMMET063METAR ETGQ 071220Z 16004KT 9999 SCT025 SCT400 09/04 Q1013 BLU/;
0148102340999992009120713204+53133+009350FM-15+0061ETGQ V0201501N002611200019N0112651N1+00901+00301999999ADDGA1021+007501999GA2071+120001999GF107991999999999999999999MA1101191999999REMMET063METAR ETGQ 071320Z 15005KT 9999 FEW025 BKN400 09/03 Q1012 BLU/;
0125102340999992009120714204+53133+009350FM-15+0061ETGQ V0201501N002611050019N0112651N1+00901+00301999999ADDGA1071+105001999GF107991999999999999999999MA1101081999999REMMET056METAR ETGQ 071420Z 15005KT 9999 BKN350 09/03 Q1011 BLU/;
0125102340999992009120715204+53133+009350FM-15+0061ETGQ V0201401N003612200019N0112651N1+00801+00201999999ADDGA1041+105001999GF104991999999999999999999MA1101021999999REMMET056METAR ETGQ 071520Z 14007KT 9999 SCT350 08/02 Q1010 BLU/;
0125102340999992009120716204+53133+009350FM-15+0061ETGQ V0201301N003612200019N0112651N1+00801+00301999999ADDGA1021+105001999GF102991999999999999999999MA1101021999999REMMET056METAR ETGQ 071620Z 13007KT 9999 FEW350 08/03 Q1010 BLU/;
0125102340999992009120717204+53133+009350FM-15+0061ETGQ V0201401N001512200019N0112651N1+00701+00401999999ADDGA1021+105001999GF102991999999999999999999MA1100911999999REMMET056METAR ETGQ 071720Z 14003KT 9999 FEW350 07/04 Q1009 BLU/;
0147102340999992009120718204+53133+009350FM-15+0061ETGQ V0209999V000510180019N0112651N1+00701+00401999999ADDGA1021+004501999GA2071+018001999GF107991999999999999999999MA1100911999999REMMET062METAR ETGQ 071820Z VRB01KT 9999 FEW015 BKN060 07/04 Q1009 BLU;
0147102340999992009120719204+53133+009350FM-15+0061ETGQ V0202801N000510180019N0112651N1+00701+00501999999ADDGA1021+004201999GA2071+018001999GF107991999999999999999999MA1100811999999REMMET062METAR ETGQ 071920Z 28001KT 9999 FEW014 BKN060 07/05 Q1008 BLU;
0124102340999992009120805204+53133+009350FM-15+0061ETGQ V0202501N002610075019N0112651N1+00801+00401999999ADDGA1071+007501999GF107991999999999999999999MA1100711999999REMMET055METAR ETGQ 080520Z 25005KT 9999 BKN025 08/04 Q1007 BLU;
0147102340999992009120806204+53133+009350FM-15+0061ETGQ V0202201N002110075019N0112651N1+00801+00401999999ADDGA1071+007501999GA2081+015001999GF108991999999999999999999MA1100811999999REMMET062METAR ETGQ 080620Z 22004KT 9999 BKN025 OVC050 08/04 Q1008 BLU;
0147102340999992009120807204+53133+009350FM-15+0061ETGQ V0202301N002610150019N0112651N1+00701+00301999999ADDGA1041+010501999GA2071+015001999GF107991999999999999999999MA1100911999999REMMET062METAR ETGQ 080720Z 23005KT 9999 SCT035 BKN050 07/03 Q1009 BLU;
0157102340999992009120808204+53133+009350FM-15+0061ETGQ V0202201N001510090019N0112651N1+00701+00401999999ADDGA1071+009001999GA2081+027001999GF108991999999999999999999MA1101021999999MW1611REMMET066METAR ETGQ 080820Z 22003KT 9999 -RA BKN030 OVC090 07/04 Q1010 BLU;
0147102340999992009120809204+53133+009350FM-15+0061ETGQ V0202401N003110090019N0112651N1+00701+00301999999ADDGA1071+009001999GA2071+027001999GF107991999999999999999999MA1101081999999REMMET062METAR ETGQ 080920Z 24006KT 9999 BKN030 BKN090 07/03 Q1011 BLU;
0147102340999992009120810204+53133+009350FM-15+0061ETGQ V0202301N002610150019N0112651N1+00701+00401999999ADDGA1041+009001999GA2071+015001999GF107991999999999999999999MA1101191999999REMMET062METAR ETGQ 081020Z 23005KT 9999 SCT030 BKN050 07/04 Q1012 BLU;
0147102340999992009120811204+53133+009350FM-15+0061ETGQ V0202301N002610240019N0112651N1+00801+00401999999ADDGA1041+009001999GA2071+024001999GF107991999999999999999999MA1101291999999REMMET062METAR ETGQ 081120Z 23005KT 9999 SCT030 BKN080 08/04 Q1013 BLU;
0147102340999992009120812204+53133+009350FM-15+0061ETGQ V0202101N002610150019N0112651N1+00801+00301999999ADDGA1041+009001999GA2071+015001999GF107991999999999999999999MA1101291999999REMMET062METAR ETGQ 081220Z 21005KT 9999 SCT030 BKN050 08/03 Q1013 BLU;
0147102340999992009120813204+53133+009350FM-15+0061ETGQ V0202401N003110150019N0112651N1+00801+00301999999ADDGA1021+007501999GA2071+015001999GF107991999999999999999999MA1101291999999REMMET062METAR ETGQ 081320Z 24006KT 9999 FEW025 BKN050 08/03 Q1013 BLU;
0159102340999992009120814204+53133+009350FM-15+0061ETGQ V0202201N002610120019N0112651N1+00701+00401999999ADDGA1041+007501999GA2071+012001999GF107991999999999999999999MA1101391999999MW1801REMMET068METAR ETGQ 081420Z 22005KT 9999 -SHRA SCT025 BKN040 07/04 Q1014 BLU;
0147102340999992009120815204+53133+009350FM-15+0061ETGQ V0202201N002610120019N0112651N1+00701+00301999999ADDGA1021+009001999GA2071+012001999GF107991999999999999999999MA1101491999999REMMET062METAR ETGQ 081520Z 22005KT 9999 FEW030 BKN040 07/03 Q1015 BLU;
0124102340999992009120816204+53133+009350FM-15+0061ETGQ V0202401N002610120019N0112651N1+00601+00401999999ADDGA1071+012001999GF107991999999999999999999MA1101591999999REMMET055METAR ETGQ 081620Z 24005KT 9999 BKN040 06/04 Q1016 BLU;
0124102340999992009120817204+53133+009350FM-15+0061ETGQ V0202201N002110075019N0112651N1+00601+00401999999ADDGA1071+007501999GF107991999999999999999999MA1101691999999REMMET055METAR ETGQ 081720Z 22004KT 9999 BKN025 06/04 Q1017 BLU;
0147102340999992009120818204+53133+009350FM-15+0061ETGQ V0201701N001010066019N0112651N1+00601+00301999999ADDGA1021+005401999GA2071+006601999GF107991999999999999999999MA1101691999999REMMET062METAR ETGQ 081820Z 17002KT 9999 FEW018 BKN022 06/03 Q1017 WHT;
0124102340999992009120819204+53133+009350FM-15+0061ETGQ V0202201N001510072019N0112651N1+00601+00401999999ADDGA1071+007201999GF107991999999999999999999MA1101801999999REMMET055METAR ETGQ 081920Z 22003KT 9999 BKN024 06/04 Q1018 WHT;
0124102340999992009120905204+53133+009350FM-15+0061ETGQ V0201801N001510048019N0090001N1+00601+00301999999ADDGA1071+004801999GF107991999999999999999999MA1102301999999REMMET055METAR ETGQ 090520Z 18003KT 9000 BKN016 06/03 Q1023 WHT;
0124102340999992009120906204+53133+009350FM-15+0061ETGQ V0201601N001510054019N0112651N1+00701+00301999999ADDGA1071+005401999GF107991999999999999999999MA1102401999999REMMET055METAR ETGQ 090620Z 16003KT 9999 BKN018 07/03 Q1024 WHT;
0124102340999992009120907204+53133+009350FM-15+0061ETGQ V0201801N002110054019N0112651N1+00701+00301999999ADDGA1071+005401999GF107991999999999999999999MA1102401999999REMMET055METAR ETGQ 090720Z 18004KT 9999 BKN018 07/03 Q1024 WHT;
0124102340999992009120908204+53133+009350FM-15+0061ETGQ V0201401N001510060019N0112651N1+00701+00301999999ADDGA1071+006001999GF107991999999999999999999MA1102511999999REMMET055METAR ETGQ 090820Z 14003KT 9999 BKN020 07/03 Q1025 WHT;
0124102340999992009120909204+53133+009350FM-15+0061ETGQ V0201401N002110060019N0112651N1+00701+00301999999ADDGA1071+006001999GF107991999999999999999999MA1102511999999REMMET055METAR ETGQ 090920Z 14004KT 9999 BKN020 07/03 Q1025 WHT;
0124102340999992009120910204+53133+009350FM-15+0061ETGQ V0201801N002610060019N0112651N1+00801+00301999999ADDGA1071+006001999GF107991999999999999999999MA1102511999999REMMET055METAR ETGQ 091020Z 18005KT 9999 BKN020 08/03 Q1025 WHT;
0124102340999992009120911204+53133+009350FM-15+0061ETGQ V0201601N000510060019N0112651N1+00801+00301999999ADDGA1071+006001999GF107991999999999999999999MA1102511999999REMMET055METAR ETGQ 091120Z 16001KT 9999 BKN020 08/03 Q1025 WHT;
0124102340999992009120912204+53133+009350FM-15+0061ETGQ V0209999V000510066019N0112651N1+00901+00401999999ADDGA1071+006601999GF107991999999999999999999MA1102511999999REMMET055METAR ETGQ 091220Z VRB01KT 9999 BKN022 09/04 Q1025 WHT;
0125102340999992009120913204+53133+009350FM-15+0061ETGQ V0201301N001012200019N0112651N1+00901+00301999999ADDGA1041+010801999GF104991999999999999999999MA1102511999999REMMET056METAR ETGQ 091320Z 13002KT 9999 SCT036 09/03 Q1025 BLU/;
0147102340999992009120914204+53133+009350FM-15+0061ETGQ V0209999V000510108019N0112651N1+00901+00401999999ADDGA1021+006901999GA2071+010801999GF107991999999999999999999MA1102511999999REMMET062METAR ETGQ 091420Z VRB01KT 9999 FEW023 BKN036 09/04 Q1025 BLU;
0124102340999992009120915204+53133+009350FM-15+0061ETGQ V0203001N000510072019N0112651N1+00901+00501999999ADDGA1071+007201999GF107991999999999999999999MA1102511999999REMMET055METAR ETGQ 091520Z 30001KT 9999 BKN024 09/05 Q1025 WHT;
0124102340999992009120916204+53133+009350FM-15+0061ETGQ V0201301N001510102019N0112651N1+00901+00401999999ADDGA1071+010201999GF107991999999999999999999MA1102511999999REMMET055METAR ETGQ 091620Z 13003KT 9999 BKN034 09/04 Q1025 BLU;
0124102340999992009120917204+53133+009350FM-15+0061ETGQ V0201401N001510069019N0112651N1+00901+00401999999ADDGA1071+006901999GF107991999999999999999999MA1102511999999REMMET055METAR ETGQ 091720Z 14003KT 9999 BKN023 09/04 Q1025 WHT;
0147102340999992009120918204+53133+009350FM-15+0061ETGQ V0201401N002110135019N0112651N1+00901+00501999999ADDGA1041+006301999GA2071+013501999GF107991999999999999999999MA1102511999999REMMET062METAR ETGQ 091820Z 14004KT 9999 SCT021 BKN045 09/05 Q1025 BLU;
0134102340999992009120919204+53133+009350FM-15+0061ETGQ V0200901N001010075019N0112651N1+00801+00501999999ADDGA1081+007501999GF108991999999999999999999MA1102611999999MW1611REMMET059METAR ETGQ 091920Z 09002KT 9999 -RA OVC025 08/05 Q1026 BLU;
0157102340999992009121005204+53133+009350FM-15+0061ETGQ V0209999V000510078019N0080001N1+00801+00701999999ADDGA1041+003001999GA2071+007801999GF107991999999999999999999MA1102101999999MW1611REMMET066METAR ETGQ 100520Z VRB01KT 8000 -RA SCT010 BKN026 08/07 Q1021 BLU;
0147102340999992009121006204+53133+009350FM-15+0061ETGQ V0201601N001010210019N0080001N1+00901+00801999999ADDGA1041+007501999GA2071+021001999GF107991999999999999999999MA1102101999999REMMET062METAR ETGQ 100620Z 16002KT 8000 SCT025 BKN070 09/08 Q1021 BLU;
0147102340999992009121007204+53133+009350FM-15+0061ETGQ V0209999V000510150019N0112651N1+00901+00801999999ADDGA1041+007501999GA2071+015001999GF107991999999999999999999MA1102101999999REMMET062METAR ETGQ 100720Z VRB01KT 9999 SCT025 BKN050 09/08 Q1021 BLU;
0124102340999992009121008204+53133+009350FM-15+0061ETGQ V0202501N000510141019N0112651N1+00901+00801999999ADDGA1071+014101999GF107991999999999999999999MA1102101999999REMMET055METAR ETGQ 100820Z 25001KT 9999 BKN047 09/08 Q1021 BLU;
0124102340999992009121009204+53133+009350FM-15+0061ETGQ V0202201N001510090019N0112651N1+01001+00801999999ADDGA1071+009001999GF107991999999999999999999MA1102101999999REMMET055METAR ETGQ 100920Z 22003KT 9999 BKN030 10/08 Q1021 BLU;
0124102340999992009121010204+53133+009350FM-15+0061ETGQ V0202401N002610150019N0112651N1+01001+00801999999ADDGA1071+015001999GF107991999999999999999999MA1102101999999REMMET055METAR ETGQ 101020Z 24005KT 9999 BKN050 10/08 Q1021 BLU;
0147102340999992009121011204+53133+009350FM-15+0061ETGQ V0202601N003610093019N0112651N1+01101+00701999999ADDGA1071+009301999GA2071+021001999GF107991999999999999999999MA1102101999999REMMET062METAR ETGQ 101120Z 26007KT 9999 BKN031 BKN070 11/07 Q1021 BLU;
0124102340999992009121012204+53133+009350FM-15+0061ETGQ V0202801N005110108019N0112651N1+01101+00501999999ADDGA1071+010801999GF107991999999999999999999MA1102201999999REMMET055METAR ETGQ 101220Z 28010KT 9999 BKN036 11/05 Q1022 BLU;
0147102340999992009121013204+53133+009350FM-15+0061ETGQ V0202701N004610120019N0112651N1+01101+00401999999ADDGA1041+008401999GA2071+012001999GF107991999999999999999999MA1102201999999REMMET062METAR ETGQ 101320Z 27009KT 9999 SCT028 BKN040 11/04 Q1022 BLU;
0147102340999992009121014204+53133+009350FM-15+0061ETGQ V0203201N004110120019N0112651N1+01001+00501999999ADDGA1041+008401999GA2071+012001999GF107991999999999999999999MA1102301999999REMMET062METAR ETGQ 101420Z 32008KT 9999 SCT028 BKN040 10/05 Q1023 BLU;
0147102340999992009121015204+53133+009350FM-15+0061ETGQ V0202901N003110126019N0112651N1+01001+00401999999ADDGA1041+009001999GA2071+012601999GF107991999999999999999999MA1102301999999REMMET062METAR ETGQ 101520Z 29006KT 9999 SCT030 BKN042 10/04 Q1023 BLU;
0147102340999992009121016204+53133+009350FM-15+0061ETGQ V0203001N003610090019N0112651N1+00901+00401999999ADDGA1021+007501999GA2071+009001999GF107991999999999999999999MA1102301999999REMMET062METAR ETGQ 101620Z 30007KT 9999 FEW025 BKN030 09/04 Q1023 BLU;
0124102340999992009121017204+53133+009350FM-15+0061ETGQ V0202801N003110084019N0112651N1+00901+00301999999ADDGA1071+008401999GF107991999999999999999999MA1102301999999REMMET055METAR ETGQ 101720Z 28006KT 9999 BKN028 09/03 Q1023 BLU;
0135102340999992009121018204+53133+009350FM-15+0061ETGQ V0202801N003610066019N0112651N1+00901+00401999999ADDGA1071+006601999GF107991999999999999999999MA1102301999999OC100871REMMET058METAR ETGQ 101820Z 28007G17KT 9999 BKN022 09/04 Q1023 WHT;
0124102340999992009121019204+53133+009350FM-15+0061ETGQ V0202901N004110054019N0112651N1+00801+00501999999ADDGA1071+005401999GF107991999999999999999999MA1102301999999REMMET055METAR ETGQ 101920Z 29008KT 9999 BKN018 08/05 Q1023 WHT;
0147102340999992009121105204+53133+009350FM-15+0061ETGQ V0203101N004110180019N0112651N1+00801+00501999999ADDGA1041+006001999GA2071+018001999GF107991999999999999999999MA1102301999999REMMET062METAR ETGQ 110520Z 31008KT 9999 SCT020 BKN060 08/05 Q1023 BLU;
0124102340999992009121106204+53133+009350FM-15+0061ETGQ V0203201N003610084019N0112651N1+00801+00501999999ADDGA1071+008401999GF107991999999999999999999MA1102301999999REMMET055METAR ETGQ 110620Z 32007KT 9999 BKN028 08/05 Q1023 BLU;
0124102340999992009121107204+53133+009350FM-15+0061ETGQ V0203301N004110075019N0112651N1+00801+00501999999ADDGA1071+007501999GF107991999999999999999999MA1102301999999REMMET055METAR ETGQ 110720Z 33008KT 9999 BKN025 08/05 Q1023 BLU;
0148102340999992009121108204+53133+009350FM-15+0061ETGQ V0203401N004112200019N0112651N1+00801+00401999999ADDGA1041+005401999GA2041+018001999GF104991999999999999999999MA1102401999999REMMET063METAR ETGQ 110820Z 34008KT 9999 SCT018 SCT060 08/04 Q1024 BLU/;
0124102340999992009121109204+53133+009350FM-15+0061ETGQ V0203401N003110075019N0112651N1+00701+00301999999ADDGA1071+007501999GF107991999999999999999999MA1102511999999REMMET055METAR ETGQ 110920Z 34006KT 9999 BKN025 07/03 Q1025 BLU;
0124102340999992009121110204+53133+009350FM-15+0061ETGQ V0203401N004110075019N0112651N1+00701+00301999999ADDGA1071+007501999GF107991999999999999999999MA1102511999999REMMET055METAR ETGQ 111020Z 34008KT 9999 BKN025 07/03 Q1025 BLU;
0147102340999992009121111204+53133+009350FM-15+0061ETGQ V0203401N003610270019N0112651N1+00701+00201999999ADDGA1041+009001999GA2071+027001999GF107991999999999999999999MA1102511999999REMMET062METAR ETGQ 111120Z 34007KT 9999 SCT030 BKN090 07/02 Q1025 BLU;
0147102340999992009121112204+53133+009350FM-15+0061ETGQ V0203401N003110180019N0112651N1+00701+00301999999ADDGA1021+011101999GA2071+018001999GF107991999999999999999999MA1102511999999REMMET062METAR ETGQ 111220Z 34006KT 9999 FEW037 BKN060 07/03 Q1025 BLU;
0124102340999992009121113204+53133+009350FM-15+0061ETGQ V0203401N003610180019N0112651N1+00701+00201999999ADDGA1071+018001999GF107991999999999999999999MA1102511999999REMMET055METAR ETGQ 111320Z 34007KT 9999 BKN060 07/02 Q1025 BLU;
0124102340999992009121114204+53133+009350FM-15+0061ETGQ V0203401N003110180019N0112651N1+00701+00201999999ADDGA1071+018001999GF107991999999999999999999MA1102511999999REMMET055METAR ETGQ 111420Z 34006KT 9999 BKN060 07/02 Q1025 BLU;
0147102340999992009121115204+53133+009350FM-15+0061ETGQ V0203401N003110102019N0112651N1+00701+00301999999ADDGA1041+007501999GA2071+010201999GF107991999999999999999999MA1102611999999REMMET062METAR ETGQ 111520Z 34006KT 9999 SCT025 BKN034 07/03 Q1026 BLU;
0124102340999992009121116204+53133+009350FM-15+0061ETGQ V0203301N002610054019N0112651N1+00601+00301999999ADDGA1081+005401999GF108991999999999999999999MA1102611999999REMMET055METAR ETGQ 111620Z 33005KT 9999 OVC018 06/03 Q1026 WHT;
0124102340999992009121117204+53133+009350FM-15+0061ETGQ V0203601N002610078019N0080001N1+00601+00401999999ADDGA1081+007801999GF108991999999999999999999MA1102611999999REMMET055METAR ETGQ 111720Z 36005KT 8000 OVC026 06/04 Q1026 BLU;
0165102340999992009121119204+53133+009350FM-15+0061ETGQ V0200201N002610075019N0080001N1+00401+00101999999ADDGA1041+004501999GA2081+007501999GF108991999999999999999999MA1102711999999MW1511MW2611REMMET068METAR ETGQ 111920Z 02005KT 8000 -DZRA SCT015 OVC025 04/01 Q1027 BLU;
0126102340999992009121405204+53133+009350FM-15+0061ETGQ V0200601N002110093019N0090001N1-00101-00701999999ADDGA1071+009301999GF107991999999999999999999MA1102201999999REMMET057METAR ETGQ 140520Z 06004KT 9000 BKN031 M01/M07 Q1022 BLU;
0126102340999992009121406204+53133+009350FM-15+0061ETGQ V0200901N003110084019N0112651N1-00101-00701999999ADDGA1071+008401999GF107991999999999999999999MA1102201999999REMMET057METAR ETGQ 140620Z 09006KT 9999 BKN028 M01/M07 Q1022 BLU;
0126102340999992009121407204+53133+009350FM-15+0061ETGQ V0200701N003110084019N0112651N1-00101-00701999999ADDGA1071+008401999GF107991999999999999999999MA1102201999999REMMET057METAR ETGQ 140720Z 07006KT 9999 BKN028 M01/M07 Q1022 BLU;
0126102340999992009121408204+53133+009350FM-15+0061ETGQ V0201001N002610081019N0112651N1-00101-00701999999ADDGA1071+008101999GF107991999999999999999999MA1102201999999REMMET057METAR ETGQ 140820Z 10005KT 9999 BKN027 M01/M07 Q1022 BLU;
0126102340999992009121409204+53133+009350FM-15+0061ETGQ V0200601N002110087019N0112651N1-00101-00701999999ADDGA1071+008701999GF107991999999999999999999MA1102201999999REMMET057METAR ETGQ 140920Z 06004KT 9999 BKN029 M01/M07 Q1022 BLU;
0126102340999992009121410204+53133+009350FM-15+0061ETGQ V0200801N002610090019N0112651N1-00101-00701999999ADDGA1071+009001999GF107991999999999999999999MA1102201999999REMMET057METAR ETGQ 141020Z 08005KT 9999 BKN030 M01/M07 Q1022 BLU;
0126102340999992009121411204+53133+009350FM-15+0061ETGQ V0200601N003610090019N0112651N1-00101-00801999999ADDGA1071+009001999GF107991999999999999999999MA1102201999999REMMET057METAR ETGQ 141120Z 06007KT 9999 BKN030 M01/M08 Q1022 BLU;
0126102340999992009121412204+53133+009350FM-15+0061ETGQ V0200601N002110081019N0112651N1-00101-00701999999ADDGA1071+008101999GF107991999999999999999999MA1102101999999REMMET057METAR ETGQ 141220Z 06004KT 9999 BKN027 M01/M07 Q1021 BLU;
0126102340999992009121413204+53133+009350FM-15+0061ETGQ V0200601N003110078019N0112651N1-00101-00701999999ADDGA1071+007801999GF107991999999999999999999MA1102101999999REMMET057METAR ETGQ 141320Z 06006KT 9999 BKN026 M01/M07 Q1021 BLU;
0126102340999992009121505204+53133+009350FM-15+0061ETGQ V0209999C000010135019N0112651N1-00101-00501999999ADDGA1071+013501999GF107991999999999999999999MA1101901999999REMMET057METAR ETGQ 150520Z 00000KT 9999 BKN045 M01/M05 Q1019 BLU;
0126102340999992009121506204+53133+009350FM-15+0061ETGQ V0202701N000510129019N0112651N1-00101-00501999999ADDGA1071+012901999GF107991999999999999999999MA1101901999999REMMET057METAR ETGQ 150620Z 27001KT 9999 BKN043 M01/M05 Q1019 BLU;
0126102340999992009121507204+53133+009350FM-15+0061ETGQ V0202901N001510129019N0112651N1-00101-00501999999ADDGA1071+012901999GF107991999999999999999999MA1101901999999REMMET057METAR ETGQ 150720Z 29003KT 9999 BKN043 M01/M05 Q1019 BLU;
0126102340999992009121508204+53133+009350FM-15+0061ETGQ V0209999C000010129019N0112651N1-00101-00501999999ADDGA1071+012901999GF107991999999999999999999MA1101901999999REMMET057METAR ETGQ 150820Z 00000KT 9999 BKN043 M01/M05 Q1019 BLU;
0148102340999992009121509204+53133+009350FM-15+0061ETGQ V0200401N002110129019N0112651N1+00001-00501999999ADDGA1021+007801999GA2071+012901999GF107991999999999999999999MA1101901999999REMMET063METAR ETGQ 150920Z 04004KT 9999 FEW026 BKN043 00/M05 Q1019 BLU;
0125102340999992009121510204+53133+009350FM-15+0061ETGQ V0200801N001510135019N0112651N1+00101-00501999999ADDGA1071+013501999GF107991999999999999999999MA1101901999999REMMET056METAR ETGQ 151020Z 08003KT 9999 BKN045 01/M05 Q1019 BLU;
0148102340999992009121511204+53133+009350FM-15+0061ETGQ V0200501N002110144019N0112651N1+00101-00601999999ADDGA1021+009601999GA2071+014401999GF107991999999999999999999MA1101801999999REMMET063METAR ETGQ 151120Z 05004KT 9999 FEW032 BKN048 01/M06 Q1018 BLU;
0149102340999992009121512204+53133+009350FM-15+0061ETGQ V0200501N003112200019N0112651N1+00101-00601999999ADDGA1021+010501999GA2041+014701999GF104991999999999999999999MA1101801999999REMMET064METAR ETGQ 151220Z 05006KT 9999 FEW035 SCT049 01/M06 Q1018 BLU/;
0149102340999992009121513204+53133+009350FM-15+0061ETGQ V0200601N002612200019N0112651N1+00101-00601999999ADDGA1041+010501999GA2041+015001999GF104991999999999999999999MA1101691999999REMMET064METAR ETGQ 151320Z 06005KT 9999 SCT035 SCT050 01/M06 Q1017 BLU/;
0125102340999992009121514204+53133+009350FM-15+0061ETGQ V0200901N001010108019N0112651N1+00101-00601999999ADDGA1071+010801999GF107991999999999999999999MA1101691999999REMMET056METAR ETGQ 151420Z 09002KT 9999 BKN036 01/M06 Q1017 BLU;
0125102340999992009121515204+53133+009350FM-15+0061ETGQ V0200301N002110117019N0112651N1+00101-00701999999ADDGA1071+011701999GF107991999999999999999999MA1101691999999REMMET056METAR ETGQ 151520Z 03004KT 9999 BKN039 01/M07 Q1017 BLU;
0125102340999992009121516204+53133+009350FM-15+0061ETGQ V0200401N001510120019N0112651N1+00101-00701999999ADDGA1071+012001999GF107991999999999999999999MA1101691999999REMMET056METAR ETGQ 151620Z 04003KT 9999 BKN040 01/M07 Q1017 BLU;
0125102340999992009121517204+53133+009350FM-15+0061ETGQ V0200301N002110120019N0112651N1+00101-00701999999ADDGA1071+012001999GF107991999999999999999999MA1101691999999REMMET056METAR ETGQ 151720Z 03004KT 9999 BKN040 01/M07 Q1017 BLU;
0125102340999992009121518204+53133+009350FM-15+0061ETGQ V0200301N002110123019N0112651N1+00101-00701999999ADDGA1071+012301999GF107991999999999999999999MA1101691999999REMMET056METAR ETGQ 151820Z 03004KT 9999 BKN041 01/M07 Q1017 BLU;
0125102340999992009121519204+53133+009350FM-15+0061ETGQ V0200401N002110126019N0112651N1+00101-00701999999ADDGA1071+012601999GF107991999999999999999999MA1101691999999REMMET056METAR ETGQ 151920Z 04004KT 9999 BKN042 01/M07 Q1017 BLU;
0126102340999992009121605204+53133+009350FM-15+0061ETGQ V0209999C000010150019N0112651N1-00101-00501999999ADDGA1071+015001999GF107991999999999999999999MA1101391999999REMMET057METAR ETGQ 160520Z 00000KT 9999 BKN050 M01/M05 Q1014 BLU;
0126102340999992009121606204+53133+009350FM-15+0061ETGQ V0209999C000010150019N0112651N1-00101-00501999999ADDGA1071+015001999GF107991999999999999999999MA1101391999999REMMET057METAR ETGQ 160620Z 00000KT 9999 BKN050 M01/M05 Q1014 BLU;
0126102340999992009121607204+53133+009350FM-15+0061ETGQ V0209999C000010150019N0112651N1-00101-00501999999ADDGA1071+015001999GF107991999999999999999999MA1101391999999REMMET057METAR ETGQ 160720Z 00000KT 9999 BKN050 M01/M05 Q1014 BLU;
0136102340999992009121608204+53133+009350FM-15+0061ETGQ V0209999C000010150019N0112651N1-00101-00501999999ADDGA1071+015001999GF107991999999999999999999MA1101291999999MW1711REMMET061METAR ETGQ 160820Z 00000KT 9999 -SN BKN050 M01/M05 Q1013 BLU;
0159102340999992009121609204+53133+009350FM-15+0061ETGQ V0209999C000010150019N0112651N1-00101-00501999999ADDGA1021+012301999GA2071+015001999GF107991999999999999999999MA1101291999999MW1711REMMET068METAR ETGQ 160920Z 00000KT 9999 -SN FEW041 BKN050 M01/M05 Q1013 BLU;
0149102340999992009121610204+53133+009350FM-15+0061ETGQ V0209999C000010150019N0112651N1+00001-00501999999ADDGA1041+006001999GA2071+015001999GF107991999999999999999999MA1101291999999REMMET064METAR ETGQ 161020Z 00000KT 9999 SCT020 BKN050 M00/M05 Q1013 BLU;
0149102340999992009121611204+53133+009350FM-15+0061ETGQ V0203001N001010150019N0112651N1+00001-00501999999ADDGA1021+007201999GA2071+015001999GF107991999999999999999999MA1101191999999REMMET064METAR ETGQ 161120Z 30002KT 9999 FEW024 BKN050 M00/M05 Q1012 BLU;
0149102340999992009121612204+53133+009350FM-15+0061ETGQ V0209999C000010150019N0112651N1+00001-00501999999ADDGA1021+010801999GA2071+015001999GF107991999999999999999999MA1101081999999REMMET064METAR ETGQ 161220Z 00000KT 9999 FEW036 BKN050 M00/M05 Q1011 BLU;
0149102340999992009121613204+53133+009350FM-15+0061ETGQ V0203001N000510150019N0112651N1+00001-00601999999ADDGA1021+010501999GA2071+015001999GF107991999999999999999999MA1101081999999REMMET064METAR ETGQ 161320Z 30001KT 9999 FEW035 BKN050 M00/M06 Q1011 BLU;
0149102340999992009121614204+53133+009350FM-15+0061ETGQ V0209999C000010150019N0112651N1+00001-00701999999ADDGA1021+010501999GA2071+015001999GF107991999999999999999999MA1101081999999REMMET064METAR ETGQ 161420Z 00000KT 9999 FEW035 BKN050 M00/M07 Q1011 BLU;
0149102340999992009121615204+53133+009350FM-15+0061ETGQ V0202901N001010150019N0112651N1-00101-00601999999ADDGA1021+009001999GA2071+015001999GF107991999999999999999999MA1101021999999REMMET064METAR ETGQ 161520Z 29002KT 9999 FEW030 BKN050 M01/M06 Q1010 BLU;
0126102340999992009121616204+53133+009350FM-15+0061ETGQ V0202801N001010150019N0112651N1-00101-00601999999ADDGA1071+015001999GF107991999999999999999999MA1101021999999REMMET057METAR ETGQ 161620Z 28002KT 9999 BKN050 M01/M06 Q1010 BLU;
0126102340999992009121617204+53133+009350FM-15+0061ETGQ V0209999C000010180019N0112651N1-00201-00601999999ADDGA1071+018001999GF107991999999999999999999MA1101021999999REMMET057METAR ETGQ 161720Z 00000KT 9999 BKN060 M02/M06 Q1010 BLU;
0126102340999992009121618204+53133+009350FM-15+0061ETGQ V0209999C000010150019N0112651N1-00101-00601999999ADDGA1071+015001999GF107991999999999999999999MA1101021999999REMMET057METAR ETGQ 161820Z 00000KT 9999 BKN050 M01/M06 Q1010 BLU;
0150102340999992009121619204+53133+009350FM-15+0061ETGQ V0209999C000010600019N0112651N1-00301-00601999999ADDGA1041+015001999GA2071+060001999GF107991999999999999999999MA1101021999999REMMET065METAR ETGQ 161920Z 00000KT 9999 SCT050 BKN200 M03/M06 Q1010 BLU/;
0149102340999992009121705204+53133+009350FM-15+0061ETGQ V0201401N001010510019N0112651N1-00501-00601999999ADDGA1041+015001999GA2071+051001999GF107991999999999999999999MA1100911999999REMMET064METAR ETGQ 170520Z 14002KT 9999 SCT050 BKN170 M05/M06 Q1009 BLU;
0126102340999992009121706204+53133+009350FM-15+0061ETGQ V0209999C000010129019N0112651N1-00501-00601999999ADDGA1071+012901999GF107991999999999999999999MA1100811999999REMMET057METAR ETGQ 170620Z 00000KT 9999 BKN043 M05/M06 Q1008 BLU;
0126102340999992009121707204+53133+009350FM-15+0061ETGQ V0201301N001510135019N0090001N1-00501-00601999999ADDGA1071+013501999GF107991999999999999999999MA1100811999999REMMET057METAR ETGQ 170720Z 13003KT 9000 BKN045 M05/M06 Q1008 BLU;
0149102340999992009121708204+53133+009350FM-15+0061ETGQ V0209999V001010180019N0090001N1-00501-00601999999ADDGA1021+015001999GA2071+018001999GF107991999999999999999999MA1100911999999REMMET064METAR ETGQ 170820Z VRB02KT 9000 FEW050 BKN060 M05/M06 Q1009 BLU;
0150102340999992009121709204+53133+009350FM-15+0061ETGQ V0201301N001512200019N0112651N1-00401-00601999999ADDGA1021+009001999GA2041+018001999GF104991999999999999999999MA1100911999999REMMET065METAR ETGQ 170920Z 13003KT 9999 FEW030 SCT060 M04/M06 Q1009 BLU/;
0150102340999992009121710204+53133+009350FM-15+0061ETGQ V0201301N001512200019N0112651N1-00301-00601999999ADDGA1021+013501999GA2041+063001999GF104991999999999999999999MA1100911999999REMMET065METAR ETGQ 171020Z 13003KT 9999 FEW045 SCT210 M03/M06 Q1009 BLU/;
0150102340999992009121711204+53133+009350FM-15+0061ETGQ V0201401N002111050019N0112651N1-00101-00601999999ADDGA1021+012001999GA2071+105001999GF107991999999999999999999MA1100811999999REMMET065METAR ETGQ 171120Z 14004KT 9999 FEW040 BKN350 M01/M06 Q1008 BLU/;
0150102340999992009121712204+53133+009350FM-15+0061ETGQ V0201501N001011050019N0112651N1-00101-00601999999ADDGA1041+015001999GA2071+105001999GF107991999999999999999999MA1100811999999REMMET065METAR ETGQ 171220Z 15002KT 9999 SCT050 BKN350 M01/M06 Q1008 BLU/;
0126102340999992009121713204+53133+009350FM-15+0061ETGQ V0201401N001510078019N0112651N1-00101-00701999999ADDGA1071+007801999GF107991999999999999999999MA1100811999999REMMET057METAR ETGQ 171320Z 14003KT 9999 BKN026 M01/M07 Q1008 BLU;
0126102340999992009121714204+53133+009350FM-15+0061ETGQ V0201401N001510093019N0112651N1-00101-00701999999ADDGA1071+009301999GF107991999999999999999999MA1100811999999REMMET057METAR ETGQ 171420Z 14003KT 9999 BKN031 M01/M07 Q1008 BLU;
0127102340999992009121715204+53133+009350FM-15+0061ETGQ V0201401N001512200019N0112651N1-00101-00701999999ADDGA1041+010501999GF104991999999999999999999MA1100811999999REMMET058METAR ETGQ 171520Z 14003KT 9999 SCT035 M01/M07 Q1008 BLU/;
0127102340999992009121716204+53133+009350FM-15+0061ETGQ V0201501N001512200019N0112651N1-00201-00801999999ADDGA1041+120001999GF104991999999999999999999MA1100911999999REMMET058METAR ETGQ 171620Z 15003KT 9999 SCT400 M02/M08 Q1009 BLU/;
0127102340999992009121717204+53133+009350FM-15+0061ETGQ V0201101N001512200019N0112651N1-00201-00801999999ADDGA1041+120001999GF104991999999999999999999MA1100911999999REMMET058METAR ETGQ 171720Z 11003KT 9999 SCT400 M02/M08 Q1009 BLU/;
0126102340999992009121718204+53133+009350FM-15+0061ETGQ V0201301N002110150019N0112651N1-00201-00701999999ADDGA1071+015001999GF107991999999999999999999MA1100911999999REMMET057METAR ETGQ 171820Z 13004KT 9999 BKN050 M02/M07 Q1009 BLU;
0126102340999992009121805204+53133+009350FM-15+0061ETGQ V0201001N001010150019N0112651N1-00601-00901999999ADDGA1071+015001999GF107991999999999999999999MA1101021999999REMMET057METAR ETGQ 180520Z 10002KT 9999 BKN050 M06/M09 Q1010 BLU;
0126102340999992009121806204+53133+009350FM-15+0061ETGQ V0209999C000010150019N0112651N1-00601-00901999999ADDGA1071+015001999GF107991999999999999999999MA1101021999999REMMET057METAR ETGQ 180620Z 00000KT 9999 BKN050 M06/M09 Q1010 BLU;
0126102340999992009121807204+53133+009350FM-15+0061ETGQ V0209999C000010180019N0112651N1-00601-00801999999ADDGA1071+018001999GF107991999999999999999999MA1100911999999REMMET057METAR ETGQ 180720Z 00000KT 9999 BKN060 M06/M08 Q1009 BLU;
0126102340999992009121808204+53133+009350FM-15+0061ETGQ V0202801N001010180019N0112651N1-00501-00801999999ADDGA1071+018001999GF107991999999999999999999MA1101021999999REMMET057METAR ETGQ 180820Z 28002KT 9999 BKN060 M05/M08 Q1010 BLU;
0126102340999992009121809204+53133+009350FM-15+0061ETGQ V0202901N001510180019N0112651N1-00501-00801999999ADDGA1071+018001999GF107991999999999999999999MA1100911999999REMMET057METAR ETGQ 180920Z 29003KT 9999 BKN060 M05/M08 Q1009 BLU;
0126102340999992009121810204+53133+009350FM-15+0061ETGQ V0203001N001010180019N0112651N1-00401-00801999999ADDGA1071+018001999GF107991999999999999999999MA1100911999999REMMET057METAR ETGQ 181020Z 30002KT 9999 BKN060 M04/M08 Q1009 BLU;
0126102340999992009121811204+53133+009350FM-15+0061ETGQ V0202901N002110066019N0112651N1-00301-00701999999ADDGA1071+006601999GF107991999999999999999999MA1100811999999REMMET057METAR ETGQ 181120Z 29004KT 9999 BKN022 M03/M07 Q1008 WHT;
0149102340999992009121812204+53133+009350FM-15+0061ETGQ V0202901N003610066019N0112651N1-00301-00701999999ADDGA1071+006601999GA2071+009301999GF107991999999999999999999MA1100711999999REMMET064METAR ETGQ 181220Z 29007KT 9999 BKN022 BKN031 M03/M07 Q1007 WHT;
0126102340999992009121813204+53133+009350FM-15+0061ETGQ V0203001N003110066019N0112651N1-00201-00601999999ADDGA1071+006601999GF107991999999999999999999MA1100711999999REMMET057METAR ETGQ 181320Z 30006KT 9999 BKN022 M02/M06 Q1007 WHT;
0126102340999992009122105204+53133+009350FM-15+0061ETGQ V0201401N000510045019N0112651N1-00401-00601999999ADDGA1071+004501999GF107991999999999999999999MA1100411999999REMMET057METAR ETGQ 210520Z 14001KT 9999 BKN015 M04/M06 Q1004 WHT;
0126102340999992009122106204+53133+009350FM-15+0061ETGQ V0201401N001510045019N0112651N1-00401-00601999999ADDGA1071+004501999GF107991999999999999999999MA1100511999999REMMET057METAR ETGQ 210620Z 14003KT 9999 BKN015 M04/M06 Q1005 WHT;
0150102340999992009122107204+53133+009350FM-15+0061ETGQ V0201401N001512200019N0112651N1-00301-00601999999ADDGA1021+003001999GA2041+004501999GF104991999999999999999999MA1100411999999REMMET065METAR ETGQ 210720Z 14003KT 9999 FEW010 SCT015 M03/M06 Q1004 BLU/;
0173102340999992009122108204+53133+009350FM-15+0061ETGQ V0201201N00151004501CN0112651N1-00401-00701999999ADDGA1021+003001999GA2041+004501999GA3071+090001999GF107991999999999999999999MA1100411999999REMMET072METAR ETGQ 210820Z 12003KT 9999 FEW010 SCT015 BKN340 M04/M07 Q1004 BLU/;
0150102340999992009122109204+53133+009350FM-15+0061ETGQ V0201201N000510900019N0112651N1-00401-00701999999ADDGA1041+004501999GA2071+090001999GF107991999999999999999999MA1100311999999REMMET065METAR ETGQ 210920Z 12001KT 9999 SCT015 BKN340 M04/M07 Q1003 BLU/;
0149102340999992009122110204+53133+009350FM-15+0061ETGQ V0200901N001010330019N0112651N1-00301-00701999999ADDGA1041+004501999GA2071+033001999GF107991999999999999999999MA1100311999999REMMET064METAR ETGQ 211020Z 09002KT 9999 SCT015 BKN110 M03/M07 Q1003 BLU;
0159102340999992009122111204+53133+009350FM-15+0061ETGQ V0201301N001510060019N0112651N1-00301-00601999999ADDGA1041+004501999GA2081+006001999GF108991999999999999999999MA1100201999999MW1711REMMET068METAR ETGQ 211120Z 13003KT 9999 -SN SCT015 OVC020 M03/M06 Q1002 WHT;
0159102340999992009122112204+53133+009350FM-15+0061ETGQ V0201201N001010105019N0080001N1-00201-00501999999ADDGA1041+006001999GA2081+010501999GF108991999999999999999999MA1100001999999MW1711REMMET068METAR ETGQ 211220Z 12002KT 8000 -SN SCT020 OVC035 M02/M05 Q1000 BLU;
0149102340999992009122113204+53133+009350FM-15+0061ETGQ V0201101N001510078019N0112651N1-00101-00401999999ADDGA1041+005401999GA2081+007801999GF108991999999999999999999MA1099901999999REMMET064METAR ETGQ 211320Z 11003KT 9999 SCT018 OVC026 M01/M04 Q0999 BLU;
0149102340999992009122114204+53133+009350FM-15+0061ETGQ V0201101N003110045019N0112651N1-00101-00401999999ADDGA1071+004501999GA2071+006601999GF107991999999999999999999MA1099801999999REMMET064METAR ETGQ 211420Z 11006KT 9999 BKN015 BKN022 M01/M04 Q0998 WHT;
0126102340999992009122115204+53133+009350FM-15+0061ETGQ V0201101N001510042019N0112651N1-00101-00401999999ADDGA1071+004201999GF107991999999999999999999MA1099801999999REMMET057METAR ETGQ 211520Z 11003KT 9999 BKN014 M01/M04 Q0998 GRN;
0126102340999992009122116204+53133+009350FM-15+0061ETGQ V0201101N002110042019N0112651N1+00001-00301999999ADDGA1081+004201999GF108991999999999999999999MA1099701999999REMMET057METAR ETGQ 211620Z 11004KT 9999 OVC014 M00/M03 Q0997 GRN;
0149102340999992009122117204+53133+009350FM-15+0061ETGQ V0209999V000510042019N0112651N1+00001-00301999999ADDGA1071+004201999GA2081+014401999GF108991999999999999999999MA1099591999999REMMET064METAR ETGQ 211720Z VRB01KT 9999 BKN014 OVC048 M00/M03 Q0996 GRN;
0125102340999992009122118204+53133+009350FM-15+0061ETGQ V0209999V001010135019N0112651N1+00001-00201999999ADDGA1081+013501999GF108991999999999999999999MA1099491999999REMMET056METAR ETGQ 211820Z VRB02KT 9999 OVC045 00/M02 Q0995 BLU;
0125102340999992009122119204+53133+009350FM-15+0061ETGQ V0201401N002610120019N0112651N1+00201-00201999999ADDGA1071+012001999GF107991999999999999999999MA1099391999999REMMET056METAR ETGQ 211920Z 14005KT 9999 BKN040 02/M02 Q0994 BLU;
0180102340999992009122205204+53133+009350FM-15+0061ETGQ V0201601N002110051019N0080001N1+00301+00101999999ADDGA1021+003001999GA2071+005101999GA3081+010501999GF108991999999999999999999MA1098511999999MW1511REMMET073METAR ETGQ 220520Z 16004KT 8000 -DZ FEW010 BKN017 OVC035 03/01 Q0985 WHT;
0165102340999992009122206204+53133+009350FM-15+0061ETGQ V0201501N002110054019N0080001N1+00301+00101999999ADDGA1021+003001999GA2081+005401999GF108991999999999999999999MA1098411999999MW1511MW2611REMMET068METAR ETGQ 220620Z 15004KT 8000 -RADZ FEW010 OVC018 03/01 Q0984 WHT;
0188102340999992009122207204+53133+009350FM-15+0061ETGQ V0201601N001510054019N0080001N1+00401+00201999999ADDGA1021+003001999GA2071+005401999GA3071+010501999GF107991999999999999999999MA1098411999999MW1511MW2611REMMET075METAR ETGQ 220720Z 16003KT 8000 -RADZ FEW010 BKN018 BKN035 04/02 Q0984 WHT;
0180102340999992009122208204+53133+009350FM-15+0061ETGQ V0201401N002110048019N0080001N1+00501+00301999999ADDGA1021+003001999GA2071+004801999GA3081+007501999GF108991999999999999999999MA1098411999999MW1611REMMET073METAR ETGQ 220820Z 14004KT 8000 -RA FEW010 BKN016 OVC025 05/03 Q0984 WHT;
0180102340999992009122209204+53133+009350FM-15+0061ETGQ V0209999C000010045019N0080001N1+00501+00301999999ADDGA1021+003001999GA2071+004501999GA3081+007501999GF108991999999999999999999MA1098511999999MW1611REMMET073METAR ETGQ 220920Z 00000KT 8000 -RA FEW010 BKN015 OVC025 05/03 Q0985 WHT;
0174102340999992009122210204+53133+009350FM-15+0061ETGQ V0209999C000010033019N0050001N1+00401+00301999999ADDGA1021+002101999GA2081+003301999GF108991999999999999999999MA1098611999999MW1101MW2511MW3611REMMET071METAR ETGQ 221020Z 00000KT 5000 -DZRA BR FEW007 OVC011 04/03 Q0986 GRN;
0170102340999992009122211204+53133+009350FM-15+0061ETGQ V0209999C00001003601CN0060001N1+00501+00301999999ADDGA1021+002101999GA2041+003601999GA3071+009901999GF107991999999999999999999MA1098711999999REMMET069METAR ETGQ 221120Z 00000KT 6000 FEW007 SCT012 BKN033 05/03 Q0987 WHT;
0147102340999992009122212204+53133+009350FM-15+0061ETGQ V0202901N001510069019N0080001N1+00501+00401999999ADDGA1021+002101999GA2071+006901999GF107991999999999999999999MA1098821999999REMMET062METAR ETGQ 221220Z 29003KT 8000 FEW007 BKN023 05/04 Q0988 WHT;
0148102340999992009122213204+53133+009350FM-15+0061ETGQ V0202301N002611050019N0112651N1+00601+00301999999ADDGA1041+010501999GA2071+105001999GF107991999999999999999999MA1098921999999REMMET063METAR ETGQ 221320Z 23005KT 9999 SCT035 BKN350 06/03 Q0989 BLU/;
0147102340999992009122214204+53133+009350FM-15+0061ETGQ V0202401N002110450019N0112651N1+00601+00101999999ADDGA1041+007201999GA2071+045001999GF107991999999999999999999MA1099091999999REMMET062METAR ETGQ 221420Z 24004KT 9999 SCT024 BKN150 06/01 Q0991 BLU;
0149102340999992009122215204+53133+009350FM-15+0061ETGQ V0202201N003612200019N0112651N1+00501+00001999999ADDGA1041+007501999GA2041+042001999GF104991999999999999999999MA1099091999999REMMET064METAR ETGQ 221520Z 22007KT 9999 SCT025 SCT140 05/M00 Q0991 BLU/;
0125102340999992009122216204+53133+009350FM-15+0061ETGQ V0202101N002110075019N0112651N1+00401-00101999999ADDGA1071+007501999GF107991999999999999999999MA1099191999999REMMET056METAR ETGQ 221620Z 21004KT 9999 BKN025 04/M01 Q0992 BLU;
0125102340999992009122217204+53133+009350FM-15+0061ETGQ V0202001N002110210019N0112651N1+00401-00101999999ADDGA1071+021001999GF107991999999999999999999MA1099091999999REMMET056METAR ETGQ 221720Z 20004KT 9999 BKN070 04/M01 Q0991 BLU;
0125102340999992009122218204+53133+009350FM-15+0061ETGQ V0201601N001010090019N0112651N1+00301+00001999999ADDGA1071+009001999GF107991999999999999999999MA1099191999999REMMET056METAR ETGQ 221820Z 16002KT 9999 BKN030 03/M00 Q0992 BLU;
0157102340999992009122219204+53133+009350FM-15+0061ETGQ V0201401N001510045019N0112651N1+00301+00001999999ADDGA1041+003001999GA2071+004501999GF107991999999999999999999MA1099191999999MW1611REMMET066METAR ETGQ 221920Z 14003KT 9999 -RA SCT010 BKN015 03/00 Q0992 WHT;
0157102340999992009122305204+53133+009350FM-15+0061ETGQ V0209999C000010012019N0020001N1+00001+00001999999ADDGA1041+000601999GA2081+001201999GF108991999999999999999999MA1099591999999MW1101REMMET066METAR ETGQ 230520Z 00000KT 2000 BR SCT002 OVC004 00/M00 Q0996 YLO;
0157102340999992009122306204+53133+009350FM-15+0061ETGQ V0202901N001510015019N0040001N1+00001-00101999999ADDGA1021+000901999GA2081+001501999GF108991999999999999999999MA1099701999999MW1101REMMET066METAR ETGQ 230620Z 29003KT 4000 BR FEW003 OVC005 00/M01 Q0997 YLO;
0149102340999992009122307204+53133+009350FM-15+0061ETGQ V0209999C000010027019N0060001N1+00001-00101999999ADDGA1021+001201999GA2071+002701999GF107991999999999999999999MA1099701999999REMMET064METAR ETGQ 230720Z 00000KT 6000 FEW004 BKN009 M00/M01 Q0997 GRN;
0149102340999992009122308204+53133+009350FM-15+0061ETGQ V0209999C000012200019N0060001N1+00001-00101999999ADDGA1021+002101999GA2041+003901999GF104991999999999999999999MA1099801999999REMMET064METAR ETGQ 230820Z 00000KT 6000 FEW007 SCT013 M00/M01 Q0998 WHT;
0148102340999992009122309204+53133+009350FM-15+0061ETGQ V0209999C000010036019N0080001N1+00101+00001999999ADDGA1021+002101999GA2071+003601999GF107991999999999999999999MA1099901999999REMMET063METAR ETGQ 230920Z 00000KT 8000 FEW007 BKN012 01/M00 Q0999 GRN;
0148102340999992009122310204+53133+009350FM-15+0061ETGQ V0201401N001510045019N0090001N1+00101+00001999999ADDGA1021+002401999GA2071+004501999GF107991999999999999999999MA1100001999999REMMET063METAR ETGQ 231020Z 14003KT 9000 FEW008 BKN015 01/M00 Q1000 WHT;
0148102340999992009122311204+53133+009350FM-15+0061ETGQ V0201501N001510060019N0112651N1+00201-00201999999ADDGA1021+003601999GA2071+006001999GF107991999999999999999999MA1100001999999REMMET063METAR ETGQ 231120Z 15003KT 9999 FEW012 BKN020 02/M02 Q1000 WHT;
0125102340999992009122312204+53133+009350FM-15+0061ETGQ V0201501N002610075019N0112651N1+00201-00101999999ADDGA1071+007501999GF107991999999999999999999MA1100001999999REMMET056METAR ETGQ 231220Z 15005KT 9999 BKN025 02/M01 Q1000 BLU;
0125102340999992009122313204+53133+009350FM-15+0061ETGQ V0201201N000510063019N0112651N1+00301-00201999999ADDGA1071+006301999GF107991999999999999999999MA1099901999999REMMET056METAR ETGQ 231320Z 12001KT 9999 BKN021 03/M02 Q0999 WHT;
0125102340999992009122314204+53133+009350FM-15+0061ETGQ V0201101N001510063019N0112651N1+00201-00101999999ADDGA1071+006301999GF107991999999999999999999MA1099901999999REMMET056METAR ETGQ 231420Z 11003KT 9999 BKN021 02/M01 Q0999 WHT;
0126102340999992009122315204+53133+009350FM-15+0061ETGQ V0209999C000012200019N0112651N1+00201-00101999999ADDGA1041+006301999GF104991999999999999999999MA1100001999999REMMET057METAR ETGQ 231520Z 00000KT 9999 SCT021 02/M01 Q1000 BLU/;
0126102340999992009122316204+53133+009350FM-15+0061ETGQ V0201101N002112200019N0112651N1+00201-00101999999ADDGA1041+006301999GF104991999999999999999999MA1099901999999REMMET057METAR ETGQ 231620Z 11004KT 9999 SCT021 02/M01 Q0999 BLU/;
0126102340999992009122317204+53133+009350FM-15+0061ETGQ V0201401N002112200019N0112651N1+00201-00101999999ADDGA1041+005401999GF104991999999999999999999MA1099901999999REMMET057METAR ETGQ 231720Z 14004KT 9999 SCT018 02/M01 Q0999 BLU/;
0125102340999992009122318204+53133+009350FM-15+0061ETGQ V0201401N000510045019N0112651N1+00201+00001999999ADDGA1071+004501999GF107991999999999999999999MA1099901999999REMMET056METAR ETGQ 231820Z 14001KT 9999 BKN015 02/M00 Q0999 WHT;
0124102340999992009122319204+53133+009350FM-15+0061ETGQ V0209999V000510030019N0112651N1+00201+00001999999ADDGA1071+003001999GF107991999999999999999999MA1099901999999REMMET055METAR ETGQ 231920Z VRB01KT 9999 BKN010 02/00 Q0999 GRN;
0124102340999992009122805204+53133+009350FM-15+0061ETGQ V0202301N003610150019N0112651N1+00401+00001999999ADDGA1071+015001999GF107991999999999999999999MA1100511999999REMMET055METAR ETGQ 280520Z 23007KT 9999 BKN050 04/00 Q1005 BLU;
0124102340999992009122806204+53133+009350FM-15+0061ETGQ V0202301N002610150019N0112651N1+00401+00001999999ADDGA1071+015001999GF107991999999999999999999MA1100511999999REMMET055METAR ETGQ 280620Z 23005KT 9999 BKN050 04/00 Q1005 BLU;
0124102340999992009122807204+53133+009350FM-15+0061ETGQ V0202001N003110129019N0112651N1+00401+00001999999ADDGA1071+012901999GF107991999999999999999999MA1100511999999REMMET055METAR ETGQ 280720Z 20006KT 9999 BKN043 04/00 Q1005 BLU;
0124102340999992009122808204+53133+009350FM-15+0061ETGQ V0202301N002610135019N0112651N1+00401+00001999999ADDGA1071+013501999GF107991999999999999999999MA1100511999999REMMET055METAR ETGQ 280820Z 23005KT 9999 BKN045 04/00 Q1005 BLU;
0125102340999992009122809204+53133+009350FM-15+0061ETGQ V0202201N002610132019N0112651N1+00401+00001999999ADDGA1071+013201999GF107991999999999999999999MA1100511999999REMMET056METAR ETGQ 280920Z 22005KT 9999 BKN044 04/M00 Q1005 BLU;
0125102340999992009122810204+53133+009350FM-15+0061ETGQ V0200701N002110150019N0112651N1+00401+00001999999ADDGA1071+015001999GF107991999999999999999999MA1100511999999REMMET056METAR ETGQ 281020Z 07004KT 9999 BKN050 04/M00 Q1005 BLU;
0148102340999992009122811204+53133+009350FM-15+0061ETGQ V0202401N001510180019N0112651N1+00501+00001999999ADDGA1041+012001999GA2071+018001999GF107991999999999999999999MA1100511999999REMMET063METAR ETGQ 281120Z 24003KT 9999 SCT040 BKN060 05/M00 Q1005 BLU;
0148102340999992009122812204+53133+009350FM-15+0061ETGQ V0202301N001510180019N0112651N1+00501+00001999999ADDGA1041+012001999GA2071+018001999GF107991999999999999999999MA1100511999999REMMET063METAR ETGQ 281220Z 23003KT 9999 SCT040 BKN060 05/M00 Q1005 BLU;
0160102340999992009122813204+53133+009350FM-15+0061ETGQ V0202001N002610129019N0112651N1+00501+00001999999ADDGA1041+010201999GA2071+012901999GF107991999999999999999999MA1100511999999MW1801REMMET069METAR ETGQ 281320Z 20005KT 9999 -SHRA SCT034 BKN043 05/M00 Q1005 BLU;
0159102340999992009122814204+53133+009350FM-15+0061ETGQ V0202401N002610093019N0112651N1+00401+00001999999ADDGA1021+007801999GA2071+009301999GF107991999999999999999999MA1100611999999MW1161REMMET068METAR ETGQ 281420Z 24005KT 9999 VCSH FEW026 BKN031 04/M00 Q1006 BLU;
0148102340999992009122815204+53133+009350FM-15+0061ETGQ V0209999C000010108019N0112651N1+00401-00101999999ADDGA1021+008101999GA2071+010801999GF107991999999999999999999MA1100611999999REMMET063METAR ETGQ 281520Z 00000KT 9999 FEW027 BKN036 04/M01 Q1006 BLU;
0125102340999992009122816204+53133+009350FM-15+0061ETGQ V0209999C000010090019N0112651N1+00401-00101999999ADDGA1071+009001999GF107991999999999999999999MA1100611999999REMMET056METAR ETGQ 281620Z 00000KT 9999 BKN030 04/M01 Q1006 BLU;
0148102340999992009122817204+53133+009350FM-15+0061ETGQ V0209999C000010096019N0112651N1+00301-00101999999ADDGA1041+007501999GA2071+009601999GF107991999999999999999999MA1100711999999REMMET063METAR ETGQ 281720Z 00000KT 9999 SCT025 BKN032 03/M01 Q1007 BLU;
0148102340999992009122818204+53133+009350FM-15+0061ETGQ V0209999C000010102019N0112651N1+00301-00101999999ADDGA1071+010201999GA2071+015001999GF107991999999999999999999MA1100711999999REMMET063METAR ETGQ 281820Z 00000KT 9999 BKN034 BKN050 03/M01 Q1007 BLU;
0149102340999992009122819204+53133+009350FM-15+0061ETGQ V0209999C000012200019N0112651N1+00201-00101999999ADDGA1021+009301999GA2041+015001999GF104991999999999999999999MA1100711999999REMMET064METAR ETGQ 281920Z 00000KT 9999 FEW031 SCT050 02/M01 Q1007 BLU/;
0126102340999992009122905204+53133+009350FM-15+0061ETGQ V0200901N002112200019N0112651N1+00101-00201999999ADDGA1041+045001999GF104991999999999999999999MA1100411999999REMMET057METAR ETGQ 290520Z 09004KT 9999 SCT150 01/M02 Q1004 BLU/;
0125102340999992009122906204+53133+009350FM-15+0061ETGQ V0201401N001510420019N0112651N1+00101-00201999999ADDGA1071+042001999GF107991999999999999999999MA1100311999999REMMET056METAR ETGQ 290620Z 14003KT 9999 BKN140 01/M02 Q1003 BLU;
0125102340999992009122907204+53133+009350FM-15+0061ETGQ V0201201N001510390019N0112651N1+00201-00201999999ADDGA1071+039001999GF107991999999999999999999MA1100311999999REMMET056METAR ETGQ 290720Z 12003KT 9999 BKN130 02/M02 Q1003 BLU;
0125102340999992009122908204+53133+009350FM-15+0061ETGQ V0201301N002610210019N0112651N1+00201-00201999999ADDGA1071+021001999GF107991999999999999999999MA1100201999999REMMET056METAR ETGQ 290820Z 13005KT 9999 BKN070 02/M02 Q1002 BLU;
0148102340999992009122909204+53133+009350FM-15+0061ETGQ V0201101N002610066019N0112651N1+00201-00201999999ADDGA1071+006601999GA2071+018001999GF107991999999999999999999MA1100201999999REMMET063METAR ETGQ 290920Z 11005KT 9999 BKN022 BKN060 02/M02 Q1002 WHT;
0125102340999992009122910204+53133+009350FM-15+0061ETGQ V0201201N003110060019N0112651N1+00301-00201999999ADDGA1071+006001999GF107991999999999999999999MA1100101999999REMMET056METAR ETGQ 291020Z 12006KT 9999 BKN020 03/M02 Q1001 WHT;
0125102340999992009122911204+53133+009350FM-15+0061ETGQ V0201001N003110054019N0112651N1+00301-00101999999ADDGA1071+005401999GF107991999999999999999999MA1100001999999REMMET056METAR ETGQ 291120Z 10006KT 9999 BKN018 03/M01 Q1000 WHT;
0125102340999992009122912204+53133+009350FM-15+0061ETGQ V0201201N002110057019N0112651N1+00201+00001999999ADDGA1071+005701999GF107991999999999999999999MA1099901999999REMMET056METAR ETGQ 291220Z 12004KT 9999 BKN019 02/M00 Q0999 WHT;
0134102340999992009122913204+53133+009350FM-15+0061ETGQ V0201201N002610051019N0112651N1+00201+00001999999ADDGA1081+005101999GF108991999999999999999999MA1099801999999MW1611REMMET059METAR ETGQ 291320Z 12005KT 9999 -RA OVC017 02/00 Q0998 WHT;
0134102340999992009122914204+53133+009350FM-15+0061ETGQ V0201201N001510045019N0112651N1+00201+00101999999ADDGA1081+004501999GF108991999999999999999999MA1099701999999MW1611REMMET059METAR ETGQ 291420Z 12003KT 9999 -RA OVC015 02/01 Q0997 WHT;
0134102340999992009122915204+53133+009350FM-15+0061ETGQ V0201001N002110045019N0112651N1+00201+00101999999ADDGA1081+004501999GF108991999999999999999999MA1099701999999MW1611REMMET059METAR ETGQ 291520Z 10004KT 9999 -RA OVC015 02/01 Q0997 WHT;
0134102340999992009122916204+53133+009350FM-15+0061ETGQ V0200901N002110039019N0112651N1+00201+00101999999ADDGA1081+003901999GF108991999999999999999999MA1099591999999MW1611REMMET059METAR ETGQ 291620Z 09004KT 9999 -RA OVC013 02/01 Q0996 GRN;
0134102340999992009122917204+53133+009350FM-15+0061ETGQ V0201001N002610039019N0112651N1+00301+00101999999ADDGA1081+003901999GF108991999999999999999999MA1099591999999MW1611REMMET059METAR ETGQ 291720Z 10005KT 9999 -RA OVC013 03/01 Q0996 GRN;
0134102340999992009122918204+53133+009350FM-15+0061ETGQ V0201201N001510039019N0112651N1+00301+00101999999ADDGA1081+003901999GF108991999999999999999999MA1099491999999MW1611REMMET059METAR ETGQ 291820Z 12003KT 9999 -RA OVC013 03/01 Q0995 GRN;
0134102340999992009122919204+53133+009350FM-15+0061ETGQ V0201101N000510027019N0060001N1+00301+00101999999ADDGA1081+002701999GF108991999999999999999999MA1099491999999MW1611REMMET059METAR ETGQ 291920Z 11001KT 6000 -RA OVC009 03/01 Q0995 GRN;
0147102340999992009123005204+53133+009350FM-15+0061ETGQ V0209999C000010150019N0070001N1+00301+00201999999ADDGA1021+003001999GA2071+015001999GF107991999999999999999999MA1099391999999REMMET062METAR ETGQ 300520Z 00000KT 7000 FEW010 BKN050 03/02 Q0994 WHT;
0170102340999992009123006204+53133+009350FM-15+0061ETGQ V0209999V00051015001CN0070001N1+00301+00201999999ADDGA1021+005401999GA2041+015001999GA3071+039001999GF107991999999999999999999MA1099291999999REMMET069METAR ETGQ 300620Z VRB01KT 7000 FEW018 SCT055 BKN130 03/02 Q0993 WHT;
0170102340999992009123007204+53133+009350FM-15+0061ETGQ V0201501N00101010501CN0070001N1+00701+00601999999ADDGA1021+005401999GA2041+010501999GA3071+018001999GF107991999999999999999999MA1099391999999REMMET069METAR ETGQ 300720Z 15002KT 7000 FEW018 SCT035 BKN060 07/06 Q0994 WHT;
0181102340999992009123008204+53133+009350FM-15+0061ETGQ V0209999V00101007501CN0112651N1+00701+00601999999ADDGA1021+003001999GA2041+007501999GA3071+012001999GF107991999999999999999999MA1099291999999MW1161REMMET074METAR ETGQ 300820Z VRB02KT 9999 VCSH FEW010 SCT025 BKN040 07/06 Q0993 BLU;
0147102340999992009123009204+53133+009350FM-15+0061ETGQ V0201501N001510072019N0112651N1+00801+00601999999ADDGA1021+003001999GA2071+007201999GF107991999999999999999999MA1099291999999REMMET062METAR ETGQ 300920Z 15003KT 9999 FEW010 BKN024 08/06 Q0993 WHT;
0193102340999992009123010204+53133+009350FM-15+0061ETGQ V0201401N002110060019N0050001N1+00801+00601999999ADDGA1021+003001999GA2071+006001021GA3081+012001999GF108991999999999999999999MA1099291999999MW1101MW2811REMMET080METAR ETGQ 301020Z 14004KT 5000 SHRA BR FEW010 BKN020TCU OVC040 08/06 Q0993 WHT;
0165102340999992009123011204+53133+009350FM-15+0061ETGQ V0201401N002110075019N0050001N1+00801+00701999999ADDGA1041+003601999GA2081+007501999GF108991999999999999999999MA1099191999999MW1101MW2631REMMET068METAR ETGQ 301120Z 14004KT 5000 RA BR SCT012 OVC025 08/07 Q0992 WHT;
0152102340999992009123012204+53133+009350FM-15+0061ETGQ V0201401N001510120019N0112651N1+00901+00801999999ADDGA1041+007201999GA2071+012001999GF107991999999999999999999MA1099091999999REMMET067METAR ETGQ 301220Z 14003KT 9999 SCT024 BKN040 09/08 Q0991 RERA BLU;
0147102340999992009123014204+53133+009350FM-15+0061ETGQ V0201401N001510117019N0112651N1+00901+00801999999ADDGA1021+006001999GA2071+011701999GF107991999999999999999999MA1099091999999REMMET062METAR ETGQ 301420Z 14003KT 9999 FEW020 BKN039 09/08 Q0991 BLU;
0124102340999992009123016204+53133+009350FM-15+0061ETGQ V0203601N001510144019N0112651N1+01001+00701999999ADDGA1071+014401999GF107991999999999999999999MA1099191999999REMMET055METAR ETGQ 301620Z 36003KT 9999 BKN048 10/07 Q0992 BLU;
0147102340999992009123017204+53133+009350FM-15+0061ETGQ V0209999V001010210019N0112651N1+00901+00701999999ADDGA1041+009001999GA2071+021001999GF107991999999999999999999MA1099191999999REMMET062METAR ETGQ 301720Z VRB02KT 9999 SCT030 BKN070 09/07 Q0992 BLU;
0147102340999992009123019204+53133+009350FM-15+0061ETGQ V0202101N002110180019N0112651N1+00901+00601999999ADDGA1041+012001999GA2071+018001999GF107991999999999999999999MA1099291999999REMMET062METAR ETGQ 301920Z 21004KT 9999 SCT040 BKN060 09/06 Q0993 BLU;
